<?xml version="1.0" encoding="UTF-8"?>
<TrainingCenterDatabase
    xmlns="http://www.garmin.com/xmlschemas/TrainingCenterDatabase/v2"
    xmlns:ns2="http://www.garmin.com/xmlschemas/UserProfile/v2"
    xmlns:ns3="http://www.garmin.com/xmlschemas/ActivityExtension/v2"
    xmlns:ns4="http://www.garmin.com/xmlschemas/ProfileExtension/v1"
    xmlns:ns5="http://www.garmin.com/xmlschemas/ActivityGoals/v1"
    xmlns:xsi="http://www.w3.org/2001/XMLSchema-instance" xsi:schemaLocation="http://www.garmin.com/xmlschemas/TrainingCenterDatabase/v2 http://www.garmin.com/xmlschemas/TrainingCenterDatabasev2.xsd">
    <Activities>
        <Activity Sport="Walking">
            <Id>2019-12-03T11:20:42.057Z</Id>
            <Lap StartTime="2019-12-03T11:20:42.057Z">
                <Track>
                    <Trackpoint>
                        <DistanceMeters>0.0</DistanceMeters>
                        <Time>2019-12-03T11:20:42.057Z</Time>
                    </Trackpoint>
                    <Trackpoint>
                        <DistanceMeters>41.10529327392578</DistanceMeters>
                        <Time>2019-12-03T11:20:46.396Z</Time>
                    </Trackpoint>
                    <Trackpoint>
                        <DistanceMeters>41.10529327392578</DistanceMeters>
                        <Time>2019-12-03T11:22:17.905Z</Time>
                    </Trackpoint>
                    <Trackpoint>
                        <DistanceMeters>112.57556915283203</DistanceMeters>
                        <Time>2019-12-03T11:23:17.379Z</Time>
                    </Trackpoint>
                </Track>
                <DistanceMeters>112.57556915283203</DistanceMeters>
                <TotalTimeSeconds>155.322706407</TotalTimeSeconds>
                <Calories>11.991105079650879</Calories>
                <Intensity>Active</Intensity>
                <TriggerMethod>Manual</TriggerMethod>
            </Lap>
        </Activity>
        <Activity Sport="Walking">
            <Id>2019-12-03T11:22:17.905Z</Id>
            <Lap StartTime="2019-12-03T11:22:17.905Z">
                <Track>
                    <Trackpoint>
                        <DistanceMeters>0.0</DistanceMeters>
                        <Time>2019-12-03T11:22:17.905Z</Time>
                    </Trackpoint>
                    <Trackpoint>
                        <DistanceMeters>71.47027587890625</DistanceMeters>
                        <Time>2019-12-03T11:22:47.247Z</Time>
                    </Trackpoint>
                    <Trackpoint>
                        <DistanceMeters>71.47027587890625</DistanceMeters>
                        <Time>2019-12-03T11:23:17.379Z</Time>
                    </Trackpoint>
                    <Trackpoint>
                        <DistanceMeters>128.03446197509766</DistanceMeters>
                        <Time>2019-12-03T11:24:04.574Z</Time>
                    </Trackpoint>
                    <Trackpoint>
                        <DistanceMeters>160.00524711608887</DistanceMeters>
                        <Time>2019-12-03T11:24:47.137Z</Time>
                    </Trackpoint>
                </Track>
                <DistanceMeters>160.00524711608887</DistanceMeters>
                <TotalTimeSeconds>149.232207205</TotalTimeSeconds>
                <Calories>11.895833969116211</Calories>
                <Intensity>Active</Intensity>
                <TriggerMethod>Manual</TriggerMethod>
            </Lap>
        </Activity>
        <Activity Sport="Walking">
            <Id>2019-12-03T11:37:01.146Z</Id>
            <Lap StartTime="2019-12-03T11:37:01.146Z">
                <Track>
                    <Trackpoint>
                        <DistanceMeters>0.0</DistanceMeters>
                        <Time>2019-12-03T11:37:01.146Z</Time>
                    </Trackpoint>
                    <Trackpoint>
                        <DistanceMeters>7.599524021148682</DistanceMeters>
                        <Time>2019-12-03T11:37:24.122Z</Time>
                    </Trackpoint>
                </Track>
                <DistanceMeters>7.599524021148682</DistanceMeters>
                <TotalTimeSeconds>22.976</TotalTimeSeconds>
                <Calories>2.2797298431396484</Calories>
                <Intensity>Active</Intensity>
                <TriggerMethod>Manual</TriggerMethod>
            </Lap>
        </Activity>
        <Activity Sport="Walking">
            <Id>2019-12-03T11:38:08.371Z</Id>
            <Lap StartTime="2019-12-03T11:38:08.371Z">
                <Track>
                    <Trackpoint>
                        <DistanceMeters>0.0</DistanceMeters>
                        <Time>2019-12-03T11:38:08.371Z</Time>
                    </Trackpoint>
                    <Trackpoint>
                        <DistanceMeters>0.0</DistanceMeters>
                        <Time>2019-12-03T11:39:39.805Z</Time>
                    </Trackpoint>
                    <Trackpoint>
                        <DistanceMeters>22.44466781616211</DistanceMeters>
                        <Time>2019-12-03T11:39:59.030Z</Time>
                    </Trackpoint>
                </Track>
                <DistanceMeters>22.44466781616211</DistanceMeters>
                <TotalTimeSeconds>110.659581045</TotalTimeSeconds>
                <Calories>2.4424230456352234</Calories>
                <Intensity>Active</Intensity>
                <TriggerMethod>Manual</TriggerMethod>
            </Lap>
        </Activity>
        <Activity Sport="Walking">
            <Id>2019-12-03T11:39:39.805Z</Id>
            <Lap StartTime="2019-12-03T11:39:39.805Z">
                <Track>
                    <Trackpoint>
                        <DistanceMeters>0.0</DistanceMeters>
                        <Time>2019-12-03T11:39:39.805Z</Time>
                    </Trackpoint>
                    <Trackpoint>
                        <DistanceMeters>22.44466781616211</DistanceMeters>
                        <Time>2019-12-03T11:39:45.162Z</Time>
                    </Trackpoint>
                    <Trackpoint>
                        <DistanceMeters>22.44466781616211</DistanceMeters>
                        <Time>2019-12-03T11:39:51.732Z</Time>
                        <Position>
                            <LatitudeDegrees>18.4697529</LatitudeDegrees>
                            <LongitudeDegrees>73.8312821</LongitudeDegrees>
                        </Position>
                        <AltitudeMeters>523.2999877929688</AltitudeMeters>
                    </Trackpoint>
                    <Trackpoint>
                        <DistanceMeters>22.44466781616211</DistanceMeters>
                        <Time>2019-12-03T11:40:23.929Z</Time>
                    </Trackpoint>
                </Track>
                <DistanceMeters>22.44466781616211</DistanceMeters>
                <TotalTimeSeconds>44.123100608</TotalTimeSeconds>
                <Calories>3.846547842025757</Calories>
                <Intensity>Active</Intensity>
                <TriggerMethod>Manual</TriggerMethod>
            </Lap>
        </Activity>
        <Activity Sport="Walking">
            <Id>2019-12-03T11:40:23.929Z</Id>
            <Lap StartTime="2019-12-03T11:40:23.929Z">
                <Track>
                    <Trackpoint>
                        <DistanceMeters>0.0</DistanceMeters>
                        <Time>2019-12-03T11:40:23.929Z</Time>
                    </Trackpoint>
                    <Trackpoint>
                        <DistanceMeters>0.0</DistanceMeters>
                        <Time>2019-12-03T11:48:32.764Z</Time>
                    </Trackpoint>
                    <Trackpoint>
                        <DistanceMeters>22.183809280395508</DistanceMeters>
                        <Time>2019-12-03T11:49:40.764Z</Time>
                    </Trackpoint>
                    <Trackpoint>
                        <DistanceMeters>24.152564644813538</DistanceMeters>
                        <Time>2019-12-03T11:49:42.310Z</Time>
                    </Trackpoint>
                </Track>
                <DistanceMeters>24.152564644813538</DistanceMeters>
                <TotalTimeSeconds>558.381</TotalTimeSeconds>
                <Calories>11.79114904999733</Calories>
                <Intensity>Active</Intensity>
                <TriggerMethod>Manual</TriggerMethod>
            </Lap>
        </Activity>
        <Activity Sport="Walking">
            <Id>2019-12-03T11:49:42.310Z</Id>
            <Lap StartTime="2019-12-03T11:49:42.310Z">
                <Track>
                    <Trackpoint>
                        <DistanceMeters>0.0</DistanceMeters>
                        <Time>2019-12-03T11:49:42.310Z</Time>
                    </Trackpoint>
                    <Trackpoint>
                        <DistanceMeters>72.7430419921875</DistanceMeters>
                        <Time>2019-12-03T11:51:08.113Z</Time>
                        <Position>
                            <LatitudeDegrees>18.4696146</LatitudeDegrees>
                            <LongitudeDegrees>73.8306263</LongitudeDegrees>
                        </Position>
                        <AltitudeMeters>591.122314453125</AltitudeMeters>
                    </Trackpoint>
                    <Trackpoint>
                        <DistanceMeters>153.72147369384766</DistanceMeters>
                        <Time>2019-12-03T11:53:07.636Z</Time>
                    </Trackpoint>
                </Track>
                <DistanceMeters>153.72147369384766</DistanceMeters>
                <TotalTimeSeconds>205.326</TotalTimeSeconds>
                <Calories>20.372901916503906</Calories>
                <Intensity>Active</Intensity>
                <TriggerMethod>Manual</TriggerMethod>
            </Lap>
        </Activity>
    </Activities>
    <Author xsi:type="Application_t">
        <Name>Google Fit</Name>
        <Build>
            <Version>
                <VersionMajor>0</VersionMajor>
                <VersionMinor>0</VersionMinor>
                <BuildMajor>0</BuildMajor>
                <BuildMinor>0</BuildMinor>
            </Version>
        </Build>
        <LangID>en</LangID>
        <PartNumber>000-00000-00</PartNumber>
    </Author>
</TrainingCenterDatabase>
