<?xml version="1.0" encoding="UTF-8"?>
<TrainingCenterDatabase
    xmlns="http://www.garmin.com/xmlschemas/TrainingCenterDatabase/v2"
    xmlns:ns2="http://www.garmin.com/xmlschemas/UserProfile/v2"
    xmlns:ns3="http://www.garmin.com/xmlschemas/ActivityExtension/v2"
    xmlns:ns4="http://www.garmin.com/xmlschemas/ProfileExtension/v1"
    xmlns:ns5="http://www.garmin.com/xmlschemas/ActivityGoals/v1"
    xmlns:xsi="http://www.w3.org/2001/XMLSchema-instance" xsi:schemaLocation="http://www.garmin.com/xmlschemas/TrainingCenterDatabase/v2 http://www.garmin.com/xmlschemas/TrainingCenterDatabasev2.xsd">
    <Activities>
        <Activity Sport="Walking">
            <Id>2019-10-04T12:40:31.809Z</Id>
            <Lap StartTime="2019-10-04T12:40:31.809Z">
                <Track>
                    <Trackpoint>
                        <DistanceMeters>0.0</DistanceMeters>
                        <Time>2019-10-04T12:40:31.809Z</Time>
                    </Trackpoint>
                    <Trackpoint>
                        <DistanceMeters>0.0</DistanceMeters>
                        <Time>2019-10-04T12:58:48.324Z</Time>
                    </Trackpoint>
                    <Trackpoint>
                        <DistanceMeters>29.360923767089844</DistanceMeters>
                        <Time>2019-10-04T12:59:30.495Z</Time>
                    </Trackpoint>
                </Track>
                <DistanceMeters>29.360923767089844</DistanceMeters>
                <TotalTimeSeconds>1138.686</TotalTimeSeconds>
                <Calories>27.101325511932373</Calories>
                <Intensity>Active</Intensity>
                <TriggerMethod>Manual</TriggerMethod>
            </Lap>
        </Activity>
        <Activity Sport="Walking">
            <Id>2019-10-04T12:59:30.495Z</Id>
            <Lap StartTime="2019-10-04T12:59:30.495Z">
                <Track>
                    <Trackpoint>
                        <DistanceMeters>0.0</DistanceMeters>
                        <Time>2019-10-04T12:59:30.495Z</Time>
                    </Trackpoint>
                    <Trackpoint>
                        <DistanceMeters>13.701765060424805</DistanceMeters>
                        <Time>2019-10-04T12:59:50.586Z</Time>
                    </Trackpoint>
                    <Trackpoint>
                        <DistanceMeters>93.24629783630371</DistanceMeters>
                        <Time>2019-10-04T13:00:52.313Z</Time>
                    </Trackpoint>
                    <Trackpoint>
                        <DistanceMeters>175.65595054626465</DistanceMeters>
                        <Time>2019-10-04T13:01:34.473Z</Time>
                        <Position>
                            <LatitudeDegrees>18.4548773</LatitudeDegrees>
                            <LongitudeDegrees>73.8347304</LongitudeDegrees>
                        </Position>
                        <AltitudeMeters>0.0</AltitudeMeters>
                    </Trackpoint>
                    <Trackpoint>
                        <DistanceMeters>175.65595054626465</DistanceMeters>
                        <Time>2019-10-04T13:01:52.837Z</Time>
                    </Trackpoint>
                    <Trackpoint>
                        <DistanceMeters>260.63197898864746</DistanceMeters>
                        <Time>2019-10-04T13:02:54.420Z</Time>
                    </Trackpoint>
                    <Trackpoint>
                        <DistanceMeters>343.21105003356934</DistanceMeters>
                        <Time>2019-10-04T13:03:35.583Z</Time>
                        <Position>
                            <LatitudeDegrees>18.4546873</LatitudeDegrees>
                            <LongitudeDegrees>73.834983</LongitudeDegrees>
                        </Position>
                        <AltitudeMeters>0.0</AltitudeMeters>
                    </Trackpoint>
                    <Trackpoint>
                        <DistanceMeters>343.21105003356934</DistanceMeters>
                        <Time>2019-10-04T13:03:54.677Z</Time>
                    </Trackpoint>
                    <Trackpoint>
                        <DistanceMeters>426.14320945739746</DistanceMeters>
                        <Time>2019-10-04T13:04:24.297Z</Time>
                        <Position>
                            <LatitudeDegrees>18.4554958</LatitudeDegrees>
                            <LongitudeDegrees>73.8340142</LongitudeDegrees>
                        </Position>
                        <AltitudeMeters>0.0</AltitudeMeters>
                    </Trackpoint>
                    <Trackpoint>
                        <DistanceMeters>426.14320945739746</DistanceMeters>
                        <Time>2019-10-04T13:04:40.234Z</Time>
                        <Position>
                            <LatitudeDegrees>18.4557472</LatitudeDegrees>
                            <LongitudeDegrees>73.8337597</LongitudeDegrees>
                        </Position>
                        <AltitudeMeters>0.0</AltitudeMeters>
                    </Trackpoint>
                    <Trackpoint>
                        <DistanceMeters>426.14320945739746</DistanceMeters>
                        <Time>2019-10-04T13:04:56.079Z</Time>
                    </Trackpoint>
                    <Trackpoint>
                        <DistanceMeters>508.81117820739746</DistanceMeters>
                        <Time>2019-10-04T13:05:01.385Z</Time>
                        <Position>
                            <LatitudeDegrees>18.4556869</LatitudeDegrees>
                            <LongitudeDegrees>73.8338461</LongitudeDegrees>
                        </Position>
                        <AltitudeMeters>0.0</AltitudeMeters>
                    </Trackpoint>
                    <Trackpoint>
                        <DistanceMeters>508.81117820739746</DistanceMeters>
                        <Time>2019-10-04T13:05:04.055Z</Time>
                        <Position>
                            <LatitudeDegrees>18.4555535</LatitudeDegrees>
                            <LongitudeDegrees>73.8340904</LongitudeDegrees>
                        </Position>
                        <AltitudeMeters>0.0</AltitudeMeters>
                    </Trackpoint>
                    <Trackpoint>
                        <DistanceMeters>508.81117820739746</DistanceMeters>
                        <Time>2019-10-04T13:05:56.198Z</Time>
                    </Trackpoint>
                    <Trackpoint>
                        <DistanceMeters>589.5375118255615</DistanceMeters>
                        <Time>2019-10-04T13:06:57.715Z</Time>
                    </Trackpoint>
                    <Trackpoint>
                        <DistanceMeters>669.5957012176514</DistanceMeters>
                        <Time>2019-10-04T13:07:58.580Z</Time>
                    </Trackpoint>
                    <Trackpoint>
                        <DistanceMeters>750.8558483123779</DistanceMeters>
                        <Time>2019-10-04T13:08:37.993Z</Time>
                        <Position>
                            <LatitudeDegrees>18.4548634</LatitudeDegrees>
                            <LongitudeDegrees>73.8349098</LongitudeDegrees>
                        </Position>
                        <AltitudeMeters>0.0</AltitudeMeters>
                    </Trackpoint>
                    <Trackpoint>
                        <DistanceMeters>750.8558483123779</DistanceMeters>
                        <Time>2019-10-04T13:08:59.223Z</Time>
                    </Trackpoint>
                    <Trackpoint>
                        <DistanceMeters>835.6370906829834</DistanceMeters>
                        <Time>2019-10-04T13:10:01.109Z</Time>
                    </Trackpoint>
                    <Trackpoint>
                        <DistanceMeters>841.5092754364014</DistanceMeters>
                        <Time>2019-10-04T13:10:12.016Z</Time>
                    </Trackpoint>
                </Track>
                <DistanceMeters>841.5092754364014</DistanceMeters>
                <TotalTimeSeconds>641.521</TotalTimeSeconds>
                <Calories>63.65314483642578</Calories>
                <Intensity>Active</Intensity>
                <TriggerMethod>Manual</TriggerMethod>
            </Lap>
        </Activity>
        <Activity Sport="Walking">
            <Id>2019-10-04T13:10:47.084Z</Id>
            <Lap StartTime="2019-10-04T13:10:47.084Z">
                <Track>
                    <Trackpoint>
                        <DistanceMeters>0.0</DistanceMeters>
                        <Time>2019-10-04T13:10:47.084Z</Time>
                    </Trackpoint>
                    <Trackpoint>
                        <DistanceMeters>8.48204517364502</DistanceMeters>
                        <Time>2019-10-04T13:11:02.052Z</Time>
                    </Trackpoint>
                    <Trackpoint>
                        <DistanceMeters>94.12103748321533</DistanceMeters>
                        <Time>2019-10-04T13:11:45.432Z</Time>
                        <Position>
                            <LatitudeDegrees>18.454883</LatitudeDegrees>
                            <LongitudeDegrees>73.8348078</LongitudeDegrees>
                        </Position>
                        <AltitudeMeters>0.0</AltitudeMeters>
                    </Trackpoint>
                    <Trackpoint>
                        <DistanceMeters>94.12103748321533</DistanceMeters>
                        <Time>2019-10-04T13:12:02.624Z</Time>
                    </Trackpoint>
                    <Trackpoint>
                        <DistanceMeters>176.38158130645752</DistanceMeters>
                        <Time>2019-10-04T13:13:03.384Z</Time>
                    </Trackpoint>
                    <Trackpoint>
                        <DistanceMeters>260.0832185745239</DistanceMeters>
                        <Time>2019-10-04T13:14:05.273Z</Time>
                    </Trackpoint>
                    <Trackpoint>
                        <DistanceMeters>311.96416568756104</DistanceMeters>
                        <Time>2019-10-04T13:15:14.743Z</Time>
                    </Trackpoint>
                </Track>
                <DistanceMeters>311.96416568756104</DistanceMeters>
                <TotalTimeSeconds>267.659</TotalTimeSeconds>
                <Calories>26.557720184326172</Calories>
                <Intensity>Active</Intensity>
                <TriggerMethod>Manual</TriggerMethod>
            </Lap>
        </Activity>
        <Activity Sport="Walking">
            <Id>2019-10-04T13:15:14.743Z</Id>
            <Lap StartTime="2019-10-04T13:15:14.743Z">
                <Track>
                    <Trackpoint>
                        <DistanceMeters>0.0</DistanceMeters>
                        <Time>2019-10-04T13:15:14.743Z</Time>
                    </Trackpoint>
                    <Trackpoint>
                        <DistanceMeters>0.0</DistanceMeters>
                        <Time>2019-10-04T13:17:05.072Z</Time>
                    </Trackpoint>
                    <Trackpoint>
                        <DistanceMeters>16.96409034729004</DistanceMeters>
                        <Time>2019-10-04T13:17:23.769Z</Time>
                    </Trackpoint>
                </Track>
                <DistanceMeters>16.96409034729004</DistanceMeters>
                <TotalTimeSeconds>129.026</TotalTimeSeconds>
                <Calories>4.160982251167297</Calories>
                <Intensity>Active</Intensity>
                <TriggerMethod>Manual</TriggerMethod>
            </Lap>
        </Activity>
        <Activity Sport="Walking">
            <Id>2019-10-04T13:17:23.769Z</Id>
            <Lap StartTime="2019-10-04T13:17:23.769Z">
                <Track>
                    <Trackpoint>
                        <DistanceMeters>0.0</DistanceMeters>
                        <Time>2019-10-04T13:17:23.769Z</Time>
                    </Trackpoint>
                    <Trackpoint>
                        <DistanceMeters>39.80036544799805</DistanceMeters>
                        <Time>2019-10-04T13:18:08.351Z</Time>
                    </Trackpoint>
                    <Trackpoint>
                        <DistanceMeters>110.81505966186523</DistanceMeters>
                        <Time>2019-10-04T13:19:08.692Z</Time>
                    </Trackpoint>
                    <Trackpoint>
                        <DistanceMeters>122.55942916870117</DistanceMeters>
                        <Time>2019-10-04T13:19:24.597Z</Time>
                    </Trackpoint>
                </Track>
                <DistanceMeters>122.55942916870117</DistanceMeters>
                <TotalTimeSeconds>120.828</TotalTimeSeconds>
                <Calories>11.988822937011719</Calories>
                <Intensity>Active</Intensity>
                <TriggerMethod>Manual</TriggerMethod>
            </Lap>
        </Activity>
        <Activity Sport="Walking">
            <Id>2019-10-04T13:19:24.597Z</Id>
            <Lap StartTime="2019-10-04T13:19:24.597Z">
                <Track>
                    <Trackpoint>
                        <DistanceMeters>0.0</DistanceMeters>
                        <Time>2019-10-04T13:19:24.597Z</Time>
                    </Trackpoint>
                    <Trackpoint>
                        <DistanceMeters>34.58064270019531</DistanceMeters>
                        <Time>2019-10-04T13:20:10.330Z</Time>
                    </Trackpoint>
                    <Trackpoint>
                        <DistanceMeters>105.1806640625</DistanceMeters>
                        <Time>2019-10-04T13:21:11.482Z</Time>
                    </Trackpoint>
                    <Trackpoint>
                        <DistanceMeters>152.15814208984375</DistanceMeters>
                        <Time>2019-10-04T13:22:12.764Z</Time>
                    </Trackpoint>
                    <Trackpoint>
                        <DistanceMeters>229.97605895996094</DistanceMeters>
                        <Time>2019-10-04T13:23:13.850Z</Time>
                    </Trackpoint>
                    <Trackpoint>
                        <DistanceMeters>298.8853988647461</DistanceMeters>
                        <Time>2019-10-04T13:24:14.376Z</Time>
                    </Trackpoint>
                    <Trackpoint>
                        <DistanceMeters>306.6459584236145</DistanceMeters>
                        <Time>2019-10-04T13:24:20.898Z</Time>
                    </Trackpoint>
                </Track>
                <DistanceMeters>306.6459584236145</DistanceMeters>
                <TotalTimeSeconds>296.301</TotalTimeSeconds>
                <Calories>29.399642944335938</Calories>
                <Intensity>Active</Intensity>
                <TriggerMethod>Manual</TriggerMethod>
            </Lap>
        </Activity>
        <Activity Sport="Walking">
            <Id>2019-10-04T13:24:20.898Z</Id>
            <Lap StartTime="2019-10-04T13:24:20.898Z">
                <Track>
                    <Trackpoint>
                        <DistanceMeters>0.0</DistanceMeters>
                        <Time>2019-10-04T13:24:20.898Z</Time>
                    </Trackpoint>
                    <Trackpoint>
                        <DistanceMeters>50.5660514831543</DistanceMeters>
                        <Time>2019-10-04T13:25:02.107Z</Time>
                    </Trackpoint>
                </Track>
                <DistanceMeters>50.5660514831543</DistanceMeters>
                <TotalTimeSeconds>41.209</TotalTimeSeconds>
                <Calories>4.088848114013672</Calories>
                <Intensity>Active</Intensity>
                <TriggerMethod>Manual</TriggerMethod>
            </Lap>
        </Activity>
        <Activity Sport="Walking">
            <Id>2019-10-04T13:25:02.107Z</Id>
            <Lap StartTime="2019-10-04T13:25:02.107Z">
                <Track>
                    <Trackpoint>
                        <DistanceMeters>0.0</DistanceMeters>
                        <Time>2019-10-04T13:25:02.107Z</Time>
                    </Trackpoint>
                    <Trackpoint>
                        <DistanceMeters>17.92085838317871</DistanceMeters>
                        <Time>2019-10-04T13:25:16.409Z</Time>
                    </Trackpoint>
                    <Trackpoint>
                        <DistanceMeters>88.72097587585449</DistanceMeters>
                        <Time>2019-10-04T13:26:05.997Z</Time>
                        <Position>
                            <LatitudeDegrees>18.4550228</LatitudeDegrees>
                            <LongitudeDegrees>73.8346298</LongitudeDegrees>
                        </Position>
                        <AltitudeMeters>0.0</AltitudeMeters>
                    </Trackpoint>
                    <Trackpoint>
                        <DistanceMeters>88.72097587585449</DistanceMeters>
                        <Time>2019-10-04T13:26:17.166Z</Time>
                    </Trackpoint>
                    <Trackpoint>
                        <DistanceMeters>156.57655906677246</DistanceMeters>
                        <Time>2019-10-04T13:27:17.813Z</Time>
                    </Trackpoint>
                    <Trackpoint>
                        <DistanceMeters>229.03163719177246</DistanceMeters>
                        <Time>2019-10-04T13:28:19.283Z</Time>
                    </Trackpoint>
                    <Trackpoint>
                        <DistanceMeters>306.9718074798584</DistanceMeters>
                        <Time>2019-10-04T13:29:20.158Z</Time>
                    </Trackpoint>
                    <Trackpoint>
                        <DistanceMeters>351.9918918609619</DistanceMeters>
                        <Time>2019-10-04T13:30:17.003Z</Time>
                    </Trackpoint>
                    <Trackpoint>
                        <DistanceMeters>392.1499271392822</DistanceMeters>
                        <Time>2019-10-04T13:30:52.899Z</Time>
                    </Trackpoint>
                </Track>
                <DistanceMeters>392.1499271392822</DistanceMeters>
                <TotalTimeSeconds>350.792</TotalTimeSeconds>
                <Calories>34.80636215209961</Calories>
                <Intensity>Active</Intensity>
                <TriggerMethod>Manual</TriggerMethod>
            </Lap>
        </Activity>
        <Activity Sport="Walking">
            <Id>2019-10-04T13:30:52.899Z</Id>
            <Lap StartTime="2019-10-04T13:30:52.899Z">
                <Track>
                    <Trackpoint>
                        <DistanceMeters>0.0</DistanceMeters>
                        <Time>2019-10-04T13:30:52.899Z</Time>
                    </Trackpoint>
                    <Trackpoint>
                        <DistanceMeters>8.990642547607422</DistanceMeters>
                        <Time>2019-10-04T13:31:00.966Z</Time>
                    </Trackpoint>
                </Track>
                <DistanceMeters>8.990642547607422</DistanceMeters>
                <TotalTimeSeconds>8.067</TotalTimeSeconds>
                <Calories>0.80042564868927</Calories>
                <Intensity>Active</Intensity>
                <TriggerMethod>Manual</TriggerMethod>
            </Lap>
        </Activity>
        <Activity Sport="Walking">
            <Id>2019-10-04T13:31:00.966Z</Id>
            <Lap StartTime="2019-10-04T13:31:00.966Z">
                <Track>
                    <Trackpoint>
                        <DistanceMeters>0.0</DistanceMeters>
                        <Time>2019-10-04T13:31:00.966Z</Time>
                    </Trackpoint>
                    <Trackpoint>
                        <DistanceMeters>23.295501708984375</DistanceMeters>
                        <Time>2019-10-04T13:31:22.529Z</Time>
                    </Trackpoint>
                    <Trackpoint>
                        <DistanceMeters>89.19346618652344</DistanceMeters>
                        <Time>2019-10-04T13:32:11.104Z</Time>
                        <Position>
                            <LatitudeDegrees>18.454883</LatitudeDegrees>
                            <LongitudeDegrees>73.8348078</LongitudeDegrees>
                        </Position>
                        <AltitudeMeters>0.0</AltitudeMeters>
                    </Trackpoint>
                    <Trackpoint>
                        <DistanceMeters>89.19346618652344</DistanceMeters>
                        <Time>2019-10-04T13:32:23.148Z</Time>
                    </Trackpoint>
                    <Trackpoint>
                        <DistanceMeters>164.30484771728516</DistanceMeters>
                        <Time>2019-10-04T13:32:59.796Z</Time>
                        <Position>
                            <LatitudeDegrees>18.4548258</LatitudeDegrees>
                            <LongitudeDegrees>73.834722</LongitudeDegrees>
                        </Position>
                        <AltitudeMeters>0.0</AltitudeMeters>
                    </Trackpoint>
                    <Trackpoint>
                        <DistanceMeters>164.30484771728516</DistanceMeters>
                        <Time>2019-10-04T13:33:23.494Z</Time>
                    </Trackpoint>
                    <Trackpoint>
                        <DistanceMeters>257.0892562866211</DistanceMeters>
                        <Time>2019-10-04T13:34:24.980Z</Time>
                    </Trackpoint>
                    <Trackpoint>
                        <DistanceMeters>366.9179916381836</DistanceMeters>
                        <Time>2019-10-04T13:35:24.430Z</Time>
                    </Trackpoint>
                    <Trackpoint>
                        <DistanceMeters>422.37751388549805</DistanceMeters>
                        <Time>2019-10-04T13:36:03.316Z</Time>
                        <Position>
                            <LatitudeDegrees>18.4549265</LatitudeDegrees>
                            <LongitudeDegrees>73.8347893</LongitudeDegrees>
                        </Position>
                        <AltitudeMeters>0.0</AltitudeMeters>
                    </Trackpoint>
                    <Trackpoint>
                        <DistanceMeters>422.37751388549805</DistanceMeters>
                        <Time>2019-10-04T13:36:26.925Z</Time>
                    </Trackpoint>
                    <Trackpoint>
                        <DistanceMeters>493.6099967956543</DistanceMeters>
                        <Time>2019-10-04T13:37:26.848Z</Time>
                    </Trackpoint>
                    <Trackpoint>
                        <DistanceMeters>567.9273872375488</DistanceMeters>
                        <Time>2019-10-04T13:38:28.647Z</Time>
                    </Trackpoint>
                    <Trackpoint>
                        <DistanceMeters>657.4824104309082</DistanceMeters>
                        <Time>2019-10-04T13:39:22.431Z</Time>
                    </Trackpoint>
                </Track>
                <DistanceMeters>657.4824104309082</DistanceMeters>
                <TotalTimeSeconds>501.465513171</TotalTimeSeconds>
                <Calories>49.75652313232422</Calories>
                <Intensity>Active</Intensity>
                <TriggerMethod>Manual</TriggerMethod>
            </Lap>
        </Activity>
    </Activities>
    <Author xsi:type="Application_t">
        <Name>Google Fit</Name>
        <Build>
            <Version>
                <VersionMajor>0</VersionMajor>
                <VersionMinor>0</VersionMinor>
                <BuildMajor>0</BuildMajor>
                <BuildMinor>0</BuildMinor>
            </Version>
        </Build>
        <LangID>en</LangID>
        <PartNumber>000-00000-00</PartNumber>
    </Author>
</TrainingCenterDatabase>
