<?xml version="1.0" encoding="UTF-8"?>
<TrainingCenterDatabase
    xmlns="http://www.garmin.com/xmlschemas/TrainingCenterDatabase/v2"
    xmlns:ns2="http://www.garmin.com/xmlschemas/UserProfile/v2"
    xmlns:ns3="http://www.garmin.com/xmlschemas/ActivityExtension/v2"
    xmlns:ns4="http://www.garmin.com/xmlschemas/ProfileExtension/v1"
    xmlns:ns5="http://www.garmin.com/xmlschemas/ActivityGoals/v1"
    xmlns:xsi="http://www.w3.org/2001/XMLSchema-instance" xsi:schemaLocation="http://www.garmin.com/xmlschemas/TrainingCenterDatabase/v2 http://www.garmin.com/xmlschemas/TrainingCenterDatabasev2.xsd">
    <Activities>
        <Activity Sport="Walking">
            <Id>2019-11-14T12:56:03.398Z</Id>
            <Lap StartTime="2019-11-14T12:56:03.398Z">
                <Track>
                    <Trackpoint>
                        <DistanceMeters>0.0</DistanceMeters>
                        <Time>2019-11-14T12:56:03.398Z</Time>
                    </Trackpoint>
                    <Trackpoint>
                        <DistanceMeters>88.72014617919922</DistanceMeters>
                        <Time>2019-11-14T12:57:04.305Z</Time>
                    </Trackpoint>
                </Track>
                <DistanceMeters>88.72014617919922</DistanceMeters>
                <TotalTimeSeconds>60.907203198</TotalTimeSeconds>
                <Calories>4.01760721206665</Calories>
                <Intensity>Active</Intensity>
                <TriggerMethod>Manual</TriggerMethod>
            </Lap>
        </Activity>
        <Activity Sport="Walking">
            <Id>2019-11-14T12:56:03.398Z</Id>
            <Lap StartTime="2019-11-14T12:56:03.398Z">
                <Track>
                    <Trackpoint>
                        <DistanceMeters>0.0</DistanceMeters>
                        <Time>2019-11-14T12:56:03.398Z</Time>
                    </Trackpoint>
                    <Trackpoint>
                        <DistanceMeters>88.72014617919922</DistanceMeters>
                        <Time>2019-11-14T12:56:43.889Z</Time>
                    </Trackpoint>
                    <Trackpoint>
                        <DistanceMeters>88.72014617919922</DistanceMeters>
                        <Time>2019-11-14T12:57:04.305Z</Time>
                    </Trackpoint>
                    <Trackpoint>
                        <DistanceMeters>178.43765258789062</DistanceMeters>
                        <Time>2019-11-14T12:58:05.377Z</Time>
                    </Trackpoint>
                    <Trackpoint>
                        <DistanceMeters>267.1156234741211</DistanceMeters>
                        <Time>2019-11-14T12:59:06.345Z</Time>
                    </Trackpoint>
                    <Trackpoint>
                        <DistanceMeters>355.77420806884766</DistanceMeters>
                        <Time>2019-11-14T13:00:07.341Z</Time>
                    </Trackpoint>
                    <Trackpoint>
                        <DistanceMeters>445.6217269897461</DistanceMeters>
                        <Time>2019-11-14T13:01:08.228Z</Time>
                    </Trackpoint>
                    <Trackpoint>
                        <DistanceMeters>536.427375793457</DistanceMeters>
                        <Time>2019-11-14T13:02:09.341Z</Time>
                    </Trackpoint>
                    <Trackpoint>
                        <DistanceMeters>625.0818099975586</DistanceMeters>
                        <Time>2019-11-14T13:03:10.343Z</Time>
                    </Trackpoint>
                    <Trackpoint>
                        <DistanceMeters>701.9045639038086</DistanceMeters>
                        <Time>2019-11-14T13:04:11.342Z</Time>
                    </Trackpoint>
                    <Trackpoint>
                        <DistanceMeters>779.7727813720703</DistanceMeters>
                        <Time>2019-11-14T13:05:12.341Z</Time>
                    </Trackpoint>
                    <Trackpoint>
                        <DistanceMeters>854.5222320556641</DistanceMeters>
                        <Time>2019-11-14T13:06:13.341Z</Time>
                    </Trackpoint>
                    <Trackpoint>
                        <DistanceMeters>930.3050231933594</DistanceMeters>
                        <Time>2019-11-14T13:07:14.341Z</Time>
                    </Trackpoint>
                    <Trackpoint>
                        <DistanceMeters>1006.1744689941406</DistanceMeters>
                        <Time>2019-11-14T13:08:15.186Z</Time>
                    </Trackpoint>
                    <Trackpoint>
                        <DistanceMeters>1082.9082260131836</DistanceMeters>
                        <Time>2019-11-14T13:09:16.342Z</Time>
                    </Trackpoint>
                    <Trackpoint>
                        <DistanceMeters>1157.6571350097656</DistanceMeters>
                        <Time>2019-11-14T13:10:17.343Z</Time>
                    </Trackpoint>
                    <Trackpoint>
                        <DistanceMeters>1234.4798889160156</DistanceMeters>
                        <Time>2019-11-14T13:11:18.342Z</Time>
                    </Trackpoint>
                    <Trackpoint>
                        <DistanceMeters>1314.4572448730469</DistanceMeters>
                        <Time>2019-11-14T13:12:19.341Z</Time>
                    </Trackpoint>
                    <Trackpoint>
                        <DistanceMeters>1394.657241821289</DistanceMeters>
                        <Time>2019-11-14T13:13:19.972Z</Time>
                    </Trackpoint>
                    <Trackpoint>
                        <DistanceMeters>1472.3117065429688</DistanceMeters>
                        <Time>2019-11-14T13:14:21.342Z</Time>
                    </Trackpoint>
                    <Trackpoint>
                        <DistanceMeters>1534.180160522461</DistanceMeters>
                        <Time>2019-11-14T13:15:22.341Z</Time>
                    </Trackpoint>
                    <Trackpoint>
                        <DistanceMeters>1596.1247825622559</DistanceMeters>
                        <Time>2019-11-14T13:16:23.159Z</Time>
                    </Trackpoint>
                </Track>
                <DistanceMeters>1596.1247825622559</DistanceMeters>
                <TotalTimeSeconds>1219.761517671</TotalTimeSeconds>
                <Calories>111.29896545410156</Calories>
                <Intensity>Active</Intensity>
                <TriggerMethod>Manual</TriggerMethod>
            </Lap>
        </Activity>
        <Activity Sport="Walking">
            <Id>2019-11-14T13:15:22.341Z</Id>
            <Lap StartTime="2019-11-14T13:15:22.341Z">
                <Track>
                    <Trackpoint>
                        <DistanceMeters>0.0</DistanceMeters>
                        <Time>2019-11-14T13:15:22.341Z</Time>
                    </Trackpoint>
                    <Trackpoint>
                        <DistanceMeters>61.94462203979492</DistanceMeters>
                        <Time>2019-11-14T13:15:25.603Z</Time>
                    </Trackpoint>
                    <Trackpoint>
                        <DistanceMeters>61.94462203979492</DistanceMeters>
                        <Time>2019-11-14T13:16:23.159Z</Time>
                    </Trackpoint>
                    <Trackpoint>
                        <DistanceMeters>116.09921646118164</DistanceMeters>
                        <Time>2019-11-14T13:17:24.342Z</Time>
                    </Trackpoint>
                    <Trackpoint>
                        <DistanceMeters>181.8220558166504</DistanceMeters>
                        <Time>2019-11-14T13:18:25.341Z</Time>
                    </Trackpoint>
                    <Trackpoint>
                        <DistanceMeters>255.54370498657227</DistanceMeters>
                        <Time>2019-11-14T13:19:26.342Z</Time>
                    </Trackpoint>
                    <Trackpoint>
                        <DistanceMeters>338.9868965148926</DistanceMeters>
                        <Time>2019-11-14T13:20:26.939Z</Time>
                    </Trackpoint>
                    <Trackpoint>
                        <DistanceMeters>393.7939567565918</DistanceMeters>
                        <Time>2019-11-14T13:21:27.947Z</Time>
                    </Trackpoint>
                    <Trackpoint>
                        <DistanceMeters>477.80823135375977</DistanceMeters>
                        <Time>2019-11-14T13:22:29.342Z</Time>
                    </Trackpoint>
                    <Trackpoint>
                        <DistanceMeters>535.9193420410156</DistanceMeters>
                        <Time>2019-11-14T13:23:30.341Z</Time>
                    </Trackpoint>
                    <Trackpoint>
                        <DistanceMeters>606.5956115722656</DistanceMeters>
                        <Time>2019-11-14T13:24:31.342Z</Time>
                    </Trackpoint>
                    <Trackpoint>
                        <DistanceMeters>700.9915161132812</DistanceMeters>
                        <Time>2019-11-14T13:25:32.184Z</Time>
                    </Trackpoint>
                    <Trackpoint>
                        <DistanceMeters>740.0539131164551</DistanceMeters>
                        <Time>2019-11-14T13:26:00.723Z</Time>
                    </Trackpoint>
                </Track>
                <DistanceMeters>740.0539131164551</DistanceMeters>
                <TotalTimeSeconds>638.382084918</TotalTimeSeconds>
                <Calories>63.01802444458008</Calories>
                <Intensity>Active</Intensity>
                <TriggerMethod>Manual</TriggerMethod>
            </Lap>
        </Activity>
    </Activities>
    <Author xsi:type="Application_t">
        <Name>Google Fit</Name>
        <Build>
            <Version>
                <VersionMajor>0</VersionMajor>
                <VersionMinor>0</VersionMinor>
                <BuildMajor>0</BuildMajor>
                <BuildMinor>0</BuildMinor>
            </Version>
        </Build>
        <LangID>en</LangID>
        <PartNumber>000-00000-00</PartNumber>
    </Author>
</TrainingCenterDatabase>
