<?xml version="1.0" encoding="UTF-8"?>
<TrainingCenterDatabase
    xmlns="http://www.garmin.com/xmlschemas/TrainingCenterDatabase/v2"
    xmlns:ns2="http://www.garmin.com/xmlschemas/UserProfile/v2"
    xmlns:ns3="http://www.garmin.com/xmlschemas/ActivityExtension/v2"
    xmlns:ns4="http://www.garmin.com/xmlschemas/ProfileExtension/v1"
    xmlns:ns5="http://www.garmin.com/xmlschemas/ActivityGoals/v1"
    xmlns:xsi="http://www.w3.org/2001/XMLSchema-instance" xsi:schemaLocation="http://www.garmin.com/xmlschemas/TrainingCenterDatabase/v2 http://www.garmin.com/xmlschemas/TrainingCenterDatabasev2.xsd">
    <Activities>
        <Activity Sport="Walking">
            <Id>2019-11-15T13:03:04.591Z</Id>
            <Lap StartTime="2019-11-15T13:03:04.591Z">
                <Track>
                    <Trackpoint>
                        <DistanceMeters>0.0</DistanceMeters>
                        <Time>2019-11-15T13:03:04.591Z</Time>
                    </Trackpoint>
                    <Trackpoint>
                        <DistanceMeters>0.0</DistanceMeters>
                        <Time>2019-11-15T13:25:08.670Z</Time>
                    </Trackpoint>
                    <Trackpoint>
                        <DistanceMeters>49.587337493896484</DistanceMeters>
                        <Time>2019-11-15T13:26:09.279Z</Time>
                    </Trackpoint>
                    <Trackpoint>
                        <DistanceMeters>137.97959518432617</DistanceMeters>
                        <Time>2019-11-15T13:27:10.662Z</Time>
                    </Trackpoint>
                </Track>
                <DistanceMeters>137.97959518432617</DistanceMeters>
                <TotalTimeSeconds>1446.071696418</TotalTimeSeconds>
                <Calories>34.42372179031372</Calories>
                <Intensity>Active</Intensity>
                <TriggerMethod>Manual</TriggerMethod>
            </Lap>
        </Activity>
        <Activity Sport="Walking">
            <Id>2019-11-15T13:26:09.279Z</Id>
            <Lap StartTime="2019-11-15T13:26:09.279Z">
                <Track>
                    <Trackpoint>
                        <DistanceMeters>0.0</DistanceMeters>
                        <Time>2019-11-15T13:26:09.279Z</Time>
                    </Trackpoint>
                    <Trackpoint>
                        <DistanceMeters>88.39225769042969</DistanceMeters>
                        <Time>2019-11-15T13:26:16.706Z</Time>
                    </Trackpoint>
                    <Trackpoint>
                        <DistanceMeters>88.39225769042969</DistanceMeters>
                        <Time>2019-11-15T13:27:10.662Z</Time>
                    </Trackpoint>
                    <Trackpoint>
                        <DistanceMeters>179.27296447753906</DistanceMeters>
                        <Time>2019-11-15T13:28:11.670Z</Time>
                    </Trackpoint>
                    <Trackpoint>
                        <DistanceMeters>267.15743255615234</DistanceMeters>
                        <Time>2019-11-15T13:29:12.182Z</Time>
                    </Trackpoint>
                    <Trackpoint>
                        <DistanceMeters>355.6042022705078</DistanceMeters>
                        <Time>2019-11-15T13:30:13.485Z</Time>
                    </Trackpoint>
                    <Trackpoint>
                        <DistanceMeters>441.9166717529297</DistanceMeters>
                        <Time>2019-11-15T13:31:14.691Z</Time>
                    </Trackpoint>
                    <Trackpoint>
                        <DistanceMeters>527.4101943969727</DistanceMeters>
                        <Time>2019-11-15T13:32:15.482Z</Time>
                    </Trackpoint>
                    <Trackpoint>
                        <DistanceMeters>615.8703689575195</DistanceMeters>
                        <Time>2019-11-15T13:33:16.766Z</Time>
                    </Trackpoint>
                    <Trackpoint>
                        <DistanceMeters>704.8364562988281</DistanceMeters>
                        <Time>2019-11-15T13:34:17.321Z</Time>
                    </Trackpoint>
                    <Trackpoint>
                        <DistanceMeters>786.7444076538086</DistanceMeters>
                        <Time>2019-11-15T13:35:18.647Z</Time>
                    </Trackpoint>
                    <Trackpoint>
                        <DistanceMeters>863.4380493164062</DistanceMeters>
                        <Time>2019-11-15T13:36:19.874Z</Time>
                    </Trackpoint>
                    <Trackpoint>
                        <DistanceMeters>939.1928024291992</DistanceMeters>
                        <Time>2019-11-15T13:37:20.924Z</Time>
                    </Trackpoint>
                    <Trackpoint>
                        <DistanceMeters>1014.1993942260742</DistanceMeters>
                        <Time>2019-11-15T13:38:21.459Z</Time>
                    </Trackpoint>
                    <Trackpoint>
                        <DistanceMeters>1089.183494567871</DistanceMeters>
                        <Time>2019-11-15T13:39:22.033Z</Time>
                    </Trackpoint>
                    <Trackpoint>
                        <DistanceMeters>1164.6097564697266</DistanceMeters>
                        <Time>2019-11-15T13:40:23.678Z</Time>
                    </Trackpoint>
                    <Trackpoint>
                        <DistanceMeters>1240.4637603759766</DistanceMeters>
                        <Time>2019-11-15T13:41:24.551Z</Time>
                    </Trackpoint>
                    <Trackpoint>
                        <DistanceMeters>1316.052879333496</DistanceMeters>
                        <Time>2019-11-15T13:42:25.900Z</Time>
                    </Trackpoint>
                    <Trackpoint>
                        <DistanceMeters>1390.0475692749023</DistanceMeters>
                        <Time>2019-11-15T13:43:26.397Z</Time>
                    </Trackpoint>
                    <Trackpoint>
                        <DistanceMeters>1465.7023544311523</DistanceMeters>
                        <Time>2019-11-15T13:44:27.627Z</Time>
                    </Trackpoint>
                    <Trackpoint>
                        <DistanceMeters>1538.303237915039</DistanceMeters>
                        <Time>2019-11-15T13:45:28.818Z</Time>
                    </Trackpoint>
                    <Trackpoint>
                        <DistanceMeters>1611.9760971069336</DistanceMeters>
                        <Time>2019-11-15T13:46:29.910Z</Time>
                    </Trackpoint>
                    <Trackpoint>
                        <DistanceMeters>1685.2012100219727</DistanceMeters>
                        <Time>2019-11-15T13:47:29.932Z</Time>
                    </Trackpoint>
                    <Trackpoint>
                        <DistanceMeters>1759.7822723388672</DistanceMeters>
                        <Time>2019-11-15T13:48:31.240Z</Time>
                    </Trackpoint>
                    <Trackpoint>
                        <DistanceMeters>1835.2191314697266</DistanceMeters>
                        <Time>2019-11-15T13:49:32.866Z</Time>
                    </Trackpoint>
                    <Trackpoint>
                        <DistanceMeters>1870.4522399902344</DistanceMeters>
                        <Time>2019-11-15T13:50:33.936Z</Time>
                    </Trackpoint>
                </Track>
                <DistanceMeters>1870.4522399902344</DistanceMeters>
                <TotalTimeSeconds>1464.65742312</TotalTimeSeconds>
                <Calories>143.39634704589844</Calories>
                <Intensity>Active</Intensity>
                <TriggerMethod>Manual</TriggerMethod>
            </Lap>
        </Activity>
    </Activities>
    <Author xsi:type="Application_t">
        <Name>Google Fit</Name>
        <Build>
            <Version>
                <VersionMajor>0</VersionMajor>
                <VersionMinor>0</VersionMinor>
                <BuildMajor>0</BuildMajor>
                <BuildMinor>0</BuildMinor>
            </Version>
        </Build>
        <LangID>en</LangID>
        <PartNumber>000-00000-00</PartNumber>
    </Author>
</TrainingCenterDatabase>
