<?xml version="1.0" encoding="UTF-8"?>
<TrainingCenterDatabase
    xmlns="http://www.garmin.com/xmlschemas/TrainingCenterDatabase/v2"
    xmlns:ns2="http://www.garmin.com/xmlschemas/UserProfile/v2"
    xmlns:ns3="http://www.garmin.com/xmlschemas/ActivityExtension/v2"
    xmlns:ns4="http://www.garmin.com/xmlschemas/ProfileExtension/v1"
    xmlns:ns5="http://www.garmin.com/xmlschemas/ActivityGoals/v1"
    xmlns:xsi="http://www.w3.org/2001/XMLSchema-instance" xsi:schemaLocation="http://www.garmin.com/xmlschemas/TrainingCenterDatabase/v2 http://www.garmin.com/xmlschemas/TrainingCenterDatabasev2.xsd">
    <Activities>
        <Activity Sport="Biking">
            <Id>2019-11-12T20:44:50.294Z</Id>
            <Lap StartTime="2019-11-12T20:44:50.294Z">
                <Track>
                    <Trackpoint>
                        <DistanceMeters>0.0</DistanceMeters>
                        <Time>2019-11-12T20:44:50.294Z</Time>
                    </Trackpoint>
                    <Trackpoint>
                        <DistanceMeters>47.09404373168945</DistanceMeters>
                        <Time>2019-11-12T20:45:21.205Z</Time>
                        <Position>
                            <LatitudeDegrees>18.4576112</LatitudeDegrees>
                            <LongitudeDegrees>73.8335577</LongitudeDegrees>
                        </Position>
                        <AltitudeMeters>0.0</AltitudeMeters>
                    </Trackpoint>
                    <Trackpoint>
                        <DistanceMeters>1454.931812286377</DistanceMeters>
                        <Time>2019-11-12T20:50:56.591Z</Time>
                    </Trackpoint>
                </Track>
                <DistanceMeters>1454.931812286377</DistanceMeters>
                <TotalTimeSeconds>366.297</TotalTimeSeconds>
                <Calories>38.257686614990234</Calories>
                <Intensity>Active</Intensity>
                <TriggerMethod>Manual</TriggerMethod>
            </Lap>
        </Activity>
    </Activities>
    <Author xsi:type="Application_t">
        <Name>Google Fit</Name>
        <Build>
            <Version>
                <VersionMajor>0</VersionMajor>
                <VersionMinor>0</VersionMinor>
                <BuildMajor>0</BuildMajor>
                <BuildMinor>0</BuildMinor>
            </Version>
        </Build>
        <LangID>en</LangID>
        <PartNumber>000-00000-00</PartNumber>
    </Author>
</TrainingCenterDatabase>
