<?xml version="1.0" encoding="UTF-8"?>
<TrainingCenterDatabase
    xmlns="http://www.garmin.com/xmlschemas/TrainingCenterDatabase/v2"
    xmlns:ns2="http://www.garmin.com/xmlschemas/UserProfile/v2"
    xmlns:ns3="http://www.garmin.com/xmlschemas/ActivityExtension/v2"
    xmlns:ns4="http://www.garmin.com/xmlschemas/ProfileExtension/v1"
    xmlns:ns5="http://www.garmin.com/xmlschemas/ActivityGoals/v1"
    xmlns:xsi="http://www.w3.org/2001/XMLSchema-instance" xsi:schemaLocation="http://www.garmin.com/xmlschemas/TrainingCenterDatabase/v2 http://www.garmin.com/xmlschemas/TrainingCenterDatabasev2.xsd">
    <Activities>
        <Activity Sport="Walking">
            <Id>2020-11-29T04:13:06.673Z</Id>
            <Lap StartTime="2020-11-29T04:13:06.673Z">
                <Track>
                    <Trackpoint>
                        <DistanceMeters>0.0</DistanceMeters>
                        <Time>2020-11-29T04:13:06.673Z</Time>
                    </Trackpoint>
                    <Trackpoint>
                        <DistanceMeters>0.0</DistanceMeters>
                        <Time>2020-11-29T06:00:21.661Z</Time>
                    </Trackpoint>
                    <Trackpoint>
                        <DistanceMeters>51.540870666503906</DistanceMeters>
                        <Time>2020-11-29T06:01:21.810Z</Time>
                    </Trackpoint>
                </Track>
                <DistanceMeters>51.540870666503906</DistanceMeters>
                <TotalTimeSeconds>6495.137736598</TotalTimeSeconds>
                <Calories>135.2294385433197</Calories>
                <Intensity>Active</Intensity>
                <TriggerMethod>Manual</TriggerMethod>
            </Lap>
        </Activity>
        <Activity Sport="Walking">
            <Id>2020-11-29T06:00:21.661Z</Id>
            <Lap StartTime="2020-11-29T06:00:21.661Z">
                <Track>
                    <Trackpoint>
                        <DistanceMeters>0.0</DistanceMeters>
                        <Time>2020-11-29T06:00:21.661Z</Time>
                    </Trackpoint>
                    <Trackpoint>
                        <DistanceMeters>51.540870666503906</DistanceMeters>
                        <Time>2020-11-29T06:00:34.482Z</Time>
                    </Trackpoint>
                    <Trackpoint>
                        <DistanceMeters>51.540870666503906</DistanceMeters>
                        <Time>2020-11-29T06:01:21.810Z</Time>
                    </Trackpoint>
                    <Trackpoint>
                        <DistanceMeters>96.20962524414062</DistanceMeters>
                        <Time>2020-11-29T06:02:22.027Z</Time>
                    </Trackpoint>
                    <Trackpoint>
                        <DistanceMeters>127.82135963439941</DistanceMeters>
                        <Time>2020-11-29T06:03:22.503Z</Time>
                    </Trackpoint>
                    <Trackpoint>
                        <DistanceMeters>175.92617225646973</DistanceMeters>
                        <Time>2020-11-29T06:04:16.773Z</Time>
                    </Trackpoint>
                    <Trackpoint>
                        <DistanceMeters>181.42386531829834</DistanceMeters>
                        <Time>2020-11-29T06:04:23.935Z</Time>
                    </Trackpoint>
                    <Trackpoint>
                        <DistanceMeters>223.34377574920654</DistanceMeters>
                        <Time>2020-11-29T06:05:39.180Z</Time>
                    </Trackpoint>
                    <Trackpoint>
                        <DistanceMeters>274.88464641571045</DistanceMeters>
                        <Time>2020-11-29T06:06:39.176Z</Time>
                    </Trackpoint>
                    <Trackpoint>
                        <DistanceMeters>280.38233947753906</DistanceMeters>
                        <Time>2020-11-29T06:06:47.849Z</Time>
                    </Trackpoint>
                    <Trackpoint>
                        <DistanceMeters>328.4871520996094</DistanceMeters>
                        <Time>2020-11-29T06:07:48.181Z</Time>
                    </Trackpoint>
                    <Trackpoint>
                        <DistanceMeters>382.08966064453125</DistanceMeters>
                        <Time>2020-11-29T06:08:48.496Z</Time>
                    </Trackpoint>
                    <Trackpoint>
                        <DistanceMeters>443.2414321899414</DistanceMeters>
                        <Time>2020-11-29T06:09:47.220Z</Time>
                    </Trackpoint>
                    <Trackpoint>
                        <DistanceMeters>443.92864382267</DistanceMeters>
                        <Time>2020-11-29T06:09:48.652Z</Time>
                    </Trackpoint>
                    <Trackpoint>
                        <DistanceMeters>492.0334564447403</DistanceMeters>
                        <Time>2020-11-29T06:10:43.381Z</Time>
                    </Trackpoint>
                </Track>
                <DistanceMeters>492.0334564447403</DistanceMeters>
                <TotalTimeSeconds>621.72051774</TotalTimeSeconds>
                <Calories>57.17844009399414</Calories>
                <Intensity>Active</Intensity>
                <TriggerMethod>Manual</TriggerMethod>
            </Lap>
        </Activity>
        <Activity Sport="Walking">
            <Id>2020-11-29T06:09:48.652Z</Id>
            <Lap StartTime="2020-11-29T06:09:48.652Z">
                <Track>
                    <Trackpoint>
                        <DistanceMeters>0.0</DistanceMeters>
                        <Time>2020-11-29T06:09:48.652Z</Time>
                    </Trackpoint>
                    <Trackpoint>
                        <DistanceMeters>48.10481262207031</DistanceMeters>
                        <Time>2020-11-29T06:10:43.123Z</Time>
                    </Trackpoint>
                    <Trackpoint>
                        <DistanceMeters>48.10481262207031</DistanceMeters>
                        <Time>2020-11-29T06:10:43.381Z</Time>
                    </Trackpoint>
                </Track>
                <DistanceMeters>48.10481262207031</DistanceMeters>
                <TotalTimeSeconds>54.729323518</TotalTimeSeconds>
                <Calories>0.024318518117070198</Calories>
                <Intensity>Active</Intensity>
                <TriggerMethod>Manual</TriggerMethod>
            </Lap>
        </Activity>
    </Activities>
    <Author xsi:type="Application_t">
        <Name>Google Fit</Name>
        <Build>
            <Version>
                <VersionMajor>0</VersionMajor>
                <VersionMinor>0</VersionMinor>
                <BuildMajor>0</BuildMajor>
                <BuildMinor>0</BuildMinor>
            </Version>
        </Build>
        <LangID>en</LangID>
        <PartNumber>000-00000-00</PartNumber>
    </Author>
</TrainingCenterDatabase>
