<?xml version="1.0" encoding="UTF-8"?>
<TrainingCenterDatabase
    xmlns="http://www.garmin.com/xmlschemas/TrainingCenterDatabase/v2"
    xmlns:ns2="http://www.garmin.com/xmlschemas/UserProfile/v2"
    xmlns:ns3="http://www.garmin.com/xmlschemas/ActivityExtension/v2"
    xmlns:ns4="http://www.garmin.com/xmlschemas/ProfileExtension/v1"
    xmlns:ns5="http://www.garmin.com/xmlschemas/ActivityGoals/v1"
    xmlns:xsi="http://www.w3.org/2001/XMLSchema-instance" xsi:schemaLocation="http://www.garmin.com/xmlschemas/TrainingCenterDatabase/v2 http://www.garmin.com/xmlschemas/TrainingCenterDatabasev2.xsd">
    <Activities>
        <Activity Sport="Walking">
            <Id>2020-10-11T06:14:28.212Z</Id>
            <Lap StartTime="2020-10-11T06:14:28.212Z">
                <Track>
                    <Trackpoint>
                        <DistanceMeters>0.0</DistanceMeters>
                        <Time>2020-10-11T06:14:28.212Z</Time>
                    </Trackpoint>
                    <Trackpoint>
                        <DistanceMeters>0.0</DistanceMeters>
                        <Time>2020-10-11T06:35:07.167Z</Time>
                    </Trackpoint>
                    <Trackpoint>
                        <DistanceMeters>50.853660583496094</DistanceMeters>
                        <Time>2020-10-11T06:36:07.485Z</Time>
                    </Trackpoint>
                </Track>
                <DistanceMeters>50.853660583496094</DistanceMeters>
                <TotalTimeSeconds>1299.273998267</TotalTimeSeconds>
                <Calories>28.243216514587402</Calories>
                <Intensity>Active</Intensity>
                <TriggerMethod>Manual</TriggerMethod>
            </Lap>
        </Activity>
        <Activity Sport="Walking">
            <Id>2020-10-11T06:35:07.167Z</Id>
            <Lap StartTime="2020-10-11T06:35:07.167Z">
                <Track>
                    <Trackpoint>
                        <DistanceMeters>0.0</DistanceMeters>
                        <Time>2020-10-11T06:35:07.167Z</Time>
                    </Trackpoint>
                    <Trackpoint>
                        <DistanceMeters>50.853660583496094</DistanceMeters>
                        <Time>2020-10-11T06:35:33.128Z</Time>
                    </Trackpoint>
                    <Trackpoint>
                        <DistanceMeters>50.853660583496094</DistanceMeters>
                        <Time>2020-10-11T06:36:07.485Z</Time>
                    </Trackpoint>
                    <Trackpoint>
                        <DistanceMeters>56.35135364532471</DistanceMeters>
                        <Time>2020-10-11T06:37:16.632Z</Time>
                    </Trackpoint>
                    <Trackpoint>
                        <DistanceMeters>83.83981800079346</DistanceMeters>
                        <Time>2020-10-11T06:38:04.572Z</Time>
                    </Trackpoint>
                </Track>
                <DistanceMeters>83.83981800079346</DistanceMeters>
                <TotalTimeSeconds>177.404085147</TotalTimeSeconds>
                <Calories>14.227320671081543</Calories>
                <Intensity>Active</Intensity>
                <TriggerMethod>Manual</TriggerMethod>
            </Lap>
        </Activity>
        <Activity Sport="Walking">
            <Id>2020-10-11T06:51:36.048Z</Id>
            <Lap StartTime="2020-10-11T06:51:36.048Z">
                <Track>
                    <Trackpoint>
                        <DistanceMeters>0.0</DistanceMeters>
                        <Time>2020-10-11T06:51:36.048Z</Time>
                    </Trackpoint>
                    <Trackpoint>
                        <DistanceMeters>17.867502212524414</DistanceMeters>
                        <Time>2020-10-11T06:51:48.171Z</Time>
                    </Trackpoint>
                    <Trackpoint>
                        <DistanceMeters>17.867502212524414</DistanceMeters>
                        <Time>2020-10-11T06:52:41.095Z</Time>
                    </Trackpoint>
                </Track>
                <DistanceMeters>17.867502212524414</DistanceMeters>
                <TotalTimeSeconds>65.046927648</TotalTimeSeconds>
                <Calories>4.971915245056152</Calories>
                <Intensity>Active</Intensity>
                <TriggerMethod>Manual</TriggerMethod>
            </Lap>
        </Activity>
        <Activity Sport="Walking">
            <Id>2020-10-11T06:58:05.490Z</Id>
            <Lap StartTime="2020-10-11T06:58:05.490Z">
                <Track>
                    <Trackpoint>
                        <DistanceMeters>0.0</DistanceMeters>
                        <Time>2020-10-11T06:58:05.490Z</Time>
                    </Trackpoint>
                    <Trackpoint>
                        <DistanceMeters>0.0</DistanceMeters>
                        <Time>2020-10-11T06:58:26.307Z</Time>
                    </Trackpoint>
                    <Trackpoint>
                        <DistanceMeters>41.37929153442383</DistanceMeters>
                        <Time>2020-10-11T06:58:51.242Z</Time>
                    </Trackpoint>
                    <Trackpoint>
                        <DistanceMeters>61.74780464172363</DistanceMeters>
                        <Time>2020-10-11T06:59:06.677Z</Time>
                    </Trackpoint>
                    <Trackpoint>
                        <DistanceMeters>143.49542427062988</DistanceMeters>
                        <Time>2020-10-11T07:00:09.819Z</Time>
                    </Trackpoint>
                    <Trackpoint>
                        <DistanceMeters>151.05475234985352</DistanceMeters>
                        <Time>2020-10-11T07:01:10.064Z</Time>
                    </Trackpoint>
                    <Trackpoint>
                        <DistanceMeters>161.3629264831543</DistanceMeters>
                        <Time>2020-10-11T07:01:28.493Z</Time>
                    </Trackpoint>
                    <Trackpoint>
                        <DistanceMeters>198.82049179077148</DistanceMeters>
                        <Time>2020-10-11T07:01:46.745Z</Time>
                    </Trackpoint>
                    <Trackpoint>
                        <DistanceMeters>237.26765060424805</DistanceMeters>
                        <Time>2020-10-11T07:02:15.946Z</Time>
                    </Trackpoint>
                    <Trackpoint>
                        <DistanceMeters>275.41210556030273</DistanceMeters>
                        <Time>2020-10-11T07:02:40.453Z</Time>
                    </Trackpoint>
                    <Trackpoint>
                        <DistanceMeters>312.39330291748047</DistanceMeters>
                        <Time>2020-10-11T07:03:04.960Z</Time>
                    </Trackpoint>
                    <Trackpoint>
                        <DistanceMeters>329.57359313964844</DistanceMeters>
                        <Time>2020-10-11T07:03:39.154Z</Time>
                    </Trackpoint>
                </Track>
                <DistanceMeters>329.57359313964844</DistanceMeters>
                <TotalTimeSeconds>333.664</TotalTimeSeconds>
                <Calories>31.345874786376953</Calories>
                <Intensity>Active</Intensity>
                <TriggerMethod>Manual</TriggerMethod>
            </Lap>
        </Activity>
    </Activities>
    <Author xsi:type="Application_t">
        <Name>Google Fit</Name>
        <Build>
            <Version>
                <VersionMajor>0</VersionMajor>
                <VersionMinor>0</VersionMinor>
                <BuildMajor>0</BuildMajor>
                <BuildMinor>0</BuildMinor>
            </Version>
        </Build>
        <LangID>en</LangID>
        <PartNumber>000-00000-00</PartNumber>
    </Author>
</TrainingCenterDatabase>
