<?xml version="1.0" encoding="UTF-8"?>
<TrainingCenterDatabase
    xmlns="http://www.garmin.com/xmlschemas/TrainingCenterDatabase/v2"
    xmlns:ns2="http://www.garmin.com/xmlschemas/UserProfile/v2"
    xmlns:ns3="http://www.garmin.com/xmlschemas/ActivityExtension/v2"
    xmlns:ns4="http://www.garmin.com/xmlschemas/ProfileExtension/v1"
    xmlns:ns5="http://www.garmin.com/xmlschemas/ActivityGoals/v1"
    xmlns:xsi="http://www.w3.org/2001/XMLSchema-instance" xsi:schemaLocation="http://www.garmin.com/xmlschemas/TrainingCenterDatabase/v2 http://www.garmin.com/xmlschemas/TrainingCenterDatabasev2.xsd">
    <Activities>
        <Activity Sport="Walking">
            <Id>2020-12-23T07:51:31.288Z</Id>
            <Lap StartTime="2020-12-23T07:51:31.288Z">
                <Track>
                    <Trackpoint>
                        <DistanceMeters>0.0</DistanceMeters>
                        <Time>2020-12-23T07:51:31.288Z</Time>
                    </Trackpoint>
                    <Trackpoint>
                        <DistanceMeters>0.0</DistanceMeters>
                        <Time>2020-12-23T10:02:08.592Z</Time>
                    </Trackpoint>
                    <Trackpoint>
                        <DistanceMeters>87.62703704833984</DistanceMeters>
                        <Time>2020-12-23T10:03:09.386Z</Time>
                    </Trackpoint>
                    <Trackpoint>
                        <DistanceMeters>115.56490898132324</DistanceMeters>
                        <Time>2020-12-23T10:03:28.722Z</Time>
                    </Trackpoint>
                </Track>
                <DistanceMeters>115.56490898132324</DistanceMeters>
                <TotalTimeSeconds>7917.434145234</TotalTimeSeconds>
                <Calories>169.20187616348267</Calories>
                <Intensity>Active</Intensity>
                <TriggerMethod>Manual</TriggerMethod>
            </Lap>
        </Activity>
        <Activity Sport="Walking">
            <Id>2020-12-23T10:03:09.386Z</Id>
            <Lap StartTime="2020-12-23T10:03:09.386Z">
                <Track>
                    <Trackpoint>
                        <DistanceMeters>0.0</DistanceMeters>
                        <Time>2020-12-23T10:03:09.386Z</Time>
                    </Trackpoint>
                    <Trackpoint>
                        <DistanceMeters>27.9378719329834</DistanceMeters>
                        <Time>2020-12-23T10:03:12.141Z</Time>
                    </Trackpoint>
                    <Trackpoint>
                        <DistanceMeters>27.9378719329834</DistanceMeters>
                        <Time>2020-12-23T10:03:28.722Z</Time>
                    </Trackpoint>
                    <Trackpoint>
                        <DistanceMeters>108.97841453552246</DistanceMeters>
                        <Time>2020-12-23T10:04:29.352Z</Time>
                    </Trackpoint>
                    <Trackpoint>
                        <DistanceMeters>154.33438301086426</DistanceMeters>
                        <Time>2020-12-23T10:05:28.308Z</Time>
                    </Trackpoint>
                </Track>
                <DistanceMeters>154.33438301086426</DistanceMeters>
                <TotalTimeSeconds>138.92276624</TotalTimeSeconds>
                <Calories>9.472417831420898</Calories>
                <Intensity>Active</Intensity>
                <TriggerMethod>Manual</TriggerMethod>
            </Lap>
        </Activity>
        <Activity Sport="Walking">
            <Id>2020-12-23T10:04:29.352Z</Id>
            <Lap StartTime="2020-12-23T10:04:29.352Z">
                <Track>
                    <Trackpoint>
                        <DistanceMeters>0.0</DistanceMeters>
                        <Time>2020-12-23T10:04:29.352Z</Time>
                    </Trackpoint>
                    <Trackpoint>
                        <DistanceMeters>45.3559684753418</DistanceMeters>
                        <Time>2020-12-23T10:04:52.971Z</Time>
                    </Trackpoint>
                    <Trackpoint>
                        <DistanceMeters>45.3559684753418</DistanceMeters>
                        <Time>2020-12-23T10:05:28.308Z</Time>
                    </Trackpoint>
                    <Trackpoint>
                        <DistanceMeters>71.37380027770996</DistanceMeters>
                        <Time>2020-12-23T10:05:48.995Z</Time>
                    </Trackpoint>
                </Track>
                <DistanceMeters>71.37380027770996</DistanceMeters>
                <TotalTimeSeconds>79.643122143</TotalTimeSeconds>
                <Calories>5.263203144073486</Calories>
                <Intensity>Active</Intensity>
                <TriggerMethod>Manual</TriggerMethod>
            </Lap>
        </Activity>
        <Activity Sport="Walking">
            <Id>2020-12-23T10:17:52.629Z</Id>
            <Lap StartTime="2020-12-23T10:17:52.629Z">
                <Track>
                    <Trackpoint>
                        <DistanceMeters>0.0</DistanceMeters>
                        <Time>2020-12-23T10:17:52.629Z</Time>
                    </Trackpoint>
                    <Trackpoint>
                        <DistanceMeters>0.0</DistanceMeters>
                        <Time>2020-12-23T10:20:55.816Z</Time>
                    </Trackpoint>
                    <Trackpoint>
                        <DistanceMeters>21.990772247314453</DistanceMeters>
                        <Time>2020-12-23T10:21:21.358Z</Time>
                    </Trackpoint>
                    <Trackpoint>
                        <DistanceMeters>33.54075908660889</DistanceMeters>
                        <Time>2020-12-23T10:21:29.553Z</Time>
                    </Trackpoint>
                    <Trackpoint>
                        <DistanceMeters>131.08110332489014</DistanceMeters>
                        <Time>2020-12-23T10:22:39.328Z</Time>
                    </Trackpoint>
                    <Trackpoint>
                        <DistanceMeters>200.56267833709717</DistanceMeters>
                        <Time>2020-12-23T10:23:44.090Z</Time>
                    </Trackpoint>
                    <Trackpoint>
                        <DistanceMeters>203.31152486801147</DistanceMeters>
                        <Time>2020-12-23T10:26:17.006Z</Time>
                    </Trackpoint>
                    <Trackpoint>
                        <DistanceMeters>220.49181509017944</DistanceMeters>
                        <Time>2020-12-23T10:27:17.006Z</Time>
                    </Trackpoint>
                    <Trackpoint>
                        <DistanceMeters>287.07524251937866</DistanceMeters>
                        <Time>2020-12-23T10:28:10.787Z</Time>
                    </Trackpoint>
                </Track>
                <DistanceMeters>287.07524251937866</DistanceMeters>
                <TotalTimeSeconds>618.158372855</TotalTimeSeconds>
                <Calories>57.9139289855957</Calories>
                <Intensity>Active</Intensity>
                <TriggerMethod>Manual</TriggerMethod>
            </Lap>
        </Activity>
        <Activity Sport="Walking">
            <Id>2020-12-23T10:27:17.006Z</Id>
            <Lap StartTime="2020-12-23T10:27:17.006Z">
                <Track>
                    <Trackpoint>
                        <DistanceMeters>0.0</DistanceMeters>
                        <Time>2020-12-23T10:27:17.006Z</Time>
                    </Trackpoint>
                    <Trackpoint>
                        <DistanceMeters>66.58342742919922</DistanceMeters>
                        <Time>2020-12-23T10:28:09.099Z</Time>
                    </Trackpoint>
                    <Trackpoint>
                        <DistanceMeters>66.58342742919922</DistanceMeters>
                        <Time>2020-12-23T10:28:10.787Z</Time>
                    </Trackpoint>
                </Track>
                <DistanceMeters>66.58342742919922</DistanceMeters>
                <TotalTimeSeconds>53.781192385</TotalTimeSeconds>
                <Calories>0.15861324965953827</Calories>
                <Intensity>Active</Intensity>
                <TriggerMethod>Manual</TriggerMethod>
            </Lap>
        </Activity>
        <Activity Sport="Walking">
            <Id>2020-12-23T10:28:10.787Z</Id>
            <Lap StartTime="2020-12-23T10:28:10.787Z">
                <Track>
                    <Trackpoint>
                        <DistanceMeters>0.0</DistanceMeters>
                        <Time>2020-12-23T10:28:10.787Z</Time>
                    </Trackpoint>
                    <Trackpoint>
                        <DistanceMeters>0.0</DistanceMeters>
                        <Time>2020-12-23T10:41:08.856Z</Time>
                    </Trackpoint>
                    <Trackpoint>
                        <DistanceMeters>2.7488465309143066</DistanceMeters>
                        <Time>2020-12-23T10:41:11.720Z</Time>
                    </Trackpoint>
                    <Trackpoint>
                        <DistanceMeters>55.8963303565979</DistanceMeters>
                        <Time>2020-12-23T10:42:03.673Z</Time>
                    </Trackpoint>
                </Track>
                <DistanceMeters>55.8963303565979</DistanceMeters>
                <TotalTimeSeconds>832.88572157</TotalTimeSeconds>
                <Calories>21.15680980682373</Calories>
                <Intensity>Active</Intensity>
                <TriggerMethod>Manual</TriggerMethod>
            </Lap>
        </Activity>
        <Activity Sport="Walking">
            <Id>2020-12-23T10:41:11.720Z</Id>
            <Lap StartTime="2020-12-23T10:41:11.720Z">
                <Track>
                    <Trackpoint>
                        <DistanceMeters>0.0</DistanceMeters>
                        <Time>2020-12-23T10:41:11.720Z</Time>
                    </Trackpoint>
                    <Trackpoint>
                        <DistanceMeters>53.147483825683594</DistanceMeters>
                        <Time>2020-12-23T10:42:01.564Z</Time>
                    </Trackpoint>
                    <Trackpoint>
                        <DistanceMeters>53.147483825683594</DistanceMeters>
                        <Time>2020-12-23T10:42:03.673Z</Time>
                    </Trackpoint>
                    <Trackpoint>
                        <DistanceMeters>65.5172929763794</DistanceMeters>
                        <Time>2020-12-23T10:42:29.824Z</Time>
                    </Trackpoint>
                    <Trackpoint>
                        <DistanceMeters>183.852032661438</DistanceMeters>
                        <Time>2020-12-23T10:44:01.634Z</Time>
                    </Trackpoint>
                    <Trackpoint>
                        <DistanceMeters>200.34511280059814</DistanceMeters>
                        <Time>2020-12-23T10:44:30.866Z</Time>
                    </Trackpoint>
                    <Trackpoint>
                        <DistanceMeters>205.02867555618286</DistanceMeters>
                        <Time>2020-12-23T10:44:38.646Z</Time>
                    </Trackpoint>
                </Track>
                <DistanceMeters>205.02867555618286</DistanceMeters>
                <TotalTimeSeconds>206.92505524</TotalTimeSeconds>
                <Calories>14.756979942321777</Calories>
                <Intensity>Active</Intensity>
                <TriggerMethod>Manual</TriggerMethod>
            </Lap>
        </Activity>
    </Activities>
    <Author xsi:type="Application_t">
        <Name>Google Fit</Name>
        <Build>
            <Version>
                <VersionMajor>0</VersionMajor>
                <VersionMinor>0</VersionMinor>
                <BuildMajor>0</BuildMajor>
                <BuildMinor>0</BuildMinor>
            </Version>
        </Build>
        <LangID>en</LangID>
        <PartNumber>000-00000-00</PartNumber>
    </Author>
</TrainingCenterDatabase>
