<?xml version="1.0" encoding="UTF-8"?>
<TrainingCenterDatabase
    xmlns="http://www.garmin.com/xmlschemas/TrainingCenterDatabase/v2"
    xmlns:ns2="http://www.garmin.com/xmlschemas/UserProfile/v2"
    xmlns:ns3="http://www.garmin.com/xmlschemas/ActivityExtension/v2"
    xmlns:ns4="http://www.garmin.com/xmlschemas/ProfileExtension/v1"
    xmlns:ns5="http://www.garmin.com/xmlschemas/ActivityGoals/v1"
    xmlns:xsi="http://www.w3.org/2001/XMLSchema-instance" xsi:schemaLocation="http://www.garmin.com/xmlschemas/TrainingCenterDatabase/v2 http://www.garmin.com/xmlschemas/TrainingCenterDatabasev2.xsd">
    <Activities>
        <Activity Sport="Walking">
            <Id>2020-12-21T08:22:17.382Z</Id>
            <Lap StartTime="2020-12-21T08:22:17.382Z">
                <Track>
                    <Trackpoint>
                        <DistanceMeters>0.0</DistanceMeters>
                        <Time>2020-12-21T08:22:17.382Z</Time>
                    </Trackpoint>
                    <Trackpoint>
                        <DistanceMeters>7.684876918792725</DistanceMeters>
                        <Time>2020-12-21T08:22:22.869Z</Time>
                    </Trackpoint>
                    <Trackpoint>
                        <DistanceMeters>98.59773397445679</DistanceMeters>
                        <Time>2020-12-21T08:23:51.826Z</Time>
                    </Trackpoint>
                </Track>
                <DistanceMeters>98.59773397445679</DistanceMeters>
                <TotalTimeSeconds>94.444</TotalTimeSeconds>
                <Calories>8.872488975524902</Calories>
                <Intensity>Active</Intensity>
                <TriggerMethod>Manual</TriggerMethod>
            </Lap>
        </Activity>
        <Activity Sport="Walking">
            <Id>2020-12-21T08:23:51.826Z</Id>
            <Lap StartTime="2020-12-21T08:23:51.826Z">
                <Track>
                    <Trackpoint>
                        <DistanceMeters>0.0</DistanceMeters>
                        <Time>2020-12-21T08:23:51.826Z</Time>
                    </Trackpoint>
                    <Trackpoint>
                        <DistanceMeters>0.0</DistanceMeters>
                        <Time>2020-12-21T08:24:42.575Z</Time>
                    </Trackpoint>
                    <Trackpoint>
                        <DistanceMeters>27.48846435546875</DistanceMeters>
                        <Time>2020-12-21T08:26:02.575Z</Time>
                    </Trackpoint>
                    <Trackpoint>
                        <DistanceMeters>103.617919921875</DistanceMeters>
                        <Time>2020-12-21T08:27:00.425Z</Time>
                    </Trackpoint>
                </Track>
                <DistanceMeters>103.617919921875</DistanceMeters>
                <TotalTimeSeconds>188.599</TotalTimeSeconds>
                <Calories>2.7478345036506653</Calories>
                <Intensity>Active</Intensity>
                <TriggerMethod>Manual</TriggerMethod>
            </Lap>
        </Activity>
        <Activity Sport="Walking">
            <Id>2020-12-21T08:26:02.575Z</Id>
            <Lap StartTime="2020-12-21T08:26:02.575Z">
                <Track>
                    <Trackpoint>
                        <DistanceMeters>0.0</DistanceMeters>
                        <Time>2020-12-21T08:26:02.575Z</Time>
                    </Trackpoint>
                    <Trackpoint>
                        <DistanceMeters>76.12945556640625</DistanceMeters>
                        <Time>2020-12-21T08:26:02.838Z</Time>
                    </Trackpoint>
                    <Trackpoint>
                        <DistanceMeters>76.12945556640625</DistanceMeters>
                        <Time>2020-12-21T08:27:00.425Z</Time>
                    </Trackpoint>
                    <Trackpoint>
                        <DistanceMeters>78.94182395935059</DistanceMeters>
                        <Time>2020-12-21T08:27:03.123Z</Time>
                    </Trackpoint>
                    <Trackpoint>
                        <DistanceMeters>109.17913627624512</DistanceMeters>
                        <Time>2020-12-21T08:28:02.796Z</Time>
                    </Trackpoint>
                    <Trackpoint>
                        <DistanceMeters>172.15767097473145</DistanceMeters>
                        <Time>2020-12-21T08:29:04.219Z</Time>
                    </Trackpoint>
                    <Trackpoint>
                        <DistanceMeters>214.77532768249512</DistanceMeters>
                        <Time>2020-12-21T08:29:35.615Z</Time>
                    </Trackpoint>
                    <Trackpoint>
                        <DistanceMeters>226.4367265701294</DistanceMeters>
                        <Time>2020-12-21T08:30:09.829Z</Time>
                    </Trackpoint>
                </Track>
                <DistanceMeters>226.4367265701294</DistanceMeters>
                <TotalTimeSeconds>247.253266452</TotalTimeSeconds>
                <Calories>23.203432083129883</Calories>
                <Intensity>Active</Intensity>
                <TriggerMethod>Manual</TriggerMethod>
            </Lap>
        </Activity>
        <Activity Sport="Walking">
            <Id>2020-12-21T08:30:09.829Z</Id>
            <Lap StartTime="2020-12-21T08:30:09.829Z">
                <Track>
                    <Trackpoint>
                        <DistanceMeters>0.0</DistanceMeters>
                        <Time>2020-12-21T08:30:09.829Z</Time>
                    </Trackpoint>
                    <Trackpoint>
                        <DistanceMeters>0.0</DistanceMeters>
                        <Time>2020-12-21T08:31:39.890Z</Time>
                    </Trackpoint>
                    <Trackpoint>
                        <DistanceMeters>42.607120513916016</DistanceMeters>
                        <Time>2020-12-21T08:33:43.890Z</Time>
                    </Trackpoint>
                    <Trackpoint>
                        <DistanceMeters>74.2188549041748</DistanceMeters>
                        <Time>2020-12-21T08:34:17.991Z</Time>
                    </Trackpoint>
                </Track>
                <DistanceMeters>74.2188549041748</DistanceMeters>
                <TotalTimeSeconds>248.162</TotalTimeSeconds>
                <Calories>7.2794599533081055</Calories>
                <Intensity>Active</Intensity>
                <TriggerMethod>Manual</TriggerMethod>
            </Lap>
        </Activity>
        <Activity Sport="Walking">
            <Id>2020-12-21T08:33:43.890Z</Id>
            <Lap StartTime="2020-12-21T08:33:43.890Z">
                <Track>
                    <Trackpoint>
                        <DistanceMeters>0.0</DistanceMeters>
                        <Time>2020-12-21T08:33:43.890Z</Time>
                    </Trackpoint>
                    <Trackpoint>
                        <DistanceMeters>31.61173439025879</DistanceMeters>
                        <Time>2020-12-21T08:34:13.920Z</Time>
                    </Trackpoint>
                    <Trackpoint>
                        <DistanceMeters>31.61173439025879</DistanceMeters>
                        <Time>2020-12-21T08:34:17.991Z</Time>
                    </Trackpoint>
                    <Trackpoint>
                        <DistanceMeters>48.16508674621582</DistanceMeters>
                        <Time>2020-12-21T08:34:30.642Z</Time>
                    </Trackpoint>
                    <Trackpoint>
                        <DistanceMeters>88.02336311340332</DistanceMeters>
                        <Time>2020-12-21T08:36:14.726Z</Time>
                    </Trackpoint>
                </Track>
                <DistanceMeters>88.02336311340332</DistanceMeters>
                <TotalTimeSeconds>150.835220972</TotalTimeSeconds>
                <Calories>5.725726127624512</Calories>
                <Intensity>Active</Intensity>
                <TriggerMethod>Manual</TriggerMethod>
            </Lap>
        </Activity>
        <Activity Sport="Walking">
            <Id>2020-12-21T08:35:14.868Z</Id>
            <Lap StartTime="2020-12-21T08:35:14.868Z">
                <Track>
                    <Trackpoint>
                        <DistanceMeters>0.0</DistanceMeters>
                        <Time>2020-12-21T08:35:14.868Z</Time>
                    </Trackpoint>
                    <Trackpoint>
                        <DistanceMeters>0.0</DistanceMeters>
                        <Time>2020-12-21T08:44:44.488Z</Time>
                    </Trackpoint>
                    <Trackpoint>
                        <DistanceMeters>10.308174133300781</DistanceMeters>
                        <Time>2020-12-21T08:45:05.734Z</Time>
                    </Trackpoint>
                    <Trackpoint>
                        <DistanceMeters>94.57939910888672</DistanceMeters>
                        <Time>2020-12-21T08:46:15.986Z</Time>
                    </Trackpoint>
                </Track>
                <DistanceMeters>94.57939910888672</DistanceMeters>
                <TotalTimeSeconds>661.118943084</TotalTimeSeconds>
                <Calories>16.260876417160034</Calories>
                <Intensity>Active</Intensity>
                <TriggerMethod>Manual</TriggerMethod>
            </Lap>
        </Activity>
        <Activity Sport="Walking">
            <Id>2020-12-21T08:45:05.734Z</Id>
            <Lap StartTime="2020-12-21T08:45:05.734Z">
                <Track>
                    <Trackpoint>
                        <DistanceMeters>0.0</DistanceMeters>
                        <Time>2020-12-21T08:45:05.734Z</Time>
                    </Trackpoint>
                    <Trackpoint>
                        <DistanceMeters>84.27122497558594</DistanceMeters>
                        <Time>2020-12-21T08:45:47.829Z</Time>
                    </Trackpoint>
                    <Trackpoint>
                        <DistanceMeters>84.27122497558594</DistanceMeters>
                        <Time>2020-12-21T08:46:15.986Z</Time>
                    </Trackpoint>
                    <Trackpoint>
                        <DistanceMeters>120.15609741210938</DistanceMeters>
                        <Time>2020-12-21T08:46:43.992Z</Time>
                    </Trackpoint>
                    <Trackpoint>
                        <DistanceMeters>132.52590656280518</DistanceMeters>
                        <Time>2020-12-21T08:46:59.796Z</Time>
                    </Trackpoint>
                </Track>
                <DistanceMeters>132.52590656280518</DistanceMeters>
                <TotalTimeSeconds>114.061966</TotalTimeSeconds>
                <Calories>6.577425956726074</Calories>
                <Intensity>Active</Intensity>
                <TriggerMethod>Manual</TriggerMethod>
            </Lap>
        </Activity>
        <Activity Sport="Walking">
            <Id>2020-12-21T08:46:43.992Z</Id>
            <Lap StartTime="2020-12-21T08:46:43.992Z">
                <Track>
                    <Trackpoint>
                        <DistanceMeters>0.0</DistanceMeters>
                        <Time>2020-12-21T08:46:43.992Z</Time>
                    </Trackpoint>
                    <Trackpoint>
                        <DistanceMeters>12.3698091506958</DistanceMeters>
                        <Time>2020-12-21T08:46:57.843Z</Time>
                    </Trackpoint>
                    <Trackpoint>
                        <DistanceMeters>12.3698091506958</DistanceMeters>
                        <Time>2020-12-21T08:46:59.796Z</Time>
                    </Trackpoint>
                </Track>
                <DistanceMeters>12.3698091506958</DistanceMeters>
                <TotalTimeSeconds>15.803062251</TotalTimeSeconds>
                <Calories>0.18347348272800446</Calories>
                <Intensity>Active</Intensity>
                <TriggerMethod>Manual</TriggerMethod>
            </Lap>
        </Activity>
        <Activity Sport="Walking">
            <Id>2020-12-21T08:48:28.097Z</Id>
            <Lap StartTime="2020-12-21T08:48:28.097Z">
                <Track>
                    <Trackpoint>
                        <DistanceMeters>0.0</DistanceMeters>
                        <Time>2020-12-21T08:48:28.097Z</Time>
                    </Trackpoint>
                    <Trackpoint>
                        <DistanceMeters>36.908016204833984</DistanceMeters>
                        <Time>2020-12-21T08:48:30.083Z</Time>
                        <Position>
                            <LatitudeDegrees>19.7309103</LatitudeDegrees>
                            <LongitudeDegrees>75.2937105</LongitudeDegrees>
                        </Position>
                        <AltitudeMeters>418.9661865234375</AltitudeMeters>
                    </Trackpoint>
                    <Trackpoint>
                        <DistanceMeters>36.908016204833984</DistanceMeters>
                        <Time>2020-12-21T08:48:32.074Z</Time>
                        <Position>
                            <LatitudeDegrees>19.7308823</LatitudeDegrees>
                            <LongitudeDegrees>75.2937223</LongitudeDegrees>
                        </Position>
                        <AltitudeMeters>408.56988525390625</AltitudeMeters>
                    </Trackpoint>
                    <Trackpoint>
                        <DistanceMeters>36.908016204833984</DistanceMeters>
                        <Time>2020-12-21T08:48:33.076Z</Time>
                        <Position>
                            <LatitudeDegrees>19.7308615</LatitudeDegrees>
                            <LongitudeDegrees>75.2937358</LongitudeDegrees>
                        </Position>
                        <AltitudeMeters>422.7572021484375</AltitudeMeters>
                    </Trackpoint>
                    <Trackpoint>
                        <DistanceMeters>36.908016204833984</DistanceMeters>
                        <Time>2020-12-21T08:48:34.083Z</Time>
                        <Position>
                            <LatitudeDegrees>19.7308208</LatitudeDegrees>
                            <LongitudeDegrees>75.2937806</LongitudeDegrees>
                        </Position>
                        <AltitudeMeters>414.9541015625</AltitudeMeters>
                    </Trackpoint>
                    <Trackpoint>
                        <DistanceMeters>36.908016204833984</DistanceMeters>
                        <Time>2020-12-21T08:48:35.087Z</Time>
                        <Position>
                            <LatitudeDegrees>19.7308059</LatitudeDegrees>
                            <LongitudeDegrees>75.2938208</LongitudeDegrees>
                        </Position>
                        <AltitudeMeters>423.49951171875</AltitudeMeters>
                    </Trackpoint>
                    <Trackpoint>
                        <DistanceMeters>36.908016204833984</DistanceMeters>
                        <Time>2020-12-21T08:48:36.080Z</Time>
                        <Position>
                            <LatitudeDegrees>19.7308184</LatitudeDegrees>
                            <LongitudeDegrees>75.2938049</LongitudeDegrees>
                        </Position>
                        <AltitudeMeters>439.5238037109375</AltitudeMeters>
                    </Trackpoint>
                    <Trackpoint>
                        <DistanceMeters>36.908016204833984</DistanceMeters>
                        <Time>2020-12-21T08:48:38.080Z</Time>
                        <Position>
                            <LatitudeDegrees>19.7308223</LatitudeDegrees>
                            <LongitudeDegrees>75.2937919</LongitudeDegrees>
                        </Position>
                        <AltitudeMeters>425.3485107421875</AltitudeMeters>
                    </Trackpoint>
                    <Trackpoint>
                        <DistanceMeters>36.908016204833984</DistanceMeters>
                        <Time>2020-12-21T08:48:38.448Z</Time>
                        <Position>
                            <LatitudeDegrees>19.730837</LatitudeDegrees>
                            <LongitudeDegrees>75.2937805</LongitudeDegrees>
                        </Position>
                        <AltitudeMeters>425.3485107421875</AltitudeMeters>
                    </Trackpoint>
                    <Trackpoint>
                        <DistanceMeters>36.908016204833984</DistanceMeters>
                        <Time>2020-12-21T08:48:40.047Z</Time>
                        <Position>
                            <LatitudeDegrees>19.7308586</LatitudeDegrees>
                            <LongitudeDegrees>75.2937613</LongitudeDegrees>
                        </Position>
                        <AltitudeMeters>431.1629638671875</AltitudeMeters>
                    </Trackpoint>
                    <Trackpoint>
                        <DistanceMeters>36.908016204833984</DistanceMeters>
                        <Time>2020-12-21T08:48:41.091Z</Time>
                        <Position>
                            <LatitudeDegrees>19.7308683</LatitudeDegrees>
                            <LongitudeDegrees>75.2937507</LongitudeDegrees>
                        </Position>
                        <AltitudeMeters>426.9833984375</AltitudeMeters>
                    </Trackpoint>
                    <Trackpoint>
                        <DistanceMeters>36.908016204833984</DistanceMeters>
                        <Time>2020-12-21T08:48:42.084Z</Time>
                        <Position>
                            <LatitudeDegrees>19.7308754</LatitudeDegrees>
                            <LongitudeDegrees>75.2937446</LongitudeDegrees>
                        </Position>
                        <AltitudeMeters>423.716064453125</AltitudeMeters>
                    </Trackpoint>
                    <Trackpoint>
                        <DistanceMeters>36.908016204833984</DistanceMeters>
                        <Time>2020-12-21T08:48:43.081Z</Time>
                        <Position>
                            <LatitudeDegrees>19.730883</LatitudeDegrees>
                            <LongitudeDegrees>75.293738</LongitudeDegrees>
                        </Position>
                        <AltitudeMeters>423.09686279296875</AltitudeMeters>
                    </Trackpoint>
                    <Trackpoint>
                        <DistanceMeters>36.908016204833984</DistanceMeters>
                        <Time>2020-12-21T08:48:52.082Z</Time>
                        <Position>
                            <LatitudeDegrees>19.7308954</LatitudeDegrees>
                            <LongitudeDegrees>75.2937333</LongitudeDegrees>
                        </Position>
                        <AltitudeMeters>428.86566162109375</AltitudeMeters>
                    </Trackpoint>
                    <Trackpoint>
                        <DistanceMeters>36.908016204833984</DistanceMeters>
                        <Time>2020-12-21T08:48:54.081Z</Time>
                        <Position>
                            <LatitudeDegrees>19.7309077</LatitudeDegrees>
                            <LongitudeDegrees>75.2937311</LongitudeDegrees>
                        </Position>
                        <AltitudeMeters>435.4296875</AltitudeMeters>
                    </Trackpoint>
                    <Trackpoint>
                        <DistanceMeters>36.908016204833984</DistanceMeters>
                        <Time>2020-12-21T08:48:56.078Z</Time>
                        <Position>
                            <LatitudeDegrees>19.7309186</LatitudeDegrees>
                            <LongitudeDegrees>75.2937279</LongitudeDegrees>
                        </Position>
                        <AltitudeMeters>435.532470703125</AltitudeMeters>
                    </Trackpoint>
                    <Trackpoint>
                        <DistanceMeters>36.908016204833984</DistanceMeters>
                        <Time>2020-12-21T08:48:58.847Z</Time>
                        <Position>
                            <LatitudeDegrees>19.7309289</LatitudeDegrees>
                            <LongitudeDegrees>75.2937227</LongitudeDegrees>
                        </Position>
                        <AltitudeMeters>435.7247314453125</AltitudeMeters>
                    </Trackpoint>
                    <Trackpoint>
                        <DistanceMeters>43.32524394989014</DistanceMeters>
                        <Time>2020-12-21T08:49:01.706Z</Time>
                        <Position>
                            <LatitudeDegrees>19.7309385</LatitudeDegrees>
                            <LongitudeDegrees>75.2937191</LongitudeDegrees>
                        </Position>
                        <AltitudeMeters>436.07470703125</AltitudeMeters>
                    </Trackpoint>
                    <Trackpoint>
                        <DistanceMeters>43.32524394989014</DistanceMeters>
                        <Time>2020-12-21T08:49:04.425Z</Time>
                    </Trackpoint>
                </Track>
                <DistanceMeters>43.32524394989014</DistanceMeters>
                <TotalTimeSeconds>36.328</TotalTimeSeconds>
                <Calories>3.412813663482666</Calories>
                <Intensity>Active</Intensity>
                <TriggerMethod>Manual</TriggerMethod>
            </Lap>
        </Activity>
        <Activity Sport="Walking">
            <Id>2020-12-21T08:51:17.312Z</Id>
            <Lap StartTime="2020-12-21T08:51:17.312Z">
                <Track>
                    <Trackpoint>
                        <DistanceMeters>0.0</DistanceMeters>
                        <Time>2020-12-21T08:51:17.312Z</Time>
                    </Trackpoint>
                    <Trackpoint>
                        <DistanceMeters>0.0</DistanceMeters>
                        <Time>2020-12-21T08:51:18.811Z</Time>
                    </Trackpoint>
                    <Trackpoint>
                        <DistanceMeters>67.72122192382812</DistanceMeters>
                        <Time>2020-12-21T08:52:20.769Z</Time>
                    </Trackpoint>
                    <Trackpoint>
                        <DistanceMeters>137.20003509521484</DistanceMeters>
                        <Time>2020-12-21T08:53:09.664Z</Time>
                    </Trackpoint>
                    <Trackpoint>
                        <DistanceMeters>186.80101776123047</DistanceMeters>
                        <Time>2020-12-21T08:53:51.653Z</Time>
                    </Trackpoint>
                    <Trackpoint>
                        <DistanceMeters>201.2324619293213</DistanceMeters>
                        <Time>2020-12-21T08:54:50.187Z</Time>
                    </Trackpoint>
                    <Trackpoint>
                        <DistanceMeters>217.72554206848145</DistanceMeters>
                        <Time>2020-12-21T08:55:50.187Z</Time>
                    </Trackpoint>
                </Track>
                <DistanceMeters>217.72554206848145</DistanceMeters>
                <TotalTimeSeconds>272.875695174</TotalTimeSeconds>
                <Calories>25.50600814819336</Calories>
                <Intensity>Active</Intensity>
                <TriggerMethod>Manual</TriggerMethod>
            </Lap>
        </Activity>
        <Activity Sport="Walking">
            <Id>2020-12-21T08:55:48.813Z</Id>
            <Lap StartTime="2020-12-21T08:55:48.813Z">
                <Track>
                    <Trackpoint>
                        <DistanceMeters>0.0</DistanceMeters>
                        <Time>2020-12-21T08:55:48.813Z</Time>
                    </Trackpoint>
                    <Trackpoint>
                        <DistanceMeters>0.0</DistanceMeters>
                        <Time>2020-12-21T09:03:08.146Z</Time>
                    </Trackpoint>
                    <Trackpoint>
                        <DistanceMeters>21.3922119140625</DistanceMeters>
                        <Time>2020-12-21T09:03:23.709Z</Time>
                    </Trackpoint>
                    <Trackpoint>
                        <DistanceMeters>70.8714485168457</DistanceMeters>
                        <Time>2020-12-21T09:04:16.010Z</Time>
                    </Trackpoint>
                </Track>
                <DistanceMeters>70.8714485168457</DistanceMeters>
                <TotalTimeSeconds>507.197433594</TotalTimeSeconds>
                <Calories>10.651327729225159</Calories>
                <Intensity>Active</Intensity>
                <TriggerMethod>Manual</TriggerMethod>
            </Lap>
        </Activity>
        <Activity Sport="Walking">
            <Id>2020-12-21T09:03:23.709Z</Id>
            <Lap StartTime="2020-12-21T09:03:23.709Z">
                <Track>
                    <Trackpoint>
                        <DistanceMeters>0.0</DistanceMeters>
                        <Time>2020-12-21T09:03:23.709Z</Time>
                    </Trackpoint>
                    <Trackpoint>
                        <DistanceMeters>49.4792366027832</DistanceMeters>
                        <Time>2020-12-21T09:03:24.125Z</Time>
                    </Trackpoint>
                    <Trackpoint>
                        <DistanceMeters>49.4792366027832</DistanceMeters>
                        <Time>2020-12-21T09:04:25.854Z</Time>
                    </Trackpoint>
                </Track>
                <DistanceMeters>49.4792366027832</DistanceMeters>
                <TotalTimeSeconds>62.145</TotalTimeSeconds>
                <Calories>5.799096584320068</Calories>
                <Intensity>Active</Intensity>
                <TriggerMethod>Manual</TriggerMethod>
            </Lap>
        </Activity>
        <Activity Sport="Walking">
            <Id>2020-12-21T09:04:25.854Z</Id>
            <Lap StartTime="2020-12-21T09:04:25.854Z">
                <Track>
                    <Trackpoint>
                        <DistanceMeters>0.0</DistanceMeters>
                        <Time>2020-12-21T09:04:25.854Z</Time>
                    </Trackpoint>
                    <Trackpoint>
                        <DistanceMeters>0.0</DistanceMeters>
                        <Time>2020-12-21T09:06:09.758Z</Time>
                    </Trackpoint>
                    <Trackpoint>
                        <DistanceMeters>56.29877853393555</DistanceMeters>
                        <Time>2020-12-21T09:06:59.135Z</Time>
                    </Trackpoint>
                </Track>
                <DistanceMeters>56.29877853393555</DistanceMeters>
                <TotalTimeSeconds>153.281</TotalTimeSeconds>
                <Calories>4.733712673187256</Calories>
                <Intensity>Active</Intensity>
                <TriggerMethod>Manual</TriggerMethod>
            </Lap>
        </Activity>
        <Activity Sport="Walking">
            <Id>2020-12-21T09:06:09.758Z</Id>
            <Lap StartTime="2020-12-21T09:06:09.758Z">
                <Track>
                    <Trackpoint>
                        <DistanceMeters>0.0</DistanceMeters>
                        <Time>2020-12-21T09:06:09.758Z</Time>
                    </Trackpoint>
                    <Trackpoint>
                        <DistanceMeters>56.29877853393555</DistanceMeters>
                        <Time>2020-12-21T09:06:37.111Z</Time>
                    </Trackpoint>
                    <Trackpoint>
                        <DistanceMeters>56.29877853393555</DistanceMeters>
                        <Time>2020-12-21T09:06:59.135Z</Time>
                    </Trackpoint>
                    <Trackpoint>
                        <DistanceMeters>58.541794776916504</DistanceMeters>
                        <Time>2020-12-21T09:07:00.885Z</Time>
                    </Trackpoint>
                    <Trackpoint>
                        <DistanceMeters>134.32960605621338</DistanceMeters>
                        <Time>2020-12-21T09:08:03.211Z</Time>
                    </Trackpoint>
                    <Trackpoint>
                        <DistanceMeters>148.18202781677246</DistanceMeters>
                        <Time>2020-12-21T09:08:14.957Z</Time>
                    </Trackpoint>
                </Track>
                <DistanceMeters>148.18202781677246</DistanceMeters>
                <TotalTimeSeconds>125.198797572</TotalTimeSeconds>
                <Calories>8.835099220275879</Calories>
                <Intensity>Active</Intensity>
                <TriggerMethod>Manual</TriggerMethod>
            </Lap>
        </Activity>
        <Activity Sport="Walking">
            <Id>2020-12-21T09:08:03.211Z</Id>
            <Lap StartTime="2020-12-21T09:08:03.211Z">
                <Track>
                    <Trackpoint>
                        <DistanceMeters>0.0</DistanceMeters>
                        <Time>2020-12-21T09:08:03.211Z</Time>
                    </Trackpoint>
                    <Trackpoint>
                        <DistanceMeters>13.852421760559082</DistanceMeters>
                        <Time>2020-12-21T09:08:11.157Z</Time>
                    </Trackpoint>
                    <Trackpoint>
                        <DistanceMeters>13.852421760559082</DistanceMeters>
                        <Time>2020-12-21T09:08:14.957Z</Time>
                    </Trackpoint>
                </Track>
                <DistanceMeters>13.852421760559082</DistanceMeters>
                <TotalTimeSeconds>11.745698517</TotalTimeSeconds>
                <Calories>0.3569888472557068</Calories>
                <Intensity>Active</Intensity>
                <TriggerMethod>Manual</TriggerMethod>
            </Lap>
        </Activity>
        <Activity Sport="Walking">
            <Id>2020-12-21T09:16:46.949Z</Id>
            <Lap StartTime="2020-12-21T09:16:46.949Z">
                <Track>
                    <Trackpoint>
                        <DistanceMeters>0.0</DistanceMeters>
                        <Time>2020-12-21T09:16:46.949Z</Time>
                    </Trackpoint>
                    <Trackpoint>
                        <DistanceMeters>12.3698091506958</DistanceMeters>
                        <Time>2020-12-21T09:16:52.247Z</Time>
                    </Trackpoint>
                    <Trackpoint>
                        <DistanceMeters>12.3698091506958</DistanceMeters>
                        <Time>2020-12-21T09:17:50.265Z</Time>
                    </Trackpoint>
                </Track>
                <DistanceMeters>12.3698091506958</DistanceMeters>
                <TotalTimeSeconds>63.316</TotalTimeSeconds>
                <Calories>5.45046854019165</Calories>
                <Intensity>Active</Intensity>
                <TriggerMethod>Manual</TriggerMethod>
            </Lap>
        </Activity>
        <Activity Sport="Walking">
            <Id>2020-12-21T09:28:23.626Z</Id>
            <Lap StartTime="2020-12-21T09:28:23.626Z">
                <Track>
                    <Trackpoint>
                        <DistanceMeters>0.0</DistanceMeters>
                        <Time>2020-12-21T09:28:23.626Z</Time>
                    </Trackpoint>
                    <Trackpoint>
                        <DistanceMeters>25.318294525146484</DistanceMeters>
                        <Time>2020-12-21T09:28:47.892Z</Time>
                    </Trackpoint>
                </Track>
                <DistanceMeters>25.318294525146484</DistanceMeters>
                <TotalTimeSeconds>24.266</TotalTimeSeconds>
                <Calories>0.2603200674057007</Calories>
                <Intensity>Active</Intensity>
                <TriggerMethod>Manual</TriggerMethod>
            </Lap>
        </Activity>
        <Activity Sport="Walking">
            <Id>2020-12-21T09:28:23.626Z</Id>
            <Lap StartTime="2020-12-21T09:28:23.626Z">
                <Track>
                    <Trackpoint>
                        <DistanceMeters>0.0</DistanceMeters>
                        <Time>2020-12-21T09:28:23.626Z</Time>
                    </Trackpoint>
                    <Trackpoint>
                        <DistanceMeters>25.318294525146484</DistanceMeters>
                        <Time>2020-12-21T09:28:26.397Z</Time>
                    </Trackpoint>
                    <Trackpoint>
                        <DistanceMeters>25.318294525146484</DistanceMeters>
                        <Time>2020-12-21T09:28:47.892Z</Time>
                    </Trackpoint>
                    <Trackpoint>
                        <DistanceMeters>92.51003646850586</DistanceMeters>
                        <Time>2020-12-21T09:29:53.375Z</Time>
                    </Trackpoint>
                </Track>
                <DistanceMeters>92.51003646850586</DistanceMeters>
                <TotalTimeSeconds>89.749</TotalTimeSeconds>
                <Calories>6.28648042678833</Calories>
                <Intensity>Active</Intensity>
                <TriggerMethod>Manual</TriggerMethod>
            </Lap>
        </Activity>
        <Activity Sport="Walking">
            <Id>2020-12-21T09:28:47.892Z</Id>
            <Lap StartTime="2020-12-21T09:28:47.892Z">
                <Track>
                    <Trackpoint>
                        <DistanceMeters>0.0</DistanceMeters>
                        <Time>2020-12-21T09:28:47.892Z</Time>
                    </Trackpoint>
                    <Trackpoint>
                        <DistanceMeters>67.19174194335938</DistanceMeters>
                        <Time>2020-12-21T09:29:33.314Z</Time>
                    </Trackpoint>
                    <Trackpoint>
                        <DistanceMeters>67.19174194335938</DistanceMeters>
                        <Time>2020-12-21T09:29:42.137Z</Time>
                        <Position>
                            <LatitudeDegrees>19.7311982</LatitudeDegrees>
                            <LongitudeDegrees>75.2937478</LongitudeDegrees>
                        </Position>
                        <AltitudeMeters>429.288818359375</AltitudeMeters>
                    </Trackpoint>
                    <Trackpoint>
                        <DistanceMeters>67.19174194335938</DistanceMeters>
                        <Time>2020-12-21T09:29:53.375Z</Time>
                    </Trackpoint>
                    <Trackpoint>
                        <DistanceMeters>95.0803451538086</DistanceMeters>
                        <Time>2020-12-21T09:30:14.568Z</Time>
                    </Trackpoint>
                </Track>
                <DistanceMeters>95.0803451538086</DistanceMeters>
                <TotalTimeSeconds>86.676</TotalTimeSeconds>
                <Calories>3.875584125518799</Calories>
                <Intensity>Active</Intensity>
                <TriggerMethod>Manual</TriggerMethod>
            </Lap>
        </Activity>
        <Activity Sport="Walking">
            <Id>2020-12-21T09:34:12.771Z</Id>
            <Lap StartTime="2020-12-21T09:34:12.771Z">
                <Track>
                    <Trackpoint>
                        <DistanceMeters>0.0</DistanceMeters>
                        <Time>2020-12-21T09:34:12.771Z</Time>
                    </Trackpoint>
                    <Trackpoint>
                        <DistanceMeters>51.540870666503906</DistanceMeters>
                        <Time>2020-12-21T09:36:21.354Z</Time>
                    </Trackpoint>
                    <Trackpoint>
                        <DistanceMeters>51.540870666503906</DistanceMeters>
                        <Time>2020-12-21T09:36:42.772Z</Time>
                    </Trackpoint>
                    <Trackpoint>
                        <DistanceMeters>72.15721893310547</DistanceMeters>
                        <Time>2020-12-21T09:37:12.479Z</Time>
                    </Trackpoint>
                    <Trackpoint>
                        <DistanceMeters>163.4466552734375</DistanceMeters>
                        <Time>2020-12-21T09:38:16.288Z</Time>
                    </Trackpoint>
                    <Trackpoint>
                        <DistanceMeters>193.7539520263672</DistanceMeters>
                        <Time>2020-12-21T09:38:35.542Z</Time>
                    </Trackpoint>
                    <Trackpoint>
                        <DistanceMeters>212.65282440185547</DistanceMeters>
                        <Time>2020-12-21T09:38:48.035Z</Time>
                    </Trackpoint>
                    <Trackpoint>
                        <DistanceMeters>242.1458969116211</DistanceMeters>
                        <Time>2020-12-21T09:39:52.955Z</Time>
                    </Trackpoint>
                </Track>
                <DistanceMeters>242.1458969116211</DistanceMeters>
                <TotalTimeSeconds>340.183009216</TotalTimeSeconds>
                <Calories>19.87873649597168</Calories>
                <Intensity>Active</Intensity>
                <TriggerMethod>Manual</TriggerMethod>
            </Lap>
        </Activity>
        <Activity Sport="Walking">
            <Id>2020-12-21T09:43:57.378Z</Id>
            <Lap StartTime="2020-12-21T09:43:57.378Z">
                <Track>
                    <Trackpoint>
                        <DistanceMeters>0.0</DistanceMeters>
                        <Time>2020-12-21T09:43:57.378Z</Time>
                    </Trackpoint>
                    <Trackpoint>
                        <DistanceMeters>37.34858703613281</DistanceMeters>
                        <Time>2020-12-21T09:44:24.754Z</Time>
                    </Trackpoint>
                </Track>
                <DistanceMeters>37.34858703613281</DistanceMeters>
                <TotalTimeSeconds>27.376</TotalTimeSeconds>
                <Calories>0.5736247301101685</Calories>
                <Intensity>Active</Intensity>
                <TriggerMethod>Manual</TriggerMethod>
            </Lap>
        </Activity>
        <Activity Sport="Walking">
            <Id>2020-12-21T09:43:57.378Z</Id>
            <Lap StartTime="2020-12-21T09:43:57.378Z">
                <Track>
                    <Trackpoint>
                        <DistanceMeters>0.0</DistanceMeters>
                        <Time>2020-12-21T09:43:57.378Z</Time>
                    </Trackpoint>
                    <Trackpoint>
                        <DistanceMeters>37.34858703613281</DistanceMeters>
                        <Time>2020-12-21T09:44:03.484Z</Time>
                    </Trackpoint>
                    <Trackpoint>
                        <DistanceMeters>37.34858703613281</DistanceMeters>
                        <Time>2020-12-21T09:44:03.695Z</Time>
                        <Position>
                            <LatitudeDegrees>19.7344189</LatitudeDegrees>
                            <LongitudeDegrees>75.2932114</LongitudeDegrees>
                        </Position>
                        <AltitudeMeters>439.6000061035156</AltitudeMeters>
                    </Trackpoint>
                    <Trackpoint>
                        <DistanceMeters>37.34858703613281</DistanceMeters>
                        <Time>2020-12-21T09:44:33.703Z</Time>
                    </Trackpoint>
                </Track>
                <DistanceMeters>37.34858703613281</DistanceMeters>
                <TotalTimeSeconds>36.325</TotalTimeSeconds>
                <Calories>2.83890700340271</Calories>
                <Intensity>Active</Intensity>
                <TriggerMethod>Manual</TriggerMethod>
            </Lap>
        </Activity>
        <Activity Sport="Walking">
            <Id>2020-12-21T09:49:40.258Z</Id>
            <Lap StartTime="2020-12-21T09:49:40.258Z">
                <Track>
                    <Trackpoint>
                        <DistanceMeters>0.0</DistanceMeters>
                        <Time>2020-12-21T09:49:40.258Z</Time>
                    </Trackpoint>
                    <Trackpoint>
                        <DistanceMeters>39.17106246948242</DistanceMeters>
                        <Time>2020-12-21T09:50:23.869Z</Time>
                    </Trackpoint>
                    <Trackpoint>
                        <DistanceMeters>39.17106246948242</DistanceMeters>
                        <Time>2020-12-21T09:51:18.442Z</Time>
                    </Trackpoint>
                    <Trackpoint>
                        <DistanceMeters>44.986939907073975</DistanceMeters>
                        <Time>2020-12-21T09:51:23.421Z</Time>
                    </Trackpoint>
                    <Trackpoint>
                        <DistanceMeters>123.71940755844116</DistanceMeters>
                        <Time>2020-12-21T09:52:28.165Z</Time>
                    </Trackpoint>
                    <Trackpoint>
                        <DistanceMeters>130.9316282272339</DistanceMeters>
                        <Time>2020-12-21T09:52:32.680Z</Time>
                    </Trackpoint>
                    <Trackpoint>
                        <DistanceMeters>223.3007459640503</DistanceMeters>
                        <Time>2020-12-21T09:53:34.889Z</Time>
                    </Trackpoint>
                    <Trackpoint>
                        <DistanceMeters>254.5145444869995</DistanceMeters>
                        <Time>2020-12-21T09:53:56.119Z</Time>
                    </Trackpoint>
                    <Trackpoint>
                        <DistanceMeters>286.9273519515991</DistanceMeters>
                        <Time>2020-12-21T09:54:18.953Z</Time>
                    </Trackpoint>
                    <Trackpoint>
                        <DistanceMeters>313.72860622406006</DistanceMeters>
                        <Time>2020-12-21T09:54:47.514Z</Time>
                    </Trackpoint>
                </Track>
                <DistanceMeters>313.72860622406006</DistanceMeters>
                <TotalTimeSeconds>307.256</TotalTimeSeconds>
                <Calories>23.279434204101562</Calories>
                <Intensity>Active</Intensity>
                <TriggerMethod>Manual</TriggerMethod>
            </Lap>
        </Activity>
        <Activity Sport="Walking">
            <Id>2020-12-21T09:54:18.953Z</Id>
            <Lap StartTime="2020-12-21T09:54:18.953Z">
                <Track>
                    <Trackpoint>
                        <DistanceMeters>0.0</DistanceMeters>
                        <Time>2020-12-21T09:54:18.953Z</Time>
                    </Trackpoint>
                    <Trackpoint>
                        <DistanceMeters>26.801254272460938</DistanceMeters>
                        <Time>2020-12-21T09:54:31.669Z</Time>
                    </Trackpoint>
                    <Trackpoint>
                        <DistanceMeters>26.801254272460938</DistanceMeters>
                        <Time>2020-12-21T09:54:46.135Z</Time>
                        <Position>
                            <LatitudeDegrees>19.7332281</LatitudeDegrees>
                            <LongitudeDegrees>75.2931088</LongitudeDegrees>
                        </Position>
                        <AltitudeMeters>438.85272216796875</AltitudeMeters>
                    </Trackpoint>
                    <Trackpoint>
                        <DistanceMeters>26.801254272460938</DistanceMeters>
                        <Time>2020-12-21T09:54:47.514Z</Time>
                    </Trackpoint>
                </Track>
                <DistanceMeters>26.801254272460938</DistanceMeters>
                <TotalTimeSeconds>28.561</TotalTimeSeconds>
                <Calories>1.4885497093200684</Calories>
                <Intensity>Active</Intensity>
                <TriggerMethod>Manual</TriggerMethod>
            </Lap>
        </Activity>
        <Activity Sport="Walking">
            <Id>2020-12-21T09:56:59.921Z</Id>
            <Lap StartTime="2020-12-21T09:56:59.921Z">
                <Track>
                    <Trackpoint>
                        <DistanceMeters>0.0</DistanceMeters>
                        <Time>2020-12-21T09:56:59.921Z</Time>
                    </Trackpoint>
                    <Trackpoint>
                        <DistanceMeters>30.813007354736328</DistanceMeters>
                        <Time>2020-12-21T09:57:20.079Z</Time>
                    </Trackpoint>
                </Track>
                <DistanceMeters>30.813007354736328</DistanceMeters>
                <TotalTimeSeconds>20.158</TotalTimeSeconds>
                <Calories>1.8797791004180908</Calories>
                <Intensity>Active</Intensity>
                <TriggerMethod>Manual</TriggerMethod>
            </Lap>
        </Activity>
        <Activity Sport="Walking">
            <Id>2020-12-21T09:56:59.921Z</Id>
            <Lap StartTime="2020-12-21T09:56:59.921Z">
                <Track>
                    <Trackpoint>
                        <DistanceMeters>0.0</DistanceMeters>
                        <Time>2020-12-21T09:56:59.921Z</Time>
                    </Trackpoint>
                    <Trackpoint>
                        <DistanceMeters>30.813007354736328</DistanceMeters>
                        <Time>2020-12-21T09:57:19.883Z</Time>
                    </Trackpoint>
                    <Trackpoint>
                        <DistanceMeters>30.813007354736328</DistanceMeters>
                        <Time>2020-12-21T09:57:20.079Z</Time>
                    </Trackpoint>
                    <Trackpoint>
                        <DistanceMeters>118.8159065246582</DistanceMeters>
                        <Time>2020-12-21T09:58:23.769Z</Time>
                    </Trackpoint>
                    <Trackpoint>
                        <DistanceMeters>154.67940139770508</DistanceMeters>
                        <Time>2020-12-21T09:58:48.231Z</Time>
                    </Trackpoint>
                    <Trackpoint>
                        <DistanceMeters>162.8008909225464</DistanceMeters>
                        <Time>2020-12-21T09:59:12.834Z</Time>
                    </Trackpoint>
                </Track>
                <DistanceMeters>162.8008909225464</DistanceMeters>
                <TotalTimeSeconds>132.913</TotalTimeSeconds>
                <Calories>10.61111831665039</Calories>
                <Intensity>Active</Intensity>
                <TriggerMethod>Manual</TriggerMethod>
            </Lap>
        </Activity>
        <Activity Sport="Walking">
            <Id>2020-12-21T10:05:06.772Z</Id>
            <Lap StartTime="2020-12-21T10:05:06.772Z">
                <Track>
                    <Trackpoint>
                        <DistanceMeters>0.0</DistanceMeters>
                        <Time>2020-12-21T10:05:06.772Z</Time>
                    </Trackpoint>
                    <Trackpoint>
                        <DistanceMeters>20.11280059814453</DistanceMeters>
                        <Time>2020-12-21T10:05:17.761Z</Time>
                    </Trackpoint>
                </Track>
                <DistanceMeters>20.11280059814453</DistanceMeters>
                <TotalTimeSeconds>10.989</TotalTimeSeconds>
                <Calories>1.0912671089172363</Calories>
                <Intensity>Active</Intensity>
                <TriggerMethod>Manual</TriggerMethod>
            </Lap>
        </Activity>
        <Activity Sport="Walking">
            <Id>2020-12-21T10:05:06.772Z</Id>
            <Lap StartTime="2020-12-21T10:05:06.772Z">
                <Track>
                    <Trackpoint>
                        <DistanceMeters>0.0</DistanceMeters>
                        <Time>2020-12-21T10:05:06.772Z</Time>
                    </Trackpoint>
                    <Trackpoint>
                        <DistanceMeters>20.11280059814453</DistanceMeters>
                        <Time>2020-12-21T10:05:16.912Z</Time>
                    </Trackpoint>
                    <Trackpoint>
                        <DistanceMeters>20.11280059814453</DistanceMeters>
                        <Time>2020-12-21T10:05:17.761Z</Time>
                    </Trackpoint>
                    <Trackpoint>
                        <DistanceMeters>76.63641357421875</DistanceMeters>
                        <Time>2020-12-21T10:06:18.846Z</Time>
                    </Trackpoint>
                </Track>
                <DistanceMeters>76.63641357421875</DistanceMeters>
                <TotalTimeSeconds>72.074</TotalTimeSeconds>
                <Calories>5.818355083465576</Calories>
                <Intensity>Active</Intensity>
                <TriggerMethod>Manual</TriggerMethod>
            </Lap>
        </Activity>
        <Activity Sport="Walking">
            <Id>2020-12-21T10:14:53.266Z</Id>
            <Lap StartTime="2020-12-21T10:14:53.266Z">
                <Track>
                    <Trackpoint>
                        <DistanceMeters>0.0</DistanceMeters>
                        <Time>2020-12-21T10:14:53.266Z</Time>
                    </Trackpoint>
                    <Trackpoint>
                        <DistanceMeters>8.246540069580078</DistanceMeters>
                        <Time>2020-12-21T10:15:03.061Z</Time>
                    </Trackpoint>
                    <Trackpoint>
                        <DistanceMeters>106.91181564331055</DistanceMeters>
                        <Time>2020-12-21T10:16:14.586Z</Time>
                    </Trackpoint>
                </Track>
                <DistanceMeters>106.91181564331055</DistanceMeters>
                <TotalTimeSeconds>81.32</TotalTimeSeconds>
                <Calories>2.3069937229156494</Calories>
                <Intensity>Active</Intensity>
                <TriggerMethod>Manual</TriggerMethod>
            </Lap>
        </Activity>
        <Activity Sport="Walking">
            <Id>2020-12-21T10:15:03.061Z</Id>
            <Lap StartTime="2020-12-21T10:15:03.061Z">
                <Track>
                    <Trackpoint>
                        <DistanceMeters>0.0</DistanceMeters>
                        <Time>2020-12-21T10:15:03.061Z</Time>
                    </Trackpoint>
                    <Trackpoint>
                        <DistanceMeters>98.66527557373047</DistanceMeters>
                        <Time>2020-12-21T10:15:17.823Z</Time>
                    </Trackpoint>
                    <Trackpoint>
                        <DistanceMeters>98.66527557373047</DistanceMeters>
                        <Time>2020-12-21T10:16:14.586Z</Time>
                    </Trackpoint>
                    <Trackpoint>
                        <DistanceMeters>123.36676025390625</DistanceMeters>
                        <Time>2020-12-21T10:16:35.779Z</Time>
                    </Trackpoint>
                    <Trackpoint>
                        <DistanceMeters>177.6244239807129</DistanceMeters>
                        <Time>2020-12-21T10:17:17.040Z</Time>
                    </Trackpoint>
                    <Trackpoint>
                        <DistanceMeters>193.43029117584229</DistanceMeters>
                        <Time>2020-12-21T10:17:45.254Z</Time>
                    </Trackpoint>
                    <Trackpoint>
                        <DistanceMeters>229.1652956008911</DistanceMeters>
                        <Time>2020-12-21T10:18:24.438Z</Time>
                    </Trackpoint>
                    <Trackpoint>
                        <DistanceMeters>236.0374116897583</DistanceMeters>
                        <Time>2020-12-21T10:18:44.610Z</Time>
                    </Trackpoint>
                    <Trackpoint>
                        <DistanceMeters>307.7145051956177</DistanceMeters>
                        <Time>2020-12-21T10:19:38.904Z</Time>
                    </Trackpoint>
                    <Trackpoint>
                        <DistanceMeters>318.7098913192749</DistanceMeters>
                        <Time>2020-12-21T10:20:21.458Z</Time>
                    </Trackpoint>
                    <Trackpoint>
                        <DistanceMeters>347.57277965545654</DistanceMeters>
                        <Time>2020-12-21T10:21:17.934Z</Time>
                    </Trackpoint>
                </Track>
                <DistanceMeters>347.57277965545654</DistanceMeters>
                <TotalTimeSeconds>374.873</TotalTimeSeconds>
                <Calories>30.251989364624023</Calories>
                <Intensity>Active</Intensity>
                <TriggerMethod>Manual</TriggerMethod>
            </Lap>
        </Activity>
        <Activity Sport="Walking">
            <Id>2020-12-21T10:22:21.934Z</Id>
            <Lap StartTime="2020-12-21T10:22:21.934Z">
                <Track>
                    <Trackpoint>
                        <DistanceMeters>0.0</DistanceMeters>
                        <Time>2020-12-21T10:22:21.934Z</Time>
                    </Trackpoint>
                    <Trackpoint>
                        <DistanceMeters>63.910682678222656</DistanceMeters>
                        <Time>2020-12-21T10:23:33.516Z</Time>
                    </Trackpoint>
                </Track>
                <DistanceMeters>63.910682678222656</DistanceMeters>
                <TotalTimeSeconds>71.582285868</TotalTimeSeconds>
                <Calories>1.870621681213379</Calories>
                <Intensity>Active</Intensity>
                <TriggerMethod>Manual</TriggerMethod>
            </Lap>
        </Activity>
        <Activity Sport="Walking">
            <Id>2020-12-21T10:22:21.934Z</Id>
            <Lap StartTime="2020-12-21T10:22:21.934Z">
                <Track>
                    <Trackpoint>
                        <DistanceMeters>0.0</DistanceMeters>
                        <Time>2020-12-21T10:22:21.934Z</Time>
                    </Trackpoint>
                    <Trackpoint>
                        <DistanceMeters>63.910682678222656</DistanceMeters>
                        <Time>2020-12-21T10:22:41.846Z</Time>
                    </Trackpoint>
                    <Trackpoint>
                        <DistanceMeters>63.910682678222656</DistanceMeters>
                        <Time>2020-12-21T10:25:55.711Z</Time>
                    </Trackpoint>
                    <Trackpoint>
                        <DistanceMeters>96.89684295654297</DistanceMeters>
                        <Time>2020-12-21T10:26:53.004Z</Time>
                    </Trackpoint>
                    <Trackpoint>
                        <DistanceMeters>125.16289138793945</DistanceMeters>
                        <Time>2020-12-21T10:27:49.829Z</Time>
                    </Trackpoint>
                </Track>
                <DistanceMeters>125.16289138793945</DistanceMeters>
                <TotalTimeSeconds>327.895</TotalTimeSeconds>
                <Calories>28.933290481567383</Calories>
                <Intensity>Active</Intensity>
                <TriggerMethod>Manual</TriggerMethod>
            </Lap>
        </Activity>
        <Activity Sport="Walking">
            <Id>2020-12-21T10:33:23.144Z</Id>
            <Lap StartTime="2020-12-21T10:33:23.144Z">
                <Track>
                    <Trackpoint>
                        <DistanceMeters>0.0</DistanceMeters>
                        <Time>2020-12-21T10:33:23.144Z</Time>
                    </Trackpoint>
                    <Trackpoint>
                        <DistanceMeters>32.298946380615234</DistanceMeters>
                        <Time>2020-12-21T10:34:49.863Z</Time>
                    </Trackpoint>
                    <Trackpoint>
                        <DistanceMeters>32.298946380615234</DistanceMeters>
                        <Time>2020-12-21T10:34:57.145Z</Time>
                    </Trackpoint>
                    <Trackpoint>
                        <DistanceMeters>72.15722274780273</DistanceMeters>
                        <Time>2020-12-21T10:35:52.586Z</Time>
                    </Trackpoint>
                    <Trackpoint>
                        <DistanceMeters>75.59328079223633</DistanceMeters>
                        <Time>2020-12-21T10:35:56.767Z</Time>
                    </Trackpoint>
                    <Trackpoint>
                        <DistanceMeters>106.5178050994873</DistanceMeters>
                        <Time>2020-12-21T10:36:47.090Z</Time>
                    </Trackpoint>
                    <Trackpoint>
                        <DistanceMeters>120.26203727722168</DistanceMeters>
                        <Time>2020-12-21T10:37:13.562Z</Time>
                    </Trackpoint>
                </Track>
                <DistanceMeters>120.26203727722168</DistanceMeters>
                <TotalTimeSeconds>230.41700512</TotalTimeSeconds>
                <Calories>12.490288734436035</Calories>
                <Intensity>Active</Intensity>
                <TriggerMethod>Manual</TriggerMethod>
            </Lap>
        </Activity>
        <Activity Sport="Walking">
            <Id>2020-12-21T10:38:56.603Z</Id>
            <Lap StartTime="2020-12-21T10:38:56.603Z">
                <Track>
                    <Trackpoint>
                        <DistanceMeters>0.0</DistanceMeters>
                        <Time>2020-12-21T10:38:56.603Z</Time>
                    </Trackpoint>
                    <Trackpoint>
                        <DistanceMeters>8.409492492675781</DistanceMeters>
                        <Time>2020-12-21T10:39:04.763Z</Time>
                    </Trackpoint>
                    <Trackpoint>
                        <DistanceMeters>71.81390380859375</DistanceMeters>
                        <Time>2020-12-21T10:39:54.609Z</Time>
                    </Trackpoint>
                </Track>
                <DistanceMeters>71.81390380859375</DistanceMeters>
                <TotalTimeSeconds>58.006</TotalTimeSeconds>
                <Calories>0.7723172903060913</Calories>
                <Intensity>Active</Intensity>
                <TriggerMethod>Manual</TriggerMethod>
            </Lap>
        </Activity>
        <Activity Sport="Walking">
            <Id>2020-12-21T10:39:04.763Z</Id>
            <Lap StartTime="2020-12-21T10:39:04.763Z">
                <Track>
                    <Trackpoint>
                        <DistanceMeters>0.0</DistanceMeters>
                        <Time>2020-12-21T10:39:04.763Z</Time>
                    </Trackpoint>
                    <Trackpoint>
                        <DistanceMeters>63.40441131591797</DistanceMeters>
                        <Time>2020-12-21T10:39:04.824Z</Time>
                    </Trackpoint>
                    <Trackpoint>
                        <DistanceMeters>63.40441131591797</DistanceMeters>
                        <Time>2020-12-21T10:39:54.609Z</Time>
                    </Trackpoint>
                    <Trackpoint>
                        <DistanceMeters>74.24363803863525</DistanceMeters>
                        <Time>2020-12-21T10:40:02.167Z</Time>
                    </Trackpoint>
                    <Trackpoint>
                        <DistanceMeters>140.29557132720947</DistanceMeters>
                        <Time>2020-12-21T10:41:05.663Z</Time>
                    </Trackpoint>
                    <Trackpoint>
                        <DistanceMeters>151.74452018737793</DistanceMeters>
                        <Time>2020-12-21T10:41:14.018Z</Time>
                    </Trackpoint>
                    <Trackpoint>
                        <DistanceMeters>227.93401908874512</DistanceMeters>
                        <Time>2020-12-21T10:42:15.589Z</Time>
                    </Trackpoint>
                    <Trackpoint>
                        <DistanceMeters>234.03024005889893</DistanceMeters>
                        <Time>2020-12-21T10:42:20.061Z</Time>
                    </Trackpoint>
                    <Trackpoint>
                        <DistanceMeters>271.76292514801025</DistanceMeters>
                        <Time>2020-12-21T10:42:48.623Z</Time>
                    </Trackpoint>
                    <Trackpoint>
                        <DistanceMeters>343.13218784332275</DistanceMeters>
                        <Time>2020-12-21T10:43:37.729Z</Time>
                        <Position>
                            <LatitudeDegrees>19.7344152</LatitudeDegrees>
                            <LongitudeDegrees>75.293214</LongitudeDegrees>
                        </Position>
                        <AltitudeMeters>439.6000061035156</AltitudeMeters>
                    </Trackpoint>
                    <Trackpoint>
                        <DistanceMeters>343.13218784332275</DistanceMeters>
                        <Time>2020-12-21T10:43:43.444Z</Time>
                    </Trackpoint>
                    <Trackpoint>
                        <DistanceMeters>348.5778121948242</DistanceMeters>
                        <Time>2020-12-21T10:43:47.184Z</Time>
                    </Trackpoint>
                    <Trackpoint>
                        <DistanceMeters>352.70108222961426</DistanceMeters>
                        <Time>2020-12-21T10:44:00.232Z</Time>
                    </Trackpoint>
                </Track>
                <DistanceMeters>352.70108222961426</DistanceMeters>
                <TotalTimeSeconds>295.469</TotalTimeSeconds>
                <Calories>27.75193977355957</Calories>
                <Intensity>Active</Intensity>
                <TriggerMethod>Manual</TriggerMethod>
            </Lap>
        </Activity>
    </Activities>
    <Author xsi:type="Application_t">
        <Name>Google Fit</Name>
        <Build>
            <Version>
                <VersionMajor>0</VersionMajor>
                <VersionMinor>0</VersionMinor>
                <BuildMajor>0</BuildMajor>
                <BuildMinor>0</BuildMinor>
            </Version>
        </Build>
        <LangID>en</LangID>
        <PartNumber>000-00000-00</PartNumber>
    </Author>
</TrainingCenterDatabase>
