<?xml version="1.0" encoding="UTF-8"?>
<TrainingCenterDatabase
    xmlns="http://www.garmin.com/xmlschemas/TrainingCenterDatabase/v2"
    xmlns:ns2="http://www.garmin.com/xmlschemas/UserProfile/v2"
    xmlns:ns3="http://www.garmin.com/xmlschemas/ActivityExtension/v2"
    xmlns:ns4="http://www.garmin.com/xmlschemas/ProfileExtension/v1"
    xmlns:ns5="http://www.garmin.com/xmlschemas/ActivityGoals/v1"
    xmlns:xsi="http://www.w3.org/2001/XMLSchema-instance" xsi:schemaLocation="http://www.garmin.com/xmlschemas/TrainingCenterDatabase/v2 http://www.garmin.com/xmlschemas/TrainingCenterDatabasev2.xsd">
    <Activities>
        <Activity Sport="Walking">
            <Id>2020-11-02T14:38:00.733Z</Id>
            <Lap StartTime="2020-11-02T14:38:00.733Z">
                <Track>
                    <Trackpoint>
                        <DistanceMeters>0.0</DistanceMeters>
                        <Time>2020-11-02T14:38:00.733Z</Time>
                    </Trackpoint>
                    <Trackpoint>
                        <DistanceMeters>0.0</DistanceMeters>
                        <Time>2020-11-02T15:08:44.919Z</Time>
                    </Trackpoint>
                    <Trackpoint>
                        <DistanceMeters>20.616348266601562</DistanceMeters>
                        <Time>2020-11-02T15:09:11.016Z</Time>
                    </Trackpoint>
                </Track>
                <DistanceMeters>20.616348266601562</DistanceMeters>
                <TotalTimeSeconds>1870.283901553</TotalTimeSeconds>
                <Calories>40.822508573532104</Calories>
                <Intensity>Active</Intensity>
                <TriggerMethod>Manual</TriggerMethod>
            </Lap>
        </Activity>
        <Activity Sport="Walking">
            <Id>2020-11-02T15:08:44.919Z</Id>
            <Lap StartTime="2020-11-02T15:08:44.919Z">
                <Track>
                    <Trackpoint>
                        <DistanceMeters>0.0</DistanceMeters>
                        <Time>2020-11-02T15:08:44.919Z</Time>
                    </Trackpoint>
                    <Trackpoint>
                        <DistanceMeters>20.616348266601562</DistanceMeters>
                        <Time>2020-11-02T15:09:10.601Z</Time>
                    </Trackpoint>
                    <Trackpoint>
                        <DistanceMeters>20.616348266601562</DistanceMeters>
                        <Time>2020-11-02T15:09:11.016Z</Time>
                    </Trackpoint>
                    <Trackpoint>
                        <DistanceMeters>57.03856658935547</DistanceMeters>
                        <Time>2020-11-02T15:10:11.646Z</Time>
                    </Trackpoint>
                    <Trackpoint>
                        <DistanceMeters>77.65491485595703</DistanceMeters>
                        <Time>2020-11-02T15:11:11.646Z</Time>
                    </Trackpoint>
                    <Trackpoint>
                        <DistanceMeters>120.26203536987305</DistanceMeters>
                        <Time>2020-11-02T15:12:11.319Z</Time>
                    </Trackpoint>
                    <Trackpoint>
                        <DistanceMeters>120.94924700260162</DistanceMeters>
                        <Time>2020-11-02T15:12:13.945Z</Time>
                    </Trackpoint>
                    <Trackpoint>
                        <DistanceMeters>145.00165331363678</DistanceMeters>
                        <Time>2020-11-02T15:13:13.060Z</Time>
                    </Trackpoint>
                </Track>
                <DistanceMeters>145.00165331363678</DistanceMeters>
                <TotalTimeSeconds>268.140639469</TotalTimeSeconds>
                <Calories>19.917818069458008</Calories>
                <Intensity>Active</Intensity>
                <TriggerMethod>Manual</TriggerMethod>
            </Lap>
        </Activity>
        <Activity Sport="Walking">
            <Id>2020-11-02T15:12:42.618Z</Id>
            <Lap StartTime="2020-11-02T15:12:42.618Z">
                <Track>
                    <Trackpoint>
                        <DistanceMeters>0.0</DistanceMeters>
                        <Time>2020-11-02T15:12:42.618Z</Time>
                    </Trackpoint>
                    <Trackpoint>
                        <DistanceMeters>0.0</DistanceMeters>
                        <Time>2020-11-02T15:15:42.874Z</Time>
                    </Trackpoint>
                    <Trackpoint>
                        <DistanceMeters>32.24155044555664</DistanceMeters>
                        <Time>2020-11-02T15:16:14.141Z</Time>
                    </Trackpoint>
                </Track>
                <DistanceMeters>32.24155044555664</DistanceMeters>
                <TotalTimeSeconds>211.523791028</TotalTimeSeconds>
                <Calories>4.781276106834412</Calories>
                <Intensity>Active</Intensity>
                <TriggerMethod>Manual</TriggerMethod>
            </Lap>
        </Activity>
        <Activity Sport="Walking">
            <Id>2020-11-02T15:15:42.874Z</Id>
            <Lap StartTime="2020-11-02T15:15:42.874Z">
                <Track>
                    <Trackpoint>
                        <DistanceMeters>0.0</DistanceMeters>
                        <Time>2020-11-02T15:15:42.874Z</Time>
                    </Trackpoint>
                    <Trackpoint>
                        <DistanceMeters>32.24155044555664</DistanceMeters>
                        <Time>2020-11-02T15:15:53.806Z</Time>
                    </Trackpoint>
                    <Trackpoint>
                        <DistanceMeters>32.24155044555664</DistanceMeters>
                        <Time>2020-11-02T15:16:14.141Z</Time>
                    </Trackpoint>
                    <Trackpoint>
                        <DistanceMeters>85.84405899047852</DistanceMeters>
                        <Time>2020-11-02T15:17:22.881Z</Time>
                    </Trackpoint>
                    <Trackpoint>
                        <DistanceMeters>118.83021926879883</DistanceMeters>
                        <Time>2020-11-02T15:18:23.425Z</Time>
                    </Trackpoint>
                    <Trackpoint>
                        <DistanceMeters>170.37108993530273</DistanceMeters>
                        <Time>2020-11-02T15:19:23.729Z</Time>
                    </Trackpoint>
                    <Trackpoint>
                        <DistanceMeters>225.34801864624023</DistanceMeters>
                        <Time>2020-11-02T15:20:23.953Z</Time>
                    </Trackpoint>
                    <Trackpoint>
                        <DistanceMeters>284.0088233947754</DistanceMeters>
                        <Time>2020-11-02T15:21:24.017Z</Time>
                    </Trackpoint>
                    <Trackpoint>
                        <DistanceMeters>334.8624839782715</DistanceMeters>
                        <Time>2020-11-02T15:22:24.399Z</Time>
                    </Trackpoint>
                    <Trackpoint>
                        <DistanceMeters>389.1522026062012</DistanceMeters>
                        <Time>2020-11-02T15:23:24.701Z</Time>
                    </Trackpoint>
                    <Trackpoint>
                        <DistanceMeters>452.7055892944336</DistanceMeters>
                        <Time>2020-11-02T15:24:24.763Z</Time>
                    </Trackpoint>
                    <Trackpoint>
                        <DistanceMeters>509.74415588378906</DistanceMeters>
                        <Time>2020-11-02T15:25:24.984Z</Time>
                    </Trackpoint>
                    <Trackpoint>
                        <DistanceMeters>571.2890014648438</DistanceMeters>
                        <Time>2020-11-02T15:26:25.126Z</Time>
                    </Trackpoint>
                    <Trackpoint>
                        <DistanceMeters>591.5684604644775</DistanceMeters>
                        <Time>2020-11-02T15:27:36.723Z</Time>
                    </Trackpoint>
                    <Trackpoint>
                        <DistanceMeters>641.0476970672607</DistanceMeters>
                        <Time>2020-11-02T15:28:30.182Z</Time>
                    </Trackpoint>
                    <Trackpoint>
                        <DistanceMeters>641.7349086999893</DistanceMeters>
                        <Time>2020-11-02T15:28:33.046Z</Time>
                    </Trackpoint>
                    <Trackpoint>
                        <DistanceMeters>700.3895717859268</DistanceMeters>
                        <Time>2020-11-02T15:29:36.846Z</Time>
                    </Trackpoint>
                    <Trackpoint>
                        <DistanceMeters>755.3709064722061</DistanceMeters>
                        <Time>2020-11-02T15:30:31.498Z</Time>
                    </Trackpoint>
                    <Trackpoint>
                        <DistanceMeters>819.9224506616592</DistanceMeters>
                        <Time>2020-11-02T15:31:31.560Z</Time>
                    </Trackpoint>
                    <Trackpoint>
                        <DistanceMeters>874.2121692895889</DistanceMeters>
                        <Time>2020-11-02T15:32:31.701Z</Time>
                    </Trackpoint>
                    <Trackpoint>
                        <DistanceMeters>936.7074428796768</DistanceMeters>
                        <Time>2020-11-02T15:33:31.922Z</Time>
                    </Trackpoint>
                    <Trackpoint>
                        <DistanceMeters>953.3066250085831</DistanceMeters>
                        <Time>2020-11-02T15:34:38.958Z</Time>
                    </Trackpoint>
                </Track>
                <DistanceMeters>953.3066250085831</DistanceMeters>
                <TotalTimeSeconds>1136.083796033</TotalTimeSeconds>
                <Calories>105.7017822265625</Calories>
                <Intensity>Active</Intensity>
                <TriggerMethod>Manual</TriggerMethod>
            </Lap>
        </Activity>
        <Activity Sport="Walking">
            <Id>2020-11-02T15:34:38.958Z</Id>
            <Lap StartTime="2020-11-02T15:34:38.958Z">
                <Track>
                    <Trackpoint>
                        <DistanceMeters>0.0</DistanceMeters>
                        <Time>2020-11-02T15:34:38.958Z</Time>
                    </Trackpoint>
                    <Trackpoint>
                        <DistanceMeters>0.0</DistanceMeters>
                        <Time>2020-11-02T15:36:14.104Z</Time>
                    </Trackpoint>
                    <Trackpoint>
                        <DistanceMeters>57.72577667236328</DistanceMeters>
                        <Time>2020-11-02T15:37:14.490Z</Time>
                    </Trackpoint>
                    <Trackpoint>
                        <DistanceMeters>117.25736999511719</DistanceMeters>
                        <Time>2020-11-02T15:38:14.795Z</Time>
                    </Trackpoint>
                    <Trackpoint>
                        <DistanceMeters>174.98314666748047</DistanceMeters>
                        <Time>2020-11-02T15:39:15.418Z</Time>
                    </Trackpoint>
                    <Trackpoint>
                        <DistanceMeters>194.68295669555664</DistanceMeters>
                        <Time>2020-11-02T15:39:34.273Z</Time>
                    </Trackpoint>
                </Track>
                <DistanceMeters>194.68295669555664</DistanceMeters>
                <TotalTimeSeconds>295.315902376</TotalTimeSeconds>
                <Calories>20.215267539024353</Calories>
                <Intensity>Active</Intensity>
                <TriggerMethod>Manual</TriggerMethod>
            </Lap>
        </Activity>
        <Activity Sport="Walking">
            <Id>2020-11-02T15:39:15.418Z</Id>
            <Lap StartTime="2020-11-02T15:39:15.418Z">
                <Track>
                    <Trackpoint>
                        <DistanceMeters>0.0</DistanceMeters>
                        <Time>2020-11-02T15:39:15.418Z</Time>
                    </Trackpoint>
                    <Trackpoint>
                        <DistanceMeters>19.699810028076172</DistanceMeters>
                        <Time>2020-11-02T15:39:28.194Z</Time>
                    </Trackpoint>
                    <Trackpoint>
                        <DistanceMeters>19.699810028076172</DistanceMeters>
                        <Time>2020-11-02T15:39:34.273Z</Time>
                    </Trackpoint>
                    <Trackpoint>
                        <DistanceMeters>57.67253875732422</DistanceMeters>
                        <Time>2020-11-02T15:40:13.098Z</Time>
                    </Trackpoint>
                    <Trackpoint>
                        <DistanceMeters>76.22725296020508</DistanceMeters>
                        <Time>2020-11-02T15:40:40.704Z</Time>
                    </Trackpoint>
                    <Trackpoint>
                        <DistanceMeters>98.90523719787598</DistanceMeters>
                        <Time>2020-11-02T15:41:22.710Z</Time>
                    </Trackpoint>
                    <Trackpoint>
                        <DistanceMeters>116.08552742004395</DistanceMeters>
                        <Time>2020-11-02T15:41:40.848Z</Time>
                    </Trackpoint>
                    <Trackpoint>
                        <DistanceMeters>155.25658988952637</DistanceMeters>
                        <Time>2020-11-02T15:42:23.172Z</Time>
                    </Trackpoint>
                    <Trackpoint>
                        <DistanceMeters>165.56476402282715</DistanceMeters>
                        <Time>2020-11-02T15:42:41.192Z</Time>
                    </Trackpoint>
                    <Trackpoint>
                        <DistanceMeters>207.9689655303955</DistanceMeters>
                        <Time>2020-11-02T15:43:23.516Z</Time>
                    </Trackpoint>
                    <Trackpoint>
                        <DistanceMeters>225.97220420837402</DistanceMeters>
                        <Time>2020-11-02T15:43:41.734Z</Time>
                    </Trackpoint>
                    <Trackpoint>
                        <DistanceMeters>263.08163261413574</DistanceMeters>
                        <Time>2020-11-02T15:44:24.137Z</Time>
                    </Trackpoint>
                    <Trackpoint>
                        <DistanceMeters>283.24592208862305</DistanceMeters>
                        <Time>2020-11-02T15:44:41.957Z</Time>
                    </Trackpoint>
                    <Trackpoint>
                        <DistanceMeters>328.6084175109863</DistanceMeters>
                        <Time>2020-11-02T15:45:24.281Z</Time>
                    </Trackpoint>
                    <Trackpoint>
                        <DistanceMeters>345.832857131958</DistanceMeters>
                        <Time>2020-11-02T15:45:42.022Z</Time>
                    </Trackpoint>
                </Track>
                <DistanceMeters>345.832857131958</DistanceMeters>
                <TotalTimeSeconds>386.603427884</TotalTimeSeconds>
                <Calories>34.12174606323242</Calories>
                <Intensity>Active</Intensity>
                <TriggerMethod>Manual</TriggerMethod>
            </Lap>
        </Activity>
        <Activity Sport="Walking">
            <Id>2020-11-02T15:45:24.281Z</Id>
            <Lap StartTime="2020-11-02T15:45:24.281Z">
                <Track>
                    <Trackpoint>
                        <DistanceMeters>0.0</DistanceMeters>
                        <Time>2020-11-02T15:45:24.281Z</Time>
                    </Trackpoint>
                    <Trackpoint>
                        <DistanceMeters>17.22443962097168</DistanceMeters>
                        <Time>2020-11-02T15:45:31.406Z</Time>
                    </Trackpoint>
                    <Trackpoint>
                        <DistanceMeters>17.22443962097168</DistanceMeters>
                        <Time>2020-11-02T15:45:42.022Z</Time>
                    </Trackpoint>
                    <Trackpoint>
                        <DistanceMeters>59.59634208679199</DistanceMeters>
                        <Time>2020-11-02T15:46:24.426Z</Time>
                    </Trackpoint>
                    <Trackpoint>
                        <DistanceMeters>74.02778625488281</DistanceMeters>
                        <Time>2020-11-02T15:46:42.248Z</Time>
                    </Trackpoint>
                    <Trackpoint>
                        <DistanceMeters>123.50702285766602</DistanceMeters>
                        <Time>2020-11-02T15:47:42.393Z</Time>
                    </Trackpoint>
                    <Trackpoint>
                        <DistanceMeters>141.37452507019043</DistanceMeters>
                        <Time>2020-11-02T15:48:02.123Z</Time>
                    </Trackpoint>
                    <Trackpoint>
                        <DistanceMeters>157.8676052093506</DistanceMeters>
                        <Time>2020-11-02T15:48:21.535Z</Time>
                    </Trackpoint>
                    <Trackpoint>
                        <DistanceMeters>208.72126579284668</DistanceMeters>
                        <Time>2020-11-02T15:49:30.378Z</Time>
                    </Trackpoint>
                    <Trackpoint>
                        <DistanceMeters>242.3946361541748</DistanceMeters>
                        <Time>2020-11-02T15:50:05.542Z</Time>
                    </Trackpoint>
                    <Trackpoint>
                        <DistanceMeters>252.01559925079346</DistanceMeters>
                        <Time>2020-11-02T15:50:15.804Z</Time>
                    </Trackpoint>
                    <Trackpoint>
                        <DistanceMeters>347.4815950393677</DistanceMeters>
                        <Time>2020-11-02T15:51:28.993Z</Time>
                    </Trackpoint>
                    <Trackpoint>
                        <DistanceMeters>367.62310314178467</DistanceMeters>
                        <Time>2020-11-02T15:51:44.824Z</Time>
                    </Trackpoint>
                    <Trackpoint>
                        <DistanceMeters>403.4190435409546</DistanceMeters>
                        <Time>2020-11-02T15:52:12.989Z</Time>
                    </Trackpoint>
                </Track>
                <DistanceMeters>403.4190435409546</DistanceMeters>
                <TotalTimeSeconds>408.707808311</TotalTimeSeconds>
                <Calories>36.79230499267578</Calories>
                <Intensity>Active</Intensity>
                <TriggerMethod>Manual</TriggerMethod>
            </Lap>
        </Activity>
        <Activity Sport="Walking">
            <Id>2020-11-02T15:51:44.824Z</Id>
            <Lap StartTime="2020-11-02T15:51:44.824Z">
                <Track>
                    <Trackpoint>
                        <DistanceMeters>0.0</DistanceMeters>
                        <Time>2020-11-02T15:51:44.824Z</Time>
                    </Trackpoint>
                    <Trackpoint>
                        <DistanceMeters>35.79594039916992</DistanceMeters>
                        <Time>2020-11-02T15:52:03.045Z</Time>
                    </Trackpoint>
                    <Trackpoint>
                        <DistanceMeters>35.79594039916992</DistanceMeters>
                        <Time>2020-11-02T15:52:12.989Z</Time>
                    </Trackpoint>
                    <Trackpoint>
                        <DistanceMeters>56.43888473510742</DistanceMeters>
                        <Time>2020-11-02T15:52:29.855Z</Time>
                    </Trackpoint>
                    <Trackpoint>
                        <DistanceMeters>90.43864440917969</DistanceMeters>
                        <Time>2020-11-02T15:52:59.450Z</Time>
                    </Trackpoint>
                    <Trackpoint>
                        <DistanceMeters>163.55745697021484</DistanceMeters>
                        <Time>2020-11-02T15:53:56.889Z</Time>
                    </Trackpoint>
                    <Trackpoint>
                        <DistanceMeters>197.7921371459961</DistanceMeters>
                        <Time>2020-11-02T15:54:28.155Z</Time>
                    </Trackpoint>
                    <Trackpoint>
                        <DistanceMeters>212.2235813140869</DistanceMeters>
                        <Time>2020-11-02T15:54:44.942Z</Time>
                    </Trackpoint>
                    <Trackpoint>
                        <DistanceMeters>244.20838737487793</DistanceMeters>
                        <Time>2020-11-02T15:55:10.321Z</Time>
                    </Trackpoint>
                    <Trackpoint>
                        <DistanceMeters>298.16063499450684</DistanceMeters>
                        <Time>2020-11-02T15:55:50.257Z</Time>
                    </Trackpoint>
                    <Trackpoint>
                        <DistanceMeters>334.10447120666504</DistanceMeters>
                        <Time>2020-11-02T15:56:14.602Z</Time>
                    </Trackpoint>
                    <Trackpoint>
                        <DistanceMeters>346.04020977020264</DistanceMeters>
                        <Time>2020-11-02T15:56:22.239Z</Time>
                    </Trackpoint>
                    <Trackpoint>
                        <DistanceMeters>384.77495861053467</DistanceMeters>
                        <Time>2020-11-02T15:56:50.959Z</Time>
                    </Trackpoint>
                    <Trackpoint>
                        <DistanceMeters>415.4129247665405</DistanceMeters>
                        <Time>2020-11-02T15:57:14.905Z</Time>
                    </Trackpoint>
                    <Trackpoint>
                        <DistanceMeters>444.8932771682739</DistanceMeters>
                        <Time>2020-11-02T15:57:37.101Z</Time>
                    </Trackpoint>
                    <Trackpoint>
                        <DistanceMeters>520.1744050979614</DistanceMeters>
                        <Time>2020-11-02T15:58:34.539Z</Time>
                    </Trackpoint>
                    <Trackpoint>
                        <DistanceMeters>556.9911279678345</DistanceMeters>
                        <Time>2020-11-02T15:58:59.280Z</Time>
                    </Trackpoint>
                    <Trackpoint>
                        <DistanceMeters>593.9637384414673</DistanceMeters>
                        <Time>2020-11-02T15:59:29.192Z</Time>
                    </Trackpoint>
                    <Trackpoint>
                        <DistanceMeters>618.2088823318481</DistanceMeters>
                        <Time>2020-11-02T15:59:53.691Z</Time>
                    </Trackpoint>
                    <Trackpoint>
                        <DistanceMeters>649.1808347702026</DistanceMeters>
                        <Time>2020-11-02T16:00:23.285Z</Time>
                    </Trackpoint>
                    <Trackpoint>
                        <DistanceMeters>720.5681409835815</DistanceMeters>
                        <Time>2020-11-02T16:01:28.280Z</Time>
                    </Trackpoint>
                    <Trackpoint>
                        <DistanceMeters>743.9333372116089</DistanceMeters>
                        <Time>2020-11-02T16:01:53.339Z</Time>
                    </Trackpoint>
                    <Trackpoint>
                        <DistanceMeters>786.8092527389526</DistanceMeters>
                        <Time>2020-11-02T16:02:32.240Z</Time>
                    </Trackpoint>
                    <Trackpoint>
                        <DistanceMeters>823.2363119125366</DistanceMeters>
                        <Time>2020-11-02T16:03:01.198Z</Time>
                    </Trackpoint>
                    <Trackpoint>
                        <DistanceMeters>848.4042825698853</DistanceMeters>
                        <Time>2020-11-02T16:03:23.552Z</Time>
                    </Trackpoint>
                    <Trackpoint>
                        <DistanceMeters>898.929741859436</DistanceMeters>
                        <Time>2020-11-02T16:04:07.863Z</Time>
                    </Trackpoint>
                    <Trackpoint>
                        <DistanceMeters>923.6693601608276</DistanceMeters>
                        <Time>2020-11-02T16:04:33.638Z</Time>
                    </Trackpoint>
                    <Trackpoint>
                        <DistanceMeters>948.0718374252319</DistanceMeters>
                        <Time>2020-11-02T16:04:57.743Z</Time>
                    </Trackpoint>
                    <Trackpoint>
                        <DistanceMeters>962.5032815933228</DistanceMeters>
                        <Time>2020-11-02T16:05:16.803Z</Time>
                    </Trackpoint>
                    <Trackpoint>
                        <DistanceMeters>983.8068418502808</DistanceMeters>
                        <Time>2020-11-02T16:05:40.669Z</Time>
                    </Trackpoint>
                    <Trackpoint>
                        <DistanceMeters>1000.2999219894409</DistanceMeters>
                        <Time>2020-11-02T16:06:02.626Z</Time>
                    </Trackpoint>
                    <Trackpoint>
                        <DistanceMeters>1026.4139642715454</DistanceMeters>
                        <Time>2020-11-02T16:06:36.356Z</Time>
                    </Trackpoint>
                    <Trackpoint>
                        <DistanceMeters>1095.247727394104</DistanceMeters>
                        <Time>2020-11-02T16:07:42.623Z</Time>
                    </Trackpoint>
                    <Trackpoint>
                        <DistanceMeters>1167.6280069351196</DistanceMeters>
                        <Time>2020-11-02T16:08:41.411Z</Time>
                    </Trackpoint>
                    <Trackpoint>
                        <DistanceMeters>1191.7177629470825</DistanceMeters>
                        <Time>2020-11-02T16:09:06.312Z</Time>
                    </Trackpoint>
                    <Trackpoint>
                        <DistanceMeters>1220.2693872451782</DistanceMeters>
                        <Time>2020-11-02T16:09:34.634Z</Time>
                    </Trackpoint>
                    <Trackpoint>
                        <DistanceMeters>1250.2258710861206</DistanceMeters>
                        <Time>2020-11-02T16:10:04.307Z</Time>
                    </Trackpoint>
                    <Trackpoint>
                        <DistanceMeters>1301.8165311813354</DistanceMeters>
                        <Time>2020-11-02T16:10:50.685Z</Time>
                    </Trackpoint>
                </Track>
                <DistanceMeters>1301.8165311813354</DistanceMeters>
                <TotalTimeSeconds>1145.861029742</TotalTimeSeconds>
                <Calories>102.0248794555664</Calories>
                <Intensity>Active</Intensity>
                <TriggerMethod>Manual</TriggerMethod>
            </Lap>
        </Activity>
        <Activity Sport="Walking">
            <Id>2020-11-02T16:10:04.307Z</Id>
            <Lap StartTime="2020-11-02T16:10:04.307Z">
                <Track>
                    <Trackpoint>
                        <DistanceMeters>0.0</DistanceMeters>
                        <Time>2020-11-02T16:10:04.307Z</Time>
                    </Trackpoint>
                    <Trackpoint>
                        <DistanceMeters>51.590660095214844</DistanceMeters>
                        <Time>2020-11-02T16:10:09.058Z</Time>
                    </Trackpoint>
                    <Trackpoint>
                        <DistanceMeters>51.590660095214844</DistanceMeters>
                        <Time>2020-11-02T16:10:50.685Z</Time>
                    </Trackpoint>
                    <Trackpoint>
                        <DistanceMeters>56.631840229034424</DistanceMeters>
                        <Time>2020-11-02T16:10:55.140Z</Time>
                    </Trackpoint>
                    <Trackpoint>
                        <DistanceMeters>86.86915254592896</DistanceMeters>
                        <Time>2020-11-02T16:11:28.472Z</Time>
                    </Trackpoint>
                    <Trackpoint>
                        <DistanceMeters>135.04504442214966</DistanceMeters>
                        <Time>2020-11-02T16:12:11.271Z</Time>
                    </Trackpoint>
                </Track>
                <DistanceMeters>135.04504442214966</DistanceMeters>
                <TotalTimeSeconds>126.964290727</TotalTimeSeconds>
                <Calories>11.481289863586426</Calories>
                <Intensity>Active</Intensity>
                <TriggerMethod>Manual</TriggerMethod>
            </Lap>
        </Activity>
        <Activity Sport="Walking">
            <Id>2020-11-02T16:12:11.271Z</Id>
            <Lap StartTime="2020-11-02T16:12:11.271Z">
                <Track>
                    <Trackpoint>
                        <DistanceMeters>0.0</DistanceMeters>
                        <Time>2020-11-02T16:12:11.271Z</Time>
                    </Trackpoint>
                    <Trackpoint>
                        <DistanceMeters>0.6872116327285767</DistanceMeters>
                        <Time>2020-11-02T16:12:12.544Z</Time>
                    </Trackpoint>
                    <Trackpoint>
                        <DistanceMeters>41.15066301822662</DistanceMeters>
                        <Time>2020-11-02T16:12:43.887Z</Time>
                    </Trackpoint>
                    <Trackpoint>
                        <DistanceMeters>61.767011284828186</DistanceMeters>
                        <Time>2020-11-02T16:13:12.333Z</Time>
                    </Trackpoint>
                    <Trackpoint>
                        <DistanceMeters>74.12581026554108</DistanceMeters>
                        <Time>2020-11-02T16:13:22.913Z</Time>
                    </Trackpoint>
                    <Trackpoint>
                        <DistanceMeters>109.33900988101959</DistanceMeters>
                        <Time>2020-11-02T16:13:54.256Z</Time>
                    </Trackpoint>
                    <Trackpoint>
                        <DistanceMeters>119.64718401432037</DistanceMeters>
                        <Time>2020-11-02T16:14:06.507Z</Time>
                    </Trackpoint>
                    <Trackpoint>
                        <DistanceMeters>171.45350801944733</DistanceMeters>
                        <Time>2020-11-02T16:14:54.636Z</Time>
                    </Trackpoint>
                    <Trackpoint>
                        <DistanceMeters>219.10037767887115</DistanceMeters>
                        <Time>2020-11-02T16:15:43.321Z</Time>
                    </Trackpoint>
                </Track>
                <DistanceMeters>219.10037767887115</DistanceMeters>
                <TotalTimeSeconds>212.049571002</TotalTimeSeconds>
                <Calories>17.050704304128885</Calories>
                <Intensity>Active</Intensity>
                <TriggerMethod>Manual</TriggerMethod>
            </Lap>
        </Activity>
        <Activity Sport="Walking">
            <Id>2020-11-02T16:14:54.636Z</Id>
            <Lap StartTime="2020-11-02T16:14:54.636Z">
                <Track>
                    <Trackpoint>
                        <DistanceMeters>0.0</DistanceMeters>
                        <Time>2020-11-02T16:14:54.636Z</Time>
                    </Trackpoint>
                    <Trackpoint>
                        <DistanceMeters>47.64686965942383</DistanceMeters>
                        <Time>2020-11-02T16:15:13.760Z</Time>
                    </Trackpoint>
                    <Trackpoint>
                        <DistanceMeters>47.64686965942383</DistanceMeters>
                        <Time>2020-11-02T16:15:43.321Z</Time>
                    </Trackpoint>
                    <Trackpoint>
                        <DistanceMeters>135.51292037963867</DistanceMeters>
                        <Time>2020-11-02T16:17:12.496Z</Time>
                    </Trackpoint>
                    <Trackpoint>
                        <DistanceMeters>147.19551849365234</DistanceMeters>
                        <Time>2020-11-02T16:17:26.020Z</Time>
                    </Trackpoint>
                    <Trackpoint>
                        <DistanceMeters>177.48053550720215</DistanceMeters>
                        <Time>2020-11-02T16:17:52.669Z</Time>
                    </Trackpoint>
                    <Trackpoint>
                        <DistanceMeters>188.89249801635742</DistanceMeters>
                        <Time>2020-11-02T16:18:03.090Z</Time>
                    </Trackpoint>
                    <Trackpoint>
                        <DistanceMeters>265.2969856262207</DistanceMeters>
                        <Time>2020-11-02T16:19:04.265Z</Time>
                    </Trackpoint>
                </Track>
                <DistanceMeters>265.2969856262207</DistanceMeters>
                <TotalTimeSeconds>249.62905183</TotalTimeSeconds>
                <Calories>19.914718627929688</Calories>
                <Intensity>Active</Intensity>
                <TriggerMethod>Manual</TriggerMethod>
            </Lap>
        </Activity>
        <Activity Sport="Walking">
            <Id>2020-11-02T16:18:03.090Z</Id>
            <Lap StartTime="2020-11-02T16:18:03.090Z">
                <Track>
                    <Trackpoint>
                        <DistanceMeters>0.0</DistanceMeters>
                        <Time>2020-11-02T16:18:03.090Z</Time>
                    </Trackpoint>
                    <Trackpoint>
                        <DistanceMeters>76.40448760986328</DistanceMeters>
                        <Time>2020-11-02T16:18:45.744Z</Time>
                    </Trackpoint>
                    <Trackpoint>
                        <DistanceMeters>76.40448760986328</DistanceMeters>
                        <Time>2020-11-02T16:19:04.265Z</Time>
                    </Trackpoint>
                    <Trackpoint>
                        <DistanceMeters>78.4661226272583</DistanceMeters>
                        <Time>2020-11-02T16:19:06.969Z</Time>
                    </Trackpoint>
                </Track>
                <DistanceMeters>78.4661226272583</DistanceMeters>
                <TotalTimeSeconds>63.878942631</TotalTimeSeconds>
                <Calories>1.9940524101257324</Calories>
                <Intensity>Active</Intensity>
                <TriggerMethod>Manual</TriggerMethod>
            </Lap>
        </Activity>
    </Activities>
    <Author xsi:type="Application_t">
        <Name>Google Fit</Name>
        <Build>
            <Version>
                <VersionMajor>0</VersionMajor>
                <VersionMinor>0</VersionMinor>
                <BuildMajor>0</BuildMajor>
                <BuildMinor>0</BuildMinor>
            </Version>
        </Build>
        <LangID>en</LangID>
        <PartNumber>000-00000-00</PartNumber>
    </Author>
</TrainingCenterDatabase>
