<?xml version="1.0" encoding="UTF-8"?>
<TrainingCenterDatabase
    xmlns="http://www.garmin.com/xmlschemas/TrainingCenterDatabase/v2"
    xmlns:ns2="http://www.garmin.com/xmlschemas/UserProfile/v2"
    xmlns:ns3="http://www.garmin.com/xmlschemas/ActivityExtension/v2"
    xmlns:ns4="http://www.garmin.com/xmlschemas/ProfileExtension/v1"
    xmlns:ns5="http://www.garmin.com/xmlschemas/ActivityGoals/v1"
    xmlns:xsi="http://www.w3.org/2001/XMLSchema-instance" xsi:schemaLocation="http://www.garmin.com/xmlschemas/TrainingCenterDatabase/v2 http://www.garmin.com/xmlschemas/TrainingCenterDatabasev2.xsd">
    <Activities>
        <Activity Sport="Walking">
            <Id>2020-11-29T14:19:33.140Z</Id>
            <Lap StartTime="2020-11-29T14:19:33.140Z">
                <Track>
                    <Trackpoint>
                        <DistanceMeters>0.0</DistanceMeters>
                        <Time>2020-11-29T14:19:33.140Z</Time>
                    </Trackpoint>
                    <Trackpoint>
                        <DistanceMeters>50.60116195678711</DistanceMeters>
                        <Time>2020-11-29T14:20:24.154Z</Time>
                    </Trackpoint>
                    <Trackpoint>
                        <DistanceMeters>56.09885501861572</DistanceMeters>
                        <Time>2020-11-29T14:20:34.020Z</Time>
                    </Trackpoint>
                    <Trackpoint>
                        <DistanceMeters>113.824631690979</DistanceMeters>
                        <Time>2020-11-29T14:21:34.490Z</Time>
                    </Trackpoint>
                </Track>
                <DistanceMeters>113.824631690979</DistanceMeters>
                <TotalTimeSeconds>121.350423858</TotalTimeSeconds>
                <Calories>8.78211498260498</Calories>
                <Intensity>Active</Intensity>
                <TriggerMethod>Manual</TriggerMethod>
            </Lap>
        </Activity>
        <Activity Sport="Walking">
            <Id>2020-11-29T14:20:34.020Z</Id>
            <Lap StartTime="2020-11-29T14:20:34.020Z">
                <Track>
                    <Trackpoint>
                        <DistanceMeters>0.0</DistanceMeters>
                        <Time>2020-11-29T14:20:34.020Z</Time>
                    </Trackpoint>
                    <Trackpoint>
                        <DistanceMeters>57.72577667236328</DistanceMeters>
                        <Time>2020-11-29T14:21:06.622Z</Time>
                    </Trackpoint>
                    <Trackpoint>
                        <DistanceMeters>57.72577667236328</DistanceMeters>
                        <Time>2020-11-29T14:21:27.896Z</Time>
                        <Position>
                            <LatitudeDegrees>19.8699314</LatitudeDegrees>
                            <LongitudeDegrees>75.6048327</LongitudeDegrees>
                        </Position>
                        <AltitudeMeters>488.1999816894531</AltitudeMeters>
                    </Trackpoint>
                    <Trackpoint>
                        <DistanceMeters>57.72577667236328</DistanceMeters>
                        <Time>2020-11-29T14:21:34.490Z</Time>
                    </Trackpoint>
                    <Trackpoint>
                        <DistanceMeters>114.07712936401367</DistanceMeters>
                        <Time>2020-11-29T14:22:34.719Z</Time>
                    </Trackpoint>
                    <Trackpoint>
                        <DistanceMeters>181.43301010131836</DistanceMeters>
                        <Time>2020-11-29T14:22:53.152Z</Time>
                        <Position>
                            <LatitudeDegrees>19.8699713</LatitudeDegrees>
                            <LongitudeDegrees>75.6047751</LongitudeDegrees>
                        </Position>
                        <AltitudeMeters>488.1999816894531</AltitudeMeters>
                    </Trackpoint>
                    <Trackpoint>
                        <DistanceMeters>181.43301010131836</DistanceMeters>
                        <Time>2020-11-29T14:23:35.266Z</Time>
                    </Trackpoint>
                    <Trackpoint>
                        <DistanceMeters>253.74222946166992</DistanceMeters>
                        <Time>2020-11-29T14:24:32.232Z</Time>
                    </Trackpoint>
                </Track>
                <DistanceMeters>253.74222946166992</DistanceMeters>
                <TotalTimeSeconds>238.211880794</TotalTimeSeconds>
                <Calories>19.31598663330078</Calories>
                <Intensity>Active</Intensity>
                <TriggerMethod>Manual</TriggerMethod>
            </Lap>
        </Activity>
        <Activity Sport="Walking">
            <Id>2020-11-29T14:24:32.232Z</Id>
            <Lap StartTime="2020-11-29T14:24:32.232Z">
                <Track>
                    <Trackpoint>
                        <DistanceMeters>0.0</DistanceMeters>
                        <Time>2020-11-29T14:24:32.232Z</Time>
                    </Trackpoint>
                    <Trackpoint>
                        <DistanceMeters>0.0</DistanceMeters>
                        <Time>2020-11-29T14:24:35.574Z</Time>
                    </Trackpoint>
                    <Trackpoint>
                        <DistanceMeters>71.71063995361328</DistanceMeters>
                        <Time>2020-11-29T14:25:15.709Z</Time>
                        <Position>
                            <LatitudeDegrees>19.870037</LatitudeDegrees>
                            <LongitudeDegrees>75.6047362</LongitudeDegrees>
                        </Position>
                        <AltitudeMeters>488.1999816894531</AltitudeMeters>
                    </Trackpoint>
                    <Trackpoint>
                        <DistanceMeters>71.71063995361328</DistanceMeters>
                        <Time>2020-11-29T14:25:35.642Z</Time>
                    </Trackpoint>
                    <Trackpoint>
                        <DistanceMeters>144.26414489746094</DistanceMeters>
                        <Time>2020-11-29T14:26:36.107Z</Time>
                    </Trackpoint>
                </Track>
                <DistanceMeters>144.26414489746094</DistanceMeters>
                <TotalTimeSeconds>123.875098287</TotalTimeSeconds>
                <Calories>9.495100796222687</Calories>
                <Intensity>Active</Intensity>
                <TriggerMethod>Manual</TriggerMethod>
            </Lap>
        </Activity>
        <Activity Sport="Walking">
            <Id>2020-11-29T14:25:35.642Z</Id>
            <Lap StartTime="2020-11-29T14:25:35.642Z">
                <Track>
                    <Trackpoint>
                        <DistanceMeters>0.0</DistanceMeters>
                        <Time>2020-11-29T14:25:35.642Z</Time>
                    </Trackpoint>
                    <Trackpoint>
                        <DistanceMeters>72.55350494384766</DistanceMeters>
                        <Time>2020-11-29T14:26:15.905Z</Time>
                    </Trackpoint>
                    <Trackpoint>
                        <DistanceMeters>72.55350494384766</DistanceMeters>
                        <Time>2020-11-29T14:26:36.107Z</Time>
                    </Trackpoint>
                    <Trackpoint>
                        <DistanceMeters>148.32293701171875</DistanceMeters>
                        <Time>2020-11-29T14:27:36.493Z</Time>
                    </Trackpoint>
                    <Trackpoint>
                        <DistanceMeters>211.66978454589844</DistanceMeters>
                        <Time>2020-11-29T14:28:37.037Z</Time>
                    </Trackpoint>
                </Track>
                <DistanceMeters>211.66978454589844</DistanceMeters>
                <TotalTimeSeconds>181.39481415</TotalTimeSeconds>
                <Calories>11.374135971069336</Calories>
                <Intensity>Active</Intensity>
                <TriggerMethod>Manual</TriggerMethod>
            </Lap>
        </Activity>
        <Activity Sport="Walking">
            <Id>2020-11-29T14:27:36.493Z</Id>
            <Lap StartTime="2020-11-29T14:27:36.493Z">
                <Track>
                    <Trackpoint>
                        <DistanceMeters>0.0</DistanceMeters>
                        <Time>2020-11-29T14:27:36.493Z</Time>
                    </Trackpoint>
                    <Trackpoint>
                        <DistanceMeters>63.34684753417969</DistanceMeters>
                        <Time>2020-11-29T14:28:16.978Z</Time>
                    </Trackpoint>
                    <Trackpoint>
                        <DistanceMeters>63.34684753417969</DistanceMeters>
                        <Time>2020-11-29T14:28:37.037Z</Time>
                    </Trackpoint>
                    <Trackpoint>
                        <DistanceMeters>115.65544891357422</DistanceMeters>
                        <Time>2020-11-29T14:29:24.057Z</Time>
                    </Trackpoint>
                </Track>
                <DistanceMeters>115.65544891357422</DistanceMeters>
                <TotalTimeSeconds>107.564265424</TotalTimeSeconds>
                <Calories>6.301732540130615</Calories>
                <Intensity>Active</Intensity>
                <TriggerMethod>Manual</TriggerMethod>
            </Lap>
        </Activity>
        <Activity Sport="Walking">
            <Id>2020-11-29T14:29:24.057Z</Id>
            <Lap StartTime="2020-11-29T14:29:24.057Z">
                <Track>
                    <Trackpoint>
                        <DistanceMeters>0.0</DistanceMeters>
                        <Time>2020-11-29T14:29:24.057Z</Time>
                    </Trackpoint>
                    <Trackpoint>
                        <DistanceMeters>0.0</DistanceMeters>
                        <Time>2020-11-29T14:30:40.754Z</Time>
                    </Trackpoint>
                    <Trackpoint>
                        <DistanceMeters>5.497693061828613</DistanceMeters>
                        <Time>2020-11-29T14:31:00.246Z</Time>
                    </Trackpoint>
                    <Trackpoint>
                        <DistanceMeters>57.7257776260376</DistanceMeters>
                        <Time>2020-11-29T14:31:25.106Z</Time>
                        <Position>
                            <LatitudeDegrees>19.869956</LatitudeDegrees>
                            <LongitudeDegrees>75.6048149</LongitudeDegrees>
                        </Position>
                        <AltitudeMeters>488.1999816894531</AltitudeMeters>
                    </Trackpoint>
                    <Trackpoint>
                        <DistanceMeters>57.7257776260376</DistanceMeters>
                        <Time>2020-11-29T14:32:00.633Z</Time>
                    </Trackpoint>
                </Track>
                <DistanceMeters>57.7257776260376</DistanceMeters>
                <TotalTimeSeconds>156.575765972</TotalTimeSeconds>
                <Calories>7.3217127323150635</Calories>
                <Intensity>Active</Intensity>
                <TriggerMethod>Manual</TriggerMethod>
            </Lap>
        </Activity>
        <Activity Sport="Walking">
            <Id>2020-11-29T14:31:00.246Z</Id>
            <Lap StartTime="2020-11-29T14:31:00.246Z">
                <Track>
                    <Trackpoint>
                        <DistanceMeters>0.0</DistanceMeters>
                        <Time>2020-11-29T14:31:00.246Z</Time>
                    </Trackpoint>
                    <Trackpoint>
                        <DistanceMeters>52.228084564208984</DistanceMeters>
                        <Time>2020-11-29T14:31:56.858Z</Time>
                    </Trackpoint>
                    <Trackpoint>
                        <DistanceMeters>52.228084564208984</DistanceMeters>
                        <Time>2020-11-29T14:32:00.633Z</Time>
                    </Trackpoint>
                    <Trackpoint>
                        <DistanceMeters>127.10503005981445</DistanceMeters>
                        <Time>2020-11-29T14:33:00.700Z</Time>
                    </Trackpoint>
                    <Trackpoint>
                        <DistanceMeters>164.97517776489258</DistanceMeters>
                        <Time>2020-11-29T14:33:35.070Z</Time>
                    </Trackpoint>
                </Track>
                <DistanceMeters>164.97517776489258</DistanceMeters>
                <TotalTimeSeconds>154.824302663</TotalTimeSeconds>
                <Calories>8.382661819458008</Calories>
                <Intensity>Active</Intensity>
                <TriggerMethod>Manual</TriggerMethod>
            </Lap>
        </Activity>
        <Activity Sport="Walking">
            <Id>2020-11-29T14:33:00.700Z</Id>
            <Lap StartTime="2020-11-29T14:33:00.700Z">
                <Track>
                    <Trackpoint>
                        <DistanceMeters>0.0</DistanceMeters>
                        <Time>2020-11-29T14:33:00.700Z</Time>
                    </Trackpoint>
                    <Trackpoint>
                        <DistanceMeters>37.870147705078125</DistanceMeters>
                        <Time>2020-11-29T14:33:26.088Z</Time>
                    </Trackpoint>
                    <Trackpoint>
                        <DistanceMeters>37.870147705078125</DistanceMeters>
                        <Time>2020-11-29T14:33:35.070Z</Time>
                    </Trackpoint>
                    <Trackpoint>
                        <DistanceMeters>70.70501708984375</DistanceMeters>
                        <Time>2020-11-29T14:34:00.848Z</Time>
                    </Trackpoint>
                    <Trackpoint>
                        <DistanceMeters>113.59783172607422</DistanceMeters>
                        <Time>2020-11-29T14:34:35.538Z</Time>
                    </Trackpoint>
                    <Trackpoint>
                        <DistanceMeters>145.5385341644287</DistanceMeters>
                        <Time>2020-11-29T14:35:00.997Z</Time>
                    </Trackpoint>
                    <Trackpoint>
                        <DistanceMeters>189.3236141204834</DistanceMeters>
                        <Time>2020-11-29T14:35:36.003Z</Time>
                    </Trackpoint>
                    <Trackpoint>
                        <DistanceMeters>221.22103691101074</DistanceMeters>
                        <Time>2020-11-29T14:36:01.541Z</Time>
                    </Trackpoint>
                    <Trackpoint>
                        <DistanceMeters>265.09362602233887</DistanceMeters>
                        <Time>2020-11-29T14:36:36.388Z</Time>
                    </Trackpoint>
                    <Trackpoint>
                        <DistanceMeters>294.77228355407715</DistanceMeters>
                        <Time>2020-11-29T14:37:02.165Z</Time>
                    </Trackpoint>
                    <Trackpoint>
                        <DistanceMeters>335.64601707458496</DistanceMeters>
                        <Time>2020-11-29T14:37:28.183Z</Time>
                        <Position>
                            <LatitudeDegrees>19.8699844</LatitudeDegrees>
                            <LongitudeDegrees>75.6047588</LongitudeDegrees>
                        </Position>
                        <AltitudeMeters>488.1999816894531</AltitudeMeters>
                    </Trackpoint>
                    <Trackpoint>
                        <DistanceMeters>335.64601707458496</DistanceMeters>
                        <Time>2020-11-29T14:37:36.693Z</Time>
                    </Trackpoint>
                    <Trackpoint>
                        <DistanceMeters>364.41396141052246</DistanceMeters>
                        <Time>2020-11-29T14:38:02.232Z</Time>
                    </Trackpoint>
                    <Trackpoint>
                        <DistanceMeters>404.0973949432373</DistanceMeters>
                        <Time>2020-11-29T14:38:37.079Z</Time>
                    </Trackpoint>
                    <Trackpoint>
                        <DistanceMeters>435.6144027709961</DistanceMeters>
                        <Time>2020-11-29T14:39:03.334Z</Time>
                    </Trackpoint>
                    <Trackpoint>
                        <DistanceMeters>477.8750915527344</DistanceMeters>
                        <Time>2020-11-29T14:39:29.222Z</Time>
                        <Position>
                            <LatitudeDegrees>19.8699952</LatitudeDegrees>
                            <LongitudeDegrees>75.6048125</LongitudeDegrees>
                        </Position>
                        <AltitudeMeters>488.1999816894531</AltitudeMeters>
                    </Trackpoint>
                    <Trackpoint>
                        <DistanceMeters>477.8750915527344</DistanceMeters>
                        <Time>2020-11-29T14:39:37.227Z</Time>
                    </Trackpoint>
                    <Trackpoint>
                        <DistanceMeters>510.4050178527832</DistanceMeters>
                        <Time>2020-11-29T14:40:03.561Z</Time>
                    </Trackpoint>
                    <Trackpoint>
                        <DistanceMeters>537.2062721252441</DistanceMeters>
                        <Time>2020-11-29T14:40:37.453Z</Time>
                    </Trackpoint>
                    <Trackpoint>
                        <DistanceMeters>570.8940010070801</DistanceMeters>
                        <Time>2020-11-29T14:41:03.628Z</Time>
                    </Trackpoint>
                    <Trackpoint>
                        <DistanceMeters>607.1809425354004</DistanceMeters>
                        <Time>2020-11-29T14:41:37.043Z</Time>
                    </Trackpoint>
                </Track>
                <DistanceMeters>607.1809425354004</DistanceMeters>
                <TotalTimeSeconds>516.342890129</TotalTimeSeconds>
                <Calories>45.51222610473633</Calories>
                <Intensity>Active</Intensity>
                <TriggerMethod>Manual</TriggerMethod>
            </Lap>
        </Activity>
        <Activity Sport="Walking">
            <Id>2020-11-29T14:41:03.628Z</Id>
            <Lap StartTime="2020-11-29T14:41:03.628Z">
                <Track>
                    <Trackpoint>
                        <DistanceMeters>0.0</DistanceMeters>
                        <Time>2020-11-29T14:41:03.628Z</Time>
                    </Trackpoint>
                    <Trackpoint>
                        <DistanceMeters>36.28694152832031</DistanceMeters>
                        <Time>2020-11-29T14:41:30.547Z</Time>
                    </Trackpoint>
                    <Trackpoint>
                        <DistanceMeters>36.28694152832031</DistanceMeters>
                        <Time>2020-11-29T14:41:37.043Z</Time>
                    </Trackpoint>
                    <Trackpoint>
                        <DistanceMeters>65.41067695617676</DistanceMeters>
                        <Time>2020-11-29T14:42:04.013Z</Time>
                    </Trackpoint>
                    <Trackpoint>
                        <DistanceMeters>110.04502296447754</DistanceMeters>
                        <Time>2020-11-29T14:42:10.873Z</Time>
                        <Position>
                            <LatitudeDegrees>19.869878</LatitudeDegrees>
                            <LongitudeDegrees>75.6049247</LongitudeDegrees>
                        </Position>
                        <AltitudeMeters>489.1000061035156</AltitudeMeters>
                    </Trackpoint>
                    <Trackpoint>
                        <DistanceMeters>110.04502296447754</DistanceMeters>
                        <Time>2020-11-29T14:42:36.294Z</Time>
                        <Position>
                            <LatitudeDegrees>19.8699692</LatitudeDegrees>
                            <LongitudeDegrees>75.6047851</LongitudeDegrees>
                        </Position>
                        <AltitudeMeters>488.1999816894531</AltitudeMeters>
                    </Trackpoint>
                    <Trackpoint>
                        <DistanceMeters>110.04502296447754</DistanceMeters>
                        <Time>2020-11-29T14:42:39.417Z</Time>
                    </Trackpoint>
                    <Trackpoint>
                        <DistanceMeters>142.29819679260254</DistanceMeters>
                        <Time>2020-11-29T14:43:04.319Z</Time>
                    </Trackpoint>
                    <Trackpoint>
                        <DistanceMeters>181.68175315856934</DistanceMeters>
                        <Time>2020-11-29T14:43:39.803Z</Time>
                    </Trackpoint>
                    <Trackpoint>
                        <DistanceMeters>199.54925537109375</DistanceMeters>
                        <Time>2020-11-29T14:44:04.865Z</Time>
                    </Trackpoint>
                    <Trackpoint>
                        <DistanceMeters>229.78656768798828</DistanceMeters>
                        <Time>2020-11-29T14:44:39.475Z</Time>
                    </Trackpoint>
                </Track>
                <DistanceMeters>229.78656768798828</DistanceMeters>
                <TotalTimeSeconds>215.846777304</TotalTimeSeconds>
                <Calories>14.72945499420166</Calories>
                <Intensity>Active</Intensity>
                <TriggerMethod>Manual</TriggerMethod>
            </Lap>
        </Activity>
        <Activity Sport="Walking">
            <Id>2020-11-29T14:44:04.865Z</Id>
            <Lap StartTime="2020-11-29T14:44:04.865Z">
                <Track>
                    <Trackpoint>
                        <DistanceMeters>0.0</DistanceMeters>
                        <Time>2020-11-29T14:44:04.865Z</Time>
                    </Trackpoint>
                    <Trackpoint>
                        <DistanceMeters>30.23731231689453</DistanceMeters>
                        <Time>2020-11-29T14:44:07.336Z</Time>
                    </Trackpoint>
                    <Trackpoint>
                        <DistanceMeters>30.23731231689453</DistanceMeters>
                        <Time>2020-11-29T14:44:37.410Z</Time>
                        <Position>
                            <LatitudeDegrees>19.8700358</LatitudeDegrees>
                            <LongitudeDegrees>75.6047133</LongitudeDegrees>
                        </Position>
                        <AltitudeMeters>488.1999816894531</AltitudeMeters>
                    </Trackpoint>
                    <Trackpoint>
                        <DistanceMeters>30.23731231689453</DistanceMeters>
                        <Time>2020-11-29T14:44:39.475Z</Time>
                    </Trackpoint>
                    <Trackpoint>
                        <DistanceMeters>59.99344253540039</DistanceMeters>
                        <Time>2020-11-29T14:45:05.094Z</Time>
                    </Trackpoint>
                    <Trackpoint>
                        <DistanceMeters>103.54807662963867</DistanceMeters>
                        <Time>2020-11-29T14:45:42.567Z</Time>
                    </Trackpoint>
                    <Trackpoint>
                        <DistanceMeters>130.5842170715332</DistanceMeters>
                        <Time>2020-11-29T14:46:05.321Z</Time>
                    </Trackpoint>
                    <Trackpoint>
                        <DistanceMeters>169.0320053100586</DistanceMeters>
                        <Time>2020-11-29T14:46:42.952Z</Time>
                    </Trackpoint>
                    <Trackpoint>
                        <DistanceMeters>193.4016933441162</DistanceMeters>
                        <Time>2020-11-29T14:47:07.138Z</Time>
                    </Trackpoint>
                    <Trackpoint>
                        <DistanceMeters>237.64877891540527</DistanceMeters>
                        <Time>2020-11-29T14:47:43.258Z</Time>
                    </Trackpoint>
                    <Trackpoint>
                        <DistanceMeters>263.9513626098633</DistanceMeters>
                        <Time>2020-11-29T14:48:09.910Z</Time>
                    </Trackpoint>
                    <Trackpoint>
                        <DistanceMeters>300.22847747802734</DistanceMeters>
                        <Time>2020-11-29T14:48:39.451Z</Time>
                        <Position>
                            <LatitudeDegrees>19.8699923</LatitudeDegrees>
                            <LongitudeDegrees>75.6047713</LongitudeDegrees>
                        </Position>
                        <AltitudeMeters>488.1999816894531</AltitudeMeters>
                    </Trackpoint>
                    <Trackpoint>
                        <DistanceMeters>409.8946533203125</DistanceMeters>
                        <Time>2020-11-29T14:50:42.423Z</Time>
                    </Trackpoint>
                </Track>
                <DistanceMeters>409.8946533203125</DistanceMeters>
                <TotalTimeSeconds>397.55796682</TotalTimeSeconds>
                <Calories>37.116249084472656</Calories>
                <Intensity>Active</Intensity>
                <TriggerMethod>Manual</TriggerMethod>
            </Lap>
        </Activity>
    </Activities>
    <Author xsi:type="Application_t">
        <Name>Google Fit</Name>
        <Build>
            <Version>
                <VersionMajor>0</VersionMajor>
                <VersionMinor>0</VersionMinor>
                <BuildMajor>0</BuildMajor>
                <BuildMinor>0</BuildMinor>
            </Version>
        </Build>
        <LangID>en</LangID>
        <PartNumber>000-00000-00</PartNumber>
    </Author>
</TrainingCenterDatabase>
