<?xml version="1.0" encoding="UTF-8"?>
<TrainingCenterDatabase
    xmlns="http://www.garmin.com/xmlschemas/TrainingCenterDatabase/v2"
    xmlns:ns2="http://www.garmin.com/xmlschemas/UserProfile/v2"
    xmlns:ns3="http://www.garmin.com/xmlschemas/ActivityExtension/v2"
    xmlns:ns4="http://www.garmin.com/xmlschemas/ProfileExtension/v1"
    xmlns:ns5="http://www.garmin.com/xmlschemas/ActivityGoals/v1"
    xmlns:xsi="http://www.w3.org/2001/XMLSchema-instance" xsi:schemaLocation="http://www.garmin.com/xmlschemas/TrainingCenterDatabase/v2 http://www.garmin.com/xmlschemas/TrainingCenterDatabasev2.xsd">
    <Activities>
        <Activity Sport="Walking">
            <Id>2020-11-14T02:56:54.539Z</Id>
            <Lap StartTime="2020-11-14T02:56:54.539Z">
                <Track>
                    <Trackpoint>
                        <DistanceMeters>0.0</DistanceMeters>
                        <Time>2020-11-14T02:56:54.539Z</Time>
                    </Trackpoint>
                    <Trackpoint>
                        <DistanceMeters>0.0</DistanceMeters>
                        <Time>2020-11-14T03:14:39.810Z</Time>
                    </Trackpoint>
                    <Trackpoint>
                        <DistanceMeters>30.924524307250977</DistanceMeters>
                        <Time>2020-11-14T03:15:18.713Z</Time>
                    </Trackpoint>
                </Track>
                <DistanceMeters>30.924524307250977</DistanceMeters>
                <TotalTimeSeconds>1104.174083306</TotalTimeSeconds>
                <Calories>23.310633897781372</Calories>
                <Intensity>Active</Intensity>
                <TriggerMethod>Manual</TriggerMethod>
            </Lap>
        </Activity>
        <Activity Sport="Walking">
            <Id>2020-11-14T03:14:39.810Z</Id>
            <Lap StartTime="2020-11-14T03:14:39.810Z">
                <Track>
                    <Trackpoint>
                        <DistanceMeters>0.0</DistanceMeters>
                        <Time>2020-11-14T03:14:39.810Z</Time>
                    </Trackpoint>
                    <Trackpoint>
                        <DistanceMeters>30.924524307250977</DistanceMeters>
                        <Time>2020-11-14T03:14:51.771Z</Time>
                    </Trackpoint>
                    <Trackpoint>
                        <DistanceMeters>30.924524307250977</DistanceMeters>
                        <Time>2020-11-14T03:15:18.713Z</Time>
                    </Trackpoint>
                    <Trackpoint>
                        <DistanceMeters>38.48385238647461</DistanceMeters>
                        <Time>2020-11-14T03:15:37.467Z</Time>
                    </Trackpoint>
                    <Trackpoint>
                        <DistanceMeters>77.65491485595703</DistanceMeters>
                        <Time>2020-11-14T03:16:27.376Z</Time>
                    </Trackpoint>
                    <Trackpoint>
                        <DistanceMeters>88.65030097961426</DistanceMeters>
                        <Time>2020-11-14T03:16:42.889Z</Time>
                    </Trackpoint>
                </Track>
                <DistanceMeters>88.65030097961426</DistanceMeters>
                <TotalTimeSeconds>123.079223179</TotalTimeSeconds>
                <Calories>10.127492904663086</Calories>
                <Intensity>Active</Intensity>
                <TriggerMethod>Manual</TriggerMethod>
            </Lap>
        </Activity>
        <Activity Sport="Walking">
            <Id>2020-11-14T03:16:27.376Z</Id>
            <Lap StartTime="2020-11-14T03:16:27.376Z">
                <Track>
                    <Trackpoint>
                        <DistanceMeters>0.0</DistanceMeters>
                        <Time>2020-11-14T03:16:27.376Z</Time>
                    </Trackpoint>
                    <Trackpoint>
                        <DistanceMeters>10.995386123657227</DistanceMeters>
                        <Time>2020-11-14T03:16:39.574Z</Time>
                    </Trackpoint>
                    <Trackpoint>
                        <DistanceMeters>10.995386123657227</DistanceMeters>
                        <Time>2020-11-14T03:16:42.889Z</Time>
                    </Trackpoint>
                    <Trackpoint>
                        <DistanceMeters>59.27566337585449</DistanceMeters>
                        <Time>2020-11-14T03:17:29.988Z</Time>
                    </Trackpoint>
                </Track>
                <DistanceMeters>59.27566337585449</DistanceMeters>
                <TotalTimeSeconds>62.612561384</TotalTimeSeconds>
                <Calories>4.73616886138916</Calories>
                <Intensity>Active</Intensity>
                <TriggerMethod>Manual</TriggerMethod>
            </Lap>
        </Activity>
        <Activity Sport="Walking">
            <Id>2020-11-14T03:28:25.208Z</Id>
            <Lap StartTime="2020-11-14T03:28:25.208Z">
                <Track>
                    <Trackpoint>
                        <DistanceMeters>0.0</DistanceMeters>
                        <Time>2020-11-14T03:28:25.208Z</Time>
                    </Trackpoint>
                    <Trackpoint>
                        <DistanceMeters>0.0</DistanceMeters>
                        <Time>2020-11-14T03:31:38.726Z</Time>
                    </Trackpoint>
                    <Trackpoint>
                        <DistanceMeters>4.123270034790039</DistanceMeters>
                        <Time>2020-11-14T03:34:10.687Z</Time>
                    </Trackpoint>
                    <Trackpoint>
                        <DistanceMeters>42.60712242126465</DistanceMeters>
                        <Time>2020-11-14T03:37:03.552Z</Time>
                    </Trackpoint>
                    <Trackpoint>
                        <DistanceMeters>44.011831760406494</DistanceMeters>
                        <Time>2020-11-14T03:37:38.478Z</Time>
                    </Trackpoint>
                    <Trackpoint>
                        <DistanceMeters>68.7514500617981</DistanceMeters>
                        <Time>2020-11-14T03:38:29.239Z</Time>
                    </Trackpoint>
                </Track>
                <DistanceMeters>68.7514500617981</DistanceMeters>
                <TotalTimeSeconds>604.031511235</TotalTimeSeconds>
                <Calories>54.37879943847656</Calories>
                <Intensity>Active</Intensity>
                <TriggerMethod>Manual</TriggerMethod>
            </Lap>
        </Activity>
    </Activities>
    <Author xsi:type="Application_t">
        <Name>Google Fit</Name>
        <Build>
            <Version>
                <VersionMajor>0</VersionMajor>
                <VersionMinor>0</VersionMinor>
                <BuildMajor>0</BuildMajor>
                <BuildMinor>0</BuildMinor>
            </Version>
        </Build>
        <LangID>en</LangID>
        <PartNumber>000-00000-00</PartNumber>
    </Author>
</TrainingCenterDatabase>
