<?xml version="1.0" encoding="UTF-8"?>
<TrainingCenterDatabase
    xmlns="http://www.garmin.com/xmlschemas/TrainingCenterDatabase/v2"
    xmlns:ns2="http://www.garmin.com/xmlschemas/UserProfile/v2"
    xmlns:ns3="http://www.garmin.com/xmlschemas/ActivityExtension/v2"
    xmlns:ns4="http://www.garmin.com/xmlschemas/ProfileExtension/v1"
    xmlns:ns5="http://www.garmin.com/xmlschemas/ActivityGoals/v1"
    xmlns:xsi="http://www.w3.org/2001/XMLSchema-instance" xsi:schemaLocation="http://www.garmin.com/xmlschemas/TrainingCenterDatabase/v2 http://www.garmin.com/xmlschemas/TrainingCenterDatabasev2.xsd">
    <Activities>
        <Activity Sport="Walking">
            <Id>2020-11-20T05:14:59.459Z</Id>
            <Lap StartTime="2020-11-20T05:14:59.459Z">
                <Track>
                    <Trackpoint>
                        <DistanceMeters>0.0</DistanceMeters>
                        <Time>2020-11-20T05:14:59.459Z</Time>
                    </Trackpoint>
                    <Trackpoint>
                        <DistanceMeters>35.73500442504883</DistanceMeters>
                        <Time>2020-11-20T05:15:49.115Z</Time>
                    </Trackpoint>
                </Track>
                <DistanceMeters>35.73500442504883</DistanceMeters>
                <TotalTimeSeconds>49.656</TotalTimeSeconds>
                <Calories>4.579697132110596</Calories>
                <Intensity>Active</Intensity>
                <TriggerMethod>Manual</TriggerMethod>
            </Lap>
        </Activity>
        <Activity Sport="Walking">
            <Id>2020-11-20T05:14:59.459Z</Id>
            <Lap StartTime="2020-11-20T05:14:59.459Z">
                <Track>
                    <Trackpoint>
                        <DistanceMeters>0.0</DistanceMeters>
                        <Time>2020-11-20T05:14:59.459Z</Time>
                    </Trackpoint>
                    <Trackpoint>
                        <DistanceMeters>35.73500442504883</DistanceMeters>
                        <Time>2020-11-20T05:15:48.208Z</Time>
                    </Trackpoint>
                    <Trackpoint>
                        <DistanceMeters>35.73500442504883</DistanceMeters>
                        <Time>2020-11-20T05:15:49.115Z</Time>
                    </Trackpoint>
                    <Trackpoint>
                        <DistanceMeters>91.3991470336914</DistanceMeters>
                        <Time>2020-11-20T05:16:53.652Z</Time>
                    </Trackpoint>
                    <Trackpoint>
                        <DistanceMeters>145.6888656616211</DistanceMeters>
                        <Time>2020-11-20T05:17:49.225Z</Time>
                        <Position>
                            <LatitudeDegrees>19.8478719</LatitudeDegrees>
                            <LongitudeDegrees>75.3040928</LongitudeDegrees>
                        </Position>
                        <AltitudeMeters>478.5</AltitudeMeters>
                    </Trackpoint>
                    <Trackpoint>
                        <DistanceMeters>145.6888656616211</DistanceMeters>
                        <Time>2020-11-20T05:17:51.506Z</Time>
                    </Trackpoint>
                    <Trackpoint>
                        <DistanceMeters>146.37607729434967</DistanceMeters>
                        <Time>2020-11-20T05:17:53.018Z</Time>
                    </Trackpoint>
                    <Trackpoint>
                        <DistanceMeters>184.85992968082428</DistanceMeters>
                        <Time>2020-11-20T05:18:51.512Z</Time>
                    </Trackpoint>
                </Track>
                <DistanceMeters>184.85992968082428</DistanceMeters>
                <TotalTimeSeconds>232.053</TotalTimeSeconds>
                <Calories>14.443299293518066</Calories>
                <Intensity>Active</Intensity>
                <TriggerMethod>Manual</TriggerMethod>
            </Lap>
        </Activity>
        <Activity Sport="Walking">
            <Id>2020-11-20T05:21:51.379Z</Id>
            <Lap StartTime="2020-11-20T05:21:51.379Z">
                <Track>
                    <Trackpoint>
                        <DistanceMeters>0.0</DistanceMeters>
                        <Time>2020-11-20T05:21:51.379Z</Time>
                    </Trackpoint>
                    <Trackpoint>
                        <DistanceMeters>0.0</DistanceMeters>
                        <Time>2020-11-20T05:22:26.997Z</Time>
                    </Trackpoint>
                    <Trackpoint>
                        <DistanceMeters>14.43144416809082</DistanceMeters>
                        <Time>2020-11-20T05:22:51.947Z</Time>
                    </Trackpoint>
                    <Trackpoint>
                        <DistanceMeters>19.929137229919434</DistanceMeters>
                        <Time>2020-11-20T05:23:29.453Z</Time>
                    </Trackpoint>
                    <Trackpoint>
                        <DistanceMeters>48.10481357574463</DistanceMeters>
                        <Time>2020-11-20T05:24:30.561Z</Time>
                    </Trackpoint>
                    <Trackpoint>
                        <DistanceMeters>69.40837383270264</DistanceMeters>
                        <Time>2020-11-20T05:24:58.813Z</Time>
                    </Trackpoint>
                    <Trackpoint>
                        <DistanceMeters>88.65030002593994</DistanceMeters>
                        <Time>2020-11-20T05:25:31.117Z</Time>
                    </Trackpoint>
                    <Trackpoint>
                        <DistanceMeters>98.2712631225586</DistanceMeters>
                        <Time>2020-11-20T05:26:39.701Z</Time>
                    </Trackpoint>
                    <Trackpoint>
                        <DistanceMeters>114.76434326171875</DistanceMeters>
                        <Time>2020-11-20T05:27:21.154Z</Time>
                    </Trackpoint>
                    <Trackpoint>
                        <DistanceMeters>123.69809436798096</DistanceMeters>
                        <Time>2020-11-20T05:27:37.625Z</Time>
                    </Trackpoint>
                    <Trackpoint>
                        <DistanceMeters>129.19578742980957</DistanceMeters>
                        <Time>2020-11-20T05:27:54.482Z</Time>
                    </Trackpoint>
                    <Trackpoint>
                        <DistanceMeters>137.44232749938965</DistanceMeters>
                        <Time>2020-11-20T05:28:08.242Z</Time>
                    </Trackpoint>
                </Track>
                <DistanceMeters>137.44232749938965</DistanceMeters>
                <TotalTimeSeconds>376.863</TotalTimeSeconds>
                <Calories>34.550228118896484</Calories>
                <Intensity>Active</Intensity>
                <TriggerMethod>Manual</TriggerMethod>
            </Lap>
        </Activity>
    </Activities>
    <Author xsi:type="Application_t">
        <Name>Google Fit</Name>
        <Build>
            <Version>
                <VersionMajor>0</VersionMajor>
                <VersionMinor>0</VersionMinor>
                <BuildMajor>0</BuildMajor>
                <BuildMinor>0</BuildMinor>
            </Version>
        </Build>
        <LangID>en</LangID>
        <PartNumber>000-00000-00</PartNumber>
    </Author>
</TrainingCenterDatabase>
