<?xml version="1.0" encoding="UTF-8"?>
<TrainingCenterDatabase
    xmlns="http://www.garmin.com/xmlschemas/TrainingCenterDatabase/v2"
    xmlns:ns2="http://www.garmin.com/xmlschemas/UserProfile/v2"
    xmlns:ns3="http://www.garmin.com/xmlschemas/ActivityExtension/v2"
    xmlns:ns4="http://www.garmin.com/xmlschemas/ProfileExtension/v1"
    xmlns:ns5="http://www.garmin.com/xmlschemas/ActivityGoals/v1"
    xmlns:xsi="http://www.w3.org/2001/XMLSchema-instance" xsi:schemaLocation="http://www.garmin.com/xmlschemas/TrainingCenterDatabase/v2 http://www.garmin.com/xmlschemas/TrainingCenterDatabasev2.xsd">
    <Activities>
        <Activity Sport="Walking">
            <Id>2020-11-13T15:21:32.417Z</Id>
            <Lap StartTime="2020-11-13T15:21:32.417Z">
                <Track>
                    <Trackpoint>
                        <DistanceMeters>0.0</DistanceMeters>
                        <Time>2020-11-13T15:21:32.417Z</Time>
                    </Trackpoint>
                    <Trackpoint>
                        <DistanceMeters>0.0</DistanceMeters>
                        <Time>2020-11-13T15:27:37.004Z</Time>
                    </Trackpoint>
                    <Trackpoint>
                        <DistanceMeters>41.9199104309082</DistanceMeters>
                        <Time>2020-11-13T15:28:34.454Z</Time>
                    </Trackpoint>
                </Track>
                <DistanceMeters>41.9199104309082</DistanceMeters>
                <TotalTimeSeconds>422.037846599</TotalTimeSeconds>
                <Calories>12.94821310043335</Calories>
                <Intensity>Active</Intensity>
                <TriggerMethod>Manual</TriggerMethod>
            </Lap>
        </Activity>
        <Activity Sport="Walking">
            <Id>2020-11-13T15:27:37.004Z</Id>
            <Lap StartTime="2020-11-13T15:27:37.004Z">
                <Track>
                    <Trackpoint>
                        <DistanceMeters>0.0</DistanceMeters>
                        <Time>2020-11-13T15:27:37.004Z</Time>
                    </Trackpoint>
                    <Trackpoint>
                        <DistanceMeters>41.9199104309082</DistanceMeters>
                        <Time>2020-11-13T15:28:34.004Z</Time>
                    </Trackpoint>
                    <Trackpoint>
                        <DistanceMeters>41.9199104309082</DistanceMeters>
                        <Time>2020-11-13T15:28:34.454Z</Time>
                    </Trackpoint>
                    <Trackpoint>
                        <DistanceMeters>75.59328079223633</DistanceMeters>
                        <Time>2020-11-13T15:29:42.090Z</Time>
                    </Trackpoint>
                    <Trackpoint>
                        <DistanceMeters>114.76434326171875</DistanceMeters>
                        <Time>2020-11-13T15:31:32.296Z</Time>
                    </Trackpoint>
                    <Trackpoint>
                        <DistanceMeters>120.26203632354736</DistanceMeters>
                        <Time>2020-11-13T15:31:44.709Z</Time>
                    </Trackpoint>
                    <Trackpoint>
                        <DistanceMeters>149.81213665008545</DistanceMeters>
                        <Time>2020-11-13T15:32:45.420Z</Time>
                    </Trackpoint>
                    <Trackpoint>
                        <DistanceMeters>175.92617893218994</DistanceMeters>
                        <Time>2020-11-13T15:34:45.809Z</Time>
                    </Trackpoint>
                    <Trackpoint>
                        <DistanceMeters>197.9169511795044</DistanceMeters>
                        <Time>2020-11-13T15:36:51.050Z</Time>
                    </Trackpoint>
                    <Trackpoint>
                        <DistanceMeters>237.7752275466919</DistanceMeters>
                        <Time>2020-11-13T15:37:52.795Z</Time>
                    </Trackpoint>
                    <Trackpoint>
                        <DistanceMeters>272.13580799102783</DistanceMeters>
                        <Time>2020-11-13T15:38:51.278Z</Time>
                    </Trackpoint>
                    <Trackpoint>
                        <DistanceMeters>272.8230196237564</DistanceMeters>
                        <Time>2020-11-13T15:38:53.745Z</Time>
                    </Trackpoint>
                    <Trackpoint>
                        <DistanceMeters>320.9278322458267</DistanceMeters>
                        <Time>2020-11-13T15:39:53.340Z</Time>
                    </Trackpoint>
                    <Trackpoint>
                        <DistanceMeters>321.6150438785553</DistanceMeters>
                        <Time>2020-11-13T15:39:54.534Z</Time>
                    </Trackpoint>
                    <Trackpoint>
                        <DistanceMeters>372.4815866947174</DistanceMeters>
                        <Time>2020-11-13T15:40:55.402Z</Time>
                    </Trackpoint>
                    <Trackpoint>
                        <DistanceMeters>406.15495705604553</DistanceMeters>
                        <Time>2020-11-13T15:41:55.634Z</Time>
                    </Trackpoint>
                    <Trackpoint>
                        <DistanceMeters>446.01323342323303</DistanceMeters>
                        <Time>2020-11-13T15:42:54.831Z</Time>
                    </Trackpoint>
                </Track>
                <DistanceMeters>446.01323342323303</DistanceMeters>
                <TotalTimeSeconds>917.82669549</TotalTimeSeconds>
                <Calories>78.06218719482422</Calories>
                <Intensity>Active</Intensity>
                <TriggerMethod>Manual</TriggerMethod>
            </Lap>
        </Activity>
        <Activity Sport="Walking">
            <Id>2020-11-13T15:42:24.944Z</Id>
            <Lap StartTime="2020-11-13T15:42:24.944Z">
                <Track>
                    <Trackpoint>
                        <DistanceMeters>0.0</DistanceMeters>
                        <Time>2020-11-13T15:42:24.944Z</Time>
                    </Trackpoint>
                    <Trackpoint>
                        <DistanceMeters>0.0</DistanceMeters>
                        <Time>2020-11-13T15:44:10.659Z</Time>
                    </Trackpoint>
                    <Trackpoint>
                        <DistanceMeters>0.6872116327285767</DistanceMeters>
                        <Time>2020-11-13T15:44:11.772Z</Time>
                    </Trackpoint>
                    <Trackpoint>
                        <DistanceMeters>63.211557030677795</DistanceMeters>
                        <Time>2020-11-13T15:45:11.925Z</Time>
                    </Trackpoint>
                    <Trackpoint>
                        <DistanceMeters>116.12685167789459</DistanceMeters>
                        <Time>2020-11-13T15:46:12.315Z</Time>
                    </Trackpoint>
                </Track>
                <DistanceMeters>116.12685167789459</DistanceMeters>
                <TotalTimeSeconds>227.371173605</TotalTimeSeconds>
                <Calories>9.390787363052368</Calories>
                <Intensity>Active</Intensity>
                <TriggerMethod>Manual</TriggerMethod>
            </Lap>
        </Activity>
        <Activity Sport="Walking">
            <Id>2020-11-13T15:45:11.925Z</Id>
            <Lap StartTime="2020-11-13T15:45:11.925Z">
                <Track>
                    <Trackpoint>
                        <DistanceMeters>0.0</DistanceMeters>
                        <Time>2020-11-13T15:45:11.925Z</Time>
                    </Trackpoint>
                    <Trackpoint>
                        <DistanceMeters>52.9152946472168</DistanceMeters>
                        <Time>2020-11-13T15:45:28.050Z</Time>
                    </Trackpoint>
                    <Trackpoint>
                        <DistanceMeters>52.9152946472168</DistanceMeters>
                        <Time>2020-11-13T15:46:12.315Z</Time>
                    </Trackpoint>
                    <Trackpoint>
                        <DistanceMeters>112.3332633972168</DistanceMeters>
                        <Time>2020-11-13T15:47:15.090Z</Time>
                    </Trackpoint>
                    <Trackpoint>
                        <DistanceMeters>178.7361183166504</DistanceMeters>
                        <Time>2020-11-13T15:48:13.331Z</Time>
                    </Trackpoint>
                    <Trackpoint>
                        <DistanceMeters>247.2995948791504</DistanceMeters>
                        <Time>2020-11-13T15:49:13.481Z</Time>
                    </Trackpoint>
                    <Trackpoint>
                        <DistanceMeters>314.84164810180664</DistanceMeters>
                        <Time>2020-11-13T15:50:13.629Z</Time>
                    </Trackpoint>
                    <Trackpoint>
                        <DistanceMeters>375.27915954589844</DistanceMeters>
                        <Time>2020-11-13T15:51:14.095Z</Time>
                    </Trackpoint>
                    <Trackpoint>
                        <DistanceMeters>448.80047607421875</DistanceMeters>
                        <Time>2020-11-13T15:52:14.718Z</Time>
                    </Trackpoint>
                    <Trackpoint>
                        <DistanceMeters>519.3505096435547</DistanceMeters>
                        <Time>2020-11-13T15:53:15.023Z</Time>
                    </Trackpoint>
                    <Trackpoint>
                        <DistanceMeters>565.3936882019043</DistanceMeters>
                        <Time>2020-11-13T15:54:07.135Z</Time>
                    </Trackpoint>
                </Track>
                <DistanceMeters>565.3936882019043</DistanceMeters>
                <TotalTimeSeconds>535.210029949</TotalTimeSeconds>
                <Calories>47.91250991821289</Calories>
                <Intensity>Active</Intensity>
                <TriggerMethod>Manual</TriggerMethod>
            </Lap>
        </Activity>
        <Activity Sport="Walking">
            <Id>2020-11-13T15:53:15.023Z</Id>
            <Lap StartTime="2020-11-13T15:53:15.023Z">
                <Track>
                    <Trackpoint>
                        <DistanceMeters>0.0</DistanceMeters>
                        <Time>2020-11-13T15:53:15.023Z</Time>
                    </Trackpoint>
                    <Trackpoint>
                        <DistanceMeters>46.04317855834961</DistanceMeters>
                        <Time>2020-11-13T15:53:58.059Z</Time>
                    </Trackpoint>
                    <Trackpoint>
                        <DistanceMeters>46.04317855834961</DistanceMeters>
                        <Time>2020-11-13T15:54:07.135Z</Time>
                    </Trackpoint>
                </Track>
                <DistanceMeters>46.04317855834961</DistanceMeters>
                <TotalTimeSeconds>52.111567528</TotalTimeSeconds>
                <Calories>0.8526597619056702</Calories>
                <Intensity>Active</Intensity>
                <TriggerMethod>Manual</TriggerMethod>
            </Lap>
        </Activity>
    </Activities>
    <Author xsi:type="Application_t">
        <Name>Google Fit</Name>
        <Build>
            <Version>
                <VersionMajor>0</VersionMajor>
                <VersionMinor>0</VersionMinor>
                <BuildMajor>0</BuildMajor>
                <BuildMinor>0</BuildMinor>
            </Version>
        </Build>
        <LangID>en</LangID>
        <PartNumber>000-00000-00</PartNumber>
    </Author>
</TrainingCenterDatabase>
