<?xml version="1.0" encoding="UTF-8"?>
<TrainingCenterDatabase
    xmlns="http://www.garmin.com/xmlschemas/TrainingCenterDatabase/v2"
    xmlns:ns2="http://www.garmin.com/xmlschemas/UserProfile/v2"
    xmlns:ns3="http://www.garmin.com/xmlschemas/ActivityExtension/v2"
    xmlns:ns4="http://www.garmin.com/xmlschemas/ProfileExtension/v1"
    xmlns:ns5="http://www.garmin.com/xmlschemas/ActivityGoals/v1"
    xmlns:xsi="http://www.w3.org/2001/XMLSchema-instance" xsi:schemaLocation="http://www.garmin.com/xmlschemas/TrainingCenterDatabase/v2 http://www.garmin.com/xmlschemas/TrainingCenterDatabasev2.xsd">
    <Activities>
        <Activity Sport="Walking">
            <Id>2020-10-25T14:19:42.094Z</Id>
            <Lap StartTime="2020-10-25T14:19:42.094Z">
                <Track>
                    <Trackpoint>
                        <DistanceMeters>0.0</DistanceMeters>
                        <Time>2020-10-25T14:19:42.094Z</Time>
                    </Trackpoint>
                    <Trackpoint>
                        <DistanceMeters>0.0</DistanceMeters>
                        <Time>2020-10-25T14:23:57.400Z</Time>
                    </Trackpoint>
                    <Trackpoint>
                        <DistanceMeters>41.232696533203125</DistanceMeters>
                        <Time>2020-10-25T14:24:57.469Z</Time>
                    </Trackpoint>
                </Track>
                <DistanceMeters>41.232696533203125</DistanceMeters>
                <TotalTimeSeconds>315.375541612</TotalTimeSeconds>
                <Calories>7.543473958969116</Calories>
                <Intensity>Active</Intensity>
                <TriggerMethod>Manual</TriggerMethod>
            </Lap>
        </Activity>
        <Activity Sport="Walking">
            <Id>2020-10-25T14:23:57.400Z</Id>
            <Lap StartTime="2020-10-25T14:23:57.400Z">
                <Track>
                    <Trackpoint>
                        <DistanceMeters>0.0</DistanceMeters>
                        <Time>2020-10-25T14:23:57.400Z</Time>
                    </Trackpoint>
                    <Trackpoint>
                        <DistanceMeters>41.232696533203125</DistanceMeters>
                        <Time>2020-10-25T14:24:21.096Z</Time>
                    </Trackpoint>
                    <Trackpoint>
                        <DistanceMeters>41.232696533203125</DistanceMeters>
                        <Time>2020-10-25T14:24:57.469Z</Time>
                    </Trackpoint>
                    <Trackpoint>
                        <DistanceMeters>85.21424102783203</DistanceMeters>
                        <Time>2020-10-25T14:25:58.093Z</Time>
                    </Trackpoint>
                </Track>
                <DistanceMeters>85.21424102783203</DistanceMeters>
                <TotalTimeSeconds>120.693231725</TotalTimeSeconds>
                <Calories>8.438934326171875</Calories>
                <Intensity>Active</Intensity>
                <TriggerMethod>Manual</TriggerMethod>
            </Lap>
        </Activity>
        <Activity Sport="Walking">
            <Id>2020-10-25T14:24:57.469Z</Id>
            <Lap StartTime="2020-10-25T14:24:57.469Z">
                <Track>
                    <Trackpoint>
                        <DistanceMeters>0.0</DistanceMeters>
                        <Time>2020-10-25T14:24:57.469Z</Time>
                    </Trackpoint>
                    <Trackpoint>
                        <DistanceMeters>43.981544494628906</DistanceMeters>
                        <Time>2020-10-25T14:25:50.925Z</Time>
                    </Trackpoint>
                    <Trackpoint>
                        <DistanceMeters>43.981544494628906</DistanceMeters>
                        <Time>2020-10-25T14:25:58.093Z</Time>
                    </Trackpoint>
                    <Trackpoint>
                        <DistanceMeters>90.02472305297852</DistanceMeters>
                        <Time>2020-10-25T14:26:56.410Z</Time>
                    </Trackpoint>
                </Track>
                <DistanceMeters>90.02472305297852</DistanceMeters>
                <TotalTimeSeconds>118.940793392</TotalTimeSeconds>
                <Calories>6.151983261108398</Calories>
                <Intensity>Active</Intensity>
                <TriggerMethod>Manual</TriggerMethod>
            </Lap>
        </Activity>
        <Activity Sport="Walking">
            <Id>2020-10-25T14:32:08.149Z</Id>
            <Lap StartTime="2020-10-25T14:32:08.149Z">
                <Track>
                    <Trackpoint>
                        <DistanceMeters>0.0</DistanceMeters>
                        <Time>2020-10-25T14:32:08.149Z</Time>
                    </Trackpoint>
                    <Trackpoint>
                        <DistanceMeters>0.0</DistanceMeters>
                        <Time>2020-10-25T14:32:14.016Z</Time>
                    </Trackpoint>
                    <Trackpoint>
                        <DistanceMeters>10.995386123657227</DistanceMeters>
                        <Time>2020-10-25T14:32:37.090Z</Time>
                    </Trackpoint>
                    <Trackpoint>
                        <DistanceMeters>63.22347068786621</DistanceMeters>
                        <Time>2020-10-25T14:33:37.637Z</Time>
                    </Trackpoint>
                </Track>
                <DistanceMeters>63.22347068786621</DistanceMeters>
                <TotalTimeSeconds>89.488753148</TotalTimeSeconds>
                <Calories>5.811403274536133</Calories>
                <Intensity>Active</Intensity>
                <TriggerMethod>Manual</TriggerMethod>
            </Lap>
        </Activity>
        <Activity Sport="Walking">
            <Id>2020-10-25T14:32:37.090Z</Id>
            <Lap StartTime="2020-10-25T14:32:37.090Z">
                <Track>
                    <Trackpoint>
                        <DistanceMeters>0.0</DistanceMeters>
                        <Time>2020-10-25T14:32:37.090Z</Time>
                    </Trackpoint>
                    <Trackpoint>
                        <DistanceMeters>52.228084564208984</DistanceMeters>
                        <Time>2020-10-25T14:33:10.009Z</Time>
                    </Trackpoint>
                    <Trackpoint>
                        <DistanceMeters>52.228084564208984</DistanceMeters>
                        <Time>2020-10-25T14:33:37.637Z</Time>
                    </Trackpoint>
                </Track>
                <DistanceMeters>52.228084564208984</DistanceMeters>
                <TotalTimeSeconds>60.547294978</TotalTimeSeconds>
                <Calories>2.5955679416656494</Calories>
                <Intensity>Active</Intensity>
                <TriggerMethod>Manual</TriggerMethod>
            </Lap>
        </Activity>
        <Activity Sport="Walking">
            <Id>2020-10-25T14:37:42.253Z</Id>
            <Lap StartTime="2020-10-25T14:37:42.253Z">
                <Track>
                    <Trackpoint>
                        <DistanceMeters>0.0</DistanceMeters>
                        <Time>2020-10-25T14:37:42.253Z</Time>
                    </Trackpoint>
                    <Trackpoint>
                        <DistanceMeters>0.0</DistanceMeters>
                        <Time>2020-10-25T14:39:27.475Z</Time>
                    </Trackpoint>
                    <Trackpoint>
                        <DistanceMeters>8.246540069580078</DistanceMeters>
                        <Time>2020-10-25T14:39:47.684Z</Time>
                    </Trackpoint>
                    <Trackpoint>
                        <DistanceMeters>29.550100326538086</DistanceMeters>
                        <Time>2020-10-25T14:40:43.695Z</Time>
                    </Trackpoint>
                </Track>
                <DistanceMeters>29.550100326538086</DistanceMeters>
                <TotalTimeSeconds>181.442976893</TotalTimeSeconds>
                <Calories>15.341033935546875</Calories>
                <Intensity>Active</Intensity>
                <TriggerMethod>Manual</TriggerMethod>
            </Lap>
        </Activity>
        <Activity Sport="Walking">
            <Id>2020-10-25T14:40:25.552Z</Id>
            <Lap StartTime="2020-10-25T14:40:25.552Z">
                <Track>
                    <Trackpoint>
                        <DistanceMeters>0.0</DistanceMeters>
                        <Time>2020-10-25T14:40:25.552Z</Time>
                    </Trackpoint>
                    <Trackpoint>
                        <DistanceMeters>0.0</DistanceMeters>
                        <Time>2020-10-25T14:46:30.584Z</Time>
                    </Trackpoint>
                    <Trackpoint>
                        <DistanceMeters>35.047794342041016</DistanceMeters>
                        <Time>2020-10-25T14:47:30.733Z</Time>
                    </Trackpoint>
                    <Trackpoint>
                        <DistanceMeters>90.02472305297852</DistanceMeters>
                        <Time>2020-10-25T14:48:31.041Z</Time>
                    </Trackpoint>
                </Track>
                <DistanceMeters>90.02472305297852</DistanceMeters>
                <TotalTimeSeconds>485.489711397</TotalTimeSeconds>
                <Calories>10.644647240638733</Calories>
                <Intensity>Active</Intensity>
                <TriggerMethod>Manual</TriggerMethod>
            </Lap>
        </Activity>
        <Activity Sport="Walking">
            <Id>2020-10-25T14:47:30.733Z</Id>
            <Lap StartTime="2020-10-25T14:47:30.733Z">
                <Track>
                    <Trackpoint>
                        <DistanceMeters>0.0</DistanceMeters>
                        <Time>2020-10-25T14:47:30.733Z</Time>
                    </Trackpoint>
                    <Trackpoint>
                        <DistanceMeters>54.9769287109375</DistanceMeters>
                        <Time>2020-10-25T14:47:49.778Z</Time>
                    </Trackpoint>
                    <Trackpoint>
                        <DistanceMeters>54.9769287109375</DistanceMeters>
                        <Time>2020-10-25T14:48:31.041Z</Time>
                    </Trackpoint>
                    <Trackpoint>
                        <DistanceMeters>100.3328971862793</DistanceMeters>
                        <Time>2020-10-25T14:49:31.122Z</Time>
                    </Trackpoint>
                </Track>
                <DistanceMeters>100.3328971862793</DistanceMeters>
                <TotalTimeSeconds>120.388977955</TotalTimeSeconds>
                <Calories>9.520705223083496</Calories>
                <Intensity>Active</Intensity>
                <TriggerMethod>Manual</TriggerMethod>
            </Lap>
        </Activity>
        <Activity Sport="Walking">
            <Id>2020-10-25T14:49:31.122Z</Id>
            <Lap StartTime="2020-10-25T14:49:31.122Z">
                <Track>
                    <Trackpoint>
                        <DistanceMeters>0.0</DistanceMeters>
                        <Time>2020-10-25T14:49:31.122Z</Time>
                    </Trackpoint>
                    <Trackpoint>
                        <DistanceMeters>0.0</DistanceMeters>
                        <Time>2020-10-25T14:54:06.627Z</Time>
                    </Trackpoint>
                    <Trackpoint>
                        <DistanceMeters>4.414518356323242</DistanceMeters>
                        <Time>2020-10-25T14:54:08.695Z</Time>
                    </Trackpoint>
                    <Trackpoint>
                        <DistanceMeters>59.39144706726074</DistanceMeters>
                        <Time>2020-10-25T14:55:09.317Z</Time>
                    </Trackpoint>
                </Track>
                <DistanceMeters>59.39144706726074</DistanceMeters>
                <TotalTimeSeconds>338.19528472</TotalTimeSeconds>
                <Calories>6.557349622249603</Calories>
                <Intensity>Active</Intensity>
                <TriggerMethod>Manual</TriggerMethod>
            </Lap>
        </Activity>
        <Activity Sport="Walking">
            <Id>2020-10-25T14:54:08.695Z</Id>
            <Lap StartTime="2020-10-25T14:54:08.695Z">
                <Track>
                    <Trackpoint>
                        <DistanceMeters>0.0</DistanceMeters>
                        <Time>2020-10-25T14:54:08.695Z</Time>
                    </Trackpoint>
                    <Trackpoint>
                        <DistanceMeters>54.9769287109375</DistanceMeters>
                        <Time>2020-10-25T14:54:15.348Z</Time>
                    </Trackpoint>
                    <Trackpoint>
                        <DistanceMeters>54.9769287109375</DistanceMeters>
                        <Time>2020-10-25T14:55:09.317Z</Time>
                    </Trackpoint>
                    <Trackpoint>
                        <DistanceMeters>67.3467378616333</DistanceMeters>
                        <Time>2020-10-25T14:55:26.025Z</Time>
                    </Trackpoint>
                    <Trackpoint>
                        <DistanceMeters>72.84443092346191</DistanceMeters>
                        <Time>2020-10-25T14:55:43.210Z</Time>
                    </Trackpoint>
                    <Trackpoint>
                        <DistanceMeters>101.1440372467041</DistanceMeters>
                        <Time>2020-10-25T14:56:18.933Z</Time>
                    </Trackpoint>
                    <Trackpoint>
                        <DistanceMeters>119.01153945922852</DistanceMeters>
                        <Time>2020-10-25T14:56:43.915Z</Time>
                    </Trackpoint>
                    <Trackpoint>
                        <DistanceMeters>127.94529056549072</DistanceMeters>
                        <Time>2020-10-25T14:57:31.782Z</Time>
                    </Trackpoint>
                </Track>
                <DistanceMeters>127.94529056549072</DistanceMeters>
                <TotalTimeSeconds>203.086081505</TotalTimeSeconds>
                <Calories>18.453882217407227</Calories>
                <Intensity>Active</Intensity>
                <TriggerMethod>Manual</TriggerMethod>
            </Lap>
        </Activity>
    </Activities>
    <Author xsi:type="Application_t">
        <Name>Google Fit</Name>
        <Build>
            <Version>
                <VersionMajor>0</VersionMajor>
                <VersionMinor>0</VersionMinor>
                <BuildMajor>0</BuildMajor>
                <BuildMinor>0</BuildMinor>
            </Version>
        </Build>
        <LangID>en</LangID>
        <PartNumber>000-00000-00</PartNumber>
    </Author>
</TrainingCenterDatabase>
