<?xml version="1.0" encoding="UTF-8"?>
<TrainingCenterDatabase
    xmlns="http://www.garmin.com/xmlschemas/TrainingCenterDatabase/v2"
    xmlns:ns2="http://www.garmin.com/xmlschemas/UserProfile/v2"
    xmlns:ns3="http://www.garmin.com/xmlschemas/ActivityExtension/v2"
    xmlns:ns4="http://www.garmin.com/xmlschemas/ProfileExtension/v1"
    xmlns:ns5="http://www.garmin.com/xmlschemas/ActivityGoals/v1"
    xmlns:xsi="http://www.w3.org/2001/XMLSchema-instance" xsi:schemaLocation="http://www.garmin.com/xmlschemas/TrainingCenterDatabase/v2 http://www.garmin.com/xmlschemas/TrainingCenterDatabasev2.xsd">
    <Activities>
        <Activity Sport="Walking">
            <Id>2020-12-08T16:57:33.524Z</Id>
            <Lap StartTime="2020-12-08T16:57:33.524Z">
                <Track>
                    <Trackpoint>
                        <DistanceMeters>0.0</DistanceMeters>
                        <Time>2020-12-08T16:57:33.524Z</Time>
                    </Trackpoint>
                    <Trackpoint>
                        <DistanceMeters>0.0</DistanceMeters>
                        <Time>2020-12-08T16:57:52.791Z</Time>
                    </Trackpoint>
                    <Trackpoint>
                        <DistanceMeters>61.44300079345703</DistanceMeters>
                        <Time>2020-12-08T16:58:53.181Z</Time>
                    </Trackpoint>
                    <Trackpoint>
                        <DistanceMeters>124.92412948608398</DistanceMeters>
                        <Time>2020-12-08T16:59:53.411Z</Time>
                    </Trackpoint>
                    <Trackpoint>
                        <DistanceMeters>167.53125</DistanceMeters>
                        <Time>2020-12-08T17:00:52.976Z</Time>
                    </Trackpoint>
                    <Trackpoint>
                        <DistanceMeters>168.21846163272858</DistanceMeters>
                        <Time>2020-12-08T17:00:54.647Z</Time>
                    </Trackpoint>
                    <Trackpoint>
                        <DistanceMeters>236.59172213077545</DistanceMeters>
                        <Time>2020-12-08T17:01:55.196Z</Time>
                    </Trackpoint>
                    <Trackpoint>
                        <DistanceMeters>300.59555208683014</DistanceMeters>
                        <Time>2020-12-08T17:02:54.233Z</Time>
                    </Trackpoint>
                    <Trackpoint>
                        <DistanceMeters>301.2827637195587</DistanceMeters>
                        <Time>2020-12-08T17:02:55.506Z</Time>
                    </Trackpoint>
                    <Trackpoint>
                        <DistanceMeters>368.7121994495392</DistanceMeters>
                        <Time>2020-12-08T17:03:55.895Z</Time>
                    </Trackpoint>
                    <Trackpoint>
                        <DistanceMeters>430.253657579422</DistanceMeters>
                        <Time>2020-12-08T17:04:56.045Z</Time>
                    </Trackpoint>
                    <Trackpoint>
                        <DistanceMeters>488.8510162830353</DistanceMeters>
                        <Time>2020-12-08T17:05:56.274Z</Time>
                    </Trackpoint>
                    <Trackpoint>
                        <DistanceMeters>552.3326218128204</DistanceMeters>
                        <Time>2020-12-08T17:06:56.503Z</Time>
                    </Trackpoint>
                    <Trackpoint>
                        <DistanceMeters>599.7502243518829</DistanceMeters>
                        <Time>2020-12-08T17:07:45.832Z</Time>
                    </Trackpoint>
                    <Trackpoint>
                        <DistanceMeters>605.2479174137115</DistanceMeters>
                        <Time>2020-12-08T17:08:02.541Z</Time>
                    </Trackpoint>
                    <Trackpoint>
                        <DistanceMeters>634.7980177402496</DistanceMeters>
                        <Time>2020-12-08T17:08:59.558Z</Time>
                    </Trackpoint>
                </Track>
                <DistanceMeters>634.7980177402496</DistanceMeters>
                <TotalTimeSeconds>686.034701667</TotalTimeSeconds>
                <Calories>61.25074768066406</Calories>
                <Intensity>Active</Intensity>
                <TriggerMethod>Manual</TriggerMethod>
            </Lap>
        </Activity>
    </Activities>
    <Author xsi:type="Application_t">
        <Name>Google Fit</Name>
        <Build>
            <Version>
                <VersionMajor>0</VersionMajor>
                <VersionMinor>0</VersionMinor>
                <BuildMajor>0</BuildMajor>
                <BuildMinor>0</BuildMinor>
            </Version>
        </Build>
        <LangID>en</LangID>
        <PartNumber>000-00000-00</PartNumber>
    </Author>
</TrainingCenterDatabase>
