<?xml version="1.0" encoding="UTF-8"?>
<TrainingCenterDatabase
    xmlns="http://www.garmin.com/xmlschemas/TrainingCenterDatabase/v2"
    xmlns:ns2="http://www.garmin.com/xmlschemas/UserProfile/v2"
    xmlns:ns3="http://www.garmin.com/xmlschemas/ActivityExtension/v2"
    xmlns:ns4="http://www.garmin.com/xmlschemas/ProfileExtension/v1"
    xmlns:ns5="http://www.garmin.com/xmlschemas/ActivityGoals/v1"
    xmlns:xsi="http://www.w3.org/2001/XMLSchema-instance" xsi:schemaLocation="http://www.garmin.com/xmlschemas/TrainingCenterDatabase/v2 http://www.garmin.com/xmlschemas/TrainingCenterDatabasev2.xsd">
    <Activities>
        <Activity Sport="Walking">
            <Id>2020-12-19T13:35:34.285Z</Id>
            <Lap StartTime="2020-12-19T13:35:34.285Z">
                <Track>
                    <Trackpoint>
                        <DistanceMeters>0.0</DistanceMeters>
                        <Time>2020-12-19T13:35:34.285Z</Time>
                    </Trackpoint>
                    <Trackpoint>
                        <DistanceMeters>37.79663848876953</DistanceMeters>
                        <Time>2020-12-19T13:36:23.192Z</Time>
                    </Trackpoint>
                </Track>
                <DistanceMeters>37.79663848876953</DistanceMeters>
                <TotalTimeSeconds>48.907</TotalTimeSeconds>
                <Calories>4.581952095031738</Calories>
                <Intensity>Active</Intensity>
                <TriggerMethod>Manual</TriggerMethod>
            </Lap>
        </Activity>
        <Activity Sport="Walking">
            <Id>2020-12-19T13:35:34.285Z</Id>
            <Lap StartTime="2020-12-19T13:35:34.285Z">
                <Track>
                    <Trackpoint>
                        <DistanceMeters>0.0</DistanceMeters>
                        <Time>2020-12-19T13:35:34.285Z</Time>
                    </Trackpoint>
                    <Trackpoint>
                        <DistanceMeters>37.79663848876953</DistanceMeters>
                        <Time>2020-12-19T13:36:23.058Z</Time>
                    </Trackpoint>
                    <Trackpoint>
                        <DistanceMeters>37.79663848876953</DistanceMeters>
                        <Time>2020-12-19T13:36:23.192Z</Time>
                    </Trackpoint>
                    <Trackpoint>
                        <DistanceMeters>123.36685943603516</DistanceMeters>
                        <Time>2020-12-19T13:37:23.681Z</Time>
                    </Trackpoint>
                    <Trackpoint>
                        <DistanceMeters>147.79438400268555</DistanceMeters>
                        <Time>2020-12-19T13:37:41.500Z</Time>
                    </Trackpoint>
                    <Trackpoint>
                        <DistanceMeters>291.4600028991699</DistanceMeters>
                        <Time>2020-12-19T13:39:24.172Z</Time>
                    </Trackpoint>
                    <Trackpoint>
                        <DistanceMeters>382.5576591491699</DistanceMeters>
                        <Time>2020-12-19T13:40:26.568Z</Time>
                    </Trackpoint>
                    <Trackpoint>
                        <DistanceMeters>464.79150009155273</DistanceMeters>
                        <Time>2020-12-19T13:41:27.046Z</Time>
                    </Trackpoint>
                    <Trackpoint>
                        <DistanceMeters>470.97640466690063</DistanceMeters>
                        <Time>2020-12-19T13:41:34.206Z</Time>
                    </Trackpoint>
                    <Trackpoint>
                        <DistanceMeters>548.4786400794983</DistanceMeters>
                        <Time>2020-12-19T13:42:28.072Z</Time>
                    </Trackpoint>
                    <Trackpoint>
                        <DistanceMeters>560.9424290657043</DistanceMeters>
                        <Time>2020-12-19T13:42:38.445Z</Time>
                    </Trackpoint>
                    <Trackpoint>
                        <DistanceMeters>606.5497250556946</DistanceMeters>
                        <Time>2020-12-19T13:43:07.132Z</Time>
                    </Trackpoint>
                    <Trackpoint>
                        <DistanceMeters>638.30317735672</DistanceMeters>
                        <Time>2020-12-19T13:43:10.089Z</Time>
                        <Position>
                            <LatitudeDegrees>19.8517261</LatitudeDegrees>
                            <LongitudeDegrees>75.3214072</LongitudeDegrees>
                        </Position>
                        <AltitudeMeters>469.5</AltitudeMeters>
                    </Trackpoint>
                    <Trackpoint>
                        <DistanceMeters>638.30317735672</DistanceMeters>
                        <Time>2020-12-19T13:43:29.251Z</Time>
                    </Trackpoint>
                    <Trackpoint>
                        <DistanceMeters>674.3286366462708</DistanceMeters>
                        <Time>2020-12-19T13:43:55.187Z</Time>
                    </Trackpoint>
                    <Trackpoint>
                        <DistanceMeters>684.1101536750793</DistanceMeters>
                        <Time>2020-12-19T13:44:02.883Z</Time>
                    </Trackpoint>
                </Track>
                <DistanceMeters>684.1101536750793</DistanceMeters>
                <TotalTimeSeconds>508.598</TotalTimeSeconds>
                <Calories>43.198001861572266</Calories>
                <Intensity>Active</Intensity>
                <TriggerMethod>Manual</TriggerMethod>
            </Lap>
        </Activity>
        <Activity Sport="Walking">
            <Id>2020-12-19T13:44:02.883Z</Id>
            <Lap StartTime="2020-12-19T13:44:02.883Z">
                <Track>
                    <Trackpoint>
                        <DistanceMeters>0.0</DistanceMeters>
                        <Time>2020-12-19T13:44:02.883Z</Time>
                    </Trackpoint>
                    <Trackpoint>
                        <DistanceMeters>17.033597946166992</DistanceMeters>
                        <Time>2020-12-19T13:44:13.963Z</Time>
                    </Trackpoint>
                </Track>
                <DistanceMeters>17.033597946166992</DistanceMeters>
                <TotalTimeSeconds>11.08</TotalTimeSeconds>
                <Calories>1.0477046966552734</Calories>
                <Intensity>Active</Intensity>
                <TriggerMethod>Manual</TriggerMethod>
            </Lap>
        </Activity>
        <Activity Sport="Walking">
            <Id>2020-12-19T13:58:16.723Z</Id>
            <Lap StartTime="2020-12-19T13:58:16.723Z">
                <Track>
                    <Trackpoint>
                        <DistanceMeters>0.0</DistanceMeters>
                        <Time>2020-12-19T13:58:16.723Z</Time>
                    </Trackpoint>
                    <Trackpoint>
                        <DistanceMeters>0.23802059888839722</DistanceMeters>
                        <Time>2020-12-19T13:58:17.060Z</Time>
                    </Trackpoint>
                </Track>
                <DistanceMeters>0.23802059888839722</DistanceMeters>
                <TotalTimeSeconds>0.337</TotalTimeSeconds>
                <Calories>0.03165927529335022</Calories>
                <Intensity>Active</Intensity>
                <TriggerMethod>Manual</TriggerMethod>
            </Lap>
        </Activity>
        <Activity Sport="Walking">
            <Id>2020-12-19T13:58:17.060Z</Id>
            <Lap StartTime="2020-12-19T13:58:17.060Z">
                <Track>
                    <Trackpoint>
                        <DistanceMeters>0.0</DistanceMeters>
                        <Time>2020-12-19T13:58:17.060Z</Time>
                    </Trackpoint>
                    <Trackpoint>
                        <DistanceMeters>372.2901916503906</DistanceMeters>
                        <Time>2020-12-19T14:06:39.306Z</Time>
                        <Position>
                            <LatitudeDegrees>19.8489041</LatitudeDegrees>
                            <LongitudeDegrees>75.3224162</LongitudeDegrees>
                        </Position>
                        <AltitudeMeters>481.0782470703125</AltitudeMeters>
                    </Trackpoint>
                    <Trackpoint>
                        <DistanceMeters>378.2904782295227</DistanceMeters>
                        <Time>2020-12-19T14:06:51.099Z</Time>
                    </Trackpoint>
                    <Trackpoint>
                        <DistanceMeters>419.52317476272583</DistanceMeters>
                        <Time>2020-12-19T14:07:36.042Z</Time>
                    </Trackpoint>
                    <Trackpoint>
                        <DistanceMeters>441.5139470100403</DistanceMeters>
                        <Time>2020-12-19T14:09:02.892Z</Time>
                    </Trackpoint>
                </Track>
                <DistanceMeters>441.5139470100403</DistanceMeters>
                <TotalTimeSeconds>645.832</TotalTimeSeconds>
                <Calories>60.672325134277344</Calories>
                <Intensity>Active</Intensity>
                <TriggerMethod>Manual</TriggerMethod>
            </Lap>
        </Activity>
    </Activities>
    <Author xsi:type="Application_t">
        <Name>Google Fit</Name>
        <Build>
            <Version>
                <VersionMajor>0</VersionMajor>
                <VersionMinor>0</VersionMinor>
                <BuildMajor>0</BuildMajor>
                <BuildMinor>0</BuildMinor>
            </Version>
        </Build>
        <LangID>en</LangID>
        <PartNumber>000-00000-00</PartNumber>
    </Author>
</TrainingCenterDatabase>
