<?xml version="1.0" encoding="UTF-8"?>
<TrainingCenterDatabase
    xmlns="http://www.garmin.com/xmlschemas/TrainingCenterDatabase/v2"
    xmlns:ns2="http://www.garmin.com/xmlschemas/UserProfile/v2"
    xmlns:ns3="http://www.garmin.com/xmlschemas/ActivityExtension/v2"
    xmlns:ns4="http://www.garmin.com/xmlschemas/ProfileExtension/v1"
    xmlns:ns5="http://www.garmin.com/xmlschemas/ActivityGoals/v1"
    xmlns:xsi="http://www.w3.org/2001/XMLSchema-instance" xsi:schemaLocation="http://www.garmin.com/xmlschemas/TrainingCenterDatabase/v2 http://www.garmin.com/xmlschemas/TrainingCenterDatabasev2.xsd">
    <Activities>
        <Activity Sport="Walking">
            <Id>2020-10-29T03:30:45.429Z</Id>
            <Lap StartTime="2020-10-29T03:30:45.429Z">
                <Track>
                    <Trackpoint>
                        <DistanceMeters>0.0</DistanceMeters>
                        <Time>2020-10-29T03:30:45.429Z</Time>
                    </Trackpoint>
                    <Trackpoint>
                        <DistanceMeters>0.0</DistanceMeters>
                        <Time>2020-10-29T03:54:27.225Z</Time>
                    </Trackpoint>
                    <Trackpoint>
                        <DistanceMeters>10.995386123657227</DistanceMeters>
                        <Time>2020-10-29T03:54:39.002Z</Time>
                    </Trackpoint>
                    <Trackpoint>
                        <DistanceMeters>56.35135459899902</DistanceMeters>
                        <Time>2020-10-29T03:55:35.659Z</Time>
                    </Trackpoint>
                </Track>
                <DistanceMeters>56.35135459899902</DistanceMeters>
                <TotalTimeSeconds>1490.230698975</TotalTimeSeconds>
                <Calories>33.420536279678345</Calories>
                <Intensity>Active</Intensity>
                <TriggerMethod>Manual</TriggerMethod>
            </Lap>
        </Activity>
        <Activity Sport="Walking">
            <Id>2020-10-29T03:54:39.002Z</Id>
            <Lap StartTime="2020-10-29T03:54:39.002Z">
                <Track>
                    <Trackpoint>
                        <DistanceMeters>0.0</DistanceMeters>
                        <Time>2020-10-29T03:54:39.002Z</Time>
                    </Trackpoint>
                    <Trackpoint>
                        <DistanceMeters>45.3559684753418</DistanceMeters>
                        <Time>2020-10-29T03:55:07.760Z</Time>
                    </Trackpoint>
                    <Trackpoint>
                        <DistanceMeters>45.3559684753418</DistanceMeters>
                        <Time>2020-10-29T03:55:35.659Z</Time>
                    </Trackpoint>
                    <Trackpoint>
                        <DistanceMeters>50.85366153717041</DistanceMeters>
                        <Time>2020-10-29T03:55:57.323Z</Time>
                    </Trackpoint>
                    <Trackpoint>
                        <DistanceMeters>92.77357196807861</DistanceMeters>
                        <Time>2020-10-29T03:56:58.114Z</Time>
                    </Trackpoint>
                    <Trackpoint>
                        <DistanceMeters>112.01549816131592</DistanceMeters>
                        <Time>2020-10-29T03:59:25.681Z</Time>
                    </Trackpoint>
                    <Trackpoint>
                        <DistanceMeters>163.55636882781982</DistanceMeters>
                        <Time>2020-10-29T04:00:25.992Z</Time>
                    </Trackpoint>
                    <Trackpoint>
                        <DistanceMeters>200.66579723358154</DistanceMeters>
                        <Time>2020-10-29T04:01:26.585Z</Time>
                    </Trackpoint>
                    <Trackpoint>
                        <DistanceMeters>247.39618968963623</DistanceMeters>
                        <Time>2020-10-29T04:02:22.361Z</Time>
                    </Trackpoint>
                    <Trackpoint>
                        <DistanceMeters>252.89388275146484</DistanceMeters>
                        <Time>2020-10-29T04:02:29.045Z</Time>
                    </Trackpoint>
                    <Trackpoint>
                        <DistanceMeters>297.7103614807129</DistanceMeters>
                        <Time>2020-10-29T04:03:59.272Z</Time>
                    </Trackpoint>
                    <Trackpoint>
                        <DistanceMeters>329.3220958709717</DistanceMeters>
                        <Time>2020-10-29T04:04:42.847Z</Time>
                    </Trackpoint>
                    <Trackpoint>
                        <DistanceMeters>340.3174819946289</DistanceMeters>
                        <Time>2020-10-29T04:05:03.374Z</Time>
                    </Trackpoint>
                    <Trackpoint>
                        <DistanceMeters>345.8151750564575</DistanceMeters>
                        <Time>2020-10-29T04:05:14.115Z</Time>
                    </Trackpoint>
                    <Trackpoint>
                        <DistanceMeters>367.84613704681396</DistanceMeters>
                        <Time>2020-10-29T04:07:31.917Z</Time>
                    </Trackpoint>
                    <Trackpoint>
                        <DistanceMeters>385.44448947906494</DistanceMeters>
                        <Time>2020-10-29T04:08:01.258Z</Time>
                    </Trackpoint>
                </Track>
                <DistanceMeters>385.44448947906494</DistanceMeters>
                <TotalTimeSeconds>802.255340534</TotalTimeSeconds>
                <Calories>72.66584014892578</Calories>
                <Intensity>Active</Intensity>
                <TriggerMethod>Manual</TriggerMethod>
            </Lap>
        </Activity>
    </Activities>
    <Author xsi:type="Application_t">
        <Name>Google Fit</Name>
        <Build>
            <Version>
                <VersionMajor>0</VersionMajor>
                <VersionMinor>0</VersionMinor>
                <BuildMajor>0</BuildMajor>
                <BuildMinor>0</BuildMinor>
            </Version>
        </Build>
        <LangID>en</LangID>
        <PartNumber>000-00000-00</PartNumber>
    </Author>
</TrainingCenterDatabase>
