<?xml version="1.0" encoding="UTF-8"?>
<TrainingCenterDatabase
    xmlns="http://www.garmin.com/xmlschemas/TrainingCenterDatabase/v2"
    xmlns:ns2="http://www.garmin.com/xmlschemas/UserProfile/v2"
    xmlns:ns3="http://www.garmin.com/xmlschemas/ActivityExtension/v2"
    xmlns:ns4="http://www.garmin.com/xmlschemas/ProfileExtension/v1"
    xmlns:ns5="http://www.garmin.com/xmlschemas/ActivityGoals/v1"
    xmlns:xsi="http://www.w3.org/2001/XMLSchema-instance" xsi:schemaLocation="http://www.garmin.com/xmlschemas/TrainingCenterDatabase/v2 http://www.garmin.com/xmlschemas/TrainingCenterDatabasev2.xsd">
    <Activities>
        <Activity Sport="Walking">
            <Id>2020-10-30T09:30:00.000Z</Id>
            <Lap StartTime="2020-10-30T09:30:00.000Z">
                <Track>
                    <Trackpoint>
                        <DistanceMeters>0.0</DistanceMeters>
                        <Time>2020-10-30T09:30:00.000Z</Time>
                    </Trackpoint>
                    <Trackpoint>
                        <DistanceMeters>47.0</DistanceMeters>
                        <Time>2020-10-30T09:31:00.000Z</Time>
                    </Trackpoint>
                </Track>
                <DistanceMeters>47.0</DistanceMeters>
                <TotalTimeSeconds>60.0</TotalTimeSeconds>
                <Calories>5.636666774749756</Calories>
                <Intensity>Active</Intensity>
                <TriggerMethod>Manual</TriggerMethod>
            </Lap>
        </Activity>
        <Activity Sport="Walking">
            <Id>2020-10-30T09:31:00.000Z</Id>
            <Lap StartTime="2020-10-30T09:31:00.000Z">
                <Track>
                    <Trackpoint>
                        <DistanceMeters>0.0</DistanceMeters>
                        <Time>2020-10-30T09:31:00.000Z</Time>
                    </Trackpoint>
                    <Trackpoint>
                        <DistanceMeters>24.0</DistanceMeters>
                        <Time>2020-10-30T09:32:00.000Z</Time>
                    </Trackpoint>
                </Track>
                <DistanceMeters>24.0</DistanceMeters>
                <TotalTimeSeconds>60.0</TotalTimeSeconds>
                <Calories>5.636666774749756</Calories>
                <Intensity>Active</Intensity>
                <TriggerMethod>Manual</TriggerMethod>
            </Lap>
        </Activity>
        <Activity Sport="Walking">
            <Id>2020-10-30T09:32:00.000Z</Id>
            <Lap StartTime="2020-10-30T09:32:00.000Z">
                <Track>
                    <Trackpoint>
                        <DistanceMeters>0.0</DistanceMeters>
                        <Time>2020-10-30T09:32:00.000Z</Time>
                    </Trackpoint>
                    <Trackpoint>
                        <DistanceMeters>3.4360580444335938</DistanceMeters>
                        <Time>2020-10-30T09:33:00.000Z</Time>
                    </Trackpoint>
                </Track>
                <DistanceMeters>3.4360580444335938</DistanceMeters>
                <TotalTimeSeconds>60.0</TotalTimeSeconds>
                <Calories>5.636666774749756</Calories>
                <Intensity>Active</Intensity>
                <TriggerMethod>Manual</TriggerMethod>
            </Lap>
        </Activity>
        <Activity Sport="Walking">
            <Id>2020-10-30T09:46:00.000Z</Id>
            <Lap StartTime="2020-10-30T09:46:00.000Z">
                <Track>
                    <Trackpoint>
                        <DistanceMeters>0.0</DistanceMeters>
                        <Time>2020-10-30T09:46:00.000Z</Time>
                    </Trackpoint>
                    <Trackpoint>
                        <DistanceMeters>31.0</DistanceMeters>
                        <Time>2020-10-30T09:47:00.000Z</Time>
                    </Trackpoint>
                </Track>
                <DistanceMeters>31.0</DistanceMeters>
                <TotalTimeSeconds>60.0</TotalTimeSeconds>
                <Calories>5.636666774749756</Calories>
                <Intensity>Active</Intensity>
                <TriggerMethod>Manual</TriggerMethod>
            </Lap>
        </Activity>
        <Activity Sport="Walking">
            <Id>2020-10-30T09:47:00.000Z</Id>
            <Lap StartTime="2020-10-30T09:47:00.000Z">
                <Track>
                    <Trackpoint>
                        <DistanceMeters>0.0</DistanceMeters>
                        <Time>2020-10-30T09:47:00.000Z</Time>
                    </Trackpoint>
                    <Trackpoint>
                        <DistanceMeters>18.0</DistanceMeters>
                        <Time>2020-10-30T09:48:00.000Z</Time>
                    </Trackpoint>
                </Track>
                <DistanceMeters>18.0</DistanceMeters>
                <TotalTimeSeconds>60.0</TotalTimeSeconds>
                <Calories>5.636666774749756</Calories>
                <Intensity>Active</Intensity>
                <TriggerMethod>Manual</TriggerMethod>
            </Lap>
        </Activity>
        <Activity Sport="Walking">
            <Id>2020-10-30T09:48:00.000Z</Id>
            <Lap StartTime="2020-10-30T09:48:00.000Z">
                <Track>
                    <Trackpoint>
                        <DistanceMeters>0.0</DistanceMeters>
                        <Time>2020-10-30T09:48:00.000Z</Time>
                    </Trackpoint>
                    <Trackpoint>
                        <DistanceMeters>28.0</DistanceMeters>
                        <Time>2020-10-30T09:49:00.000Z</Time>
                    </Trackpoint>
                </Track>
                <DistanceMeters>28.0</DistanceMeters>
                <TotalTimeSeconds>60.0</TotalTimeSeconds>
                <Calories>5.636666774749756</Calories>
                <Intensity>Active</Intensity>
                <TriggerMethod>Manual</TriggerMethod>
            </Lap>
        </Activity>
        <Activity Sport="Walking">
            <Id>2020-10-30T09:49:00.000Z</Id>
            <Lap StartTime="2020-10-30T09:49:00.000Z">
                <Track>
                    <Trackpoint>
                        <DistanceMeters>0.0</DistanceMeters>
                        <Time>2020-10-30T09:49:00.000Z</Time>
                    </Trackpoint>
                    <Trackpoint>
                        <DistanceMeters>0.0</DistanceMeters>
                        <Time>2020-10-30T09:50:00.000Z</Time>
                    </Trackpoint>
                </Track>
                <DistanceMeters>0.0</DistanceMeters>
                <TotalTimeSeconds>60.0</TotalTimeSeconds>
                <Calories>5.636666774749756</Calories>
                <Intensity>Active</Intensity>
                <TriggerMethod>Manual</TriggerMethod>
            </Lap>
        </Activity>
        <Activity Sport="Walking">
            <Id>2020-10-30T09:52:00.000Z</Id>
            <Lap StartTime="2020-10-30T09:52:00.000Z">
                <Track>
                    <Trackpoint>
                        <DistanceMeters>0.0</DistanceMeters>
                        <Time>2020-10-30T09:52:00.000Z</Time>
                    </Trackpoint>
                    <Trackpoint>
                        <DistanceMeters>54.0</DistanceMeters>
                        <Time>2020-10-30T09:53:00.000Z</Time>
                    </Trackpoint>
                </Track>
                <DistanceMeters>54.0</DistanceMeters>
                <TotalTimeSeconds>60.0</TotalTimeSeconds>
                <Calories>5.636666774749756</Calories>
                <Intensity>Active</Intensity>
                <TriggerMethod>Manual</TriggerMethod>
            </Lap>
        </Activity>
        <Activity Sport="Walking">
            <Id>2020-10-30T09:53:00.000Z</Id>
            <Lap StartTime="2020-10-30T09:53:00.000Z">
                <Track>
                    <Trackpoint>
                        <DistanceMeters>0.0</DistanceMeters>
                        <Time>2020-10-30T09:53:00.000Z</Time>
                    </Trackpoint>
                    <Trackpoint>
                        <DistanceMeters>55.0</DistanceMeters>
                        <Time>2020-10-30T09:54:00.000Z</Time>
                    </Trackpoint>
                </Track>
                <DistanceMeters>55.0</DistanceMeters>
                <TotalTimeSeconds>60.0</TotalTimeSeconds>
                <Calories>5.636666774749756</Calories>
                <Intensity>Active</Intensity>
                <TriggerMethod>Manual</TriggerMethod>
            </Lap>
        </Activity>
        <Activity Sport="Walking">
            <Id>2020-10-30T09:54:00.000Z</Id>
            <Lap StartTime="2020-10-30T09:54:00.000Z">
                <Track>
                    <Trackpoint>
                        <DistanceMeters>0.0</DistanceMeters>
                        <Time>2020-10-30T09:54:00.000Z</Time>
                    </Trackpoint>
                    <Trackpoint>
                        <DistanceMeters>37.0</DistanceMeters>
                        <Time>2020-10-30T09:55:00.000Z</Time>
                    </Trackpoint>
                </Track>
                <DistanceMeters>37.0</DistanceMeters>
                <TotalTimeSeconds>60.0</TotalTimeSeconds>
                <Calories>5.636666774749756</Calories>
                <Intensity>Active</Intensity>
                <TriggerMethod>Manual</TriggerMethod>
            </Lap>
        </Activity>
        <Activity Sport="Walking">
            <Id>2020-10-30T09:55:00.000Z</Id>
            <Lap StartTime="2020-10-30T09:55:00.000Z">
                <Track>
                    <Trackpoint>
                        <DistanceMeters>0.0</DistanceMeters>
                        <Time>2020-10-30T09:55:00.000Z</Time>
                    </Trackpoint>
                    <Trackpoint>
                        <DistanceMeters>0.0</DistanceMeters>
                        <Time>2020-10-30T09:56:00.000Z</Time>
                    </Trackpoint>
                </Track>
                <DistanceMeters>0.0</DistanceMeters>
                <TotalTimeSeconds>60.0</TotalTimeSeconds>
                <Calories>5.636666774749756</Calories>
                <Intensity>Active</Intensity>
                <TriggerMethod>Manual</TriggerMethod>
            </Lap>
        </Activity>
    </Activities>
    <Author xsi:type="Application_t">
        <Name>Google Fit</Name>
        <Build>
            <Version>
                <VersionMajor>0</VersionMajor>
                <VersionMinor>0</VersionMinor>
                <BuildMajor>0</BuildMajor>
                <BuildMinor>0</BuildMinor>
            </Version>
        </Build>
        <LangID>en</LangID>
        <PartNumber>000-00000-00</PartNumber>
    </Author>
</TrainingCenterDatabase>
