<?xml version="1.0" encoding="UTF-8"?>
<TrainingCenterDatabase
    xmlns="http://www.garmin.com/xmlschemas/TrainingCenterDatabase/v2"
    xmlns:ns2="http://www.garmin.com/xmlschemas/UserProfile/v2"
    xmlns:ns3="http://www.garmin.com/xmlschemas/ActivityExtension/v2"
    xmlns:ns4="http://www.garmin.com/xmlschemas/ProfileExtension/v1"
    xmlns:ns5="http://www.garmin.com/xmlschemas/ActivityGoals/v1"
    xmlns:xsi="http://www.w3.org/2001/XMLSchema-instance" xsi:schemaLocation="http://www.garmin.com/xmlschemas/TrainingCenterDatabase/v2 http://www.garmin.com/xmlschemas/TrainingCenterDatabasev2.xsd">
    <Activities>
        <Activity Sport="Walking">
            <Id>2020-10-15T05:41:38.480Z</Id>
            <Lap StartTime="2020-10-15T05:41:38.480Z">
                <Track>
                    <Trackpoint>
                        <DistanceMeters>0.0</DistanceMeters>
                        <Time>2020-10-15T05:41:38.480Z</Time>
                    </Trackpoint>
                    <Trackpoint>
                        <DistanceMeters>0.0</DistanceMeters>
                        <Time>2020-10-15T06:36:31.013Z</Time>
                    </Trackpoint>
                    <Trackpoint>
                        <DistanceMeters>66.55921936035156</DistanceMeters>
                        <Time>2020-10-15T06:37:31.089Z</Time>
                    </Trackpoint>
                </Track>
                <DistanceMeters>66.55921936035156</DistanceMeters>
                <TotalTimeSeconds>3352.609197826</TotalTimeSeconds>
                <Calories>71.61832189559937</Calories>
                <Intensity>Active</Intensity>
                <TriggerMethod>Manual</TriggerMethod>
            </Lap>
        </Activity>
        <Activity Sport="Walking">
            <Id>2020-10-15T06:36:31.013Z</Id>
            <Lap StartTime="2020-10-15T06:36:31.013Z">
                <Track>
                    <Trackpoint>
                        <DistanceMeters>0.0</DistanceMeters>
                        <Time>2020-10-15T06:36:31.013Z</Time>
                    </Trackpoint>
                    <Trackpoint>
                        <DistanceMeters>66.55921936035156</DistanceMeters>
                        <Time>2020-10-15T06:37:03.404Z</Time>
                    </Trackpoint>
                    <Trackpoint>
                        <DistanceMeters>66.55921936035156</DistanceMeters>
                        <Time>2020-10-15T06:37:31.089Z</Time>
                    </Trackpoint>
                    <Trackpoint>
                        <DistanceMeters>79.9882116317749</DistanceMeters>
                        <Time>2020-10-15T06:40:16.400Z</Time>
                    </Trackpoint>
                    <Trackpoint>
                        <DistanceMeters>94.41965579986572</DistanceMeters>
                        <Time>2020-10-15T06:42:41.868Z</Time>
                    </Trackpoint>
                    <Trackpoint>
                        <DistanceMeters>107.47667694091797</DistanceMeters>
                        <Time>2020-10-15T06:43:32.233Z</Time>
                    </Trackpoint>
                    <Trackpoint>
                        <DistanceMeters>119.15927505493164</DistanceMeters>
                        <Time>2020-10-15T06:44:02.708Z</Time>
                    </Trackpoint>
                </Track>
                <DistanceMeters>119.15927505493164</DistanceMeters>
                <TotalTimeSeconds>451.69569984</TotalTimeSeconds>
                <Calories>38.71648025512695</Calories>
                <Intensity>Active</Intensity>
                <TriggerMethod>Manual</TriggerMethod>
            </Lap>
        </Activity>
        <Activity Sport="Walking">
            <Id>2020-10-15T06:57:39.090Z</Id>
            <Lap StartTime="2020-10-15T06:57:39.090Z">
                <Track>
                    <Trackpoint>
                        <DistanceMeters>0.0</DistanceMeters>
                        <Time>2020-10-15T06:57:39.090Z</Time>
                    </Trackpoint>
                    <Trackpoint>
                        <DistanceMeters>0.0</DistanceMeters>
                        <Time>2020-10-15T06:57:58.528Z</Time>
                    </Trackpoint>
                    <Trackpoint>
                        <DistanceMeters>10.308174133300781</DistanceMeters>
                        <Time>2020-10-15T06:58:09.508Z</Time>
                    </Trackpoint>
                    <Trackpoint>
                        <DistanceMeters>50.32387924194336</DistanceMeters>
                        <Time>2020-10-15T06:59:13.292Z</Time>
                    </Trackpoint>
                    <Trackpoint>
                        <DistanceMeters>82.6228256225586</DistanceMeters>
                        <Time>2020-10-15T07:00:10.264Z</Time>
                    </Trackpoint>
                    <Trackpoint>
                        <DistanceMeters>121.1066780090332</DistanceMeters>
                        <Time>2020-10-15T07:01:10.327Z</Time>
                    </Trackpoint>
                    <Trackpoint>
                        <DistanceMeters>157.5288963317871</DistanceMeters>
                        <Time>2020-10-15T07:02:05.559Z</Time>
                    </Trackpoint>
                    <Trackpoint>
                        <DistanceMeters>163.02658939361572</DistanceMeters>
                        <Time>2020-10-15T07:02:16.699Z</Time>
                    </Trackpoint>
                    <Trackpoint>
                        <DistanceMeters>180.2068796157837</DistanceMeters>
                        <Time>2020-10-15T07:03:26.275Z</Time>
                    </Trackpoint>
                    <Trackpoint>
                        <DistanceMeters>229.6861162185669</DistanceMeters>
                        <Time>2020-10-15T07:04:25.964Z</Time>
                    </Trackpoint>
                    <Trackpoint>
                        <DistanceMeters>259.236216545105</DistanceMeters>
                        <Time>2020-10-15T07:05:29.005Z</Time>
                    </Trackpoint>
                    <Trackpoint>
                        <DistanceMeters>291.5351629257202</DistanceMeters>
                        <Time>2020-10-15T07:08:41.822Z</Time>
                    </Trackpoint>
                    <Trackpoint>
                        <DistanceMeters>331.3934392929077</DistanceMeters>
                        <Time>2020-10-15T07:15:24.748Z</Time>
                    </Trackpoint>
                    <Trackpoint>
                        <DistanceMeters>336.8911323547363</DistanceMeters>
                        <Time>2020-10-15T07:17:28.672Z</Time>
                    </Trackpoint>
                    <Trackpoint>
                        <DistanceMeters>360.0094871520996</DistanceMeters>
                        <Time>2020-10-15T07:18:57.995Z</Time>
                    </Trackpoint>
                    <Trackpoint>
                        <DistanceMeters>387.49795150756836</DistanceMeters>
                        <Time>2020-10-15T07:19:29.506Z</Time>
                    </Trackpoint>
                    <Trackpoint>
                        <DistanceMeters>396.43170261383057</DistanceMeters>
                        <Time>2020-10-15T07:20:02.373Z</Time>
                    </Trackpoint>
                </Track>
                <DistanceMeters>396.43170261383057</DistanceMeters>
                <TotalTimeSeconds>1343.283</TotalTimeSeconds>
                <Calories>126.19396209716797</Calories>
                <Intensity>Active</Intensity>
                <TriggerMethod>Manual</TriggerMethod>
            </Lap>
        </Activity>
    </Activities>
    <Author xsi:type="Application_t">
        <Name>Google Fit</Name>
        <Build>
            <Version>
                <VersionMajor>0</VersionMajor>
                <VersionMinor>0</VersionMinor>
                <BuildMajor>0</BuildMajor>
                <BuildMinor>0</BuildMinor>
            </Version>
        </Build>
        <LangID>en</LangID>
        <PartNumber>000-00000-00</PartNumber>
    </Author>
</TrainingCenterDatabase>
