<?xml version="1.0" encoding="UTF-8"?>
<TrainingCenterDatabase
    xmlns="http://www.garmin.com/xmlschemas/TrainingCenterDatabase/v2"
    xmlns:ns2="http://www.garmin.com/xmlschemas/UserProfile/v2"
    xmlns:ns3="http://www.garmin.com/xmlschemas/ActivityExtension/v2"
    xmlns:ns4="http://www.garmin.com/xmlschemas/ProfileExtension/v1"
    xmlns:ns5="http://www.garmin.com/xmlschemas/ActivityGoals/v1"
    xmlns:xsi="http://www.w3.org/2001/XMLSchema-instance" xsi:schemaLocation="http://www.garmin.com/xmlschemas/TrainingCenterDatabase/v2 http://www.garmin.com/xmlschemas/TrainingCenterDatabasev2.xsd">
    <Activities>
        <Activity Sport="Walking">
            <Id>2020-11-13T04:44:10.105Z</Id>
            <Lap StartTime="2020-11-13T04:44:10.105Z">
                <Track>
                    <Trackpoint>
                        <DistanceMeters>0.0</DistanceMeters>
                        <Time>2020-11-13T04:44:10.105Z</Time>
                    </Trackpoint>
                    <Trackpoint>
                        <DistanceMeters>0.0</DistanceMeters>
                        <Time>2020-11-13T04:58:16.114Z</Time>
                    </Trackpoint>
                    <Trackpoint>
                        <DistanceMeters>34.36058044433594</DistanceMeters>
                        <Time>2020-11-13T04:58:59.728Z</Time>
                    </Trackpoint>
                    <Trackpoint>
                        <DistanceMeters>93.46078109741211</DistanceMeters>
                        <Time>2020-11-13T05:00:11.212Z</Time>
                    </Trackpoint>
                    <Trackpoint>
                        <DistanceMeters>174.21821975708008</DistanceMeters>
                        <Time>2020-11-13T05:01:12.318Z</Time>
                    </Trackpoint>
                    <Trackpoint>
                        <DistanceMeters>201.03288650512695</DistanceMeters>
                        <Time>2020-11-13T05:01:31.653Z</Time>
                    </Trackpoint>
                    <Trackpoint>
                        <DistanceMeters>274.72909927368164</DistanceMeters>
                        <Time>2020-11-13T05:02:26.236Z</Time>
                    </Trackpoint>
                    <Trackpoint>
                        <DistanceMeters>329.0188179016113</DistanceMeters>
                        <Time>2020-11-13T05:03:26.622Z</Time>
                    </Trackpoint>
                </Track>
                <DistanceMeters>329.0188179016113</DistanceMeters>
                <TotalTimeSeconds>1156.51715112</TotalTimeSeconds>
                <Calories>46.74520492553711</Calories>
                <Intensity>Active</Intensity>
                <TriggerMethod>Manual</TriggerMethod>
            </Lap>
        </Activity>
        <Activity Sport="Walking">
            <Id>2020-11-13T05:02:26.236Z</Id>
            <Lap StartTime="2020-11-13T05:02:26.236Z">
                <Track>
                    <Trackpoint>
                        <DistanceMeters>0.0</DistanceMeters>
                        <Time>2020-11-13T05:02:26.236Z</Time>
                    </Trackpoint>
                    <Trackpoint>
                        <DistanceMeters>54.28971862792969</DistanceMeters>
                        <Time>2020-11-13T05:03:26.137Z</Time>
                    </Trackpoint>
                    <Trackpoint>
                        <DistanceMeters>54.28971862792969</DistanceMeters>
                        <Time>2020-11-13T05:03:26.622Z</Time>
                    </Trackpoint>
                    <Trackpoint>
                        <DistanceMeters>86.75329971313477</DistanceMeters>
                        <Time>2020-11-13T05:03:49.378Z</Time>
                    </Trackpoint>
                    <Trackpoint>
                        <DistanceMeters>102.88218879699707</DistanceMeters>
                        <Time>2020-11-13T05:04:00.915Z</Time>
                    </Trackpoint>
                    <Trackpoint>
                        <DistanceMeters>190.6179599761963</DistanceMeters>
                        <Time>2020-11-13T05:05:01.546Z</Time>
                    </Trackpoint>
                    <Trackpoint>
                        <DistanceMeters>267.5436420440674</DistanceMeters>
                        <Time>2020-11-13T05:06:01.779Z</Time>
                    </Trackpoint>
                    <Trackpoint>
                        <DistanceMeters>300.87485694885254</DistanceMeters>
                        <Time>2020-11-13T05:06:24.934Z</Time>
                    </Trackpoint>
                    <Trackpoint>
                        <DistanceMeters>391.38157844543457</DistanceMeters>
                        <Time>2020-11-13T05:07:26.520Z</Time>
                    </Trackpoint>
                    <Trackpoint>
                        <DistanceMeters>398.3012752532959</DistanceMeters>
                        <Time>2020-11-13T05:07:31.453Z</Time>
                    </Trackpoint>
                    <Trackpoint>
                        <DistanceMeters>440.99852180480957</DistanceMeters>
                        <Time>2020-11-13T05:08:00.973Z</Time>
                    </Trackpoint>
                    <Trackpoint>
                        <DistanceMeters>471.0177536010742</DistanceMeters>
                        <Time>2020-11-13T05:08:22.297Z</Time>
                    </Trackpoint>
                    <Trackpoint>
                        <DistanceMeters>553.0374450683594</DistanceMeters>
                        <Time>2020-11-13T05:09:21.336Z</Time>
                    </Trackpoint>
                    <Trackpoint>
                        <DistanceMeters>556.80593085289</DistanceMeters>
                        <Time>2020-11-13T05:09:24.200Z</Time>
                    </Trackpoint>
                    <Trackpoint>
                        <DistanceMeters>626.259429693222</DistanceMeters>
                        <Time>2020-11-13T05:10:13.134Z</Time>
                    </Trackpoint>
                    <Trackpoint>
                        <DistanceMeters>658.8274190425873</DistanceMeters>
                        <Time>2020-11-13T05:10:35.732Z</Time>
                    </Trackpoint>
                    <Trackpoint>
                        <DistanceMeters>674.3485906124115</DistanceMeters>
                        <Time>2020-11-13T05:10:46.474Z</Time>
                    </Trackpoint>
                    <Trackpoint>
                        <DistanceMeters>715.5812871456146</DistanceMeters>
                        <Time>2020-11-13T05:11:49.633Z</Time>
                    </Trackpoint>
                </Track>
                <DistanceMeters>715.5812871456146</DistanceMeters>
                <TotalTimeSeconds>563.397310237</TotalTimeSeconds>
                <Calories>45.979225158691406</Calories>
                <Intensity>Active</Intensity>
                <TriggerMethod>Manual</TriggerMethod>
            </Lap>
        </Activity>
    </Activities>
    <Author xsi:type="Application_t">
        <Name>Google Fit</Name>
        <Build>
            <Version>
                <VersionMajor>0</VersionMajor>
                <VersionMinor>0</VersionMinor>
                <BuildMajor>0</BuildMajor>
                <BuildMinor>0</BuildMinor>
            </Version>
        </Build>
        <LangID>en</LangID>
        <PartNumber>000-00000-00</PartNumber>
    </Author>
</TrainingCenterDatabase>
