<?xml version="1.0" encoding="UTF-8"?>
<TrainingCenterDatabase
    xmlns="http://www.garmin.com/xmlschemas/TrainingCenterDatabase/v2"
    xmlns:ns2="http://www.garmin.com/xmlschemas/UserProfile/v2"
    xmlns:ns3="http://www.garmin.com/xmlschemas/ActivityExtension/v2"
    xmlns:ns4="http://www.garmin.com/xmlschemas/ProfileExtension/v1"
    xmlns:ns5="http://www.garmin.com/xmlschemas/ActivityGoals/v1"
    xmlns:xsi="http://www.w3.org/2001/XMLSchema-instance" xsi:schemaLocation="http://www.garmin.com/xmlschemas/TrainingCenterDatabase/v2 http://www.garmin.com/xmlschemas/TrainingCenterDatabasev2.xsd">
    <Activities>
        <Activity Sport="Walking">
            <Id>2020-12-10T05:14:51.009Z</Id>
            <Lap StartTime="2020-12-10T05:14:51.009Z">
                <Track>
                    <Trackpoint>
                        <DistanceMeters>0.0</DistanceMeters>
                        <Time>2020-12-10T05:14:51.009Z</Time>
                    </Trackpoint>
                    <Trackpoint>
                        <DistanceMeters>34.36058044433594</DistanceMeters>
                        <Time>2020-12-10T05:15:07.643Z</Time>
                    </Trackpoint>
                    <Trackpoint>
                        <DistanceMeters>34.36058044433594</DistanceMeters>
                        <Time>2020-12-10T05:15:39.277Z</Time>
                        <Position>
                            <LatitudeDegrees>19.7175871</LatitudeDegrees>
                            <LongitudeDegrees>77.1412802</LongitudeDegrees>
                        </Position>
                        <AltitudeMeters>391.3999938964844</AltitudeMeters>
                    </Trackpoint>
                    <Trackpoint>
                        <DistanceMeters>34.36058044433594</DistanceMeters>
                        <Time>2020-12-10T05:15:51.210Z</Time>
                    </Trackpoint>
                    <Trackpoint>
                        <DistanceMeters>91.75041198730469</DistanceMeters>
                        <Time>2020-12-10T05:16:40.462Z</Time>
                    </Trackpoint>
                    <Trackpoint>
                        <DistanceMeters>93.8120470046997</DistanceMeters>
                        <Time>2020-12-10T05:17:09.117Z</Time>
                    </Trackpoint>
                </Track>
                <DistanceMeters>93.8120470046997</DistanceMeters>
                <TotalTimeSeconds>138.107668351</TotalTimeSeconds>
                <Calories>11.4118070602417</Calories>
                <Intensity>Active</Intensity>
                <TriggerMethod>Manual</TriggerMethod>
            </Lap>
        </Activity>
        <Activity Sport="Walking">
            <Id>2020-12-10T05:30:02.055Z</Id>
            <Lap StartTime="2020-12-10T05:30:02.055Z">
                <Track>
                    <Trackpoint>
                        <DistanceMeters>0.0</DistanceMeters>
                        <Time>2020-12-10T05:30:02.055Z</Time>
                    </Trackpoint>
                    <Trackpoint>
                        <DistanceMeters>0.0</DistanceMeters>
                        <Time>2020-12-10T05:30:24.865Z</Time>
                    </Trackpoint>
                    <Trackpoint>
                        <DistanceMeters>44.66875457763672</DistanceMeters>
                        <Time>2020-12-10T05:31:26.058Z</Time>
                    </Trackpoint>
                    <Trackpoint>
                        <DistanceMeters>85.21424102783203</DistanceMeters>
                        <Time>2020-12-10T05:32:33.615Z</Time>
                    </Trackpoint>
                    <Trackpoint>
                        <DistanceMeters>126.44693756103516</DistanceMeters>
                        <Time>2020-12-10T05:33:26.529Z</Time>
                    </Trackpoint>
                    <Trackpoint>
                        <DistanceMeters>154.62261390686035</DistanceMeters>
                        <Time>2020-12-10T05:34:30.425Z</Time>
                    </Trackpoint>
                    <Trackpoint>
                        <DistanceMeters>175.92617416381836</DistanceMeters>
                        <Time>2020-12-10T05:35:31.057Z</Time>
                    </Trackpoint>
                    <Trackpoint>
                        <DistanceMeters>212.34839248657227</DistanceMeters>
                        <Time>2020-12-10T05:36:31.530Z</Time>
                    </Trackpoint>
                    <Trackpoint>
                        <DistanceMeters>251.5194549560547</DistanceMeters>
                        <Time>2020-12-10T05:37:31.683Z</Time>
                    </Trackpoint>
                    <Trackpoint>
                        <DistanceMeters>290.6905174255371</DistanceMeters>
                        <Time>2020-12-10T05:38:32.565Z</Time>
                    </Trackpoint>
                    <Trackpoint>
                        <DistanceMeters>302.3731155395508</DistanceMeters>
                        <Time>2020-12-10T05:39:05.656Z</Time>
                    </Trackpoint>
                </Track>
                <DistanceMeters>302.3731155395508</DistanceMeters>
                <TotalTimeSeconds>543.601</TotalTimeSeconds>
                <Calories>51.068294525146484</Calories>
                <Intensity>Active</Intensity>
                <TriggerMethod>Manual</TriggerMethod>
            </Lap>
        </Activity>
    </Activities>
    <Author xsi:type="Application_t">
        <Name>Google Fit</Name>
        <Build>
            <Version>
                <VersionMajor>0</VersionMajor>
                <VersionMinor>0</VersionMinor>
                <BuildMajor>0</BuildMajor>
                <BuildMinor>0</BuildMinor>
            </Version>
        </Build>
        <LangID>en</LangID>
        <PartNumber>000-00000-00</PartNumber>
    </Author>
</TrainingCenterDatabase>
