<?xml version="1.0" encoding="UTF-8"?>
<TrainingCenterDatabase
    xmlns="http://www.garmin.com/xmlschemas/TrainingCenterDatabase/v2"
    xmlns:ns2="http://www.garmin.com/xmlschemas/UserProfile/v2"
    xmlns:ns3="http://www.garmin.com/xmlschemas/ActivityExtension/v2"
    xmlns:ns4="http://www.garmin.com/xmlschemas/ProfileExtension/v1"
    xmlns:ns5="http://www.garmin.com/xmlschemas/ActivityGoals/v1"
    xmlns:xsi="http://www.w3.org/2001/XMLSchema-instance" xsi:schemaLocation="http://www.garmin.com/xmlschemas/TrainingCenterDatabase/v2 http://www.garmin.com/xmlschemas/TrainingCenterDatabasev2.xsd">
    <Activities>
        <Activity Sport="Walking">
            <Id>2020-10-12T12:38:26.664Z</Id>
            <Lap StartTime="2020-10-12T12:38:26.664Z">
                <Track>
                    <Trackpoint>
                        <DistanceMeters>0.0</DistanceMeters>
                        <Time>2020-10-12T12:38:26.664Z</Time>
                    </Trackpoint>
                    <Trackpoint>
                        <DistanceMeters>0.0</DistanceMeters>
                        <Time>2020-10-12T12:38:50.953Z</Time>
                    </Trackpoint>
                    <Trackpoint>
                        <DistanceMeters>25.426830291748047</DistanceMeters>
                        <Time>2020-10-12T12:39:19.991Z</Time>
                    </Trackpoint>
                    <Trackpoint>
                        <DistanceMeters>44.66875648498535</DistanceMeters>
                        <Time>2020-10-12T12:39:49.755Z</Time>
                    </Trackpoint>
                    <Trackpoint>
                        <DistanceMeters>46.043179750442505</DistanceMeters>
                        <Time>2020-10-12T12:40:32.236Z</Time>
                    </Trackpoint>
                    <Trackpoint>
                        <DistanceMeters>61.8490469455719</DistanceMeters>
                        <Time>2020-10-12T12:40:57.856Z</Time>
                    </Trackpoint>
                    <Trackpoint>
                        <DistanceMeters>94.14799332618713</DistanceMeters>
                        <Time>2020-10-12T12:42:11.474Z</Time>
                    </Trackpoint>
                    <Trackpoint>
                        <DistanceMeters>119.57482361793518</DistanceMeters>
                        <Time>2020-10-12T12:42:59.880Z</Time>
                    </Trackpoint>
                    <Trackpoint>
                        <DistanceMeters>125.0725166797638</DistanceMeters>
                        <Time>2020-10-12T12:43:05.700Z</Time>
                    </Trackpoint>
                    <Trackpoint>
                        <DistanceMeters>155.99704098701477</DistanceMeters>
                        <Time>2020-10-12T12:44:23.958Z</Time>
                    </Trackpoint>
                    <Trackpoint>
                        <DistanceMeters>158.95915246009827</DistanceMeters>
                        <Time>2020-10-12T12:44:26.343Z</Time>
                    </Trackpoint>
                    <Trackpoint>
                        <DistanceMeters>216.68492913246155</DistanceMeters>
                        <Time>2020-10-12T12:45:27.243Z</Time>
                    </Trackpoint>
                    <Trackpoint>
                        <DistanceMeters>227.68031525611877</DistanceMeters>
                        <Time>2020-10-12T12:45:49.044Z</Time>
                    </Trackpoint>
                </Track>
                <DistanceMeters>227.68031525611877</DistanceMeters>
                <TotalTimeSeconds>442.38</TotalTimeSeconds>
                <Calories>40.352516174316406</Calories>
                <Intensity>Active</Intensity>
                <TriggerMethod>Manual</TriggerMethod>
            </Lap>
        </Activity>
        <Activity Sport="Walking">
            <Id>2020-10-12T12:49:36.381Z</Id>
            <Lap StartTime="2020-10-12T12:49:36.381Z">
                <Track>
                    <Trackpoint>
                        <DistanceMeters>0.0</DistanceMeters>
                        <Time>2020-10-12T12:49:36.381Z</Time>
                    </Trackpoint>
                    <Trackpoint>
                        <DistanceMeters>22.6779842376709</DistanceMeters>
                        <Time>2020-10-12T12:50:03.666Z</Time>
                    </Trackpoint>
                    <Trackpoint>
                        <DistanceMeters>48.104814529418945</DistanceMeters>
                        <Time>2020-10-12T12:50:37.082Z</Time>
                    </Trackpoint>
                    <Trackpoint>
                        <DistanceMeters>72.84443283081055</DistanceMeters>
                        <Time>2020-10-12T12:51:08.036Z</Time>
                    </Trackpoint>
                    <Trackpoint>
                        <DistanceMeters>135.50739288330078</DistanceMeters>
                        <Time>2020-10-12T12:52:07.860Z</Time>
                    </Trackpoint>
                    <Trackpoint>
                        <DistanceMeters>153.47920036315918</DistanceMeters>
                        <Time>2020-10-12T12:52:26.159Z</Time>
                    </Trackpoint>
                    <Trackpoint>
                        <DistanceMeters>208.84697914123535</DistanceMeters>
                        <Time>2020-10-12T12:53:19.867Z</Time>
                    </Trackpoint>
                </Track>
                <DistanceMeters>208.84697914123535</DistanceMeters>
                <TotalTimeSeconds>223.486</TotalTimeSeconds>
                <Calories>20.270675659179688</Calories>
                <Intensity>Active</Intensity>
                <TriggerMethod>Manual</TriggerMethod>
            </Lap>
        </Activity>
        <Activity Sport="Walking">
            <Id>2020-10-12T12:52:26.159Z</Id>
            <Lap StartTime="2020-10-12T12:52:26.159Z">
                <Track>
                    <Trackpoint>
                        <DistanceMeters>0.0</DistanceMeters>
                        <Time>2020-10-12T12:52:26.159Z</Time>
                    </Trackpoint>
                    <Trackpoint>
                        <DistanceMeters>55.36777877807617</DistanceMeters>
                        <Time>2020-10-12T12:53:12.154Z</Time>
                    </Trackpoint>
                    <Trackpoint>
                        <DistanceMeters>55.36777877807617</DistanceMeters>
                        <Time>2020-10-12T12:53:19.867Z</Time>
                    </Trackpoint>
                    <Trackpoint>
                        <DistanceMeters>80.10739707946777</DistanceMeters>
                        <Time>2020-10-12T12:53:48.350Z</Time>
                    </Trackpoint>
                </Track>
                <DistanceMeters>80.10739707946777</DistanceMeters>
                <TotalTimeSeconds>82.19029079</TotalTimeSeconds>
                <Calories>2.78808331489563</Calories>
                <Intensity>Active</Intensity>
                <TriggerMethod>Manual</TriggerMethod>
            </Lap>
        </Activity>
        <Activity Sport="Walking">
            <Id>2020-10-12T12:53:19.867Z</Id>
            <Lap StartTime="2020-10-12T12:53:19.867Z">
                <Track>
                    <Trackpoint>
                        <DistanceMeters>0.0</DistanceMeters>
                        <Time>2020-10-12T12:53:19.867Z</Time>
                    </Trackpoint>
                    <Trackpoint>
                        <DistanceMeters>24.7396183013916</DistanceMeters>
                        <Time>2020-10-12T12:53:41.832Z</Time>
                    </Trackpoint>
                    <Trackpoint>
                        <DistanceMeters>24.7396183013916</DistanceMeters>
                        <Time>2020-10-12T12:53:48.350Z</Time>
                    </Trackpoint>
                </Track>
                <DistanceMeters>24.7396183013916</DistanceMeters>
                <TotalTimeSeconds>28.483</TotalTimeSeconds>
                <Calories>0.61232990026474</Calories>
                <Intensity>Active</Intensity>
                <TriggerMethod>Manual</TriggerMethod>
            </Lap>
        </Activity>
        <Activity Sport="Walking">
            <Id>2020-10-12T12:56:07.318Z</Id>
            <Lap StartTime="2020-10-12T12:56:07.318Z">
                <Track>
                    <Trackpoint>
                        <DistanceMeters>0.0</DistanceMeters>
                        <Time>2020-10-12T12:56:07.318Z</Time>
                    </Trackpoint>
                    <Trackpoint>
                        <DistanceMeters>0.0</DistanceMeters>
                        <Time>2020-10-12T12:59:31.083Z</Time>
                    </Trackpoint>
                    <Trackpoint>
                        <DistanceMeters>24.7396183013916</DistanceMeters>
                        <Time>2020-10-12T13:00:43.083Z</Time>
                    </Trackpoint>
                    <Trackpoint>
                        <DistanceMeters>30.924522876739502</DistanceMeters>
                        <Time>2020-10-12T13:00:50.173Z</Time>
                    </Trackpoint>
                </Track>
                <DistanceMeters>30.924522876739502</DistanceMeters>
                <TotalTimeSeconds>282.855</TotalTimeSeconds>
                <Calories>6.032728910446167</Calories>
                <Intensity>Active</Intensity>
                <TriggerMethod>Manual</TriggerMethod>
            </Lap>
        </Activity>
        <Activity Sport="Walking">
            <Id>2020-10-12T13:00:43.083Z</Id>
            <Lap StartTime="2020-10-12T13:00:43.083Z">
                <Track>
                    <Trackpoint>
                        <DistanceMeters>0.0</DistanceMeters>
                        <Time>2020-10-12T13:00:43.083Z</Time>
                    </Trackpoint>
                    <Trackpoint>
                        <DistanceMeters>6.1849045753479</DistanceMeters>
                        <Time>2020-10-12T13:00:46.162Z</Time>
                    </Trackpoint>
                    <Trackpoint>
                        <DistanceMeters>6.1849045753479</DistanceMeters>
                        <Time>2020-10-12T13:01:13.649Z</Time>
                    </Trackpoint>
                </Track>
                <DistanceMeters>6.1849045753479</DistanceMeters>
                <TotalTimeSeconds>30.565532879</TotalTimeSeconds>
                <Calories>2.5822508335113525</Calories>
                <Intensity>Active</Intensity>
                <TriggerMethod>Manual</TriggerMethod>
            </Lap>
        </Activity>
    </Activities>
    <Author xsi:type="Application_t">
        <Name>Google Fit</Name>
        <Build>
            <Version>
                <VersionMajor>0</VersionMajor>
                <VersionMinor>0</VersionMinor>
                <BuildMajor>0</BuildMajor>
                <BuildMinor>0</BuildMinor>
            </Version>
        </Build>
        <LangID>en</LangID>
        <PartNumber>000-00000-00</PartNumber>
    </Author>
</TrainingCenterDatabase>
