<?xml version="1.0" encoding="UTF-8"?>
<TrainingCenterDatabase
    xmlns="http://www.garmin.com/xmlschemas/TrainingCenterDatabase/v2"
    xmlns:ns2="http://www.garmin.com/xmlschemas/UserProfile/v2"
    xmlns:ns3="http://www.garmin.com/xmlschemas/ActivityExtension/v2"
    xmlns:ns4="http://www.garmin.com/xmlschemas/ProfileExtension/v1"
    xmlns:ns5="http://www.garmin.com/xmlschemas/ActivityGoals/v1"
    xmlns:xsi="http://www.w3.org/2001/XMLSchema-instance" xsi:schemaLocation="http://www.garmin.com/xmlschemas/TrainingCenterDatabase/v2 http://www.garmin.com/xmlschemas/TrainingCenterDatabasev2.xsd">
    <Activities>
        <Activity Sport="Walking">
            <Id>2020-11-25T11:58:29.204Z</Id>
            <Lap StartTime="2020-11-25T11:58:29.204Z">
                <Track>
                    <Trackpoint>
                        <DistanceMeters>0.0</DistanceMeters>
                        <Time>2020-11-25T11:58:29.204Z</Time>
                    </Trackpoint>
                    <Trackpoint>
                        <DistanceMeters>42.607120513916016</DistanceMeters>
                        <Time>2020-11-25T11:59:17.160Z</Time>
                    </Trackpoint>
                    <Trackpoint>
                        <DistanceMeters>42.607120513916016</DistanceMeters>
                        <Time>2020-11-25T11:59:34.791Z</Time>
                    </Trackpoint>
                    <Trackpoint>
                        <DistanceMeters>62.536258697509766</DistanceMeters>
                        <Time>2020-11-25T12:00:50.294Z</Time>
                    </Trackpoint>
                    <Trackpoint>
                        <DistanceMeters>111.32828521728516</DistanceMeters>
                        <Time>2020-11-25T12:01:50.539Z</Time>
                    </Trackpoint>
                    <Trackpoint>
                        <DistanceMeters>192.55746459960938</DistanceMeters>
                        <Time>2020-11-25T12:02:50.857Z</Time>
                    </Trackpoint>
                    <Trackpoint>
                        <DistanceMeters>272.68995666503906</DistanceMeters>
                        <Time>2020-11-25T12:03:20.922Z</Time>
                        <Position>
                            <LatitudeDegrees>19.847989</LatitudeDegrees>
                            <LongitudeDegrees>75.3040082</LongitudeDegrees>
                        </Position>
                        <AltitudeMeters>456.712158203125</AltitudeMeters>
                    </Trackpoint>
                    <Trackpoint>
                        <DistanceMeters>272.68995666503906</DistanceMeters>
                        <Time>2020-11-25T12:03:51.173Z</Time>
                    </Trackpoint>
                    <Trackpoint>
                        <DistanceMeters>356.13475799560547</DistanceMeters>
                        <Time>2020-11-25T12:04:51.487Z</Time>
                    </Trackpoint>
                    <Trackpoint>
                        <DistanceMeters>440.84996795654297</DistanceMeters>
                        <Time>2020-11-25T12:05:51.561Z</Time>
                    </Trackpoint>
                    <Trackpoint>
                        <DistanceMeters>523.0384368896484</DistanceMeters>
                        <Time>2020-11-25T12:06:52.113Z</Time>
                    </Trackpoint>
                    <Trackpoint>
                        <DistanceMeters>602.0816955566406</DistanceMeters>
                        <Time>2020-11-25T12:07:52.426Z</Time>
                    </Trackpoint>
                    <Trackpoint>
                        <DistanceMeters>685.6795196533203</DistanceMeters>
                        <Time>2020-11-25T12:08:52.498Z</Time>
                    </Trackpoint>
                    <Trackpoint>
                        <DistanceMeters>767.9189834594727</DistanceMeters>
                        <Time>2020-11-25T12:09:52.967Z</Time>
                    </Trackpoint>
                    <Trackpoint>
                        <DistanceMeters>843.6979751586914</DistanceMeters>
                        <Time>2020-11-25T12:11:06.182Z</Time>
                    </Trackpoint>
                    <Trackpoint>
                        <DistanceMeters>847.912003993988</DistanceMeters>
                        <Time>2020-11-25T12:11:10.240Z</Time>
                    </Trackpoint>
                    <Trackpoint>
                        <DistanceMeters>927.1348128318787</DistanceMeters>
                        <Time>2020-11-25T12:12:06.649Z</Time>
                    </Trackpoint>
                    <Trackpoint>
                        <DistanceMeters>932.5808701515198</DistanceMeters>
                        <Time>2020-11-25T12:12:10.388Z</Time>
                    </Trackpoint>
                    <Trackpoint>
                        <DistanceMeters>1019.0339951515198</DistanceMeters>
                        <Time>2020-11-25T12:13:13.002Z</Time>
                    </Trackpoint>
                    <Trackpoint>
                        <DistanceMeters>1044.4229493141174</DistanceMeters>
                        <Time>2020-11-25T12:13:13.920Z</Time>
                        <Position>
                            <LatitudeDegrees>19.8575234</LatitudeDegrees>
                            <LongitudeDegrees>75.3039826</LongitudeDegrees>
                        </Position>
                        <AltitudeMeters>485.3999938964844</AltitudeMeters>
                    </Trackpoint>
                    <Trackpoint>
                        <DistanceMeters>1044.4229493141174</DistanceMeters>
                        <Time>2020-11-25T12:13:32.892Z</Time>
                    </Trackpoint>
                    <Trackpoint>
                        <DistanceMeters>1128.888273715973</DistanceMeters>
                        <Time>2020-11-25T12:14:33.356Z</Time>
                    </Trackpoint>
                    <Trackpoint>
                        <DistanceMeters>1138.4845938682556</DistanceMeters>
                        <Time>2020-11-25T12:14:39.402Z</Time>
                    </Trackpoint>
                    <Trackpoint>
                        <DistanceMeters>1180.32896566391</DistanceMeters>
                        <Time>2020-11-25T12:15:08.500Z</Time>
                    </Trackpoint>
                    <Trackpoint>
                        <DistanceMeters>1259.0458006858826</DistanceMeters>
                        <Time>2020-11-25T12:16:03.954Z</Time>
                    </Trackpoint>
                    <Trackpoint>
                        <DistanceMeters>1286.726062297821</DistanceMeters>
                        <Time>2020-11-25T12:16:23.684Z</Time>
                    </Trackpoint>
                    <Trackpoint>
                        <DistanceMeters>1329.6718859672546</DistanceMeters>
                        <Time>2020-11-25T12:16:54.552Z</Time>
                    </Trackpoint>
                    <Trackpoint>
                        <DistanceMeters>1335.0091395378113</DistanceMeters>
                        <Time>2020-11-25T12:16:58.460Z</Time>
                    </Trackpoint>
                    <Trackpoint>
                        <DistanceMeters>1391.33748960495</DistanceMeters>
                        <Time>2020-11-25T12:17:38.160Z</Time>
                    </Trackpoint>
                    <Trackpoint>
                        <DistanceMeters>1431.646659374237</DistanceMeters>
                        <Time>2020-11-25T12:18:07.915Z</Time>
                    </Trackpoint>
                    <Trackpoint>
                        <DistanceMeters>1450.8808073997498</DistanceMeters>
                        <Time>2020-11-25T12:18:21.598Z</Time>
                    </Trackpoint>
                    <Trackpoint>
                        <DistanceMeters>1527.6647124290466</DistanceMeters>
                        <Time>2020-11-25T12:19:16.570Z</Time>
                    </Trackpoint>
                    <Trackpoint>
                        <DistanceMeters>1554.4906306266785</DistanceMeters>
                        <Time>2020-11-25T12:19:37.731Z</Time>
                    </Trackpoint>
                    <Trackpoint>
                        <DistanceMeters>1559.988323688507</DistanceMeters>
                        <Time>2020-11-25T12:19:55.233Z</Time>
                    </Trackpoint>
                </Track>
                <DistanceMeters>1559.988323688507</DistanceMeters>
                <TotalTimeSeconds>1286.028391809</TotalTimeSeconds>
                <Calories>116.19752502441406</Calories>
                <Intensity>Active</Intensity>
                <TriggerMethod>Manual</TriggerMethod>
            </Lap>
        </Activity>
    </Activities>
    <Author xsi:type="Application_t">
        <Name>Google Fit</Name>
        <Build>
            <Version>
                <VersionMajor>0</VersionMajor>
                <VersionMinor>0</VersionMinor>
                <BuildMajor>0</BuildMajor>
                <BuildMinor>0</BuildMinor>
            </Version>
        </Build>
        <LangID>en</LangID>
        <PartNumber>000-00000-00</PartNumber>
    </Author>
</TrainingCenterDatabase>
