<?xml version="1.0" encoding="UTF-8"?>
<TrainingCenterDatabase
    xmlns="http://www.garmin.com/xmlschemas/TrainingCenterDatabase/v2"
    xmlns:ns2="http://www.garmin.com/xmlschemas/UserProfile/v2"
    xmlns:ns3="http://www.garmin.com/xmlschemas/ActivityExtension/v2"
    xmlns:ns4="http://www.garmin.com/xmlschemas/ProfileExtension/v1"
    xmlns:ns5="http://www.garmin.com/xmlschemas/ActivityGoals/v1"
    xmlns:xsi="http://www.w3.org/2001/XMLSchema-instance" xsi:schemaLocation="http://www.garmin.com/xmlschemas/TrainingCenterDatabase/v2 http://www.garmin.com/xmlschemas/TrainingCenterDatabasev2.xsd">
    <Activities>
        <Activity Sport="Walking">
            <Id>2020-10-30T06:42:00.000Z</Id>
            <Lap StartTime="2020-10-30T06:42:00.000Z">
                <Track>
                    <Trackpoint>
                        <DistanceMeters>0.0</DistanceMeters>
                        <Time>2020-10-30T06:42:00.000Z</Time>
                    </Trackpoint>
                    <Trackpoint>
                        <DistanceMeters>30.0</DistanceMeters>
                        <Time>2020-10-30T06:43:00.000Z</Time>
                    </Trackpoint>
                </Track>
                <DistanceMeters>30.0</DistanceMeters>
                <TotalTimeSeconds>60.0</TotalTimeSeconds>
                <Calories>5.636666774749756</Calories>
                <Intensity>Active</Intensity>
                <TriggerMethod>Manual</TriggerMethod>
            </Lap>
        </Activity>
        <Activity Sport="Walking">
            <Id>2020-10-30T06:43:00.000Z</Id>
            <Lap StartTime="2020-10-30T06:43:00.000Z">
                <Track>
                    <Trackpoint>
                        <DistanceMeters>0.0</DistanceMeters>
                        <Time>2020-10-30T06:43:00.000Z</Time>
                    </Trackpoint>
                    <Trackpoint>
                        <DistanceMeters>18.0</DistanceMeters>
                        <Time>2020-10-30T06:44:00.000Z</Time>
                    </Trackpoint>
                </Track>
                <DistanceMeters>18.0</DistanceMeters>
                <TotalTimeSeconds>60.0</TotalTimeSeconds>
                <Calories>5.636666774749756</Calories>
                <Intensity>Active</Intensity>
                <TriggerMethod>Manual</TriggerMethod>
            </Lap>
        </Activity>
        <Activity Sport="Walking">
            <Id>2020-10-30T06:44:00.000Z</Id>
            <Lap StartTime="2020-10-30T06:44:00.000Z">
                <Track>
                    <Trackpoint>
                        <DistanceMeters>0.0</DistanceMeters>
                        <Time>2020-10-30T06:44:00.000Z</Time>
                    </Trackpoint>
                    <Trackpoint>
                        <DistanceMeters>4.0</DistanceMeters>
                        <Time>2020-10-30T06:45:00.000Z</Time>
                    </Trackpoint>
                </Track>
                <DistanceMeters>4.0</DistanceMeters>
                <TotalTimeSeconds>60.0</TotalTimeSeconds>
                <Calories>5.636666774749756</Calories>
                <Intensity>Active</Intensity>
                <TriggerMethod>Manual</TriggerMethod>
            </Lap>
        </Activity>
        <Activity Sport="Walking">
            <Id>2020-10-30T06:45:00.000Z</Id>
            <Lap StartTime="2020-10-30T06:45:00.000Z">
                <Track>
                    <Trackpoint>
                        <DistanceMeters>0.0</DistanceMeters>
                        <Time>2020-10-30T06:45:00.000Z</Time>
                    </Trackpoint>
                    <Trackpoint>
                        <DistanceMeters>0.0</DistanceMeters>
                        <Time>2020-10-30T06:46:00.000Z</Time>
                    </Trackpoint>
                </Track>
                <DistanceMeters>0.0</DistanceMeters>
                <TotalTimeSeconds>60.0</TotalTimeSeconds>
                <Calories>5.636666774749756</Calories>
                <Intensity>Active</Intensity>
                <TriggerMethod>Manual</TriggerMethod>
            </Lap>
        </Activity>
        <Activity Sport="Walking">
            <Id>2020-10-30T07:01:00.000Z</Id>
            <Lap StartTime="2020-10-30T07:01:00.000Z">
                <Track>
                    <Trackpoint>
                        <DistanceMeters>0.0</DistanceMeters>
                        <Time>2020-10-30T07:01:00.000Z</Time>
                    </Trackpoint>
                    <Trackpoint>
                        <DistanceMeters>22.0</DistanceMeters>
                        <Time>2020-10-30T07:02:00.000Z</Time>
                    </Trackpoint>
                </Track>
                <DistanceMeters>22.0</DistanceMeters>
                <TotalTimeSeconds>60.0</TotalTimeSeconds>
                <Calories>5.636666774749756</Calories>
                <Intensity>Active</Intensity>
                <TriggerMethod>Manual</TriggerMethod>
            </Lap>
        </Activity>
        <Activity Sport="Walking">
            <Id>2020-10-30T07:02:00.000Z</Id>
            <Lap StartTime="2020-10-30T07:02:00.000Z">
                <Track>
                    <Trackpoint>
                        <DistanceMeters>0.0</DistanceMeters>
                        <Time>2020-10-30T07:02:00.000Z</Time>
                    </Trackpoint>
                    <Trackpoint>
                        <DistanceMeters>14.0</DistanceMeters>
                        <Time>2020-10-30T07:03:00.000Z</Time>
                    </Trackpoint>
                </Track>
                <DistanceMeters>14.0</DistanceMeters>
                <TotalTimeSeconds>60.0</TotalTimeSeconds>
                <Calories>5.636666774749756</Calories>
                <Intensity>Active</Intensity>
                <TriggerMethod>Manual</TriggerMethod>
            </Lap>
        </Activity>
        <Activity Sport="Walking">
            <Id>2020-10-30T07:03:00.000Z</Id>
            <Lap StartTime="2020-10-30T07:03:00.000Z">
                <Track>
                    <Trackpoint>
                        <DistanceMeters>0.0</DistanceMeters>
                        <Time>2020-10-30T07:03:00.000Z</Time>
                    </Trackpoint>
                    <Trackpoint>
                        <DistanceMeters>23.0</DistanceMeters>
                        <Time>2020-10-30T07:04:00.000Z</Time>
                    </Trackpoint>
                </Track>
                <DistanceMeters>23.0</DistanceMeters>
                <TotalTimeSeconds>60.0</TotalTimeSeconds>
                <Calories>5.636666774749756</Calories>
                <Intensity>Active</Intensity>
                <TriggerMethod>Manual</TriggerMethod>
            </Lap>
        </Activity>
        <Activity Sport="Walking">
            <Id>2020-10-30T07:04:00.000Z</Id>
            <Lap StartTime="2020-10-30T07:04:00.000Z">
                <Track>
                    <Trackpoint>
                        <DistanceMeters>0.0</DistanceMeters>
                        <Time>2020-10-30T07:04:00.000Z</Time>
                    </Trackpoint>
                    <Trackpoint>
                        <DistanceMeters>22.0</DistanceMeters>
                        <Time>2020-10-30T07:05:00.000Z</Time>
                    </Trackpoint>
                </Track>
                <DistanceMeters>22.0</DistanceMeters>
                <TotalTimeSeconds>60.0</TotalTimeSeconds>
                <Calories>5.636666774749756</Calories>
                <Intensity>Active</Intensity>
                <TriggerMethod>Manual</TriggerMethod>
            </Lap>
        </Activity>
        <Activity Sport="Walking">
            <Id>2020-10-30T07:05:00.000Z</Id>
            <Lap StartTime="2020-10-30T07:05:00.000Z">
                <Track>
                    <Trackpoint>
                        <DistanceMeters>0.0</DistanceMeters>
                        <Time>2020-10-30T07:05:00.000Z</Time>
                    </Trackpoint>
                    <Trackpoint>
                        <DistanceMeters>34.0</DistanceMeters>
                        <Time>2020-10-30T07:06:00.000Z</Time>
                    </Trackpoint>
                </Track>
                <DistanceMeters>34.0</DistanceMeters>
                <TotalTimeSeconds>60.0</TotalTimeSeconds>
                <Calories>5.636666774749756</Calories>
                <Intensity>Active</Intensity>
                <TriggerMethod>Manual</TriggerMethod>
            </Lap>
        </Activity>
        <Activity Sport="Walking">
            <Id>2020-10-30T07:06:00.000Z</Id>
            <Lap StartTime="2020-10-30T07:06:00.000Z">
                <Track>
                    <Trackpoint>
                        <DistanceMeters>0.0</DistanceMeters>
                        <Time>2020-10-30T07:06:00.000Z</Time>
                    </Trackpoint>
                    <Trackpoint>
                        <DistanceMeters>52.0</DistanceMeters>
                        <Time>2020-10-30T07:07:00.000Z</Time>
                    </Trackpoint>
                </Track>
                <DistanceMeters>52.0</DistanceMeters>
                <TotalTimeSeconds>60.0</TotalTimeSeconds>
                <Calories>5.636666774749756</Calories>
                <Intensity>Active</Intensity>
                <TriggerMethod>Manual</TriggerMethod>
            </Lap>
        </Activity>
        <Activity Sport="Walking">
            <Id>2020-10-30T07:07:00.000Z</Id>
            <Lap StartTime="2020-10-30T07:07:00.000Z">
                <Track>
                    <Trackpoint>
                        <DistanceMeters>0.0</DistanceMeters>
                        <Time>2020-10-30T07:07:00.000Z</Time>
                    </Trackpoint>
                    <Trackpoint>
                        <DistanceMeters>54.0</DistanceMeters>
                        <Time>2020-10-30T07:08:00.000Z</Time>
                    </Trackpoint>
                </Track>
                <DistanceMeters>54.0</DistanceMeters>
                <TotalTimeSeconds>60.0</TotalTimeSeconds>
                <Calories>5.636666774749756</Calories>
                <Intensity>Active</Intensity>
                <TriggerMethod>Manual</TriggerMethod>
            </Lap>
        </Activity>
        <Activity Sport="Walking">
            <Id>2020-10-30T07:08:00.000Z</Id>
            <Lap StartTime="2020-10-30T07:08:00.000Z">
                <Track>
                    <Trackpoint>
                        <DistanceMeters>0.0</DistanceMeters>
                        <Time>2020-10-30T07:08:00.000Z</Time>
                    </Trackpoint>
                    <Trackpoint>
                        <DistanceMeters>44.0</DistanceMeters>
                        <Time>2020-10-30T07:09:00.000Z</Time>
                    </Trackpoint>
                </Track>
                <DistanceMeters>44.0</DistanceMeters>
                <TotalTimeSeconds>60.0</TotalTimeSeconds>
                <Calories>5.636666774749756</Calories>
                <Intensity>Active</Intensity>
                <TriggerMethod>Manual</TriggerMethod>
            </Lap>
        </Activity>
        <Activity Sport="Walking">
            <Id>2020-10-30T07:09:00.000Z</Id>
            <Lap StartTime="2020-10-30T07:09:00.000Z">
                <Track>
                    <Trackpoint>
                        <DistanceMeters>0.0</DistanceMeters>
                        <Time>2020-10-30T07:09:00.000Z</Time>
                    </Trackpoint>
                    <Trackpoint>
                        <DistanceMeters>38.0</DistanceMeters>
                        <Time>2020-10-30T07:10:00.000Z</Time>
                    </Trackpoint>
                </Track>
                <DistanceMeters>38.0</DistanceMeters>
                <TotalTimeSeconds>60.0</TotalTimeSeconds>
                <Calories>5.636666774749756</Calories>
                <Intensity>Active</Intensity>
                <TriggerMethod>Manual</TriggerMethod>
            </Lap>
        </Activity>
        <Activity Sport="Walking">
            <Id>2020-10-30T07:10:00.000Z</Id>
            <Lap StartTime="2020-10-30T07:10:00.000Z">
                <Track>
                    <Trackpoint>
                        <DistanceMeters>0.0</DistanceMeters>
                        <Time>2020-10-30T07:10:00.000Z</Time>
                    </Trackpoint>
                    <Trackpoint>
                        <DistanceMeters>46.0</DistanceMeters>
                        <Time>2020-10-30T07:11:00.000Z</Time>
                    </Trackpoint>
                </Track>
                <DistanceMeters>46.0</DistanceMeters>
                <TotalTimeSeconds>60.0</TotalTimeSeconds>
                <Calories>5.636666774749756</Calories>
                <Intensity>Active</Intensity>
                <TriggerMethod>Manual</TriggerMethod>
            </Lap>
        </Activity>
        <Activity Sport="Walking">
            <Id>2020-10-30T07:11:00.000Z</Id>
            <Lap StartTime="2020-10-30T07:11:00.000Z">
                <Track>
                    <Trackpoint>
                        <DistanceMeters>0.0</DistanceMeters>
                        <Time>2020-10-30T07:11:00.000Z</Time>
                    </Trackpoint>
                    <Trackpoint>
                        <DistanceMeters>0.0</DistanceMeters>
                        <Time>2020-10-30T07:12:00.000Z</Time>
                    </Trackpoint>
                </Track>
                <DistanceMeters>0.0</DistanceMeters>
                <TotalTimeSeconds>60.0</TotalTimeSeconds>
                <Calories>5.636666774749756</Calories>
                <Intensity>Active</Intensity>
                <TriggerMethod>Manual</TriggerMethod>
            </Lap>
        </Activity>
        <Activity Sport="Walking">
            <Id>2020-10-30T07:12:00.000Z</Id>
            <Lap StartTime="2020-10-30T07:12:00.000Z">
                <Track>
                    <Trackpoint>
                        <DistanceMeters>0.0</DistanceMeters>
                        <Time>2020-10-30T07:12:00.000Z</Time>
                    </Trackpoint>
                    <Trackpoint>
                        <DistanceMeters>0.0</DistanceMeters>
                        <Time>2020-10-30T07:13:52.014Z</Time>
                    </Trackpoint>
                    <Trackpoint>
                        <DistanceMeters>6.1849045753479</DistanceMeters>
                        <Time>2020-10-30T07:14:00.000Z</Time>
                    </Trackpoint>
                    <Trackpoint>
                        <DistanceMeters>37.1849045753479</DistanceMeters>
                        <Time>2020-10-30T07:15:00.000Z</Time>
                    </Trackpoint>
                </Track>
                <DistanceMeters>37.1849045753479</DistanceMeters>
                <TotalTimeSeconds>180.0</TotalTimeSeconds>
                <Calories>3.1998485922813416</Calories>
                <Intensity>Active</Intensity>
                <TriggerMethod>Manual</TriggerMethod>
            </Lap>
        </Activity>
        <Activity Sport="Walking">
            <Id>2020-10-30T07:14:00.000Z</Id>
            <Lap StartTime="2020-10-30T07:14:00.000Z">
                <Track>
                    <Trackpoint>
                        <DistanceMeters>0.0</DistanceMeters>
                        <Time>2020-10-30T07:14:00.000Z</Time>
                    </Trackpoint>
                    <Trackpoint>
                        <DistanceMeters>31.0</DistanceMeters>
                        <Time>2020-10-30T07:14:01.242Z</Time>
                    </Trackpoint>
                    <Trackpoint>
                        <DistanceMeters>31.0</DistanceMeters>
                        <Time>2020-10-30T07:15:00.000Z</Time>
                    </Trackpoint>
                </Track>
                <DistanceMeters>31.0</DistanceMeters>
                <TotalTimeSeconds>60.0</TotalTimeSeconds>
                <Calories>5.5199875831604</Calories>
                <Intensity>Active</Intensity>
                <TriggerMethod>Manual</TriggerMethod>
            </Lap>
        </Activity>
        <Activity Sport="Walking">
            <Id>2020-10-30T07:15:00.000Z</Id>
            <Lap StartTime="2020-10-30T07:15:00.000Z">
                <Track>
                    <Trackpoint>
                        <DistanceMeters>0.0</DistanceMeters>
                        <Time>2020-10-30T07:15:00.000Z</Time>
                    </Trackpoint>
                    <Trackpoint>
                        <DistanceMeters>18.0</DistanceMeters>
                        <Time>2020-10-30T07:16:00.000Z</Time>
                    </Trackpoint>
                </Track>
                <DistanceMeters>18.0</DistanceMeters>
                <TotalTimeSeconds>60.0</TotalTimeSeconds>
                <Calories>5.636666774749756</Calories>
                <Intensity>Active</Intensity>
                <TriggerMethod>Manual</TriggerMethod>
            </Lap>
        </Activity>
        <Activity Sport="Walking">
            <Id>2020-10-30T07:16:00.000Z</Id>
            <Lap StartTime="2020-10-30T07:16:00.000Z">
                <Track>
                    <Trackpoint>
                        <DistanceMeters>0.0</DistanceMeters>
                        <Time>2020-10-30T07:16:00.000Z</Time>
                    </Trackpoint>
                    <Trackpoint>
                        <DistanceMeters>27.0</DistanceMeters>
                        <Time>2020-10-30T07:17:00.000Z</Time>
                    </Trackpoint>
                </Track>
                <DistanceMeters>27.0</DistanceMeters>
                <TotalTimeSeconds>60.0</TotalTimeSeconds>
                <Calories>5.636666774749756</Calories>
                <Intensity>Active</Intensity>
                <TriggerMethod>Manual</TriggerMethod>
            </Lap>
        </Activity>
        <Activity Sport="Walking">
            <Id>2020-10-30T07:17:00.000Z</Id>
            <Lap StartTime="2020-10-30T07:17:00.000Z">
                <Track>
                    <Trackpoint>
                        <DistanceMeters>0.0</DistanceMeters>
                        <Time>2020-10-30T07:17:00.000Z</Time>
                    </Trackpoint>
                    <Trackpoint>
                        <DistanceMeters>23.0</DistanceMeters>
                        <Time>2020-10-30T07:18:00.000Z</Time>
                    </Trackpoint>
                </Track>
                <DistanceMeters>23.0</DistanceMeters>
                <TotalTimeSeconds>60.0</TotalTimeSeconds>
                <Calories>5.636666774749756</Calories>
                <Intensity>Active</Intensity>
                <TriggerMethod>Manual</TriggerMethod>
            </Lap>
        </Activity>
        <Activity Sport="Walking">
            <Id>2020-10-30T07:18:00.000Z</Id>
            <Lap StartTime="2020-10-30T07:18:00.000Z">
                <Track>
                    <Trackpoint>
                        <DistanceMeters>0.0</DistanceMeters>
                        <Time>2020-10-30T07:18:00.000Z</Time>
                    </Trackpoint>
                    <Trackpoint>
                        <DistanceMeters>0.0</DistanceMeters>
                        <Time>2020-10-30T07:18:08.183Z</Time>
                    </Trackpoint>
                    <Trackpoint>
                        <DistanceMeters>15.118656158447266</DistanceMeters>
                        <Time>2020-10-30T07:19:00.000Z</Time>
                    </Trackpoint>
                </Track>
                <DistanceMeters>15.118656158447266</DistanceMeters>
                <TotalTimeSeconds>60.0</TotalTimeSeconds>
                <Calories>5.636666774749756</Calories>
                <Intensity>Active</Intensity>
                <TriggerMethod>Manual</TriggerMethod>
            </Lap>
        </Activity>
    </Activities>
    <Author xsi:type="Application_t">
        <Name>Google Fit</Name>
        <Build>
            <Version>
                <VersionMajor>0</VersionMajor>
                <VersionMinor>0</VersionMinor>
                <BuildMajor>0</BuildMajor>
                <BuildMinor>0</BuildMinor>
            </Version>
        </Build>
        <LangID>en</LangID>
        <PartNumber>000-00000-00</PartNumber>
    </Author>
</TrainingCenterDatabase>
