<?xml version="1.0" encoding="UTF-8"?>
<TrainingCenterDatabase
    xmlns="http://www.garmin.com/xmlschemas/TrainingCenterDatabase/v2"
    xmlns:ns2="http://www.garmin.com/xmlschemas/UserProfile/v2"
    xmlns:ns3="http://www.garmin.com/xmlschemas/ActivityExtension/v2"
    xmlns:ns4="http://www.garmin.com/xmlschemas/ProfileExtension/v1"
    xmlns:ns5="http://www.garmin.com/xmlschemas/ActivityGoals/v1"
    xmlns:xsi="http://www.w3.org/2001/XMLSchema-instance" xsi:schemaLocation="http://www.garmin.com/xmlschemas/TrainingCenterDatabase/v2 http://www.garmin.com/xmlschemas/TrainingCenterDatabasev2.xsd">
    <Activities>
        <Activity Sport="Walking">
            <Id>2020-11-14T02:21:00.000Z</Id>
            <Lap StartTime="2020-11-14T02:21:00.000Z">
                <Track>
                    <Trackpoint>
                        <DistanceMeters>0.0</DistanceMeters>
                        <Time>2020-11-14T02:21:00.000Z</Time>
                    </Trackpoint>
                    <Trackpoint>
                        <DistanceMeters>0.0</DistanceMeters>
                        <Time>2020-11-14T02:22:00.000Z</Time>
                    </Trackpoint>
                </Track>
                <DistanceMeters>0.0</DistanceMeters>
                <TotalTimeSeconds>60.0</TotalTimeSeconds>
                <Calories>5.636666774749756</Calories>
                <Intensity>Active</Intensity>
                <TriggerMethod>Manual</TriggerMethod>
            </Lap>
        </Activity>
        <Activity Sport="Walking">
            <Id>2020-11-14T02:23:00.000Z</Id>
            <Lap StartTime="2020-11-14T02:23:00.000Z">
                <Track>
                    <Trackpoint>
                        <DistanceMeters>0.0</DistanceMeters>
                        <Time>2020-11-14T02:23:00.000Z</Time>
                    </Trackpoint>
                    <Trackpoint>
                        <DistanceMeters>0.0</DistanceMeters>
                        <Time>2020-11-14T02:24:00.000Z</Time>
                    </Trackpoint>
                </Track>
                <DistanceMeters>0.0</DistanceMeters>
                <TotalTimeSeconds>60.0</TotalTimeSeconds>
                <Calories>5.636666774749756</Calories>
                <Intensity>Active</Intensity>
                <TriggerMethod>Manual</TriggerMethod>
            </Lap>
        </Activity>
        <Activity Sport="Walking">
            <Id>2020-11-14T02:28:00.000Z</Id>
            <Lap StartTime="2020-11-14T02:28:00.000Z">
                <Track>
                    <Trackpoint>
                        <DistanceMeters>0.0</DistanceMeters>
                        <Time>2020-11-14T02:28:00.000Z</Time>
                    </Trackpoint>
                    <Trackpoint>
                        <DistanceMeters>6.0</DistanceMeters>
                        <Time>2020-11-14T02:29:00.000Z</Time>
                    </Trackpoint>
                </Track>
                <DistanceMeters>6.0</DistanceMeters>
                <TotalTimeSeconds>60.0</TotalTimeSeconds>
                <Calories>5.636666774749756</Calories>
                <Intensity>Active</Intensity>
                <TriggerMethod>Manual</TriggerMethod>
            </Lap>
        </Activity>
        <Activity Sport="Walking">
            <Id>2020-11-14T02:29:00.000Z</Id>
            <Lap StartTime="2020-11-14T02:29:00.000Z">
                <Track>
                    <Trackpoint>
                        <DistanceMeters>0.0</DistanceMeters>
                        <Time>2020-11-14T02:29:00.000Z</Time>
                    </Trackpoint>
                    <Trackpoint>
                        <DistanceMeters>0.0</DistanceMeters>
                        <Time>2020-11-14T02:30:00.000Z</Time>
                    </Trackpoint>
                </Track>
                <DistanceMeters>0.0</DistanceMeters>
                <TotalTimeSeconds>60.0</TotalTimeSeconds>
                <Calories>5.636666774749756</Calories>
                <Intensity>Active</Intensity>
                <TriggerMethod>Manual</TriggerMethod>
            </Lap>
        </Activity>
        <Activity Sport="Walking">
            <Id>2020-11-14T02:36:19.995Z</Id>
            <Lap StartTime="2020-11-14T02:36:19.995Z">
                <Track>
                    <Trackpoint>
                        <DistanceMeters>0.0</DistanceMeters>
                        <Time>2020-11-14T02:36:19.995Z</Time>
                    </Trackpoint>
                    <Trackpoint>
                        <DistanceMeters>0.0</DistanceMeters>
                        <Time>2020-11-14T02:37:00.000Z</Time>
                    </Trackpoint>
                    <Trackpoint>
                        <DistanceMeters>23.0</DistanceMeters>
                        <Time>2020-11-14T02:38:00.000Z</Time>
                    </Trackpoint>
                </Track>
                <DistanceMeters>23.0</DistanceMeters>
                <TotalTimeSeconds>100.005</TotalTimeSeconds>
                <Calories>9.394913673400879</Calories>
                <Intensity>Active</Intensity>
                <TriggerMethod>Manual</TriggerMethod>
            </Lap>
        </Activity>
        <Activity Sport="Walking">
            <Id>2020-11-14T02:38:00.000Z</Id>
            <Lap StartTime="2020-11-14T02:38:00.000Z">
                <Track>
                    <Trackpoint>
                        <DistanceMeters>0.0</DistanceMeters>
                        <Time>2020-11-14T02:38:00.000Z</Time>
                    </Trackpoint>
                    <Trackpoint>
                        <DistanceMeters>44.0</DistanceMeters>
                        <Time>2020-11-14T02:39:00.000Z</Time>
                    </Trackpoint>
                </Track>
                <DistanceMeters>44.0</DistanceMeters>
                <TotalTimeSeconds>60.0</TotalTimeSeconds>
                <Calories>5.636666774749756</Calories>
                <Intensity>Active</Intensity>
                <TriggerMethod>Manual</TriggerMethod>
            </Lap>
        </Activity>
        <Activity Sport="Walking">
            <Id>2020-11-14T02:39:00.000Z</Id>
            <Lap StartTime="2020-11-14T02:39:00.000Z">
                <Track>
                    <Trackpoint>
                        <DistanceMeters>0.0</DistanceMeters>
                        <Time>2020-11-14T02:39:00.000Z</Time>
                    </Trackpoint>
                    <Trackpoint>
                        <DistanceMeters>24.0</DistanceMeters>
                        <Time>2020-11-14T02:40:00.000Z</Time>
                    </Trackpoint>
                </Track>
                <DistanceMeters>24.0</DistanceMeters>
                <TotalTimeSeconds>60.0</TotalTimeSeconds>
                <Calories>5.636666774749756</Calories>
                <Intensity>Active</Intensity>
                <TriggerMethod>Manual</TriggerMethod>
            </Lap>
        </Activity>
        <Activity Sport="Walking">
            <Id>2020-11-14T02:40:00.000Z</Id>
            <Lap StartTime="2020-11-14T02:40:00.000Z">
                <Track>
                    <Trackpoint>
                        <DistanceMeters>0.0</DistanceMeters>
                        <Time>2020-11-14T02:40:00.000Z</Time>
                    </Trackpoint>
                    <Trackpoint>
                        <DistanceMeters>35.0</DistanceMeters>
                        <Time>2020-11-14T02:41:00.000Z</Time>
                    </Trackpoint>
                </Track>
                <DistanceMeters>35.0</DistanceMeters>
                <TotalTimeSeconds>60.0</TotalTimeSeconds>
                <Calories>5.636666774749756</Calories>
                <Intensity>Active</Intensity>
                <TriggerMethod>Manual</TriggerMethod>
            </Lap>
        </Activity>
        <Activity Sport="Walking">
            <Id>2020-11-14T02:41:00.000Z</Id>
            <Lap StartTime="2020-11-14T02:41:00.000Z">
                <Track>
                    <Trackpoint>
                        <DistanceMeters>0.0</DistanceMeters>
                        <Time>2020-11-14T02:41:00.000Z</Time>
                    </Trackpoint>
                    <Trackpoint>
                        <DistanceMeters>46.0</DistanceMeters>
                        <Time>2020-11-14T02:42:00.000Z</Time>
                    </Trackpoint>
                </Track>
                <DistanceMeters>46.0</DistanceMeters>
                <TotalTimeSeconds>60.0</TotalTimeSeconds>
                <Calories>5.636666774749756</Calories>
                <Intensity>Active</Intensity>
                <TriggerMethod>Manual</TriggerMethod>
            </Lap>
        </Activity>
        <Activity Sport="Walking">
            <Id>2020-11-14T02:42:00.000Z</Id>
            <Lap StartTime="2020-11-14T02:42:00.000Z">
                <Track>
                    <Trackpoint>
                        <DistanceMeters>0.0</DistanceMeters>
                        <Time>2020-11-14T02:42:00.000Z</Time>
                    </Trackpoint>
                    <Trackpoint>
                        <DistanceMeters>0.0</DistanceMeters>
                        <Time>2020-11-14T02:43:00.000Z</Time>
                    </Trackpoint>
                </Track>
                <DistanceMeters>0.0</DistanceMeters>
                <TotalTimeSeconds>60.0</TotalTimeSeconds>
                <Calories>5.636666774749756</Calories>
                <Intensity>Active</Intensity>
                <TriggerMethod>Manual</TriggerMethod>
            </Lap>
        </Activity>
        <Activity Sport="Walking">
            <Id>2020-11-14T02:43:00.000Z</Id>
            <Lap StartTime="2020-11-14T02:43:00.000Z">
                <Track>
                    <Trackpoint>
                        <DistanceMeters>0.0</DistanceMeters>
                        <Time>2020-11-14T02:43:00.000Z</Time>
                    </Trackpoint>
                    <Trackpoint>
                        <DistanceMeters>18.0</DistanceMeters>
                        <Time>2020-11-14T02:44:00.000Z</Time>
                    </Trackpoint>
                </Track>
                <DistanceMeters>18.0</DistanceMeters>
                <TotalTimeSeconds>60.0</TotalTimeSeconds>
                <Calories>0.32749032974243164</Calories>
                <Intensity>Active</Intensity>
                <TriggerMethod>Manual</TriggerMethod>
            </Lap>
        </Activity>
        <Activity Sport="Walking">
            <Id>2020-11-14T02:44:00.000Z</Id>
            <Lap StartTime="2020-11-14T02:44:00.000Z">
                <Track>
                    <Trackpoint>
                        <DistanceMeters>0.0</DistanceMeters>
                        <Time>2020-11-14T02:44:00.000Z</Time>
                    </Trackpoint>
                    <Trackpoint>
                        <DistanceMeters>15.0</DistanceMeters>
                        <Time>2020-11-14T02:45:00.000Z</Time>
                    </Trackpoint>
                </Track>
                <DistanceMeters>15.0</DistanceMeters>
                <TotalTimeSeconds>60.0</TotalTimeSeconds>
                <Calories>5.636666774749756</Calories>
                <Intensity>Active</Intensity>
                <TriggerMethod>Manual</TriggerMethod>
            </Lap>
        </Activity>
        <Activity Sport="Walking">
            <Id>2020-11-14T02:45:00.000Z</Id>
            <Lap StartTime="2020-11-14T02:45:00.000Z">
                <Track>
                    <Trackpoint>
                        <DistanceMeters>0.0</DistanceMeters>
                        <Time>2020-11-14T02:45:00.000Z</Time>
                    </Trackpoint>
                    <Trackpoint>
                        <DistanceMeters>27.0</DistanceMeters>
                        <Time>2020-11-14T02:46:00.000Z</Time>
                    </Trackpoint>
                </Track>
                <DistanceMeters>27.0</DistanceMeters>
                <TotalTimeSeconds>60.0</TotalTimeSeconds>
                <Calories>5.636666774749756</Calories>
                <Intensity>Active</Intensity>
                <TriggerMethod>Manual</TriggerMethod>
            </Lap>
        </Activity>
        <Activity Sport="Walking">
            <Id>2020-11-14T02:51:15.550Z</Id>
            <Lap StartTime="2020-11-14T02:51:15.550Z">
                <Track>
                    <Trackpoint>
                        <DistanceMeters>0.0</DistanceMeters>
                        <Time>2020-11-14T02:51:15.550Z</Time>
                    </Trackpoint>
                    <Trackpoint>
                        <DistanceMeters>0.0</DistanceMeters>
                        <Time>2020-11-14T02:52:50.478Z</Time>
                    </Trackpoint>
                    <Trackpoint>
                        <DistanceMeters>4.579893112182617</DistanceMeters>
                        <Time>2020-11-14T02:54:26.048Z</Time>
                    </Trackpoint>
                    <Trackpoint>
                        <DistanceMeters>21.760183334350586</DistanceMeters>
                        <Time>2020-11-14T02:56:01.915Z</Time>
                    </Trackpoint>
                    <Trackpoint>
                        <DistanceMeters>75.6117115020752</DistanceMeters>
                        <Time>2020-11-14T02:56:54.539Z</Time>
                    </Trackpoint>
                </Track>
                <DistanceMeters>75.6117115020752</DistanceMeters>
                <TotalTimeSeconds>338.989482075</TotalTimeSeconds>
                <Calories>29.684846878051758</Calories>
                <Intensity>Active</Intensity>
                <TriggerMethod>Manual</TriggerMethod>
            </Lap>
        </Activity>
        <Activity Sport="Walking">
            <Id>2020-11-14T02:56:01.915Z</Id>
            <Lap StartTime="2020-11-14T02:56:01.915Z">
                <Track>
                    <Trackpoint>
                        <DistanceMeters>0.0</DistanceMeters>
                        <Time>2020-11-14T02:56:01.915Z</Time>
                    </Trackpoint>
                    <Trackpoint>
                        <DistanceMeters>53.85152816772461</DistanceMeters>
                        <Time>2020-11-14T02:56:31.533Z</Time>
                    </Trackpoint>
                    <Trackpoint>
                        <DistanceMeters>53.85152816772461</DistanceMeters>
                        <Time>2020-11-14T02:56:54.539Z</Time>
                    </Trackpoint>
                </Track>
                <DistanceMeters>53.85152816772461</DistanceMeters>
                <TotalTimeSeconds>52.624234402</TotalTimeSeconds>
                <Calories>2.1613311767578125</Calories>
                <Intensity>Active</Intensity>
                <TriggerMethod>Manual</TriggerMethod>
            </Lap>
        </Activity>
    </Activities>
    <Author xsi:type="Application_t">
        <Name>Google Fit</Name>
        <Build>
            <Version>
                <VersionMajor>0</VersionMajor>
                <VersionMinor>0</VersionMinor>
                <BuildMajor>0</BuildMajor>
                <BuildMinor>0</BuildMinor>
            </Version>
        </Build>
        <LangID>en</LangID>
        <PartNumber>000-00000-00</PartNumber>
    </Author>
</TrainingCenterDatabase>
