<?xml version="1.0" encoding="UTF-8"?>
<TrainingCenterDatabase
    xmlns="http://www.garmin.com/xmlschemas/TrainingCenterDatabase/v2"
    xmlns:ns2="http://www.garmin.com/xmlschemas/UserProfile/v2"
    xmlns:ns3="http://www.garmin.com/xmlschemas/ActivityExtension/v2"
    xmlns:ns4="http://www.garmin.com/xmlschemas/ProfileExtension/v1"
    xmlns:ns5="http://www.garmin.com/xmlschemas/ActivityGoals/v1"
    xmlns:xsi="http://www.w3.org/2001/XMLSchema-instance" xsi:schemaLocation="http://www.garmin.com/xmlschemas/TrainingCenterDatabase/v2 http://www.garmin.com/xmlschemas/TrainingCenterDatabasev2.xsd">
    <Activities>
        <Activity Sport="Walking">
            <Id>2020-12-03T05:50:07.632Z</Id>
            <Lap StartTime="2020-12-03T05:50:07.632Z">
                <Track>
                    <Trackpoint>
                        <DistanceMeters>0.0</DistanceMeters>
                        <Time>2020-12-03T05:50:07.632Z</Time>
                    </Trackpoint>
                    <Trackpoint>
                        <DistanceMeters>0.0</DistanceMeters>
                        <Time>2020-12-03T07:37:54.739Z</Time>
                    </Trackpoint>
                    <Trackpoint>
                        <DistanceMeters>13.744232177734375</DistanceMeters>
                        <Time>2020-12-03T07:38:12.242Z</Time>
                    </Trackpoint>
                    <Trackpoint>
                        <DistanceMeters>72.84443283081055</DistanceMeters>
                        <Time>2020-12-03T07:38:14.954Z</Time>
                        <Position>
                            <LatitudeDegrees>19.7174603</LatitudeDegrees>
                            <LongitudeDegrees>77.14141</LongitudeDegrees>
                        </Position>
                        <AltitudeMeters>391.3999938964844</AltitudeMeters>
                    </Trackpoint>
                    <Trackpoint>
                        <DistanceMeters>72.84443283081055</DistanceMeters>
                        <Time>2020-12-03T07:39:15.574Z</Time>
                    </Trackpoint>
                </Track>
                <DistanceMeters>72.84443283081055</DistanceMeters>
                <TotalTimeSeconds>6547.942191133</TotalTimeSeconds>
                <Calories>142.2304711341858</Calories>
                <Intensity>Active</Intensity>
                <TriggerMethod>Manual</TriggerMethod>
            </Lap>
        </Activity>
        <Activity Sport="Walking">
            <Id>2020-12-03T07:38:12.242Z</Id>
            <Lap StartTime="2020-12-03T07:38:12.242Z">
                <Track>
                    <Trackpoint>
                        <DistanceMeters>0.0</DistanceMeters>
                        <Time>2020-12-03T07:38:12.242Z</Time>
                    </Trackpoint>
                    <Trackpoint>
                        <DistanceMeters>59.10020065307617</DistanceMeters>
                        <Time>2020-12-03T07:39:14.962Z</Time>
                    </Trackpoint>
                    <Trackpoint>
                        <DistanceMeters>59.10020065307617</DistanceMeters>
                        <Time>2020-12-03T07:39:15.574Z</Time>
                    </Trackpoint>
                    <Trackpoint>
                        <DistanceMeters>116.82597732543945</DistanceMeters>
                        <Time>2020-12-03T07:40:15.961Z</Time>
                    </Trackpoint>
                    <Trackpoint>
                        <DistanceMeters>140.1911735534668</DistanceMeters>
                        <Time>2020-12-03T07:40:51.366Z</Time>
                    </Trackpoint>
                    <Trackpoint>
                        <DistanceMeters>149.61274909973145</DistanceMeters>
                        <Time>2020-12-03T07:40:57.652Z</Time>
                    </Trackpoint>
                    <Trackpoint>
                        <DistanceMeters>205.96410179138184</DistanceMeters>
                        <Time>2020-12-03T07:41:57.563Z</Time>
                    </Trackpoint>
                    <Trackpoint>
                        <DistanceMeters>215.79700374603271</DistanceMeters>
                        <Time>2020-12-03T07:42:07.031Z</Time>
                    </Trackpoint>
                    <Trackpoint>
                        <DistanceMeters>283.7689962387085</DistanceMeters>
                        <Time>2020-12-03T07:43:10.680Z</Time>
                    </Trackpoint>
                    <Trackpoint>
                        <DistanceMeters>343.5564069747925</DistanceMeters>
                        <Time>2020-12-03T07:44:19.579Z</Time>
                    </Trackpoint>
                    <Trackpoint>
                        <DistanceMeters>374.94670963287354</DistanceMeters>
                        <Time>2020-12-03T07:44:48.221Z</Time>
                    </Trackpoint>
                    <Trackpoint>
                        <DistanceMeters>402.6839990615845</DistanceMeters>
                        <Time>2020-12-03T07:44:59.773Z</Time>
                        <Position>
                            <LatitudeDegrees>19.7174015</LatitudeDegrees>
                            <LongitudeDegrees>77.1413632</LongitudeDegrees>
                        </Position>
                        <AltitudeMeters>391.1999816894531</AltitudeMeters>
                    </Trackpoint>
                    <Trackpoint>
                        <DistanceMeters>402.6839990615845</DistanceMeters>
                        <Time>2020-12-03T07:45:16.147Z</Time>
                    </Trackpoint>
                    <Trackpoint>
                        <DistanceMeters>422.6131372451782</DistanceMeters>
                        <Time>2020-12-03T07:45:37.708Z</Time>
                    </Trackpoint>
                    <Trackpoint>
                        <DistanceMeters>432.3802146911621</DistanceMeters>
                        <Time>2020-12-03T07:45:47.335Z</Time>
                    </Trackpoint>
                    <Trackpoint>
                        <DistanceMeters>468.11521911621094</DistanceMeters>
                        <Time>2020-12-03T07:46:25.604Z</Time>
                    </Trackpoint>
                    <Trackpoint>
                        <DistanceMeters>526.7942047119141</DistanceMeters>
                        <Time>2020-12-03T07:47:18.591Z</Time>
                    </Trackpoint>
                    <Trackpoint>
                        <DistanceMeters>563.216423034668</DistanceMeters>
                        <Time>2020-12-03T07:48:19.534Z</Time>
                    </Trackpoint>
                    <Trackpoint>
                        <DistanceMeters>590.8033676147461</DistanceMeters>
                        <Time>2020-12-03T07:48:41.255Z</Time>
                    </Trackpoint>
                    <Trackpoint>
                        <DistanceMeters>620.3534679412842</DistanceMeters>
                        <Time>2020-12-03T07:49:12.681Z</Time>
                    </Trackpoint>
                    <Trackpoint>
                        <DistanceMeters>636.1593351364136</DistanceMeters>
                        <Time>2020-12-03T07:50:09.009Z</Time>
                    </Trackpoint>
                    <Trackpoint>
                        <DistanceMeters>678.7664556503296</DistanceMeters>
                        <Time>2020-12-03T07:50:56.266Z</Time>
                    </Trackpoint>
                    <Trackpoint>
                        <DistanceMeters>713.2012891769409</DistanceMeters>
                        <Time>2020-12-03T07:52:03.976Z</Time>
                    </Trackpoint>
                </Track>
                <DistanceMeters>713.2012891769409</DistanceMeters>
                <TotalTimeSeconds>831.733815665</TotalTimeSeconds>
                <Calories>72.24459075927734</Calories>
                <Intensity>Active</Intensity>
                <TriggerMethod>Manual</TriggerMethod>
            </Lap>
        </Activity>
    </Activities>
    <Author xsi:type="Application_t">
        <Name>Google Fit</Name>
        <Build>
            <Version>
                <VersionMajor>0</VersionMajor>
                <VersionMinor>0</VersionMinor>
                <BuildMajor>0</BuildMajor>
                <BuildMinor>0</BuildMinor>
            </Version>
        </Build>
        <LangID>en</LangID>
        <PartNumber>000-00000-00</PartNumber>
    </Author>
</TrainingCenterDatabase>
