<?xml version="1.0" encoding="UTF-8"?>
<TrainingCenterDatabase
    xmlns="http://www.garmin.com/xmlschemas/TrainingCenterDatabase/v2"
    xmlns:ns2="http://www.garmin.com/xmlschemas/UserProfile/v2"
    xmlns:ns3="http://www.garmin.com/xmlschemas/ActivityExtension/v2"
    xmlns:ns4="http://www.garmin.com/xmlschemas/ProfileExtension/v1"
    xmlns:ns5="http://www.garmin.com/xmlschemas/ActivityGoals/v1"
    xmlns:xsi="http://www.w3.org/2001/XMLSchema-instance" xsi:schemaLocation="http://www.garmin.com/xmlschemas/TrainingCenterDatabase/v2 http://www.garmin.com/xmlschemas/TrainingCenterDatabasev2.xsd">
    <Activities>
        <Activity Sport="Walking">
            <Id>2020-12-23T16:44:20.425Z</Id>
            <Lap StartTime="2020-12-23T16:44:20.425Z">
                <Track>
                    <Trackpoint>
                        <DistanceMeters>0.0</DistanceMeters>
                        <Time>2020-12-23T16:44:20.425Z</Time>
                    </Trackpoint>
                    <Trackpoint>
                        <DistanceMeters>0.0</DistanceMeters>
                        <Time>2020-12-23T16:44:21.147Z</Time>
                    </Trackpoint>
                    <Trackpoint>
                        <DistanceMeters>20.616348266601562</DistanceMeters>
                        <Time>2020-12-23T16:45:21.147Z</Time>
                    </Trackpoint>
                    <Trackpoint>
                        <DistanceMeters>100.08555603027344</DistanceMeters>
                        <Time>2020-12-23T16:46:42.140Z</Time>
                    </Trackpoint>
                    <Trackpoint>
                        <DistanceMeters>166.5282440185547</DistanceMeters>
                        <Time>2020-12-23T16:47:40.298Z</Time>
                    </Trackpoint>
                    <Trackpoint>
                        <DistanceMeters>190.7666473388672</DistanceMeters>
                        <Time>2020-12-23T16:48:00.349Z</Time>
                    </Trackpoint>
                    <Trackpoint>
                        <DistanceMeters>213.4446315765381</DistanceMeters>
                        <Time>2020-12-23T16:48:25.970Z</Time>
                    </Trackpoint>
                    <Trackpoint>
                        <DistanceMeters>241.6466121673584</DistanceMeters>
                        <Time>2020-12-23T16:48:52.766Z</Time>
                    </Trackpoint>
                    <Trackpoint>
                        <DistanceMeters>269.575159072876</DistanceMeters>
                        <Time>2020-12-23T16:49:20.216Z</Time>
                    </Trackpoint>
                    <Trackpoint>
                        <DistanceMeters>302.5885257720947</DistanceMeters>
                        <Time>2020-12-23T16:49:49.734Z</Time>
                    </Trackpoint>
                    <Trackpoint>
                        <DistanceMeters>364.0208797454834</DistanceMeters>
                        <Time>2020-12-23T16:50:41.287Z</Time>
                    </Trackpoint>
                    <Trackpoint>
                        <DistanceMeters>379.13953590393066</DistanceMeters>
                        <Time>2020-12-23T16:51:13.012Z</Time>
                    </Trackpoint>
                    <Trackpoint>
                        <DistanceMeters>392.7347869873047</DistanceMeters>
                        <Time>2020-12-23T16:51:23.275Z</Time>
                    </Trackpoint>
                    <Trackpoint>
                        <DistanceMeters>445.91299057006836</DistanceMeters>
                        <Time>2020-12-23T16:52:10.611Z</Time>
                    </Trackpoint>
                    <Trackpoint>
                        <DistanceMeters>483.0224189758301</DistanceMeters>
                        <Time>2020-12-23T16:53:50.008Z</Time>
                    </Trackpoint>
                </Track>
                <DistanceMeters>483.0224189758301</DistanceMeters>
                <TotalTimeSeconds>569.583016246</TotalTimeSeconds>
                <Calories>48.012001037597656</Calories>
                <Intensity>Active</Intensity>
                <TriggerMethod>Manual</TriggerMethod>
            </Lap>
        </Activity>
        <Activity Sport="Walking">
            <Id>2020-12-23T16:52:51.493Z</Id>
            <Lap StartTime="2020-12-23T16:52:51.493Z">
                <Track>
                    <Trackpoint>
                        <DistanceMeters>0.0</DistanceMeters>
                        <Time>2020-12-23T16:52:51.493Z</Time>
                    </Trackpoint>
                    <Trackpoint>
                        <DistanceMeters>0.0</DistanceMeters>
                        <Time>2020-12-23T16:57:40.140Z</Time>
                    </Trackpoint>
                    <Trackpoint>
                        <DistanceMeters>22.936214447021484</DistanceMeters>
                        <Time>2020-12-23T16:57:55.096Z</Time>
                    </Trackpoint>
                    <Trackpoint>
                        <DistanceMeters>90.05674362182617</DistanceMeters>
                        <Time>2020-12-23T16:58:46.011Z</Time>
                    </Trackpoint>
                </Track>
                <DistanceMeters>90.05674362182617</DistanceMeters>
                <TotalTimeSeconds>354.518356897</TotalTimeSeconds>
                <Calories>7.5409780740737915</Calories>
                <Intensity>Active</Intensity>
                <TriggerMethod>Manual</TriggerMethod>
            </Lap>
        </Activity>
        <Activity Sport="Walking">
            <Id>2020-12-23T16:57:55.096Z</Id>
            <Lap StartTime="2020-12-23T16:57:55.096Z">
                <Track>
                    <Trackpoint>
                        <DistanceMeters>0.0</DistanceMeters>
                        <Time>2020-12-23T16:57:55.096Z</Time>
                    </Trackpoint>
                    <Trackpoint>
                        <DistanceMeters>67.12052917480469</DistanceMeters>
                        <Time>2020-12-23T16:57:56.418Z</Time>
                    </Trackpoint>
                    <Trackpoint>
                        <DistanceMeters>67.12052917480469</DistanceMeters>
                        <Time>2020-12-23T16:58:46.011Z</Time>
                    </Trackpoint>
                    <Trackpoint>
                        <DistanceMeters>72.36906147003174</DistanceMeters>
                        <Time>2020-12-23T16:58:50.068Z</Time>
                    </Trackpoint>
                    <Trackpoint>
                        <DistanceMeters>128.62262058258057</DistanceMeters>
                        <Time>2020-12-23T16:59:33.505Z</Time>
                    </Trackpoint>
                    <Trackpoint>
                        <DistanceMeters>155.09737873077393</DistanceMeters>
                        <Time>2020-12-23T16:59:53.394Z</Time>
                    </Trackpoint>
                    <Trackpoint>
                        <DistanceMeters>203.88940525054932</DistanceMeters>
                        <Time>2020-12-23T17:00:50.912Z</Time>
                    </Trackpoint>
                    <Trackpoint>
                        <DistanceMeters>246.96539783477783</DistanceMeters>
                        <Time>2020-12-23T17:01:23.370Z</Time>
                    </Trackpoint>
                    <Trackpoint>
                        <DistanceMeters>277.02587604522705</DistanceMeters>
                        <Time>2020-12-23T17:01:50.498Z</Time>
                    </Trackpoint>
                    <Trackpoint>
                        <DistanceMeters>370.9524965286255</DistanceMeters>
                        <Time>2020-12-23T17:03:00.743Z</Time>
                    </Trackpoint>
                    <Trackpoint>
                        <DistanceMeters>450.7195177078247</DistanceMeters>
                        <Time>2020-12-23T17:03:01.869Z</Time>
                        <Position>
                            <LatitudeDegrees>19.8674967</LatitudeDegrees>
                            <LongitudeDegrees>75.3122187</LongitudeDegrees>
                        </Position>
                        <AltitudeMeters>453.1000061035156</AltitudeMeters>
                    </Trackpoint>
                    <Trackpoint>
                        <DistanceMeters>450.7195177078247</DistanceMeters>
                        <Time>2020-12-23T17:04:01.681Z</Time>
                    </Trackpoint>
                    <Trackpoint>
                        <DistanceMeters>509.5869417190552</DistanceMeters>
                        <Time>2020-12-23T17:04:46.230Z</Time>
                    </Trackpoint>
                    <Trackpoint>
                        <DistanceMeters>536.2061471939087</DistanceMeters>
                        <Time>2020-12-23T17:05:05.880Z</Time>
                    </Trackpoint>
                    <Trackpoint>
                        <DistanceMeters>620.7758646011353</DistanceMeters>
                        <Time>2020-12-23T17:06:06.180Z</Time>
                    </Trackpoint>
                    <Trackpoint>
                        <DistanceMeters>629.2226581573486</DistanceMeters>
                        <Time>2020-12-23T17:06:12.226Z</Time>
                    </Trackpoint>
                    <Trackpoint>
                        <DistanceMeters>671.6781024932861</DistanceMeters>
                        <Time>2020-12-23T17:06:43.889Z</Time>
                    </Trackpoint>
                    <Trackpoint>
                        <DistanceMeters>710.3013324737549</DistanceMeters>
                        <Time>2020-12-23T17:07:11.016Z</Time>
                    </Trackpoint>
                    <Trackpoint>
                        <DistanceMeters>828.4050464630127</DistanceMeters>
                        <Time>2020-12-23T17:08:35.898Z</Time>
                    </Trackpoint>
                    <Trackpoint>
                        <DistanceMeters>840.0438003540039</DistanceMeters>
                        <Time>2020-12-23T17:08:45.842Z</Time>
                    </Trackpoint>
                    <Trackpoint>
                        <DistanceMeters>907.5285491943359</DistanceMeters>
                        <Time>2020-12-23T17:09:32.619Z</Time>
                    </Trackpoint>
                    <Trackpoint>
                        <DistanceMeters>923.0967979431152</DistanceMeters>
                        <Time>2020-12-23T17:09:45.108Z</Time>
                    </Trackpoint>
                    <Trackpoint>
                        <DistanceMeters>1003.6274452209473</DistanceMeters>
                        <Time>2020-12-23T17:10:46.602Z</Time>
                    </Trackpoint>
                    <Trackpoint>
                        <DistanceMeters>1007.3508186340332</DistanceMeters>
                        <Time>2020-12-23T17:10:49.545Z</Time>
                    </Trackpoint>
                    <Trackpoint>
                        <DistanceMeters>1043.062644958496</DistanceMeters>
                        <Time>2020-12-23T17:11:22.003Z</Time>
                    </Trackpoint>
                    <Trackpoint>
                        <DistanceMeters>1096.4149208068848</DistanceMeters>
                        <Time>2020-12-23T17:12:11.165Z</Time>
                    </Trackpoint>
                    <Trackpoint>
                        <DistanceMeters>1152.21626663208</DistanceMeters>
                        <Time>2020-12-23T17:13:01.601Z</Time>
                    </Trackpoint>
                    <Trackpoint>
                        <DistanceMeters>1163.2116527557373</DistanceMeters>
                        <Time>2020-12-23T17:13:12.471Z</Time>
                        <Position>
                            <LatitudeDegrees>19.8669529</LatitudeDegrees>
                            <LongitudeDegrees>75.312036</LongitudeDegrees>
                        </Position>
                        <AltitudeMeters>490.1999816894531</AltitudeMeters>
                    </Trackpoint>
                    <Trackpoint>
                        <DistanceMeters>1163.2116527557373</DistanceMeters>
                        <Time>2020-12-23T17:13:13.770Z</Time>
                    </Trackpoint>
                    <Trackpoint>
                        <DistanceMeters>1221.6031818389893</DistanceMeters>
                        <Time>2020-12-23T17:14:07.388Z</Time>
                    </Trackpoint>
                    <Trackpoint>
                        <DistanceMeters>1229.3412466049194</DistanceMeters>
                        <Time>2020-12-23T17:14:14.043Z</Time>
                    </Trackpoint>
                </Track>
                <DistanceMeters>1229.3412466049194</DistanceMeters>
                <TotalTimeSeconds>978.946154956</TotalTimeSeconds>
                <Calories>91.8424301147461</Calories>
                <Intensity>Active</Intensity>
                <TriggerMethod>Manual</TriggerMethod>
            </Lap>
        </Activity>
        <Activity Sport="Walking">
            <Id>2020-12-23T17:14:14.043Z</Id>
            <Lap StartTime="2020-12-23T17:14:14.043Z">
                <Track>
                    <Trackpoint>
                        <DistanceMeters>0.0</DistanceMeters>
                        <Time>2020-12-23T17:14:14.043Z</Time>
                    </Trackpoint>
                    <Trackpoint>
                        <DistanceMeters>11.823500633239746</DistanceMeters>
                        <Time>2020-12-23T17:14:27.991Z</Time>
                    </Trackpoint>
                </Track>
                <DistanceMeters>11.823500633239746</DistanceMeters>
                <TotalTimeSeconds>13.948902434</TotalTimeSeconds>
                <Calories>1.3104218244552612</Calories>
                <Intensity>Active</Intensity>
                <TriggerMethod>Manual</TriggerMethod>
            </Lap>
        </Activity>
    </Activities>
    <Author xsi:type="Application_t">
        <Name>Google Fit</Name>
        <Build>
            <Version>
                <VersionMajor>0</VersionMajor>
                <VersionMinor>0</VersionMinor>
                <BuildMajor>0</BuildMajor>
                <BuildMinor>0</BuildMinor>
            </Version>
        </Build>
        <LangID>en</LangID>
        <PartNumber>000-00000-00</PartNumber>
    </Author>
</TrainingCenterDatabase>
