<?xml version="1.0" encoding="UTF-8"?>
<TrainingCenterDatabase
    xmlns="http://www.garmin.com/xmlschemas/TrainingCenterDatabase/v2"
    xmlns:ns2="http://www.garmin.com/xmlschemas/UserProfile/v2"
    xmlns:ns3="http://www.garmin.com/xmlschemas/ActivityExtension/v2"
    xmlns:ns4="http://www.garmin.com/xmlschemas/ProfileExtension/v1"
    xmlns:ns5="http://www.garmin.com/xmlschemas/ActivityGoals/v1"
    xmlns:xsi="http://www.w3.org/2001/XMLSchema-instance" xsi:schemaLocation="http://www.garmin.com/xmlschemas/TrainingCenterDatabase/v2 http://www.garmin.com/xmlschemas/TrainingCenterDatabasev2.xsd">
    <Activities>
        <Activity Sport="Walking">
            <Id>2020-12-05T10:21:42.364Z</Id>
            <Lap StartTime="2020-12-05T10:21:42.364Z">
                <Track>
                    <Trackpoint>
                        <DistanceMeters>0.0</DistanceMeters>
                        <Time>2020-12-05T10:21:42.364Z</Time>
                    </Trackpoint>
                    <Trackpoint>
                        <DistanceMeters>4.123270034790039</DistanceMeters>
                        <Time>2020-12-05T10:21:48.102Z</Time>
                    </Trackpoint>
                    <Trackpoint>
                        <DistanceMeters>43.29433250427246</DistanceMeters>
                        <Time>2020-12-05T10:22:03.356Z</Time>
                        <Position>
                            <LatitudeDegrees>19.7102134</LatitudeDegrees>
                            <LongitudeDegrees>77.1343148</LongitudeDegrees>
                        </Position>
                        <AltitudeMeters>198.2646484375</AltitudeMeters>
                    </Trackpoint>
                    <Trackpoint>
                        <DistanceMeters>43.29433250427246</DistanceMeters>
                        <Time>2020-12-05T10:23:00.975Z</Time>
                    </Trackpoint>
                    <Trackpoint>
                        <DistanceMeters>78.34212684631348</DistanceMeters>
                        <Time>2020-12-05T10:23:38.795Z</Time>
                        <Position>
                            <LatitudeDegrees>19.7149721</LatitudeDegrees>
                            <LongitudeDegrees>77.1404827</LongitudeDegrees>
                        </Position>
                        <AltitudeMeters>395.8999938964844</AltitudeMeters>
                    </Trackpoint>
                    <Trackpoint>
                        <DistanceMeters>78.34212684631348</DistanceMeters>
                        <Time>2020-12-05T10:23:49.438Z</Time>
                    </Trackpoint>
                    <Trackpoint>
                        <DistanceMeters>99.64568710327148</DistanceMeters>
                        <Time>2020-12-05T10:24:14.999Z</Time>
                    </Trackpoint>
                    <Trackpoint>
                        <DistanceMeters>134.6934814453125</DistanceMeters>
                        <Time>2020-12-05T10:24:52.231Z</Time>
                    </Trackpoint>
                    <Trackpoint>
                        <DistanceMeters>153.24819564819336</DistanceMeters>
                        <Time>2020-12-05T10:24:53.454Z</Time>
                        <Position>
                            <LatitudeDegrees>19.7149793</LatitudeDegrees>
                            <LongitudeDegrees>77.1402158</LongitudeDegrees>
                        </Position>
                        <AltitudeMeters>392.16387939453125</AltitudeMeters>
                    </Trackpoint>
                    <Trackpoint>
                        <DistanceMeters>153.24819564819336</DistanceMeters>
                        <Time>2020-12-05T10:25:18.003Z</Time>
                    </Trackpoint>
                    <Trackpoint>
                        <DistanceMeters>212.7459487915039</DistanceMeters>
                        <Time>2020-12-05T10:26:18.395Z</Time>
                    </Trackpoint>
                </Track>
                <DistanceMeters>212.7459487915039</DistanceMeters>
                <TotalTimeSeconds>276.031</TotalTimeSeconds>
                <Calories>20.62437629699707</Calories>
                <Intensity>Active</Intensity>
                <TriggerMethod>Manual</TriggerMethod>
            </Lap>
        </Activity>
        <Activity Sport="Walking">
            <Id>2020-12-05T10:25:18.003Z</Id>
            <Lap StartTime="2020-12-05T10:25:18.003Z">
                <Track>
                    <Trackpoint>
                        <DistanceMeters>0.0</DistanceMeters>
                        <Time>2020-12-05T10:25:18.003Z</Time>
                    </Trackpoint>
                    <Trackpoint>
                        <DistanceMeters>59.49775314331055</DistanceMeters>
                        <Time>2020-12-05T10:25:21.902Z</Time>
                    </Trackpoint>
                    <Trackpoint>
                        <DistanceMeters>59.49775314331055</DistanceMeters>
                        <Time>2020-12-05T10:26:18.395Z</Time>
                    </Trackpoint>
                </Track>
                <DistanceMeters>59.49775314331055</DistanceMeters>
                <TotalTimeSeconds>60.392</TotalTimeSeconds>
                <Calories>5.3072028160095215</Calories>
                <Intensity>Active</Intensity>
                <TriggerMethod>Manual</TriggerMethod>
            </Lap>
        </Activity>
        <Activity Sport="Walking">
            <Id>2020-12-05T10:29:55.391Z</Id>
            <Lap StartTime="2020-12-05T10:29:55.391Z">
                <Track>
                    <Trackpoint>
                        <DistanceMeters>0.0</DistanceMeters>
                        <Time>2020-12-05T10:29:55.391Z</Time>
                    </Trackpoint>
                    <Trackpoint>
                        <DistanceMeters>5.497693061828613</DistanceMeters>
                        <Time>2020-12-05T10:30:15.529Z</Time>
                    </Trackpoint>
                    <Trackpoint>
                        <DistanceMeters>5.497693061828613</DistanceMeters>
                        <Time>2020-12-05T10:30:17.098Z</Time>
                    </Trackpoint>
                    <Trackpoint>
                        <DistanceMeters>17.867502212524414</DistanceMeters>
                        <Time>2020-12-05T10:31:18.927Z</Time>
                    </Trackpoint>
                    <Trackpoint>
                        <DistanceMeters>58.41298866271973</DistanceMeters>
                        <Time>2020-12-05T10:32:35.674Z</Time>
                    </Trackpoint>
                    <Trackpoint>
                        <DistanceMeters>82.46539497375488</DistanceMeters>
                        <Time>2020-12-05T10:33:19.274Z</Time>
                    </Trackpoint>
                    <Trackpoint>
                        <DistanceMeters>102.59489440917969</DistanceMeters>
                        <Time>2020-12-05T10:33:35.127Z</Time>
                    </Trackpoint>
                    <Trackpoint>
                        <DistanceMeters>132.14499473571777</DistanceMeters>
                        <Time>2020-12-05T10:34:44.295Z</Time>
                    </Trackpoint>
                </Track>
                <DistanceMeters>132.14499473571777</DistanceMeters>
                <TotalTimeSeconds>288.9040795</TotalTimeSeconds>
                <Calories>23.098024368286133</Calories>
                <Intensity>Active</Intensity>
                <TriggerMethod>Manual</TriggerMethod>
            </Lap>
        </Activity>
    </Activities>
    <Author xsi:type="Application_t">
        <Name>Google Fit</Name>
        <Build>
            <Version>
                <VersionMajor>0</VersionMajor>
                <VersionMinor>0</VersionMinor>
                <BuildMajor>0</BuildMajor>
                <BuildMinor>0</BuildMinor>
            </Version>
        </Build>
        <LangID>en</LangID>
        <PartNumber>000-00000-00</PartNumber>
    </Author>
</TrainingCenterDatabase>
