<?xml version="1.0" encoding="UTF-8"?>
<TrainingCenterDatabase
    xmlns="http://www.garmin.com/xmlschemas/TrainingCenterDatabase/v2"
    xmlns:ns2="http://www.garmin.com/xmlschemas/UserProfile/v2"
    xmlns:ns3="http://www.garmin.com/xmlschemas/ActivityExtension/v2"
    xmlns:ns4="http://www.garmin.com/xmlschemas/ProfileExtension/v1"
    xmlns:ns5="http://www.garmin.com/xmlschemas/ActivityGoals/v1"
    xmlns:xsi="http://www.w3.org/2001/XMLSchema-instance" xsi:schemaLocation="http://www.garmin.com/xmlschemas/TrainingCenterDatabase/v2 http://www.garmin.com/xmlschemas/TrainingCenterDatabasev2.xsd">
    <Activities>
        <Activity Sport="Walking">
            <Id>2021-11-19T09:24:27.240Z</Id>
            <Lap StartTime="2021-11-19T09:24:27.240Z">
                <Track>
                    <Trackpoint>
                        <DistanceMeters>0.0</DistanceMeters>
                        <Time>2021-11-19T09:24:27.240Z</Time>
                    </Trackpoint>
                    <Trackpoint>
                        <DistanceMeters>0.0</DistanceMeters>
                        <Time>2021-11-19T09:40:29.757Z</Time>
                    </Trackpoint>
                    <Trackpoint>
                        <DistanceMeters>15.006694793701172</DistanceMeters>
                        <Time>2021-11-19T09:41:29.757Z</Time>
                    </Trackpoint>
                    <Trackpoint>
                        <DistanceMeters>15.006694793701172</DistanceMeters>
                        <Time>2021-11-19T09:42:02.492Z</Time>
                    </Trackpoint>
                </Track>
                <DistanceMeters>15.006694793701172</DistanceMeters>
                <TotalTimeSeconds>1055.252</TotalTimeSeconds>
                <Calories>24.31269383430481</Calories>
                <Intensity>Active</Intensity>
                <TriggerMethod>Manual</TriggerMethod>
            </Lap>
        </Activity>
        <Activity Sport="Walking">
            <Id>2021-11-19T09:42:02.492Z</Id>
            <Lap StartTime="2021-11-19T09:42:02.492Z">
                <Track>
                    <Trackpoint>
                        <DistanceMeters>0.0</DistanceMeters>
                        <Time>2021-11-19T09:42:02.492Z</Time>
                    </Trackpoint>
                    <Trackpoint>
                        <DistanceMeters>25.54929542541504</DistanceMeters>
                        <Time>2021-11-19T09:42:31.077Z</Time>
                    </Trackpoint>
                    <Trackpoint>
                        <DistanceMeters>48.38557052612305</DistanceMeters>
                        <Time>2021-11-19T09:42:54.700Z</Time>
                        <Position>
                            <LatitudeDegrees>19.847888946533203</LatitudeDegrees>
                            <LongitudeDegrees>75.30393981933594</LongitudeDegrees>
                        </Position>
                        <AltitudeMeters>470.5970153808594</AltitudeMeters>
                    </Trackpoint>
                    <Trackpoint>
                        <DistanceMeters>48.38557052612305</DistanceMeters>
                        <Time>2021-11-19T09:42:58.703Z</Time>
                        <Position>
                            <LatitudeDegrees>19.847911834716797</LatitudeDegrees>
                            <LongitudeDegrees>75.30391693115234</LongitudeDegrees>
                        </Position>
                        <AltitudeMeters>488.9953918457031</AltitudeMeters>
                    </Trackpoint>
                    <Trackpoint>
                        <DistanceMeters>48.38557052612305</DistanceMeters>
                        <Time>2021-11-19T09:42:59.706Z</Time>
                        <Position>
                            <LatitudeDegrees>19.847930908203125</LatitudeDegrees>
                            <LongitudeDegrees>75.30390167236328</LongitudeDegrees>
                        </Position>
                        <AltitudeMeters>496.1417236328125</AltitudeMeters>
                    </Trackpoint>
                    <Trackpoint>
                        <DistanceMeters>48.38557052612305</DistanceMeters>
                        <Time>2021-11-19T09:43:00.706Z</Time>
                        <Position>
                            <LatitudeDegrees>19.847929000854492</LatitudeDegrees>
                            <LongitudeDegrees>75.30389404296875</LongitudeDegrees>
                        </Position>
                        <AltitudeMeters>467.4968566894531</AltitudeMeters>
                    </Trackpoint>
                    <Trackpoint>
                        <DistanceMeters>48.38557052612305</DistanceMeters>
                        <Time>2021-11-19T09:43:01.695Z</Time>
                        <Position>
                            <LatitudeDegrees>19.84791374206543</LatitudeDegrees>
                            <LongitudeDegrees>75.3038330078125</LongitudeDegrees>
                        </Position>
                        <AltitudeMeters>500.2280578613281</AltitudeMeters>
                    </Trackpoint>
                    <Trackpoint>
                        <DistanceMeters>48.38557052612305</DistanceMeters>
                        <Time>2021-11-19T09:43:02.690Z</Time>
                        <Position>
                            <LatitudeDegrees>19.84792137145996</LatitudeDegrees>
                            <LongitudeDegrees>75.30379486083984</LongitudeDegrees>
                        </Position>
                        <AltitudeMeters>495.6925048828125</AltitudeMeters>
                    </Trackpoint>
                    <Trackpoint>
                        <DistanceMeters>48.38557052612305</DistanceMeters>
                        <Time>2021-11-19T09:43:03.708Z</Time>
                        <Position>
                            <LatitudeDegrees>19.847925186157227</LatitudeDegrees>
                            <LongitudeDegrees>75.30368041992188</LongitudeDegrees>
                        </Position>
                        <AltitudeMeters>525.9652099609375</AltitudeMeters>
                    </Trackpoint>
                    <Trackpoint>
                        <DistanceMeters>48.38557052612305</DistanceMeters>
                        <Time>2021-11-19T09:43:04.708Z</Time>
                        <Position>
                            <LatitudeDegrees>19.847942352294922</LatitudeDegrees>
                            <LongitudeDegrees>75.30360412597656</LongitudeDegrees>
                        </Position>
                        <AltitudeMeters>537.93115234375</AltitudeMeters>
                    </Trackpoint>
                    <Trackpoint>
                        <DistanceMeters>48.38557052612305</DistanceMeters>
                        <Time>2021-11-19T09:43:05.694Z</Time>
                        <Position>
                            <LatitudeDegrees>19.847944259643555</LatitudeDegrees>
                            <LongitudeDegrees>75.3035659790039</LongitudeDegrees>
                        </Position>
                        <AltitudeMeters>562.3110961914062</AltitudeMeters>
                    </Trackpoint>
                    <Trackpoint>
                        <DistanceMeters>48.38557052612305</DistanceMeters>
                        <Time>2021-11-19T09:43:07.706Z</Time>
                        <Position>
                            <LatitudeDegrees>19.847951889038086</LatitudeDegrees>
                            <LongitudeDegrees>75.30352783203125</LongitudeDegrees>
                        </Position>
                        <AltitudeMeters>518.7447509765625</AltitudeMeters>
                    </Trackpoint>
                    <Trackpoint>
                        <DistanceMeters>48.38557052612305</DistanceMeters>
                        <Time>2021-11-19T09:43:08.694Z</Time>
                        <Position>
                            <LatitudeDegrees>19.84794807434082</LatitudeDegrees>
                            <LongitudeDegrees>75.30351257324219</LongitudeDegrees>
                        </Position>
                        <AltitudeMeters>560.40380859375</AltitudeMeters>
                    </Trackpoint>
                    <Trackpoint>
                        <DistanceMeters>48.38557052612305</DistanceMeters>
                        <Time>2021-11-19T09:43:10.753Z</Time>
                        <Position>
                            <LatitudeDegrees>19.847965240478516</LatitudeDegrees>
                            <LongitudeDegrees>75.30352783203125</LongitudeDegrees>
                        </Position>
                        <AltitudeMeters>492.0451354980469</AltitudeMeters>
                    </Trackpoint>
                    <Trackpoint>
                        <DistanceMeters>48.38557052612305</DistanceMeters>
                        <Time>2021-11-19T09:43:11.754Z</Time>
                        <Position>
                            <LatitudeDegrees>19.84797477722168</LatitudeDegrees>
                            <LongitudeDegrees>75.30355834960938</LongitudeDegrees>
                        </Position>
                        <AltitudeMeters>489.44622802734375</AltitudeMeters>
                    </Trackpoint>
                    <Trackpoint>
                        <DistanceMeters>48.38557052612305</DistanceMeters>
                        <Time>2021-11-19T09:43:12.771Z</Time>
                        <Position>
                            <LatitudeDegrees>19.847986221313477</LatitudeDegrees>
                            <LongitudeDegrees>75.3035888671875</LongitudeDegrees>
                        </Position>
                        <AltitudeMeters>500.7052001953125</AltitudeMeters>
                    </Trackpoint>
                    <Trackpoint>
                        <DistanceMeters>48.38557052612305</DistanceMeters>
                        <Time>2021-11-19T09:43:13.753Z</Time>
                        <Position>
                            <LatitudeDegrees>19.84799575805664</LatitudeDegrees>
                            <LongitudeDegrees>75.30362701416016</LongitudeDegrees>
                        </Position>
                        <AltitudeMeters>500.3344421386719</AltitudeMeters>
                    </Trackpoint>
                    <Trackpoint>
                        <DistanceMeters>48.38557052612305</DistanceMeters>
                        <Time>2021-11-19T09:43:14.764Z</Time>
                        <Position>
                            <LatitudeDegrees>19.848005294799805</LatitudeDegrees>
                            <LongitudeDegrees>75.30366516113281</LongitudeDegrees>
                        </Position>
                        <AltitudeMeters>497.7369384765625</AltitudeMeters>
                    </Trackpoint>
                    <Trackpoint>
                        <DistanceMeters>48.38557052612305</DistanceMeters>
                        <Time>2021-11-19T09:43:15.747Z</Time>
                        <Position>
                            <LatitudeDegrees>19.848011016845703</LatitudeDegrees>
                            <LongitudeDegrees>75.30372619628906</LongitudeDegrees>
                        </Position>
                        <AltitudeMeters>498.09442138671875</AltitudeMeters>
                    </Trackpoint>
                    <Trackpoint>
                        <DistanceMeters>48.38557052612305</DistanceMeters>
                        <Time>2021-11-19T09:43:16.746Z</Time>
                        <Position>
                            <LatitudeDegrees>19.84801483154297</LatitudeDegrees>
                            <LongitudeDegrees>75.30377960205078</LongitudeDegrees>
                        </Position>
                        <AltitudeMeters>499.53265380859375</AltitudeMeters>
                    </Trackpoint>
                    <Trackpoint>
                        <DistanceMeters>48.38557052612305</DistanceMeters>
                        <Time>2021-11-19T09:43:17.757Z</Time>
                        <Position>
                            <LatitudeDegrees>19.8480167388916</LatitudeDegrees>
                            <LongitudeDegrees>75.30381774902344</LongitudeDegrees>
                        </Position>
                        <AltitudeMeters>493.77178955078125</AltitudeMeters>
                    </Trackpoint>
                    <Trackpoint>
                        <DistanceMeters>48.38557052612305</DistanceMeters>
                        <Time>2021-11-19T09:43:18.597Z</Time>
                    </Trackpoint>
                    <Trackpoint>
                        <DistanceMeters>69.91691589355469</DistanceMeters>
                        <Time>2021-11-19T09:43:18.756Z</Time>
                        <Position>
                            <LatitudeDegrees>19.848018646240234</LatitudeDegrees>
                            <LongitudeDegrees>75.30384063720703</LongitudeDegrees>
                        </Position>
                        <AltitudeMeters>492.53814697265625</AltitudeMeters>
                    </Trackpoint>
                    <Trackpoint>
                        <DistanceMeters>69.91691589355469</DistanceMeters>
                        <Time>2021-11-19T09:43:19.749Z</Time>
                        <Position>
                            <LatitudeDegrees>19.848018646240234</LatitudeDegrees>
                            <LongitudeDegrees>75.3038558959961</LongitudeDegrees>
                        </Position>
                        <AltitudeMeters>493.9444274902344</AltitudeMeters>
                    </Trackpoint>
                    <Trackpoint>
                        <DistanceMeters>69.91691589355469</DistanceMeters>
                        <Time>2021-11-19T09:43:21.767Z</Time>
                        <Position>
                            <LatitudeDegrees>19.8480167388916</LatitudeDegrees>
                            <LongitudeDegrees>75.30387115478516</LongitudeDegrees>
                        </Position>
                        <AltitudeMeters>490.8408508300781</AltitudeMeters>
                    </Trackpoint>
                    <Trackpoint>
                        <DistanceMeters>69.91691589355469</DistanceMeters>
                        <Time>2021-11-19T09:43:27.756Z</Time>
                        <Position>
                            <LatitudeDegrees>19.848011016845703</LatitudeDegrees>
                            <LongitudeDegrees>75.30387878417969</LongitudeDegrees>
                        </Position>
                        <AltitudeMeters>488.2591552734375</AltitudeMeters>
                    </Trackpoint>
                    <Trackpoint>
                        <DistanceMeters>69.91691589355469</DistanceMeters>
                        <Time>2021-11-19T09:43:29.749Z</Time>
                        <Position>
                            <LatitudeDegrees>19.848007202148438</LatitudeDegrees>
                            <LongitudeDegrees>75.30388641357422</LongitudeDegrees>
                        </Position>
                        <AltitudeMeters>483.9749450683594</AltitudeMeters>
                    </Trackpoint>
                    <Trackpoint>
                        <DistanceMeters>69.91691589355469</DistanceMeters>
                        <Time>2021-11-19T09:43:31.754Z</Time>
                        <Position>
                            <LatitudeDegrees>19.84800910949707</LatitudeDegrees>
                            <LongitudeDegrees>75.30390167236328</LongitudeDegrees>
                        </Position>
                        <AltitudeMeters>486.1732177734375</AltitudeMeters>
                    </Trackpoint>
                    <Trackpoint>
                        <DistanceMeters>69.91691589355469</DistanceMeters>
                        <Time>2021-11-19T09:43:43.757Z</Time>
                        <Position>
                            <LatitudeDegrees>19.848011016845703</LatitudeDegrees>
                            <LongitudeDegrees>75.30390930175781</LongitudeDegrees>
                        </Position>
                        <AltitudeMeters>483.88739013671875</AltitudeMeters>
                    </Trackpoint>
                    <Trackpoint>
                        <DistanceMeters>69.91691589355469</DistanceMeters>
                        <Time>2021-11-19T09:43:46.746Z</Time>
                        <Position>
                            <LatitudeDegrees>19.848003387451172</LatitudeDegrees>
                            <LongitudeDegrees>75.30391693115234</LongitudeDegrees>
                        </Position>
                        <AltitudeMeters>483.3191223144531</AltitudeMeters>
                    </Trackpoint>
                    <Trackpoint>
                        <DistanceMeters>69.91691589355469</DistanceMeters>
                        <Time>2021-11-19T09:43:59.745Z</Time>
                        <Position>
                            <LatitudeDegrees>19.84800910949707</LatitudeDegrees>
                            <LongitudeDegrees>75.3039321899414</LongitudeDegrees>
                        </Position>
                        <AltitudeMeters>492.02142333984375</AltitudeMeters>
                    </Trackpoint>
                    <Trackpoint>
                        <DistanceMeters>69.91691589355469</DistanceMeters>
                        <Time>2021-11-19T09:44:13.745Z</Time>
                        <Position>
                            <LatitudeDegrees>19.848011016845703</LatitudeDegrees>
                            <LongitudeDegrees>75.30393981933594</LongitudeDegrees>
                        </Position>
                        <AltitudeMeters>497.7203674316406</AltitudeMeters>
                    </Trackpoint>
                    <Trackpoint>
                        <DistanceMeters>69.91691589355469</DistanceMeters>
                        <Time>2021-11-19T09:44:24.597Z</Time>
                    </Trackpoint>
                    <Trackpoint>
                        <DistanceMeters>94.71058464050293</DistanceMeters>
                        <Time>2021-11-19T09:44:24.744Z</Time>
                        <Position>
                            <LatitudeDegrees>19.848011016845703</LatitudeDegrees>
                            <LongitudeDegrees>75.303955078125</LongitudeDegrees>
                        </Position>
                        <AltitudeMeters>493.6130676269531</AltitudeMeters>
                    </Trackpoint>
                    <Trackpoint>
                        <DistanceMeters>94.71058464050293</DistanceMeters>
                        <Time>2021-11-19T09:45:14.747Z</Time>
                        <Position>
                            <LatitudeDegrees>19.848011016845703</LatitudeDegrees>
                            <LongitudeDegrees>75.30396270751953</LongitudeDegrees>
                        </Position>
                        <AltitudeMeters>483.647216796875</AltitudeMeters>
                    </Trackpoint>
                    <Trackpoint>
                        <DistanceMeters>94.71058464050293</DistanceMeters>
                        <Time>2021-11-19T09:45:37.317Z</Time>
                    </Trackpoint>
                    <Trackpoint>
                        <DistanceMeters>101.23523426055908</DistanceMeters>
                        <Time>2021-11-19T09:45:49.759Z</Time>
                        <Position>
                            <LatitudeDegrees>19.84801483154297</LatitudeDegrees>
                            <LongitudeDegrees>75.30397033691406</LongitudeDegrees>
                        </Position>
                        <AltitudeMeters>483.319580078125</AltitudeMeters>
                    </Trackpoint>
                    <Trackpoint>
                        <DistanceMeters>101.23523426055908</DistanceMeters>
                        <Time>2021-11-19T09:45:56.754Z</Time>
                        <Position>
                            <LatitudeDegrees>19.84801483154297</LatitudeDegrees>
                            <LongitudeDegrees>75.30398559570312</LongitudeDegrees>
                        </Position>
                        <AltitudeMeters>484.2243347167969</AltitudeMeters>
                    </Trackpoint>
                    <Trackpoint>
                        <DistanceMeters>101.23523426055908</DistanceMeters>
                        <Time>2021-11-19T09:47:28.657Z</Time>
                    </Trackpoint>
                    <Trackpoint>
                        <DistanceMeters>107.75988388061523</DistanceMeters>
                        <Time>2021-11-19T09:47:37.637Z</Time>
                    </Trackpoint>
                    <Trackpoint>
                        <DistanceMeters>157.34722137451172</DistanceMeters>
                        <Time>2021-11-19T09:49:54.957Z</Time>
                    </Trackpoint>
                    <Trackpoint>
                        <DistanceMeters>167.7866611480713</DistanceMeters>
                        <Time>2021-11-19T09:50:16.757Z</Time>
                    </Trackpoint>
                    <Trackpoint>
                        <DistanceMeters>191.92786598205566</DistanceMeters>
                        <Time>2021-11-19T09:51:13.477Z</Time>
                    </Trackpoint>
                    <Trackpoint>
                        <DistanceMeters>214.76414108276367</DistanceMeters>
                        <Time>2021-11-19T09:51:41.557Z</Time>
                    </Trackpoint>
                    <Trackpoint>
                        <DistanceMeters>242.16767120361328</DistanceMeters>
                        <Time>2021-11-19T09:52:14.597Z</Time>
                    </Trackpoint>
                    <Trackpoint>
                        <DistanceMeters>271.5285949707031</DistanceMeters>
                        <Time>2021-11-19T09:52:57.117Z</Time>
                    </Trackpoint>
                    <Trackpoint>
                        <DistanceMeters>325.68318939208984</DistanceMeters>
                        <Time>2021-11-19T09:54:05.717Z</Time>
                    </Trackpoint>
                    <Trackpoint>
                        <DistanceMeters>376.5754585266113</DistanceMeters>
                        <Time>2021-11-19T09:55:10.037Z</Time>
                    </Trackpoint>
                    <Trackpoint>
                        <DistanceMeters>404.6314525604248</DistanceMeters>
                        <Time>2021-11-19T09:55:43.437Z</Time>
                    </Trackpoint>
                    <Trackpoint>
                        <DistanceMeters>432.0349826812744</DistanceMeters>
                        <Time>2021-11-19T09:56:14.157Z</Time>
                    </Trackpoint>
                    <Trackpoint>
                        <DistanceMeters>467.2680912017822</DistanceMeters>
                        <Time>2021-11-19T09:57:07.877Z</Time>
                    </Trackpoint>
                    <Trackpoint>
                        <DistanceMeters>481.6223211288452</DistanceMeters>
                        <Time>2021-11-19T09:58:22.298Z</Time>
                    </Trackpoint>
                </Track>
                <DistanceMeters>481.6223211288452</DistanceMeters>
                <TotalTimeSeconds>979.806</TotalTimeSeconds>
                <Calories>95.1500473022461</Calories>
                <Intensity>Active</Intensity>
                <TriggerMethod>Manual</TriggerMethod>
            </Lap>
        </Activity>
    </Activities>
    <Author xsi:type="Application_t">
        <Name>Google Fit</Name>
        <Build>
            <Version>
                <VersionMajor>0</VersionMajor>
                <VersionMinor>0</VersionMinor>
                <BuildMajor>0</BuildMajor>
                <BuildMinor>0</BuildMinor>
            </Version>
        </Build>
        <LangID>en</LangID>
        <PartNumber>000-00000-00</PartNumber>
    </Author>
</TrainingCenterDatabase>
