<?xml version="1.0" encoding="UTF-8"?>
<TrainingCenterDatabase
    xmlns="http://www.garmin.com/xmlschemas/TrainingCenterDatabase/v2"
    xmlns:ns2="http://www.garmin.com/xmlschemas/UserProfile/v2"
    xmlns:ns3="http://www.garmin.com/xmlschemas/ActivityExtension/v2"
    xmlns:ns4="http://www.garmin.com/xmlschemas/ProfileExtension/v1"
    xmlns:ns5="http://www.garmin.com/xmlschemas/ActivityGoals/v1"
    xmlns:xsi="http://www.w3.org/2001/XMLSchema-instance" xsi:schemaLocation="http://www.garmin.com/xmlschemas/TrainingCenterDatabase/v2 http://www.garmin.com/xmlschemas/TrainingCenterDatabasev2.xsd">
    <Activities>
        <Activity Sport="Walking">
            <Id>2021-02-22T05:12:32.226Z</Id>
            <Lap StartTime="2021-02-22T05:12:32.226Z">
                <Track>
                    <Trackpoint>
                        <DistanceMeters>0.0</DistanceMeters>
                        <Time>2021-02-22T05:12:32.226Z</Time>
                    </Trackpoint>
                    <Trackpoint>
                        <DistanceMeters>64.59789276123047</DistanceMeters>
                        <Time>2021-02-22T05:14:41.402Z</Time>
                    </Trackpoint>
                    <Trackpoint>
                        <DistanceMeters>64.59789276123047</DistanceMeters>
                        <Time>2021-02-22T05:14:47.749Z</Time>
                    </Trackpoint>
                    <Trackpoint>
                        <DistanceMeters>135.75763702392578</DistanceMeters>
                        <Time>2021-02-22T05:15:41.071Z</Time>
                    </Trackpoint>
                    <Trackpoint>
                        <DistanceMeters>145.99649620056152</DistanceMeters>
                        <Time>2021-02-22T05:15:47.835Z</Time>
                    </Trackpoint>
                    <Trackpoint>
                        <DistanceMeters>226.263090133667</DistanceMeters>
                        <Time>2021-02-22T05:16:42.663Z</Time>
                    </Trackpoint>
                    <Trackpoint>
                        <DistanceMeters>235.03880786895752</DistanceMeters>
                        <Time>2021-02-22T05:16:48.233Z</Time>
                    </Trackpoint>
                    <Trackpoint>
                        <DistanceMeters>312.8839387893677</DistanceMeters>
                        <Time>2021-02-22T05:17:43.297Z</Time>
                    </Trackpoint>
                    <Trackpoint>
                        <DistanceMeters>319.65765047073364</DistanceMeters>
                        <Time>2021-02-22T05:17:48.469Z</Time>
                    </Trackpoint>
                    <Trackpoint>
                        <DistanceMeters>389.9437909126282</DistanceMeters>
                        <Time>2021-02-22T05:18:43.294Z</Time>
                    </Trackpoint>
                    <Trackpoint>
                        <DistanceMeters>397.5764946937561</DistanceMeters>
                        <Time>2021-02-22T05:18:48.864Z</Time>
                    </Trackpoint>
                    <Trackpoint>
                        <DistanceMeters>456.0682854652405</DistanceMeters>
                        <Time>2021-02-22T05:20:11.964Z</Time>
                    </Trackpoint>
                    <Trackpoint>
                        <DistanceMeters>466.11221742630005</DistanceMeters>
                        <Time>2021-02-22T05:20:29.732Z</Time>
                    </Trackpoint>
                </Track>
                <DistanceMeters>466.11221742630005</DistanceMeters>
                <TotalTimeSeconds>477.505075267</TotalTimeSeconds>
                <Calories>32.72366714477539</Calories>
                <Intensity>Active</Intensity>
                <TriggerMethod>Manual</TriggerMethod>
            </Lap>
        </Activity>
        <Activity Sport="Walking">
            <Id>2021-02-22T05:20:29.732Z</Id>
            <Lap StartTime="2021-02-22T05:20:29.732Z">
                <Track>
                    <Trackpoint>
                        <DistanceMeters>0.0</DistanceMeters>
                        <Time>2021-02-22T05:20:29.732Z</Time>
                    </Trackpoint>
                    <Trackpoint>
                        <DistanceMeters>0.0</DistanceMeters>
                        <Time>2021-02-22T05:30:46.514Z</Time>
                    </Trackpoint>
                    <Trackpoint>
                        <DistanceMeters>24.288572311401367</DistanceMeters>
                        <Time>2021-02-22T05:31:02.826Z</Time>
                    </Trackpoint>
                    <Trackpoint>
                        <DistanceMeters>106.47763633728027</DistanceMeters>
                        <Time>2021-02-22T05:32:03.377Z</Time>
                    </Trackpoint>
                    <Trackpoint>
                        <DistanceMeters>185.3804531097412</DistanceMeters>
                        <Time>2021-02-22T05:33:03.932Z</Time>
                    </Trackpoint>
                </Track>
                <DistanceMeters>185.3804531097412</DistanceMeters>
                <TotalTimeSeconds>754.200458866</TotalTimeSeconds>
                <Calories>20.451165676116943</Calories>
                <Intensity>Active</Intensity>
                <TriggerMethod>Manual</TriggerMethod>
            </Lap>
        </Activity>
        <Activity Sport="Walking">
            <Id>2021-02-22T05:32:03.377Z</Id>
            <Lap StartTime="2021-02-22T05:32:03.377Z">
                <Track>
                    <Trackpoint>
                        <DistanceMeters>0.0</DistanceMeters>
                        <Time>2021-02-22T05:32:03.377Z</Time>
                    </Trackpoint>
                    <Trackpoint>
                        <DistanceMeters>78.90281677246094</DistanceMeters>
                        <Time>2021-02-22T05:32:07.468Z</Time>
                    </Trackpoint>
                    <Trackpoint>
                        <DistanceMeters>78.90281677246094</DistanceMeters>
                        <Time>2021-02-22T05:33:03.932Z</Time>
                    </Trackpoint>
                    <Trackpoint>
                        <DistanceMeters>166.84910583496094</DistanceMeters>
                        <Time>2021-02-22T05:34:04.249Z</Time>
                    </Trackpoint>
                    <Trackpoint>
                        <DistanceMeters>250.09390258789062</DistanceMeters>
                        <Time>2021-02-22T05:35:04.883Z</Time>
                    </Trackpoint>
                    <Trackpoint>
                        <DistanceMeters>332.2815170288086</DistanceMeters>
                        <Time>2021-02-22T05:36:05.437Z</Time>
                    </Trackpoint>
                    <Trackpoint>
                        <DistanceMeters>416.7405471801758</DistanceMeters>
                        <Time>2021-02-22T05:37:05.911Z</Time>
                    </Trackpoint>
                    <Trackpoint>
                        <DistanceMeters>504.58153533935547</DistanceMeters>
                        <Time>2021-02-22T05:38:06.385Z</Time>
                    </Trackpoint>
                    <Trackpoint>
                        <DistanceMeters>584.5720367431641</DistanceMeters>
                        <Time>2021-02-22T05:39:06.941Z</Time>
                    </Trackpoint>
                    <Trackpoint>
                        <DistanceMeters>662.4371109008789</DistanceMeters>
                        <Time>2021-02-22T05:40:07.418Z</Time>
                    </Trackpoint>
                    <Trackpoint>
                        <DistanceMeters>748.0155792236328</DistanceMeters>
                        <Time>2021-02-22T05:41:07.895Z</Time>
                    </Trackpoint>
                    <Trackpoint>
                        <DistanceMeters>835.802864074707</DistanceMeters>
                        <Time>2021-02-22T05:42:08.449Z</Time>
                    </Trackpoint>
                    <Trackpoint>
                        <DistanceMeters>921.5903167724609</DistanceMeters>
                        <Time>2021-02-22T05:43:08.604Z</Time>
                    </Trackpoint>
                    <Trackpoint>
                        <DistanceMeters>1007.3776397705078</DistanceMeters>
                        <Time>2021-02-22T05:44:08.760Z</Time>
                    </Trackpoint>
                    <Trackpoint>
                        <DistanceMeters>1092.0392990112305</DistanceMeters>
                        <Time>2021-02-22T05:45:08.917Z</Time>
                    </Trackpoint>
                    <Trackpoint>
                        <DistanceMeters>1185.7025527954102</DistanceMeters>
                        <Time>2021-02-22T05:46:09.311Z</Time>
                    </Trackpoint>
                    <Trackpoint>
                        <DistanceMeters>1270.0652084350586</DistanceMeters>
                        <Time>2021-02-22T05:47:09.937Z</Time>
                    </Trackpoint>
                    <Trackpoint>
                        <DistanceMeters>1356.719383239746</DistanceMeters>
                        <Time>2021-02-22T05:48:10.491Z</Time>
                    </Trackpoint>
                    <Trackpoint>
                        <DistanceMeters>1442.3509826660156</DistanceMeters>
                        <Time>2021-02-22T05:49:10.886Z</Time>
                    </Trackpoint>
                    <Trackpoint>
                        <DistanceMeters>1524.7839050292969</DistanceMeters>
                        <Time>2021-02-22T05:50:11.041Z</Time>
                    </Trackpoint>
                    <Trackpoint>
                        <DistanceMeters>1555.1018562316895</DistanceMeters>
                        <Time>2021-02-22T05:51:29.455Z</Time>
                    </Trackpoint>
                    <Trackpoint>
                        <DistanceMeters>1643.151699066162</DistanceMeters>
                        <Time>2021-02-22T05:52:34.864Z</Time>
                    </Trackpoint>
                    <Trackpoint>
                        <DistanceMeters>1655.5891799926758</DistanceMeters>
                        <Time>2021-02-22T05:52:45.289Z</Time>
                    </Trackpoint>
                    <Trackpoint>
                        <DistanceMeters>1687.7698669433594</DistanceMeters>
                        <Time>2021-02-22T05:54:23.801Z</Time>
                    </Trackpoint>
                    <Trackpoint>
                        <DistanceMeters>1697.390830039978</DistanceMeters>
                        <Time>2021-02-22T05:54:47.119Z</Time>
                    </Trackpoint>
                    <Trackpoint>
                        <DistanceMeters>1710.4478511810303</DistanceMeters>
                        <Time>2021-02-22T05:55:12.584Z</Time>
                    </Trackpoint>
                    <Trackpoint>
                        <DistanceMeters>1738.6235275268555</DistanceMeters>
                        <Time>2021-02-22T05:55:53.164Z</Time>
                    </Trackpoint>
                    <Trackpoint>
                        <DistanceMeters>1746.8700675964355</DistanceMeters>
                        <Time>2021-02-22T05:56:32.449Z</Time>
                    </Trackpoint>
                </Track>
                <DistanceMeters>1746.8700675964355</DistanceMeters>
                <TotalTimeSeconds>1469.071834703</TotalTimeSeconds>
                <Calories>137.6268310546875</Calories>
                <Intensity>Active</Intensity>
                <TriggerMethod>Manual</TriggerMethod>
            </Lap>
        </Activity>
    </Activities>
    <Author xsi:type="Application_t">
        <Name>Google Fit</Name>
        <Build>
            <Version>
                <VersionMajor>0</VersionMajor>
                <VersionMinor>0</VersionMinor>
                <BuildMajor>0</BuildMajor>
                <BuildMinor>0</BuildMinor>
            </Version>
        </Build>
        <LangID>en</LangID>
        <PartNumber>000-00000-00</PartNumber>
    </Author>
</TrainingCenterDatabase>
