<?xml version="1.0" encoding="UTF-8"?>
<TrainingCenterDatabase
    xmlns="http://www.garmin.com/xmlschemas/TrainingCenterDatabase/v2"
    xmlns:ns2="http://www.garmin.com/xmlschemas/UserProfile/v2"
    xmlns:ns3="http://www.garmin.com/xmlschemas/ActivityExtension/v2"
    xmlns:ns4="http://www.garmin.com/xmlschemas/ProfileExtension/v1"
    xmlns:ns5="http://www.garmin.com/xmlschemas/ActivityGoals/v1"
    xmlns:xsi="http://www.w3.org/2001/XMLSchema-instance" xsi:schemaLocation="http://www.garmin.com/xmlschemas/TrainingCenterDatabase/v2 http://www.garmin.com/xmlschemas/TrainingCenterDatabasev2.xsd">
    <Activities>
        <Activity Sport="Walking">
            <Id>2021-12-18T15:16:37.540Z</Id>
            <Lap StartTime="2021-12-18T15:16:37.540Z">
                <Track>
                    <Trackpoint>
                        <DistanceMeters>0.0</DistanceMeters>
                        <Time>2021-12-18T15:16:37.540Z</Time>
                    </Trackpoint>
                    <Trackpoint>
                        <DistanceMeters>0.6524649858474731</DistanceMeters>
                        <Time>2021-12-18T15:16:38.551Z</Time>
                    </Trackpoint>
                    <Trackpoint>
                        <DistanceMeters>30.862448811531067</DistanceMeters>
                        <Time>2021-12-18T15:17:08.511Z</Time>
                    </Trackpoint>
                    <Trackpoint>
                        <DistanceMeters>31.51491379737854</DistanceMeters>
                        <Time>2021-12-18T15:17:09.731Z</Time>
                    </Trackpoint>
                    <Trackpoint>
                        <DistanceMeters>53.69872307777405</DistanceMeters>
                        <Time>2021-12-18T15:18:13.191Z</Time>
                    </Trackpoint>
                </Track>
                <DistanceMeters>53.69872307777405</DistanceMeters>
                <TotalTimeSeconds>95.651042181</TotalTimeSeconds>
                <Calories>7.0729899406433105</Calories>
                <Intensity>Active</Intensity>
                <TriggerMethod>Manual</TriggerMethod>
            </Lap>
        </Activity>
        <Activity Sport="Walking">
            <Id>2021-12-18T15:17:09.731Z</Id>
            <Lap StartTime="2021-12-18T15:17:09.731Z">
                <Track>
                    <Trackpoint>
                        <DistanceMeters>0.0</DistanceMeters>
                        <Time>2021-12-18T15:17:09.731Z</Time>
                    </Trackpoint>
                    <Trackpoint>
                        <DistanceMeters>22.183809280395508</DistanceMeters>
                        <Time>2021-12-18T15:17:50.374Z</Time>
                    </Trackpoint>
                    <Trackpoint>
                        <DistanceMeters>22.183809280395508</DistanceMeters>
                        <Time>2021-12-18T15:18:13.191Z</Time>
                    </Trackpoint>
                    <Trackpoint>
                        <DistanceMeters>50.892269134521484</DistanceMeters>
                        <Time>2021-12-18T15:18:45.751Z</Time>
                    </Trackpoint>
                </Track>
                <DistanceMeters>50.892269134521484</DistanceMeters>
                <TotalTimeSeconds>96.020001062</TotalTimeSeconds>
                <Calories>1.1787507236003876</Calories>
                <Intensity>Active</Intensity>
                <TriggerMethod>Manual</TriggerMethod>
            </Lap>
        </Activity>
        <Activity Sport="Walking">
            <Id>2021-12-18T15:18:13.191Z</Id>
            <Lap StartTime="2021-12-18T15:18:13.191Z">
                <Track>
                    <Trackpoint>
                        <DistanceMeters>0.0</DistanceMeters>
                        <Time>2021-12-18T15:18:13.191Z</Time>
                    </Trackpoint>
                    <Trackpoint>
                        <DistanceMeters>28.708459854125977</DistanceMeters>
                        <Time>2021-12-18T15:18:20.473Z</Time>
                    </Trackpoint>
                    <Trackpoint>
                        <DistanceMeters>28.708459854125977</DistanceMeters>
                        <Time>2021-12-18T15:18:45.751Z</Time>
                    </Trackpoint>
                    <Trackpoint>
                        <DistanceMeters>76.33840370178223</DistanceMeters>
                        <Time>2021-12-18T15:19:44.751Z</Time>
                    </Trackpoint>
                    <Trackpoint>
                        <DistanceMeters>118.74862861633301</DistanceMeters>
                        <Time>2021-12-18T15:20:33.111Z</Time>
                    </Trackpoint>
                    <Trackpoint>
                        <DistanceMeters>146.92905235290527</DistanceMeters>
                        <Time>2021-12-18T15:21:01.111Z</Time>
                    </Trackpoint>
                    <Trackpoint>
                        <DistanceMeters>173.02765083312988</DistanceMeters>
                        <Time>2021-12-18T15:21:33.551Z</Time>
                    </Trackpoint>
                    <Trackpoint>
                        <DistanceMeters>207.78235054016113</DistanceMeters>
                        <Time>2021-12-18T15:22:06.311Z</Time>
                    </Trackpoint>
                    <Trackpoint>
                        <DistanceMeters>246.56070137023926</DistanceMeters>
                        <Time>2021-12-18T15:22:43.071Z</Time>
                    </Trackpoint>
                    <Trackpoint>
                        <DistanceMeters>288.31846046447754</DistanceMeters>
                        <Time>2021-12-18T15:23:30.271Z</Time>
                    </Trackpoint>
                    <Trackpoint>
                        <DistanceMeters>317.74719429016113</DistanceMeters>
                        <Time>2021-12-18T15:23:59.831Z</Time>
                    </Trackpoint>
                    <Trackpoint>
                        <DistanceMeters>368.6394634246826</DistanceMeters>
                        <Time>2021-12-18T15:25:00.511Z</Time>
                    </Trackpoint>
                    <Trackpoint>
                        <DistanceMeters>424.7618160247803</DistanceMeters>
                        <Time>2021-12-18T15:26:01.911Z</Time>
                    </Trackpoint>
                </Track>
                <DistanceMeters>424.7618160247803</DistanceMeters>
                <TotalTimeSeconds>468.719999868</TotalTimeSeconds>
                <Calories>39.31922149658203</Calories>
                <Intensity>Active</Intensity>
                <TriggerMethod>Manual</TriggerMethod>
            </Lap>
        </Activity>
        <Activity Sport="Walking">
            <Id>2021-12-18T15:25:00.511Z</Id>
            <Lap StartTime="2021-12-18T15:25:00.511Z">
                <Track>
                    <Trackpoint>
                        <DistanceMeters>0.0</DistanceMeters>
                        <Time>2021-12-18T15:25:00.511Z</Time>
                    </Trackpoint>
                    <Trackpoint>
                        <DistanceMeters>56.122352600097656</DistanceMeters>
                        <Time>2021-12-18T15:25:05.362Z</Time>
                    </Trackpoint>
                    <Trackpoint>
                        <DistanceMeters>56.122352600097656</DistanceMeters>
                        <Time>2021-12-18T15:26:01.911Z</Time>
                    </Trackpoint>
                    <Trackpoint>
                        <DistanceMeters>110.92941284179688</DistanceMeters>
                        <Time>2021-12-18T15:27:03.951Z</Time>
                    </Trackpoint>
                    <Trackpoint>
                        <DistanceMeters>166.59174346923828</DistanceMeters>
                        <Time>2021-12-18T15:28:04.111Z</Time>
                    </Trackpoint>
                    <Trackpoint>
                        <DistanceMeters>227.13825225830078</DistanceMeters>
                        <Time>2021-12-18T15:29:06.031Z</Time>
                    </Trackpoint>
                    <Trackpoint>
                        <DistanceMeters>306.4800338745117</DistanceMeters>
                        <Time>2021-12-18T15:30:26.591Z</Time>
                    </Trackpoint>
                </Track>
                <DistanceMeters>306.4800338745117</DistanceMeters>
                <TotalTimeSeconds>326.080000177</TotalTimeSeconds>
                <Calories>23.642959594726562</Calories>
                <Intensity>Active</Intensity>
                <TriggerMethod>Manual</TriggerMethod>
            </Lap>
        </Activity>
        <Activity Sport="Walking">
            <Id>2021-12-18T15:29:06.031Z</Id>
            <Lap StartTime="2021-12-18T15:29:06.031Z">
                <Track>
                    <Trackpoint>
                        <DistanceMeters>0.0</DistanceMeters>
                        <Time>2021-12-18T15:29:06.031Z</Time>
                    </Trackpoint>
                    <Trackpoint>
                        <DistanceMeters>79.34178161621094</DistanceMeters>
                        <Time>2021-12-18T15:29:08.825Z</Time>
                    </Trackpoint>
                    <Trackpoint>
                        <DistanceMeters>79.34178161621094</DistanceMeters>
                        <Time>2021-12-18T15:30:26.591Z</Time>
                    </Trackpoint>
                    <Trackpoint>
                        <DistanceMeters>132.19144439697266</DistanceMeters>
                        <Time>2021-12-18T15:31:27.991Z</Time>
                    </Trackpoint>
                    <Trackpoint>
                        <DistanceMeters>150.46046447753906</DistanceMeters>
                        <Time>2021-12-18T15:31:56.331Z</Time>
                    </Trackpoint>
                    <Trackpoint>
                        <DistanceMeters>160.24743938446045</DistanceMeters>
                        <Time>2021-12-18T15:32:12.391Z</Time>
                    </Trackpoint>
                    <Trackpoint>
                        <DistanceMeters>177.86399364471436</DistanceMeters>
                        <Time>2021-12-18T15:32:39.671Z</Time>
                    </Trackpoint>
                    <Trackpoint>
                        <DistanceMeters>200.70026874542236</DistanceMeters>
                        <Time>2021-12-18T15:33:08.351Z</Time>
                    </Trackpoint>
                </Track>
                <DistanceMeters>200.70026874542236</DistanceMeters>
                <TotalTimeSeconds>242.319999849</TotalTimeSeconds>
                <Calories>20.697484970092773</Calories>
                <Intensity>Active</Intensity>
                <TriggerMethod>Manual</TriggerMethod>
            </Lap>
        </Activity>
        <Activity Sport="Walking">
            <Id>2021-12-18T15:32:39.671Z</Id>
            <Lap StartTime="2021-12-18T15:32:39.671Z">
                <Track>
                    <Trackpoint>
                        <DistanceMeters>0.0</DistanceMeters>
                        <Time>2021-12-18T15:32:39.671Z</Time>
                    </Trackpoint>
                    <Trackpoint>
                        <DistanceMeters>22.836275100708008</DistanceMeters>
                        <Time>2021-12-18T15:32:41.957Z</Time>
                    </Trackpoint>
                    <Trackpoint>
                        <DistanceMeters>22.836275100708008</DistanceMeters>
                        <Time>2021-12-18T15:33:08.351Z</Time>
                    </Trackpoint>
                    <Trackpoint>
                        <DistanceMeters>44.29598808288574</DistanceMeters>
                        <Time>2021-12-18T15:33:29.711Z</Time>
                    </Trackpoint>
                    <Trackpoint>
                        <DistanceMeters>84.74881553649902</DistanceMeters>
                        <Time>2021-12-18T15:34:15.311Z</Time>
                    </Trackpoint>
                </Track>
                <DistanceMeters>84.74881553649902</DistanceMeters>
                <TotalTimeSeconds>95.640000368</TotalTimeSeconds>
                <Calories>9.065713882446289</Calories>
                <Intensity>Active</Intensity>
                <TriggerMethod>Manual</TriggerMethod>
            </Lap>
        </Activity>
    </Activities>
    <Author xsi:type="Application_t">
        <Name>Google Fit</Name>
        <Build>
            <Version>
                <VersionMajor>0</VersionMajor>
                <VersionMinor>0</VersionMinor>
                <BuildMajor>0</BuildMajor>
                <BuildMinor>0</BuildMinor>
            </Version>
        </Build>
        <LangID>en</LangID>
        <PartNumber>000-00000-00</PartNumber>
    </Author>
</TrainingCenterDatabase>
