<?xml version="1.0" encoding="UTF-8"?>
<TrainingCenterDatabase
    xmlns="http://www.garmin.com/xmlschemas/TrainingCenterDatabase/v2"
    xmlns:ns2="http://www.garmin.com/xmlschemas/UserProfile/v2"
    xmlns:ns3="http://www.garmin.com/xmlschemas/ActivityExtension/v2"
    xmlns:ns4="http://www.garmin.com/xmlschemas/ProfileExtension/v1"
    xmlns:ns5="http://www.garmin.com/xmlschemas/ActivityGoals/v1"
    xmlns:xsi="http://www.w3.org/2001/XMLSchema-instance" xsi:schemaLocation="http://www.garmin.com/xmlschemas/TrainingCenterDatabase/v2 http://www.garmin.com/xmlschemas/TrainingCenterDatabasev2.xsd">
    <Activities>
        <Activity Sport="Walking">
            <Id>2021-06-04T12:22:00.000Z</Id>
            <Lap StartTime="2021-06-04T12:22:00.000Z">
                <Track>
                    <Trackpoint>
                        <DistanceMeters>0.0</DistanceMeters>
                        <Time>2021-06-04T12:22:00.000Z</Time>
                    </Trackpoint>
                    <Trackpoint>
                        <DistanceMeters>10.0</DistanceMeters>
                        <Time>2021-06-04T12:22:19.869Z</Time>
                    </Trackpoint>
                    <Trackpoint>
                        <DistanceMeters>10.0</DistanceMeters>
                        <Time>2021-06-04T12:23:00.000Z</Time>
                    </Trackpoint>
                    <Trackpoint>
                        <DistanceMeters>101.0</DistanceMeters>
                        <Time>2021-06-04T12:24:00.000Z</Time>
                    </Trackpoint>
                    <Trackpoint>
                        <DistanceMeters>139.0</DistanceMeters>
                        <Time>2021-06-04T12:25:00.000Z</Time>
                    </Trackpoint>
                    <Trackpoint>
                        <DistanceMeters>223.0</DistanceMeters>
                        <Time>2021-06-04T12:26:00.000Z</Time>
                    </Trackpoint>
                    <Trackpoint>
                        <DistanceMeters>311.0</DistanceMeters>
                        <Time>2021-06-04T12:27:00.000Z</Time>
                    </Trackpoint>
                    <Trackpoint>
                        <DistanceMeters>361.0</DistanceMeters>
                        <Time>2021-06-04T12:28:00.000Z</Time>
                    </Trackpoint>
                    <Trackpoint>
                        <DistanceMeters>468.0</DistanceMeters>
                        <Time>2021-06-04T12:29:00.000Z</Time>
                    </Trackpoint>
                    <Trackpoint>
                        <DistanceMeters>536.0</DistanceMeters>
                        <Time>2021-06-04T12:30:00.000Z</Time>
                    </Trackpoint>
                    <Trackpoint>
                        <DistanceMeters>547.0</DistanceMeters>
                        <Time>2021-06-04T12:31:00.000Z</Time>
                    </Trackpoint>
                    <Trackpoint>
                        <DistanceMeters>555.0</DistanceMeters>
                        <Time>2021-06-04T12:32:00.000Z</Time>
                    </Trackpoint>
                    <Trackpoint>
                        <DistanceMeters>648.0</DistanceMeters>
                        <Time>2021-06-04T12:33:00.000Z</Time>
                    </Trackpoint>
                    <Trackpoint>
                        <DistanceMeters>735.0</DistanceMeters>
                        <Time>2021-06-04T12:34:00.000Z</Time>
                    </Trackpoint>
                    <Trackpoint>
                        <DistanceMeters>824.0</DistanceMeters>
                        <Time>2021-06-04T12:35:00.000Z</Time>
                    </Trackpoint>
                    <Trackpoint>
                        <DistanceMeters>907.0</DistanceMeters>
                        <Time>2021-06-04T12:36:00.000Z</Time>
                    </Trackpoint>
                    <Trackpoint>
                        <DistanceMeters>1003.0</DistanceMeters>
                        <Time>2021-06-04T12:37:00.000Z</Time>
                    </Trackpoint>
                    <Trackpoint>
                        <DistanceMeters>1090.0</DistanceMeters>
                        <Time>2021-06-04T12:38:00.000Z</Time>
                    </Trackpoint>
                    <Trackpoint>
                        <DistanceMeters>1172.0</DistanceMeters>
                        <Time>2021-06-04T12:39:00.000Z</Time>
                    </Trackpoint>
                    <Trackpoint>
                        <DistanceMeters>1177.0</DistanceMeters>
                        <Time>2021-06-04T12:41:00.000Z</Time>
                    </Trackpoint>
                    <Trackpoint>
                        <DistanceMeters>1221.0</DistanceMeters>
                        <Time>2021-06-04T12:42:00.000Z</Time>
                    </Trackpoint>
                    <Trackpoint>
                        <DistanceMeters>1245.0</DistanceMeters>
                        <Time>2021-06-04T12:43:00.000Z</Time>
                    </Trackpoint>
                    <Trackpoint>
                        <DistanceMeters>1266.0</DistanceMeters>
                        <Time>2021-06-04T12:45:00.000Z</Time>
                    </Trackpoint>
                    <Trackpoint>
                        <DistanceMeters>1274.0</DistanceMeters>
                        <Time>2021-06-04T12:46:00.000Z</Time>
                    </Trackpoint>
                    <Trackpoint>
                        <DistanceMeters>1337.0</DistanceMeters>
                        <Time>2021-06-04T12:47:00.000Z</Time>
                    </Trackpoint>
                    <Trackpoint>
                        <DistanceMeters>1415.0</DistanceMeters>
                        <Time>2021-06-04T12:48:00.000Z</Time>
                    </Trackpoint>
                    <Trackpoint>
                        <DistanceMeters>1494.0</DistanceMeters>
                        <Time>2021-06-04T12:48:06.103Z</Time>
                        <Position>
                            <LatitudeDegrees>19.832012176513672</LatitudeDegrees>
                            <LongitudeDegrees>75.3071060180664</LongitudeDegrees>
                        </Position>
                        <AltitudeMeters>495.0592346191406</AltitudeMeters>
                    </Trackpoint>
                    <Trackpoint>
                        <DistanceMeters>1494.0</DistanceMeters>
                        <Time>2021-06-04T12:49:00.000Z</Time>
                    </Trackpoint>
                    <Trackpoint>
                        <DistanceMeters>1576.0</DistanceMeters>
                        <Time>2021-06-04T12:50:00.000Z</Time>
                    </Trackpoint>
                    <Trackpoint>
                        <DistanceMeters>1667.0</DistanceMeters>
                        <Time>2021-06-04T12:51:00.000Z</Time>
                    </Trackpoint>
                    <Trackpoint>
                        <DistanceMeters>1738.0</DistanceMeters>
                        <Time>2021-06-04T12:52:00.000Z</Time>
                    </Trackpoint>
                    <Trackpoint>
                        <DistanceMeters>1824.0</DistanceMeters>
                        <Time>2021-06-04T12:53:00.000Z</Time>
                    </Trackpoint>
                    <Trackpoint>
                        <DistanceMeters>1919.0</DistanceMeters>
                        <Time>2021-06-04T12:54:00.000Z</Time>
                    </Trackpoint>
                    <Trackpoint>
                        <DistanceMeters>1997.0</DistanceMeters>
                        <Time>2021-06-04T12:55:00.000Z</Time>
                    </Trackpoint>
                    <Trackpoint>
                        <DistanceMeters>2066.0</DistanceMeters>
                        <Time>2021-06-04T12:56:00.000Z</Time>
                    </Trackpoint>
                    <Trackpoint>
                        <DistanceMeters>2147.0</DistanceMeters>
                        <Time>2021-06-04T12:57:00.000Z</Time>
                    </Trackpoint>
                    <Trackpoint>
                        <DistanceMeters>2235.0</DistanceMeters>
                        <Time>2021-06-04T12:58:00.000Z</Time>
                    </Trackpoint>
                    <Trackpoint>
                        <DistanceMeters>2336.0</DistanceMeters>
                        <Time>2021-06-04T12:59:00.000Z</Time>
                    </Trackpoint>
                    <Trackpoint>
                        <DistanceMeters>2364.0</DistanceMeters>
                        <Time>2021-06-04T13:00:00.000Z</Time>
                    </Trackpoint>
                </Track>
                <DistanceMeters>2364.0</DistanceMeters>
                <TotalTimeSeconds>2280.0</TotalTimeSeconds>
                <Calories>170.45204162597656</Calories>
                <Intensity>Active</Intensity>
                <TriggerMethod>Manual</TriggerMethod>
            </Lap>
        </Activity>
    </Activities>
    <Author xsi:type="Application_t">
        <Name>Google Fit</Name>
        <Build>
            <Version>
                <VersionMajor>0</VersionMajor>
                <VersionMinor>0</VersionMinor>
                <BuildMajor>0</BuildMajor>
                <BuildMinor>0</BuildMinor>
            </Version>
        </Build>
        <LangID>en</LangID>
        <PartNumber>000-00000-00</PartNumber>
    </Author>
</TrainingCenterDatabase>
