<?xml version="1.0" encoding="UTF-8"?>
<TrainingCenterDatabase
    xmlns="http://www.garmin.com/xmlschemas/TrainingCenterDatabase/v2"
    xmlns:ns2="http://www.garmin.com/xmlschemas/UserProfile/v2"
    xmlns:ns3="http://www.garmin.com/xmlschemas/ActivityExtension/v2"
    xmlns:ns4="http://www.garmin.com/xmlschemas/ProfileExtension/v1"
    xmlns:ns5="http://www.garmin.com/xmlschemas/ActivityGoals/v1"
    xmlns:xsi="http://www.w3.org/2001/XMLSchema-instance" xsi:schemaLocation="http://www.garmin.com/xmlschemas/TrainingCenterDatabase/v2 http://www.garmin.com/xmlschemas/TrainingCenterDatabasev2.xsd">
    <Activities>
        <Activity Sport="Walking">
            <Id>2021-12-26T04:20:20.742Z</Id>
            <Lap StartTime="2021-12-26T04:20:20.742Z">
                <Track>
                    <Trackpoint>
                        <DistanceMeters>0.0</DistanceMeters>
                        <Time>2021-12-26T04:20:20.742Z</Time>
                    </Trackpoint>
                    <Trackpoint>
                        <DistanceMeters>24.793668746948242</DistanceMeters>
                        <Time>2021-12-26T04:21:07.236Z</Time>
                    </Trackpoint>
                    <Trackpoint>
                        <DistanceMeters>24.793668746948242</DistanceMeters>
                        <Time>2021-12-26T04:22:37.547Z</Time>
                    </Trackpoint>
                </Track>
                <DistanceMeters>24.793668746948242</DistanceMeters>
                <TotalTimeSeconds>136.804831522</TotalTimeSeconds>
                <Calories>8.770200729370117</Calories>
                <Intensity>Active</Intensity>
                <TriggerMethod>Manual</TriggerMethod>
            </Lap>
        </Activity>
        <Activity Sport="Walking">
            <Id>2021-12-26T04:22:37.547Z</Id>
            <Lap StartTime="2021-12-26T04:22:37.547Z">
                <Track>
                    <Trackpoint>
                        <DistanceMeters>0.0</DistanceMeters>
                        <Time>2021-12-26T04:22:37.547Z</Time>
                    </Trackpoint>
                    <Trackpoint>
                        <DistanceMeters>0.0</DistanceMeters>
                        <Time>2021-12-26T04:23:47.582Z</Time>
                    </Trackpoint>
                    <Trackpoint>
                        <DistanceMeters>34.58064270019531</DistanceMeters>
                        <Time>2021-12-26T04:25:33.582Z</Time>
                    </Trackpoint>
                    <Trackpoint>
                        <DistanceMeters>86.77783966064453</DistanceMeters>
                        <Time>2021-12-26T04:26:33.502Z</Time>
                    </Trackpoint>
                    <Trackpoint>
                        <DistanceMeters>97.2172794342041</DistanceMeters>
                        <Time>2021-12-26T04:26:49.022Z</Time>
                    </Trackpoint>
                    <Trackpoint>
                        <DistanceMeters>149.41447639465332</DistanceMeters>
                        <Time>2021-12-26T04:27:47.582Z</Time>
                    </Trackpoint>
                </Track>
                <DistanceMeters>149.41447639465332</DistanceMeters>
                <TotalTimeSeconds>310.035172109</TotalTimeSeconds>
                <Calories>16.05235266685486</Calories>
                <Intensity>Active</Intensity>
                <TriggerMethod>Manual</TriggerMethod>
            </Lap>
        </Activity>
        <Activity Sport="Walking">
            <Id>2021-12-26T04:26:49.022Z</Id>
            <Lap StartTime="2021-12-26T04:26:49.022Z">
                <Track>
                    <Trackpoint>
                        <DistanceMeters>0.0</DistanceMeters>
                        <Time>2021-12-26T04:26:49.022Z</Time>
                    </Trackpoint>
                    <Trackpoint>
                        <DistanceMeters>52.19719696044922</DistanceMeters>
                        <Time>2021-12-26T04:27:41.415Z</Time>
                    </Trackpoint>
                    <Trackpoint>
                        <DistanceMeters>52.19719696044922</DistanceMeters>
                        <Time>2021-12-26T04:27:47.582Z</Time>
                    </Trackpoint>
                    <Trackpoint>
                        <DistanceMeters>64.48261737823486</DistanceMeters>
                        <Time>2021-12-26T04:27:59.102Z</Time>
                    </Trackpoint>
                    <Trackpoint>
                        <DistanceMeters>97.75833225250244</DistanceMeters>
                        <Time>2021-12-26T04:28:38.702Z</Time>
                    </Trackpoint>
                    <Trackpoint>
                        <DistanceMeters>161.04743671417236</DistanceMeters>
                        <Time>2021-12-26T04:29:51.102Z</Time>
                    </Trackpoint>
                    <Trackpoint>
                        <DistanceMeters>173.44427108764648</DistanceMeters>
                        <Time>2021-12-26T04:30:06.142Z</Time>
                    </Trackpoint>
                    <Trackpoint>
                        <DistanceMeters>216.31201934814453</DistanceMeters>
                        <Time>2021-12-26T04:30:51.342Z</Time>
                    </Trackpoint>
                    <Trackpoint>
                        <DistanceMeters>230.01378440856934</DistanceMeters>
                        <Time>2021-12-26T04:31:06.862Z</Time>
                    </Trackpoint>
                    <Trackpoint>
                        <DistanceMeters>265.89935874938965</DistanceMeters>
                        <Time>2021-12-26T04:31:52.102Z</Time>
                    </Trackpoint>
                </Track>
                <DistanceMeters>265.89935874938965</DistanceMeters>
                <TotalTimeSeconds>303.08000077</TotalTimeSeconds>
                <Calories>23.757747650146484</Calories>
                <Intensity>Active</Intensity>
                <TriggerMethod>Manual</TriggerMethod>
            </Lap>
        </Activity>
        <Activity Sport="Walking">
            <Id>2021-12-26T04:31:06.862Z</Id>
            <Lap StartTime="2021-12-26T04:31:06.862Z">
                <Track>
                    <Trackpoint>
                        <DistanceMeters>0.0</DistanceMeters>
                        <Time>2021-12-26T04:31:06.862Z</Time>
                    </Trackpoint>
                    <Trackpoint>
                        <DistanceMeters>35.88557434082031</DistanceMeters>
                        <Time>2021-12-26T04:31:46.060Z</Time>
                    </Trackpoint>
                    <Trackpoint>
                        <DistanceMeters>35.88557434082031</DistanceMeters>
                        <Time>2021-12-26T04:31:52.102Z</Time>
                    </Trackpoint>
                    <Trackpoint>
                        <DistanceMeters>50.296295166015625</DistanceMeters>
                        <Time>2021-12-26T04:32:07.662Z</Time>
                    </Trackpoint>
                    <Trackpoint>
                        <DistanceMeters>86.18186950683594</DistanceMeters>
                        <Time>2021-12-26T04:32:52.822Z</Time>
                    </Trackpoint>
                    <Trackpoint>
                        <DistanceMeters>101.25772380828857</DistanceMeters>
                        <Time>2021-12-26T04:33:09.062Z</Time>
                    </Trackpoint>
                    <Trackpoint>
                        <DistanceMeters>136.4908323287964</DistanceMeters>
                        <Time>2021-12-26T04:33:53.982Z</Time>
                    </Trackpoint>
                    <Trackpoint>
                        <DistanceMeters>150.22175693511963</DistanceMeters>
                        <Time>2021-12-26T04:34:08.902Z</Time>
                    </Trackpoint>
                    <Trackpoint>
                        <DistanceMeters>176.32035541534424</DistanceMeters>
                        <Time>2021-12-26T04:34:47.842Z</Time>
                    </Trackpoint>
                    <Trackpoint>
                        <DistanceMeters>198.8890027999878</DistanceMeters>
                        <Time>2021-12-26T04:35:08.862Z</Time>
                    </Trackpoint>
                    <Trackpoint>
                        <DistanceMeters>241.95169353485107</DistanceMeters>
                        <Time>2021-12-26T04:35:56.102Z</Time>
                    </Trackpoint>
                    <Trackpoint>
                        <DistanceMeters>255.88005352020264</DistanceMeters>
                        <Time>2021-12-26T04:36:10.502Z</Time>
                    </Trackpoint>
                    <Trackpoint>
                        <DistanceMeters>298.65648555755615</DistanceMeters>
                        <Time>2021-12-26T04:36:55.942Z</Time>
                    </Trackpoint>
                    <Trackpoint>
                        <DistanceMeters>311.70578479766846</DistanceMeters>
                        <Time>2021-12-26T04:37:11.582Z</Time>
                    </Trackpoint>
                    <Trackpoint>
                        <DistanceMeters>350.853684425354</DistanceMeters>
                        <Time>2021-12-26T04:37:56.902Z</Time>
                    </Trackpoint>
                    <Trackpoint>
                        <DistanceMeters>365.385217666626</DistanceMeters>
                        <Time>2021-12-26T04:38:12.142Z</Time>
                    </Trackpoint>
                </Track>
                <DistanceMeters>365.385217666626</DistanceMeters>
                <TotalTimeSeconds>425.27999881</TotalTimeSeconds>
                <Calories>37.49286651611328</Calories>
                <Intensity>Active</Intensity>
                <TriggerMethod>Manual</TriggerMethod>
            </Lap>
        </Activity>
        <Activity Sport="Walking">
            <Id>2021-12-26T04:38:12.142Z</Id>
            <Lap StartTime="2021-12-26T04:38:12.142Z">
                <Track>
                    <Trackpoint>
                        <DistanceMeters>0.0</DistanceMeters>
                        <Time>2021-12-26T04:38:12.142Z</Time>
                    </Trackpoint>
                    <Trackpoint>
                        <DistanceMeters>19.573949813842773</DistanceMeters>
                        <Time>2021-12-26T04:38:54.315Z</Time>
                    </Trackpoint>
                    <Trackpoint>
                        <DistanceMeters>19.573949813842773</DistanceMeters>
                        <Time>2021-12-26T04:38:57.662Z</Time>
                    </Trackpoint>
                    <Trackpoint>
                        <DistanceMeters>34.12094211578369</DistanceMeters>
                        <Time>2021-12-26T04:39:12.862Z</Time>
                    </Trackpoint>
                    <Trackpoint>
                        <DistanceMeters>84.36074542999268</DistanceMeters>
                        <Time>2021-12-26T04:40:10.462Z</Time>
                    </Trackpoint>
                    <Trackpoint>
                        <DistanceMeters>152.86957263946533</DistanceMeters>
                        <Time>2021-12-26T04:41:32.662Z</Time>
                    </Trackpoint>
                    <Trackpoint>
                        <DistanceMeters>207.02416706085205</DistanceMeters>
                        <Time>2021-12-26T04:42:39.502Z</Time>
                    </Trackpoint>
                    <Trackpoint>
                        <DistanceMeters>208.329097032547</DistanceMeters>
                        <Time>2021-12-26T04:42:57.741Z</Time>
                    </Trackpoint>
                </Track>
                <DistanceMeters>208.329097032547</DistanceMeters>
                <TotalTimeSeconds>285.598830423</TotalTimeSeconds>
                <Calories>23.63936996459961</Calories>
                <Intensity>Active</Intensity>
                <TriggerMethod>Manual</TriggerMethod>
            </Lap>
        </Activity>
    </Activities>
    <Author xsi:type="Application_t">
        <Name>Google Fit</Name>
        <Build>
            <Version>
                <VersionMajor>0</VersionMajor>
                <VersionMinor>0</VersionMinor>
                <BuildMajor>0</BuildMajor>
                <BuildMinor>0</BuildMinor>
            </Version>
        </Build>
        <LangID>en</LangID>
        <PartNumber>000-00000-00</PartNumber>
    </Author>
</TrainingCenterDatabase>
