<?xml version="1.0" encoding="UTF-8"?>
<TrainingCenterDatabase
    xmlns="http://www.garmin.com/xmlschemas/TrainingCenterDatabase/v2"
    xmlns:ns2="http://www.garmin.com/xmlschemas/UserProfile/v2"
    xmlns:ns3="http://www.garmin.com/xmlschemas/ActivityExtension/v2"
    xmlns:ns4="http://www.garmin.com/xmlschemas/ProfileExtension/v1"
    xmlns:ns5="http://www.garmin.com/xmlschemas/ActivityGoals/v1"
    xmlns:xsi="http://www.w3.org/2001/XMLSchema-instance" xsi:schemaLocation="http://www.garmin.com/xmlschemas/TrainingCenterDatabase/v2 http://www.garmin.com/xmlschemas/TrainingCenterDatabasev2.xsd">
    <Activities>
        <Activity Sport="Walking">
            <Id>2021-12-30T05:07:04.183Z</Id>
            <Lap StartTime="2021-12-30T05:07:04.183Z">
                <Track>
                    <Trackpoint>
                        <DistanceMeters>0.0</DistanceMeters>
                        <Time>2021-12-30T05:07:04.183Z</Time>
                    </Trackpoint>
                    <Trackpoint>
                        <DistanceMeters>47.62994384765625</DistanceMeters>
                        <Time>2021-12-30T05:07:24.953Z</Time>
                    </Trackpoint>
                    <Trackpoint>
                        <DistanceMeters>47.62994384765625</DistanceMeters>
                        <Time>2021-12-30T05:08:33.903Z</Time>
                    </Trackpoint>
                    <Trackpoint>
                        <DistanceMeters>68.50882339477539</DistanceMeters>
                        <Time>2021-12-30T05:09:07.383Z</Time>
                    </Trackpoint>
                    <Trackpoint>
                        <DistanceMeters>116.13876724243164</DistanceMeters>
                        <Time>2021-12-30T05:10:41.663Z</Time>
                    </Trackpoint>
                </Track>
                <DistanceMeters>116.13876724243164</DistanceMeters>
                <TotalTimeSeconds>217.479998736</TotalTimeSeconds>
                <Calories>12.712038040161133</Calories>
                <Intensity>Active</Intensity>
                <TriggerMethod>Manual</TriggerMethod>
            </Lap>
        </Activity>
        <Activity Sport="Walking">
            <Id>2021-12-30T05:09:07.383Z</Id>
            <Lap StartTime="2021-12-30T05:09:07.383Z">
                <Track>
                    <Trackpoint>
                        <DistanceMeters>0.0</DistanceMeters>
                        <Time>2021-12-30T05:09:07.383Z</Time>
                    </Trackpoint>
                    <Trackpoint>
                        <DistanceMeters>47.62994384765625</DistanceMeters>
                        <Time>2021-12-30T05:09:35.855Z</Time>
                    </Trackpoint>
                    <Trackpoint>
                        <DistanceMeters>47.62994384765625</DistanceMeters>
                        <Time>2021-12-30T05:10:41.663Z</Time>
                    </Trackpoint>
                    <Trackpoint>
                        <DistanceMeters>90.69263458251953</DistanceMeters>
                        <Time>2021-12-30T05:11:38.223Z</Time>
                    </Trackpoint>
                    <Trackpoint>
                        <DistanceMeters>113.43376731872559</DistanceMeters>
                        <Time>2021-12-30T05:12:01.063Z</Time>
                    </Trackpoint>
                    <Trackpoint>
                        <DistanceMeters>159.75877952575684</DistanceMeters>
                        <Time>2021-12-30T05:12:53.663Z</Time>
                    </Trackpoint>
                </Track>
                <DistanceMeters>159.75877952575684</DistanceMeters>
                <TotalTimeSeconds>226.279999863</TotalTimeSeconds>
                <Calories>13.177229881286621</Calories>
                <Intensity>Active</Intensity>
                <TriggerMethod>Manual</TriggerMethod>
            </Lap>
        </Activity>
        <Activity Sport="Walking">
            <Id>2021-12-30T05:12:01.063Z</Id>
            <Lap StartTime="2021-12-30T05:12:01.063Z">
                <Track>
                    <Trackpoint>
                        <DistanceMeters>0.0</DistanceMeters>
                        <Time>2021-12-30T05:12:01.063Z</Time>
                    </Trackpoint>
                    <Trackpoint>
                        <DistanceMeters>46.32501220703125</DistanceMeters>
                        <Time>2021-12-30T05:12:43.350Z</Time>
                    </Trackpoint>
                    <Trackpoint>
                        <DistanceMeters>46.32501220703125</DistanceMeters>
                        <Time>2021-12-30T05:12:53.663Z</Time>
                    </Trackpoint>
                    <Trackpoint>
                        <DistanceMeters>51.544732093811035</DistanceMeters>
                        <Time>2021-12-30T05:12:59.983Z</Time>
                    </Trackpoint>
                    <Trackpoint>
                        <DistanceMeters>87.43030643463135</DistanceMeters>
                        <Time>2021-12-30T05:13:55.183Z</Time>
                    </Trackpoint>
                    <Trackpoint>
                        <DistanceMeters>91.99756145477295</DistanceMeters>
                        <Time>2021-12-30T05:15:16.167Z</Time>
                    </Trackpoint>
                </Track>
                <DistanceMeters>91.99756145477295</DistanceMeters>
                <TotalTimeSeconds>195.103019563</TotalTimeSeconds>
                <Calories>14.840227127075195</Calories>
                <Intensity>Active</Intensity>
                <TriggerMethod>Manual</TriggerMethod>
            </Lap>
        </Activity>
        <Activity Sport="Walking">
            <Id>2021-12-30T05:15:16.167Z</Id>
            <Lap StartTime="2021-12-30T05:15:16.167Z">
                <Track>
                    <Trackpoint>
                        <DistanceMeters>0.0</DistanceMeters>
                        <Time>2021-12-30T05:15:16.167Z</Time>
                    </Trackpoint>
                    <Trackpoint>
                        <DistanceMeters>0.0</DistanceMeters>
                        <Time>2021-12-30T05:16:27.023Z</Time>
                    </Trackpoint>
                    <Trackpoint>
                        <DistanceMeters>36.53804016113281</DistanceMeters>
                        <Time>2021-12-30T05:18:19.023Z</Time>
                    </Trackpoint>
                    <Trackpoint>
                        <DistanceMeters>78.2957992553711</DistanceMeters>
                        <Time>2021-12-30T05:19:19.063Z</Time>
                    </Trackpoint>
                </Track>
                <DistanceMeters>78.2957992553711</DistanceMeters>
                <TotalTimeSeconds>242.896982108</TotalTimeSeconds>
                <Calories>9.536983489990234</Calories>
                <Intensity>Active</Intensity>
                <TriggerMethod>Manual</TriggerMethod>
            </Lap>
        </Activity>
        <Activity Sport="Walking">
            <Id>2021-12-30T05:18:19.023Z</Id>
            <Lap StartTime="2021-12-30T05:18:19.023Z">
                <Track>
                    <Trackpoint>
                        <DistanceMeters>0.0</DistanceMeters>
                        <Time>2021-12-30T05:18:19.023Z</Time>
                    </Trackpoint>
                    <Trackpoint>
                        <DistanceMeters>41.75775909423828</DistanceMeters>
                        <Time>2021-12-30T05:19:18.313Z</Time>
                    </Trackpoint>
                    <Trackpoint>
                        <DistanceMeters>41.75775909423828</DistanceMeters>
                        <Time>2021-12-30T05:19:19.063Z</Time>
                    </Trackpoint>
                    <Trackpoint>
                        <DistanceMeters>75.68593978881836</DistanceMeters>
                        <Time>2021-12-30T05:20:17.063Z</Time>
                    </Trackpoint>
                    <Trackpoint>
                        <DistanceMeters>122.01095199584961</DistanceMeters>
                        <Time>2021-12-30T05:21:29.063Z</Time>
                    </Trackpoint>
                    <Trackpoint>
                        <DistanceMeters>149.41448211669922</DistanceMeters>
                        <Time>2021-12-30T05:22:24.925Z</Time>
                    </Trackpoint>
                </Track>
                <DistanceMeters>149.41448211669922</DistanceMeters>
                <TotalTimeSeconds>245.901020112</TotalTimeSeconds>
                <Calories>18.122098922729492</Calories>
                <Intensity>Active</Intensity>
                <TriggerMethod>Manual</TriggerMethod>
            </Lap>
        </Activity>
    </Activities>
    <Author xsi:type="Application_t">
        <Name>Google Fit</Name>
        <Build>
            <Version>
                <VersionMajor>0</VersionMajor>
                <VersionMinor>0</VersionMinor>
                <BuildMajor>0</BuildMajor>
                <BuildMinor>0</BuildMinor>
            </Version>
        </Build>
        <LangID>en</LangID>
        <PartNumber>000-00000-00</PartNumber>
    </Author>
</TrainingCenterDatabase>
