<?xml version="1.0" encoding="UTF-8"?>
<TrainingCenterDatabase
    xmlns="http://www.garmin.com/xmlschemas/TrainingCenterDatabase/v2"
    xmlns:ns2="http://www.garmin.com/xmlschemas/UserProfile/v2"
    xmlns:ns3="http://www.garmin.com/xmlschemas/ActivityExtension/v2"
    xmlns:ns4="http://www.garmin.com/xmlschemas/ProfileExtension/v1"
    xmlns:ns5="http://www.garmin.com/xmlschemas/ActivityGoals/v1"
    xmlns:xsi="http://www.w3.org/2001/XMLSchema-instance" xsi:schemaLocation="http://www.garmin.com/xmlschemas/TrainingCenterDatabase/v2 http://www.garmin.com/xmlschemas/TrainingCenterDatabasev2.xsd">
    <Activities>
        <Activity Sport="Walking">
            <Id>2021-09-30T16:31:31.876Z</Id>
            <Lap StartTime="2021-09-30T16:31:31.876Z">
                <Track>
                    <Trackpoint>
                        <DistanceMeters>0.0</DistanceMeters>
                        <Time>2021-09-30T16:31:31.876Z</Time>
                    </Trackpoint>
                    <Trackpoint>
                        <DistanceMeters>30.013389587402344</DistanceMeters>
                        <Time>2021-09-30T16:31:53.389Z</Time>
                    </Trackpoint>
                    <Trackpoint>
                        <DistanceMeters>30.013389587402344</DistanceMeters>
                        <Time>2021-09-30T16:33:03.876Z</Time>
                    </Trackpoint>
                    <Trackpoint>
                        <DistanceMeters>80.90565872192383</DistanceMeters>
                        <Time>2021-09-30T16:34:18.436Z</Time>
                    </Trackpoint>
                    <Trackpoint>
                        <DistanceMeters>110.73999404907227</DistanceMeters>
                        <Time>2021-09-30T16:34:42.956Z</Time>
                    </Trackpoint>
                    <Trackpoint>
                        <DistanceMeters>124.4689245223999</DistanceMeters>
                        <Time>2021-09-30T16:34:53.636Z</Time>
                    </Trackpoint>
                    <Trackpoint>
                        <DistanceMeters>146.99219608306885</DistanceMeters>
                        <Time>2021-09-30T16:35:14.756Z</Time>
                    </Trackpoint>
                    <Trackpoint>
                        <DistanceMeters>167.871075630188</DistanceMeters>
                        <Time>2021-09-30T16:35:43.516Z</Time>
                    </Trackpoint>
                    <Trackpoint>
                        <DistanceMeters>193.1975793838501</DistanceMeters>
                        <Time>2021-09-30T16:36:04.996Z</Time>
                    </Trackpoint>
                    <Trackpoint>
                        <DistanceMeters>256.61817264556885</DistanceMeters>
                        <Time>2021-09-30T16:37:04.636Z</Time>
                    </Trackpoint>
                    <Trackpoint>
                        <DistanceMeters>303.1021890640259</DistanceMeters>
                        <Time>2021-09-30T16:37:43.916Z</Time>
                    </Trackpoint>
                    <Trackpoint>
                        <DistanceMeters>370.27007389068604</DistanceMeters>
                        <Time>2021-09-30T16:38:41.916Z</Time>
                    </Trackpoint>
                    <Trackpoint>
                        <DistanceMeters>402.3820734024048</DistanceMeters>
                        <Time>2021-09-30T16:39:06.116Z</Time>
                    </Trackpoint>
                    <Trackpoint>
                        <DistanceMeters>465.8971757888794</DistanceMeters>
                        <Time>2021-09-30T16:39:59.436Z</Time>
                    </Trackpoint>
                    <Trackpoint>
                        <DistanceMeters>527.5905122756958</DistanceMeters>
                        <Time>2021-09-30T16:41:05.596Z</Time>
                    </Trackpoint>
                    <Trackpoint>
                        <DistanceMeters>564.6052446365356</DistanceMeters>
                        <Time>2021-09-30T16:41:41.996Z</Time>
                    </Trackpoint>
                    <Trackpoint>
                        <DistanceMeters>588.74644947052</DistanceMeters>
                        <Time>2021-09-30T16:42:31.036Z</Time>
                    </Trackpoint>
                    <Trackpoint>
                        <DistanceMeters>603.6097841262817</DistanceMeters>
                        <Time>2021-09-30T16:42:43.396Z</Time>
                    </Trackpoint>
                    <Trackpoint>
                        <DistanceMeters>630.908148765564</DistanceMeters>
                        <Time>2021-09-30T16:43:53.279Z</Time>
                    </Trackpoint>
                </Track>
                <DistanceMeters>630.908148765564</DistanceMeters>
                <TotalTimeSeconds>741.402768157</TotalTimeSeconds>
                <Calories>72.18896484375</Calories>
                <Intensity>Active</Intensity>
                <TriggerMethod>Manual</TriggerMethod>
            </Lap>
        </Activity>
    </Activities>
    <Author xsi:type="Application_t">
        <Name>Google Fit</Name>
        <Build>
            <Version>
                <VersionMajor>0</VersionMajor>
                <VersionMinor>0</VersionMinor>
                <BuildMajor>0</BuildMajor>
                <BuildMinor>0</BuildMinor>
            </Version>
        </Build>
        <LangID>en</LangID>
        <PartNumber>000-00000-00</PartNumber>
    </Author>
</TrainingCenterDatabase>
