<?xml version="1.0" encoding="UTF-8"?>
<TrainingCenterDatabase
    xmlns="http://www.garmin.com/xmlschemas/TrainingCenterDatabase/v2"
    xmlns:ns2="http://www.garmin.com/xmlschemas/UserProfile/v2"
    xmlns:ns3="http://www.garmin.com/xmlschemas/ActivityExtension/v2"
    xmlns:ns4="http://www.garmin.com/xmlschemas/ProfileExtension/v1"
    xmlns:ns5="http://www.garmin.com/xmlschemas/ActivityGoals/v1"
    xmlns:xsi="http://www.w3.org/2001/XMLSchema-instance" xsi:schemaLocation="http://www.garmin.com/xmlschemas/TrainingCenterDatabase/v2 http://www.garmin.com/xmlschemas/TrainingCenterDatabasev2.xsd">
    <Activities>
        <Activity Sport="Walking">
            <Id>2021-02-17T04:32:06.509Z</Id>
            <Lap StartTime="2021-02-17T04:32:06.509Z">
                <Track>
                    <Trackpoint>
                        <DistanceMeters>0.0</DistanceMeters>
                        <Time>2021-02-17T04:32:06.509Z</Time>
                    </Trackpoint>
                    <Trackpoint>
                        <DistanceMeters>27.974576950073242</DistanceMeters>
                        <Time>2021-02-17T04:32:27.556Z</Time>
                    </Trackpoint>
                    <Trackpoint>
                        <DistanceMeters>66.51418876647949</DistanceMeters>
                        <Time>2021-02-17T04:32:56.601Z</Time>
                    </Trackpoint>
                    <Trackpoint>
                        <DistanceMeters>107.11002922058105</DistanceMeters>
                        <Time>2021-02-17T04:33:27.714Z</Time>
                    </Trackpoint>
                    <Trackpoint>
                        <DistanceMeters>144.51837348937988</DistanceMeters>
                        <Time>2021-02-17T04:33:56.837Z</Time>
                    </Trackpoint>
                    <Trackpoint>
                        <DistanceMeters>147.0483467578888</DistanceMeters>
                        <Time>2021-02-17T04:33:58.663Z</Time>
                        <Position>
                            <LatitudeDegrees>18.594791412353516</LatitudeDegrees>
                            <LongitudeDegrees>73.80221557617188</LongitudeDegrees>
                        </Position>
                        <AltitudeMeters>491.8600158691406</AltitudeMeters>
                    </Trackpoint>
                    <Trackpoint>
                        <DistanceMeters>268.2049171924591</DistanceMeters>
                        <Time>2021-02-17T04:35:45.129Z</Time>
                        <Position>
                            <LatitudeDegrees>18.59370231628418</LatitudeDegrees>
                            <LongitudeDegrees>73.80216217041016</LongitudeDegrees>
                        </Position>
                        <AltitudeMeters>492.6600036621094</AltitudeMeters>
                    </Trackpoint>
                    <Trackpoint>
                        <DistanceMeters>272.9366443157196</DistanceMeters>
                        <Time>2021-02-17T04:36:09.911Z</Time>
                        <Position>
                            <LatitudeDegrees>18.593660354614258</LatitudeDegrees>
                            <LongitudeDegrees>73.80216979980469</LongitudeDegrees>
                        </Position>
                        <AltitudeMeters>492.6016845703125</AltitudeMeters>
                    </Trackpoint>
                    <Trackpoint>
                        <DistanceMeters>418.0425555706024</DistanceMeters>
                        <Time>2021-02-17T04:38:13.938Z</Time>
                        <Position>
                            <LatitudeDegrees>18.592641830444336</LatitudeDegrees>
                            <LongitudeDegrees>73.80130767822266</LongitudeDegrees>
                        </Position>
                        <AltitudeMeters>493.760009765625</AltitudeMeters>
                    </Trackpoint>
                    <Trackpoint>
                        <DistanceMeters>570.2884204387665</DistanceMeters>
                        <Time>2021-02-17T04:40:15.498Z</Time>
                        <Position>
                            <LatitudeDegrees>18.59299659729004</LatitudeDegrees>
                            <LongitudeDegrees>73.79991149902344</LongitudeDegrees>
                        </Position>
                        <AltitudeMeters>494.55999755859375</AltitudeMeters>
                    </Trackpoint>
                    <Trackpoint>
                        <DistanceMeters>725.2450702190399</DistanceMeters>
                        <Time>2021-02-17T04:42:18.475Z</Time>
                        <Position>
                            <LatitudeDegrees>18.59312629699707</LatitudeDegrees>
                            <LongitudeDegrees>73.79844665527344</LongitudeDegrees>
                        </Position>
                        <AltitudeMeters>493.55999755859375</AltitudeMeters>
                    </Trackpoint>
                    <Trackpoint>
                        <DistanceMeters>837.0428607463837</DistanceMeters>
                        <Time>2021-02-17T04:44:24.664Z</Time>
                        <Position>
                            <LatitudeDegrees>18.59325408935547</LatitudeDegrees>
                            <LongitudeDegrees>73.79739379882812</LongitudeDegrees>
                        </Position>
                        <AltitudeMeters>493.260009765625</AltitudeMeters>
                    </Trackpoint>
                    <Trackpoint>
                        <DistanceMeters>1005.8604419231415</DistanceMeters>
                        <Time>2021-02-17T04:46:25.743Z</Time>
                        <Position>
                            <LatitudeDegrees>18.592994689941406</LatitudeDegrees>
                            <LongitudeDegrees>73.79581451416016</LongitudeDegrees>
                        </Position>
                        <AltitudeMeters>493.760009765625</AltitudeMeters>
                    </Trackpoint>
                    <Trackpoint>
                        <DistanceMeters>1137.1783893108368</DistanceMeters>
                        <Time>2021-02-17T04:48:34.162Z</Time>
                        <Position>
                            <LatitudeDegrees>18.591838836669922</LatitudeDegrees>
                            <LongitudeDegrees>73.79607391357422</LongitudeDegrees>
                        </Position>
                        <AltitudeMeters>492.760009765625</AltitudeMeters>
                    </Trackpoint>
                    <Trackpoint>
                        <DistanceMeters>1166.3092563152313</DistanceMeters>
                        <Time>2021-02-17T04:49:05.612Z</Time>
                    </Trackpoint>
                </Track>
                <DistanceMeters>1166.3092563152313</DistanceMeters>
                <TotalTimeSeconds>1019.103</TotalTimeSeconds>
                <Calories>95.73905944824219</Calories>
                <Intensity>Active</Intensity>
                <TriggerMethod>Manual</TriggerMethod>
            </Lap>
        </Activity>
        <Activity Sport="Walking">
            <Id>2021-02-17T04:49:05.612Z</Id>
            <Lap StartTime="2021-02-17T04:49:05.612Z">
                <Track>
                    <Trackpoint>
                        <DistanceMeters>0.0</DistanceMeters>
                        <Time>2021-02-17T04:49:05.612Z</Time>
                    </Trackpoint>
                    <Trackpoint>
                        <DistanceMeters>8.323366165161133</DistanceMeters>
                        <Time>2021-02-17T04:49:14.597Z</Time>
                    </Trackpoint>
                </Track>
                <DistanceMeters>8.323366165161133</DistanceMeters>
                <TotalTimeSeconds>8.985996322</TotalTimeSeconds>
                <Calories>0.8441843390464783</Calories>
                <Intensity>Active</Intensity>
                <TriggerMethod>Manual</TriggerMethod>
            </Lap>
        </Activity>
        <Activity Sport="Walking">
            <Id>2021-02-17T04:49:14.597Z</Id>
            <Lap StartTime="2021-02-17T04:49:14.597Z">
                <Track>
                    <Trackpoint>
                        <DistanceMeters>0.0</DistanceMeters>
                        <Time>2021-02-17T04:49:14.597Z</Time>
                    </Trackpoint>
                    <Trackpoint>
                        <DistanceMeters>0.0</DistanceMeters>
                        <Time>2021-02-17T05:02:48.453Z</Time>
                    </Trackpoint>
                    <Trackpoint>
                        <DistanceMeters>21.990772247314453</DistanceMeters>
                        <Time>2021-02-17T05:03:15.351Z</Time>
                    </Trackpoint>
                </Track>
                <DistanceMeters>21.990772247314453</DistanceMeters>
                <TotalTimeSeconds>840.753868531</TotalTimeSeconds>
                <Calories>17.362307727336884</Calories>
                <Intensity>Active</Intensity>
                <TriggerMethod>Manual</TriggerMethod>
            </Lap>
        </Activity>
        <Activity Sport="Walking">
            <Id>2021-02-17T05:02:48.453Z</Id>
            <Lap StartTime="2021-02-17T05:02:48.453Z">
                <Track>
                    <Trackpoint>
                        <DistanceMeters>0.0</DistanceMeters>
                        <Time>2021-02-17T05:02:48.453Z</Time>
                    </Trackpoint>
                    <Trackpoint>
                        <DistanceMeters>21.990772247314453</DistanceMeters>
                        <Time>2021-02-17T05:02:52.836Z</Time>
                    </Trackpoint>
                    <Trackpoint>
                        <DistanceMeters>21.990772247314453</DistanceMeters>
                        <Time>2021-02-17T05:03:15.351Z</Time>
                    </Trackpoint>
                    <Trackpoint>
                        <DistanceMeters>52.228084564208984</DistanceMeters>
                        <Time>2021-02-17T05:03:48.057Z</Time>
                    </Trackpoint>
                    <Trackpoint>
                        <DistanceMeters>53.60250782966614</DistanceMeters>
                        <Time>2021-02-17T05:03:53.707Z</Time>
                    </Trackpoint>
                </Track>
                <DistanceMeters>53.60250782966614</DistanceMeters>
                <TotalTimeSeconds>65.2536268</TotalTimeSeconds>
                <Calories>5.656676292419434</Calories>
                <Intensity>Active</Intensity>
                <TriggerMethod>Manual</TriggerMethod>
            </Lap>
        </Activity>
    </Activities>
    <Author xsi:type="Application_t">
        <Name>Google Fit</Name>
        <Build>
            <Version>
                <VersionMajor>0</VersionMajor>
                <VersionMinor>0</VersionMinor>
                <BuildMajor>0</BuildMajor>
                <BuildMinor>0</BuildMinor>
            </Version>
        </Build>
        <LangID>en</LangID>
        <PartNumber>000-00000-00</PartNumber>
    </Author>
</TrainingCenterDatabase>
