<?xml version="1.0" encoding="UTF-8"?>
<TrainingCenterDatabase
    xmlns="http://www.garmin.com/xmlschemas/TrainingCenterDatabase/v2"
    xmlns:ns2="http://www.garmin.com/xmlschemas/UserProfile/v2"
    xmlns:ns3="http://www.garmin.com/xmlschemas/ActivityExtension/v2"
    xmlns:ns4="http://www.garmin.com/xmlschemas/ProfileExtension/v1"
    xmlns:ns5="http://www.garmin.com/xmlschemas/ActivityGoals/v1"
    xmlns:xsi="http://www.w3.org/2001/XMLSchema-instance" xsi:schemaLocation="http://www.garmin.com/xmlschemas/TrainingCenterDatabase/v2 http://www.garmin.com/xmlschemas/TrainingCenterDatabasev2.xsd">
    <Activities>
        <Activity Sport="Walking">
            <Id>2021-02-14T05:37:42.741Z</Id>
            <Lap StartTime="2021-02-14T05:37:42.741Z">
                <Track>
                    <Trackpoint>
                        <DistanceMeters>0.0</DistanceMeters>
                        <Time>2021-02-14T05:37:42.741Z</Time>
                    </Trackpoint>
                    <Trackpoint>
                        <DistanceMeters>23.823484420776367</DistanceMeters>
                        <Time>2021-02-14T05:37:59.750Z</Time>
                    </Trackpoint>
                    <Trackpoint>
                        <DistanceMeters>103.29511833190918</DistanceMeters>
                        <Time>2021-02-14T05:38:54.639Z</Time>
                        <Position>
                            <LatitudeDegrees>18.59500503540039</LatitudeDegrees>
                            <LongitudeDegrees>73.80223846435547</LongitudeDegrees>
                        </Position>
                        <AltitudeMeters>491.6600036621094</AltitudeMeters>
                    </Trackpoint>
                    <Trackpoint>
                        <DistanceMeters>267.54310417175293</DistanceMeters>
                        <Time>2021-02-14T05:40:55.689Z</Time>
                        <Position>
                            <LatitudeDegrees>18.593536376953125</LatitudeDegrees>
                            <LongitudeDegrees>73.80206298828125</LongitudeDegrees>
                        </Position>
                        <AltitudeMeters>492.6600036621094</AltitudeMeters>
                    </Trackpoint>
                    <Trackpoint>
                        <DistanceMeters>394.54626274108887</DistanceMeters>
                        <Time>2021-02-14T05:42:56.655Z</Time>
                        <Position>
                            <LatitudeDegrees>18.592628479003906</LatitudeDegrees>
                            <LongitudeDegrees>73.80133056640625</LongitudeDegrees>
                        </Position>
                        <AltitudeMeters>493.760009765625</AltitudeMeters>
                    </Trackpoint>
                    <Trackpoint>
                        <DistanceMeters>611.0023174285889</DistanceMeters>
                        <Time>2021-02-14T05:44:57.758Z</Time>
                        <Position>
                            <LatitudeDegrees>18.59293556213379</LatitudeDegrees>
                            <LongitudeDegrees>73.79930114746094</LongitudeDegrees>
                        </Position>
                        <AltitudeMeters>493.55999755859375</AltitudeMeters>
                    </Trackpoint>
                    <Trackpoint>
                        <DistanceMeters>751.1819744110107</DistanceMeters>
                        <Time>2021-02-14T05:46:58.800Z</Time>
                        <Position>
                            <LatitudeDegrees>18.5935001373291</LatitudeDegrees>
                            <LongitudeDegrees>73.79811096191406</LongitudeDegrees>
                        </Position>
                        <AltitudeMeters>493.05999755859375</AltitudeMeters>
                    </Trackpoint>
                    <Trackpoint>
                        <DistanceMeters>906.4424114227295</DistanceMeters>
                        <Time>2021-02-14T05:49:00.095Z</Time>
                        <Position>
                            <LatitudeDegrees>18.59334373474121</LatitudeDegrees>
                            <LongitudeDegrees>73.79664611816406</LongitudeDegrees>
                        </Position>
                        <AltitudeMeters>484.05999755859375</AltitudeMeters>
                    </Trackpoint>
                    <Trackpoint>
                        <DistanceMeters>1024.2908763885498</DistanceMeters>
                        <Time>2021-02-14T05:50:39.336Z</Time>
                        <Position>
                            <LatitudeDegrees>18.592517852783203</LatitudeDegrees>
                            <LongitudeDegrees>73.79594421386719</LongitudeDegrees>
                        </Position>
                        <AltitudeMeters>494.260009765625</AltitudeMeters>
                    </Trackpoint>
                    <Trackpoint>
                        <DistanceMeters>1045.4865798950195</DistanceMeters>
                        <Time>2021-02-14T05:51:02.425Z</Time>
                        <Position>
                            <LatitudeDegrees>18.59233856201172</LatitudeDegrees>
                            <LongitudeDegrees>73.79601287841797</LongitudeDegrees>
                        </Position>
                        <AltitudeMeters>494.2469482421875</AltitudeMeters>
                    </Trackpoint>
                    <Trackpoint>
                        <DistanceMeters>1144.843391418457</DistanceMeters>
                        <Time>2021-02-14T05:53:06.124Z</Time>
                        <Position>
                            <LatitudeDegrees>18.591514587402344</LatitudeDegrees>
                            <LongitudeDegrees>73.79637908935547</LongitudeDegrees>
                        </Position>
                        <AltitudeMeters>494.760009765625</AltitudeMeters>
                    </Trackpoint>
                    <Trackpoint>
                        <DistanceMeters>1199.807788848877</DistanceMeters>
                        <Time>2021-02-14T05:55:07.219Z</Time>
                        <Position>
                            <LatitudeDegrees>18.591567993164062</LatitudeDegrees>
                            <LongitudeDegrees>73.79586029052734</LongitudeDegrees>
                        </Position>
                        <AltitudeMeters>494.9599914550781</AltitudeMeters>
                    </Trackpoint>
                    <Trackpoint>
                        <DistanceMeters>1199.807788848877</DistanceMeters>
                        <Time>2021-02-14T05:55:07.231Z</Time>
                    </Trackpoint>
                </Track>
                <DistanceMeters>1199.807788848877</DistanceMeters>
                <TotalTimeSeconds>1044.49</TotalTimeSeconds>
                <Calories>98.12403869628906</Calories>
                <Intensity>Active</Intensity>
                <TriggerMethod>Manual</TriggerMethod>
            </Lap>
        </Activity>
    </Activities>
    <Author xsi:type="Application_t">
        <Name>Google Fit</Name>
        <Build>
            <Version>
                <VersionMajor>0</VersionMajor>
                <VersionMinor>0</VersionMinor>
                <BuildMajor>0</BuildMajor>
                <BuildMinor>0</BuildMinor>
            </Version>
        </Build>
        <LangID>en</LangID>
        <PartNumber>000-00000-00</PartNumber>
    </Author>
</TrainingCenterDatabase>
