<?xml version="1.0" encoding="UTF-8"?>
<TrainingCenterDatabase
    xmlns="http://www.garmin.com/xmlschemas/TrainingCenterDatabase/v2"
    xmlns:ns2="http://www.garmin.com/xmlschemas/UserProfile/v2"
    xmlns:ns3="http://www.garmin.com/xmlschemas/ActivityExtension/v2"
    xmlns:ns4="http://www.garmin.com/xmlschemas/ProfileExtension/v1"
    xmlns:ns5="http://www.garmin.com/xmlschemas/ActivityGoals/v1"
    xmlns:xsi="http://www.w3.org/2001/XMLSchema-instance" xsi:schemaLocation="http://www.garmin.com/xmlschemas/TrainingCenterDatabase/v2 http://www.garmin.com/xmlschemas/TrainingCenterDatabasev2.xsd">
    <Activities>
        <Activity Sport="Walking">
            <Id>2021-02-18T04:00:54.425Z</Id>
            <Lap StartTime="2021-02-18T04:00:54.425Z">
                <Track>
                    <Trackpoint>
                        <DistanceMeters>0.0</DistanceMeters>
                        <Time>2021-02-18T04:00:54.425Z</Time>
                    </Trackpoint>
                    <Trackpoint>
                        <DistanceMeters>0.0</DistanceMeters>
                        <Time>2021-02-18T05:02:29.261Z</Time>
                    </Trackpoint>
                    <Trackpoint>
                        <DistanceMeters>1.3893424272537231</DistanceMeters>
                        <Time>2021-02-18T05:02:30.295Z</Time>
                        <Position>
                            <LatitudeDegrees>18.595308303833008</LatitudeDegrees>
                            <LongitudeDegrees>73.80335998535156</LongitudeDegrees>
                        </Position>
                        <AltitudeMeters>490.7017822265625</AltitudeMeters>
                    </Trackpoint>
                    <Trackpoint>
                        <DistanceMeters>2.5597161054611206</DistanceMeters>
                        <Time>2021-02-18T05:02:32.266Z</Time>
                    </Trackpoint>
                </Track>
                <DistanceMeters>2.5597161054611206</DistanceMeters>
                <TotalTimeSeconds>3697.841</TotalTimeSeconds>
                <Calories>77.2366344332695</Calories>
                <Intensity>Active</Intensity>
                <TriggerMethod>Manual</TriggerMethod>
            </Lap>
        </Activity>
        <Activity Sport="Walking">
            <Id>2021-02-18T05:02:32.266Z</Id>
            <Lap StartTime="2021-02-18T05:02:32.266Z">
                <Track>
                    <Trackpoint>
                        <DistanceMeters>0.0</DistanceMeters>
                        <Time>2021-02-18T05:02:32.266Z</Time>
                    </Trackpoint>
                    <Trackpoint>
                        <DistanceMeters>10.899736404418945</DistanceMeters>
                        <Time>2021-02-18T05:02:50.622Z</Time>
                        <Position>
                            <LatitudeDegrees>18.595314025878906</LatitudeDegrees>
                            <LongitudeDegrees>73.8032455444336</LongitudeDegrees>
                        </Position>
                        <AltitudeMeters>490.5626220703125</AltitudeMeters>
                    </Trackpoint>
                    <Trackpoint>
                        <DistanceMeters>14.810532093048096</DistanceMeters>
                        <Time>2021-02-18T05:02:53.531Z</Time>
                    </Trackpoint>
                    <Trackpoint>
                        <DistanceMeters>51.31158113479614</DistanceMeters>
                        <Time>2021-02-18T05:03:26.474Z</Time>
                    </Trackpoint>
                    <Trackpoint>
                        <DistanceMeters>88.46846055984497</DistanceMeters>
                        <Time>2021-02-18T05:03:54.164Z</Time>
                    </Trackpoint>
                    <Trackpoint>
                        <DistanceMeters>132.44669389724731</DistanceMeters>
                        <Time>2021-02-18T05:04:11.528Z</Time>
                        <Position>
                            <LatitudeDegrees>18.591554641723633</LatitudeDegrees>
                            <LongitudeDegrees>73.79586791992188</LongitudeDegrees>
                        </Position>
                        <AltitudeMeters>403.4599914550781</AltitudeMeters>
                    </Trackpoint>
                    <Trackpoint>
                        <DistanceMeters>132.44669389724731</DistanceMeters>
                        <Time>2021-02-18T05:04:26.947Z</Time>
                    </Trackpoint>
                    <Trackpoint>
                        <DistanceMeters>167.40453004837036</DistanceMeters>
                        <Time>2021-02-18T05:04:52.456Z</Time>
                        <Position>
                            <LatitudeDegrees>18.595046997070312</LatitudeDegrees>
                            <LongitudeDegrees>73.80228424072266</LongitudeDegrees>
                        </Position>
                        <AltitudeMeters>491.4599914550781</AltitudeMeters>
                    </Trackpoint>
                    <Trackpoint>
                        <DistanceMeters>284.3766827583313</DistanceMeters>
                        <Time>2021-02-18T05:06:15.015Z</Time>
                        <Position>
                            <LatitudeDegrees>18.594011306762695</LatitudeDegrees>
                            <LongitudeDegrees>73.80208587646484</LongitudeDegrees>
                        </Position>
                        <AltitudeMeters>492.9599914550781</AltitudeMeters>
                    </Trackpoint>
                    <Trackpoint>
                        <DistanceMeters>303.4694905281067</DistanceMeters>
                        <Time>2021-02-18T05:06:40.924Z</Time>
                        <Position>
                            <LatitudeDegrees>18.593839645385742</LatitudeDegrees>
                            <LongitudeDegrees>73.80209350585938</LongitudeDegrees>
                        </Position>
                        <AltitudeMeters>492.81732177734375</AltitudeMeters>
                    </Trackpoint>
                    <Trackpoint>
                        <DistanceMeters>455.16648149490356</DistanceMeters>
                        <Time>2021-02-18T05:08:42.038Z</Time>
                    </Trackpoint>
                    <Trackpoint>
                        <DistanceMeters>533.409508228302</DistanceMeters>
                        <Time>2021-02-18T05:10:43.134Z</Time>
                    </Trackpoint>
                    <Trackpoint>
                        <DistanceMeters>680.128502368927</DistanceMeters>
                        <Time>2021-02-18T05:12:43.044Z</Time>
                    </Trackpoint>
                    <Trackpoint>
                        <DistanceMeters>784.5999302864075</DistanceMeters>
                        <Time>2021-02-18T05:13:54.349Z</Time>
                        <Position>
                            <LatitudeDegrees>18.593154907226562</LatitudeDegrees>
                            <LongitudeDegrees>73.79830932617188</LongitudeDegrees>
                        </Position>
                        <AltitudeMeters>493.4599914550781</AltitudeMeters>
                    </Trackpoint>
                    <Trackpoint>
                        <DistanceMeters>793.9239468574524</DistanceMeters>
                        <Time>2021-02-18T05:14:19.059Z</Time>
                        <Position>
                            <LatitudeDegrees>18.593181610107422</LatitudeDegrees>
                            <LongitudeDegrees>73.79822540283203</LongitudeDegrees>
                        </Position>
                        <AltitudeMeters>493.6009216308594</AltitudeMeters>
                    </Trackpoint>
                    <Trackpoint>
                        <DistanceMeters>961.0212216377258</DistanceMeters>
                        <Time>2021-02-18T05:16:15.163Z</Time>
                        <Position>
                            <LatitudeDegrees>18.593320846557617</LatitudeDegrees>
                            <LongitudeDegrees>73.79669952392578</LongitudeDegrees>
                        </Position>
                        <AltitudeMeters>493.1600036621094</AltitudeMeters>
                    </Trackpoint>
                    <Trackpoint>
                        <DistanceMeters>961.0212216377258</DistanceMeters>
                        <Time>2021-02-18T05:16:20.141Z</Time>
                        <Position>
                            <LatitudeDegrees>18.59331703186035</LatitudeDegrees>
                            <LongitudeDegrees>73.7967529296875</LongitudeDegrees>
                        </Position>
                        <AltitudeMeters>492.9205322265625</AltitudeMeters>
                    </Trackpoint>
                    <Trackpoint>
                        <DistanceMeters>982.8660778999329</DistanceMeters>
                        <Time>2021-02-18T05:16:41.951Z</Time>
                        <Position>
                            <LatitudeDegrees>18.593339920043945</LatitudeDegrees>
                            <LongitudeDegrees>73.79654693603516</LongitudeDegrees>
                        </Position>
                        <AltitudeMeters>492.9174499511719</AltitudeMeters>
                    </Trackpoint>
                    <Trackpoint>
                        <DistanceMeters>1092.0127835273743</DistanceMeters>
                        <Time>2021-02-18T05:18:42.957Z</Time>
                    </Trackpoint>
                    <Trackpoint>
                        <DistanceMeters>1200.1475262641907</DistanceMeters>
                        <Time>2021-02-18T05:20:43.993Z</Time>
                        <Position>
                            <LatitudeDegrees>18.591535568237305</LatitudeDegrees>
                            <LongitudeDegrees>73.7961196899414</LongitudeDegrees>
                        </Position>
                        <AltitudeMeters>494.1600036621094</AltitudeMeters>
                    </Trackpoint>
                    <Trackpoint>
                        <DistanceMeters>1221.5521416664124</DistanceMeters>
                        <Time>2021-02-18T05:21:05.465Z</Time>
                        <Position>
                            <LatitudeDegrees>18.591489791870117</LatitudeDegrees>
                            <LongitudeDegrees>73.79595184326172</LongitudeDegrees>
                        </Position>
                        <AltitudeMeters>494.8196716308594</AltitudeMeters>
                    </Trackpoint>
                    <Trackpoint>
                        <DistanceMeters>1221.5521416664124</DistanceMeters>
                        <Time>2021-02-18T05:21:23.572Z</Time>
                        <Position>
                            <LatitudeDegrees>18.59151268005371</LatitudeDegrees>
                            <LongitudeDegrees>73.79596710205078</LongitudeDegrees>
                        </Position>
                        <AltitudeMeters>494.814453125</AltitudeMeters>
                    </Trackpoint>
                    <Trackpoint>
                        <DistanceMeters>1252.0997414588928</DistanceMeters>
                        <Time>2021-02-18T05:21:44.582Z</Time>
                        <Position>
                            <LatitudeDegrees>18.591520309448242</LatitudeDegrees>
                            <LongitudeDegrees>73.79625701904297</LongitudeDegrees>
                        </Position>
                        <AltitudeMeters>494.2294921875</AltitudeMeters>
                    </Trackpoint>
                    <Trackpoint>
                        <DistanceMeters>1256.6145873069763</DistanceMeters>
                        <Time>2021-02-18T05:23:18.432Z</Time>
                    </Trackpoint>
                </Track>
                <DistanceMeters>1256.6145873069763</DistanceMeters>
                <TotalTimeSeconds>1246.166</TotalTimeSeconds>
                <Calories>117.07036590576172</Calories>
                <Intensity>Active</Intensity>
                <TriggerMethod>Manual</TriggerMethod>
            </Lap>
        </Activity>
        <Activity Sport="Walking">
            <Id>2021-02-18T05:23:18.432Z</Id>
            <Lap StartTime="2021-02-18T05:23:18.432Z">
                <Track>
                    <Trackpoint>
                        <DistanceMeters>0.0</DistanceMeters>
                        <Time>2021-02-18T05:23:18.432Z</Time>
                    </Trackpoint>
                    <Trackpoint>
                        <DistanceMeters>13.790977478027344</DistanceMeters>
                        <Time>2021-02-18T05:23:26.343Z</Time>
                        <Position>
                            <LatitudeDegrees>18.591527938842773</LatitudeDegrees>
                            <LongitudeDegrees>73.79630279541016</LongitudeDegrees>
                        </Position>
                        <AltitudeMeters>495.05999755859375</AltitudeMeters>
                    </Trackpoint>
                    <Trackpoint>
                        <DistanceMeters>13.790977478027344</DistanceMeters>
                        <Time>2021-02-18T05:23:29.609Z</Time>
                    </Trackpoint>
                </Track>
                <DistanceMeters>13.790977478027344</DistanceMeters>
                <TotalTimeSeconds>11.177251143</TotalTimeSeconds>
                <Calories>1.050040602684021</Calories>
                <Intensity>Active</Intensity>
                <TriggerMethod>Manual</TriggerMethod>
            </Lap>
        </Activity>
        <Activity Sport="Walking">
            <Id>2021-02-18T05:24:21.424Z</Id>
            <Lap StartTime="2021-02-18T05:24:21.424Z">
                <Track>
                    <Trackpoint>
                        <DistanceMeters>0.0</DistanceMeters>
                        <Time>2021-02-18T05:24:21.424Z</Time>
                    </Trackpoint>
                    <Trackpoint>
                        <DistanceMeters>32.15728759765625</DistanceMeters>
                        <Time>2021-02-18T05:24:28.893Z</Time>
                        <Position>
                            <LatitudeDegrees>18.591567993164062</LatitudeDegrees>
                            <LongitudeDegrees>73.79586029052734</LongitudeDegrees>
                        </Position>
                        <AltitudeMeters>495.55999755859375</AltitudeMeters>
                    </Trackpoint>
                    <Trackpoint>
                        <DistanceMeters>35.05500245094299</DistanceMeters>
                        <Time>2021-02-18T05:24:34.866Z</Time>
                    </Trackpoint>
                    <Trackpoint>
                        <DistanceMeters>50.17365860939026</DistanceMeters>
                        <Time>2021-02-18T05:24:56.273Z</Time>
                    </Trackpoint>
                    <Trackpoint>
                        <DistanceMeters>67.35394883155823</DistanceMeters>
                        <Time>2021-02-18T05:25:29.139Z</Time>
                    </Trackpoint>
                </Track>
                <DistanceMeters>67.35394883155823</DistanceMeters>
                <TotalTimeSeconds>67.715546927</TotalTimeSeconds>
                <Calories>5.429142951965332</Calories>
                <Intensity>Active</Intensity>
                <TriggerMethod>Manual</TriggerMethod>
            </Lap>
        </Activity>
    </Activities>
    <Author xsi:type="Application_t">
        <Name>Google Fit</Name>
        <Build>
            <Version>
                <VersionMajor>0</VersionMajor>
                <VersionMinor>0</VersionMinor>
                <BuildMajor>0</BuildMajor>
                <BuildMinor>0</BuildMinor>
            </Version>
        </Build>
        <LangID>en</LangID>
        <PartNumber>000-00000-00</PartNumber>
    </Author>
</TrainingCenterDatabase>
