<?xml version="1.0" encoding="UTF-8"?>
<TrainingCenterDatabase
    xmlns="http://www.garmin.com/xmlschemas/TrainingCenterDatabase/v2"
    xmlns:ns2="http://www.garmin.com/xmlschemas/UserProfile/v2"
    xmlns:ns3="http://www.garmin.com/xmlschemas/ActivityExtension/v2"
    xmlns:ns4="http://www.garmin.com/xmlschemas/ProfileExtension/v1"
    xmlns:ns5="http://www.garmin.com/xmlschemas/ActivityGoals/v1"
    xmlns:xsi="http://www.w3.org/2001/XMLSchema-instance" xsi:schemaLocation="http://www.garmin.com/xmlschemas/TrainingCenterDatabase/v2 http://www.garmin.com/xmlschemas/TrainingCenterDatabasev2.xsd">
    <Activities>
        <Activity Sport="Walking">
            <Id>2021-01-25T02:40:35.415Z</Id>
            <Lap StartTime="2021-01-25T02:40:35.415Z">
                <Track>
                    <Trackpoint>
                        <DistanceMeters>0.0</DistanceMeters>
                        <Time>2021-01-25T02:40:35.415Z</Time>
                    </Trackpoint>
                    <Trackpoint>
                        <DistanceMeters>0.0</DistanceMeters>
                        <Time>2021-01-25T03:08:52.782Z</Time>
                    </Trackpoint>
                    <Trackpoint>
                        <DistanceMeters>30.924524307250977</DistanceMeters>
                        <Time>2021-01-25T03:10:12.832Z</Time>
                    </Trackpoint>
                    <Trackpoint>
                        <DistanceMeters>69.04724311828613</DistanceMeters>
                        <Time>2021-01-25T03:10:32.943Z</Time>
                        <Position>
                            <LatitudeDegrees>18.5916321</LatitudeDegrees>
                            <LongitudeDegrees>73.796295</LongitudeDegrees>
                        </Position>
                        <AltitudeMeters>493.26001220703125</AltitudeMeters>
                    </Trackpoint>
                    <Trackpoint>
                        <DistanceMeters>70.72154462337494</DistanceMeters>
                        <Time>2021-01-25T03:10:33.998Z</Time>
                    </Trackpoint>
                    <Trackpoint>
                        <DistanceMeters>146.92902600765228</DistanceMeters>
                        <Time>2021-01-25T03:11:33.595Z</Time>
                    </Trackpoint>
                    <Trackpoint>
                        <DistanceMeters>179.67398297786713</DistanceMeters>
                        <Time>2021-01-25T03:11:59.535Z</Time>
                    </Trackpoint>
                    <Trackpoint>
                        <DistanceMeters>198.74603688716888</DistanceMeters>
                        <Time>2021-01-25T03:12:11.788Z</Time>
                    </Trackpoint>
                    <Trackpoint>
                        <DistanceMeters>232.85772740840912</DistanceMeters>
                        <Time>2021-01-25T03:12:33.947Z</Time>
                    </Trackpoint>
                </Track>
                <DistanceMeters>232.85772740840912</DistanceMeters>
                <TotalTimeSeconds>1918.532</TotalTimeSeconds>
                <Calories>50.276185035705566</Calories>
                <Intensity>Active</Intensity>
                <TriggerMethod>Manual</TriggerMethod>
            </Lap>
        </Activity>
        <Activity Sport="Walking">
            <Id>2021-01-25T03:12:33.947Z</Id>
            <Lap StartTime="2021-01-25T03:12:33.947Z">
                <Track>
                    <Trackpoint>
                        <DistanceMeters>0.0</DistanceMeters>
                        <Time>2021-01-25T03:12:33.947Z</Time>
                    </Trackpoint>
                    <Trackpoint>
                        <DistanceMeters>0.0035880813375115395</DistanceMeters>
                        <Time>2021-01-25T03:12:33.980Z</Time>
                        <Position>
                            <LatitudeDegrees>18.5915448</LatitudeDegrees>
                            <LongitudeDegrees>73.7962105</LongitudeDegrees>
                        </Position>
                        <AltitudeMeters>493.1600061035156</AltitudeMeters>
                    </Trackpoint>
                    <Trackpoint>
                        <DistanceMeters>106.99669110868126</DistanceMeters>
                        <Time>2021-01-25T03:13:38.866Z</Time>
                        <Position>
                            <LatitudeDegrees>18.592415</LatitudeDegrees>
                            <LongitudeDegrees>73.7960284</LongitudeDegrees>
                        </Position>
                        <AltitudeMeters>493.1600061035156</AltitudeMeters>
                    </Trackpoint>
                    <Trackpoint>
                        <DistanceMeters>106.99669110868126</DistanceMeters>
                        <Time>2021-01-25T03:13:58.887Z</Time>
                        <Position>
                            <LatitudeDegrees>18.5924816</LatitudeDegrees>
                            <LongitudeDegrees>73.7959928</LongitudeDegrees>
                        </Position>
                        <AltitudeMeters>493.2811522924385</AltitudeMeters>
                    </Trackpoint>
                    <Trackpoint>
                        <DistanceMeters>257.4950126418844</DistanceMeters>
                        <Time>2021-01-25T03:15:35.160Z</Time>
                    </Trackpoint>
                    <Trackpoint>
                        <DistanceMeters>297.6566299209371</DistanceMeters>
                        <Time>2021-01-25T03:16:00.437Z</Time>
                        <Position>
                            <LatitudeDegrees>18.5929608</LatitudeDegrees>
                            <LongitudeDegrees>73.7968947</LongitudeDegrees>
                        </Position>
                        <AltitudeMeters>493.1600061035156</AltitudeMeters>
                    </Trackpoint>
                    <Trackpoint>
                        <DistanceMeters>439.019636512734</DistanceMeters>
                        <Time>2021-01-25T03:18:02.563Z</Time>
                        <Position>
                            <LatitudeDegrees>18.5931917</LatitudeDegrees>
                            <LongitudeDegrees>73.7982198</LongitudeDegrees>
                        </Position>
                        <AltitudeMeters>493.06</AltitudeMeters>
                    </Trackpoint>
                    <Trackpoint>
                        <DistanceMeters>636.5218642959371</DistanceMeters>
                        <Time>2021-01-25T03:20:05.286Z</Time>
                        <Position>
                            <LatitudeDegrees>18.592978</LatitudeDegrees>
                            <LongitudeDegrees>73.8000767</LongitudeDegrees>
                        </Position>
                        <AltitudeMeters>493.6600061035156</AltitudeMeters>
                    </Trackpoint>
                    <Trackpoint>
                        <DistanceMeters>779.1283859023824</DistanceMeters>
                        <Time>2021-01-25T03:22:06.313Z</Time>
                        <Position>
                            <LatitudeDegrees>18.5926915</LatitudeDegrees>
                            <LongitudeDegrees>73.8013971</LongitudeDegrees>
                        </Position>
                        <AltitudeMeters>493.3600183105469</AltitudeMeters>
                    </Trackpoint>
                    <Trackpoint>
                        <DistanceMeters>901.0686630019918</DistanceMeters>
                        <Time>2021-01-25T03:24:08.412Z</Time>
                        <Position>
                            <LatitudeDegrees>18.5928986</LatitudeDegrees>
                            <LongitudeDegrees>73.8002614</LongitudeDegrees>
                        </Position>
                        <AltitudeMeters>493.3600183105469</AltitudeMeters>
                    </Trackpoint>
                    <Trackpoint>
                        <DistanceMeters>1122.6933883437887</DistanceMeters>
                        <Time>2021-01-25T03:26:14.492Z</Time>
                        <Position>
                            <LatitudeDegrees>18.5932297</LatitudeDegrees>
                            <LongitudeDegrees>73.7981884</LongitudeDegrees>
                        </Position>
                        <AltitudeMeters>493.1600061035156</AltitudeMeters>
                    </Trackpoint>
                    <Trackpoint>
                        <DistanceMeters>1203.1394027480856</DistanceMeters>
                        <Time>2021-01-25T03:27:04.602Z</Time>
                    </Trackpoint>
                    <Trackpoint>
                        <DistanceMeters>1224.9781612167135</DistanceMeters>
                        <Time>2021-01-25T03:27:17.888Z</Time>
                    </Trackpoint>
                    <Trackpoint>
                        <DistanceMeters>1323.0090831527486</DistanceMeters>
                        <Time>2021-01-25T03:28:17.317Z</Time>
                        <Position>
                            <LatitudeDegrees>18.5931749</LatitudeDegrees>
                            <LongitudeDegrees>73.7986739</LongitudeDegrees>
                        </Position>
                        <AltitudeMeters>493.06</AltitudeMeters>
                    </Trackpoint>
                    <Trackpoint>
                        <DistanceMeters>1323.0090831527486</DistanceMeters>
                        <Time>2021-01-25T03:28:18.746Z</Time>
                    </Trackpoint>
                    <Trackpoint>
                        <DistanceMeters>1367.7725795516744</DistanceMeters>
                        <Time>2021-01-25T03:28:46.988Z</Time>
                    </Trackpoint>
                    <Trackpoint>
                        <DistanceMeters>1402.1855663070455</DistanceMeters>
                        <Time>2021-01-25T03:28:47.870Z</Time>
                        <Position>
                            <LatitudeDegrees>18.5933539</LatitudeDegrees>
                            <LongitudeDegrees>73.7963206</LongitudeDegrees>
                        </Position>
                        <AltitudeMeters>493.06</AltitudeMeters>
                    </Trackpoint>
                    <Trackpoint>
                        <DistanceMeters>1402.1855663070455</DistanceMeters>
                        <Time>2021-01-25T03:29:09.366Z</Time>
                        <Position>
                            <LatitudeDegrees>18.5933614</LatitudeDegrees>
                            <LongitudeDegrees>73.796259</LongitudeDegrees>
                        </Position>
                        <AltitudeMeters>493.06</AltitudeMeters>
                    </Trackpoint>
                    <Trackpoint>
                        <DistanceMeters>1506.8682445297018</DistanceMeters>
                        <Time>2021-01-25T03:30:11.252Z</Time>
                        <Position>
                            <LatitudeDegrees>18.5925454</LatitudeDegrees>
                            <LongitudeDegrees>73.7960536</LongitudeDegrees>
                        </Position>
                        <AltitudeMeters>493.06</AltitudeMeters>
                    </Trackpoint>
                    <Trackpoint>
                        <DistanceMeters>1506.8682445297018</DistanceMeters>
                        <Time>2021-01-25T03:30:12.260Z</Time>
                        <Position>
                            <LatitudeDegrees>18.5925331</LatitudeDegrees>
                            <LongitudeDegrees>73.7960438</LongitudeDegrees>
                        </Position>
                        <AltitudeMeters>493.06</AltitudeMeters>
                    </Trackpoint>
                    <Trackpoint>
                        <DistanceMeters>1506.8682445297018</DistanceMeters>
                        <Time>2021-01-25T03:30:13.262Z</Time>
                        <Position>
                            <LatitudeDegrees>18.5925218</LatitudeDegrees>
                            <LongitudeDegrees>73.7960351</LongitudeDegrees>
                        </Position>
                        <AltitudeMeters>493.06</AltitudeMeters>
                    </Trackpoint>
                    <Trackpoint>
                        <DistanceMeters>1506.8682445297018</DistanceMeters>
                        <Time>2021-01-25T03:30:14.263Z</Time>
                        <Position>
                            <LatitudeDegrees>18.5925093</LatitudeDegrees>
                            <LongitudeDegrees>73.7960281</LongitudeDegrees>
                        </Position>
                        <AltitudeMeters>493.06</AltitudeMeters>
                    </Trackpoint>
                    <Trackpoint>
                        <DistanceMeters>1506.8682445297018</DistanceMeters>
                        <Time>2021-01-25T03:30:15.253Z</Time>
                        <Position>
                            <LatitudeDegrees>18.5924973</LatitudeDegrees>
                            <LongitudeDegrees>73.7960258</LongitudeDegrees>
                        </Position>
                        <AltitudeMeters>493.06</AltitudeMeters>
                    </Trackpoint>
                    <Trackpoint>
                        <DistanceMeters>1506.8682445297018</DistanceMeters>
                        <Time>2021-01-25T03:30:16.254Z</Time>
                        <Position>
                            <LatitudeDegrees>18.5924881</LatitudeDegrees>
                            <LongitudeDegrees>73.796027</LongitudeDegrees>
                        </Position>
                        <AltitudeMeters>493.06</AltitudeMeters>
                    </Trackpoint>
                    <Trackpoint>
                        <DistanceMeters>1506.8682445297018</DistanceMeters>
                        <Time>2021-01-25T03:30:17.287Z</Time>
                        <Position>
                            <LatitudeDegrees>18.5924791</LatitudeDegrees>
                            <LongitudeDegrees>73.7960303</LongitudeDegrees>
                        </Position>
                        <AltitudeMeters>493.06</AltitudeMeters>
                    </Trackpoint>
                    <Trackpoint>
                        <DistanceMeters>1506.8682445297018</DistanceMeters>
                        <Time>2021-01-25T03:30:19.263Z</Time>
                        <Position>
                            <LatitudeDegrees>18.5924688</LatitudeDegrees>
                            <LongitudeDegrees>73.7960381</LongitudeDegrees>
                        </Position>
                        <AltitudeMeters>493.06</AltitudeMeters>
                    </Trackpoint>
                    <Trackpoint>
                        <DistanceMeters>1506.8682445297018</DistanceMeters>
                        <Time>2021-01-25T03:30:20.258Z</Time>
                        <Position>
                            <LatitudeDegrees>18.5924665</LatitudeDegrees>
                            <LongitudeDegrees>73.7960285</LongitudeDegrees>
                        </Position>
                        <AltitudeMeters>493.06</AltitudeMeters>
                    </Trackpoint>
                    <Trackpoint>
                        <DistanceMeters>1506.8682445297018</DistanceMeters>
                        <Time>2021-01-25T03:30:21.253Z</Time>
                        <Position>
                            <LatitudeDegrees>18.5924578</LatitudeDegrees>
                            <LongitudeDegrees>73.7960218</LongitudeDegrees>
                        </Position>
                        <AltitudeMeters>493.06</AltitudeMeters>
                    </Trackpoint>
                    <Trackpoint>
                        <DistanceMeters>1575.3348811874166</DistanceMeters>
                        <Time>2021-01-25T03:31:10.485Z</Time>
                        <Position>
                            <LatitudeDegrees>18.5918592</LatitudeDegrees>
                            <LongitudeDegrees>73.7958651</LongitudeDegrees>
                        </Position>
                        <AltitudeMeters>493.06</AltitudeMeters>
                    </Trackpoint>
                    <Trackpoint>
                        <DistanceMeters>1652.7652095565572</DistanceMeters>
                        <Time>2021-01-25T03:32:04.279Z</Time>
                    </Trackpoint>
                    <Trackpoint>
                        <DistanceMeters>1681.529926658608</DistanceMeters>
                        <Time>2021-01-25T03:32:25.838Z</Time>
                    </Trackpoint>
                    <Trackpoint>
                        <DistanceMeters>1702.833486915566</DistanceMeters>
                        <Time>2021-01-25T03:32:30.562Z</Time>
                        <Position>
                            <LatitudeDegrees>18.5917763</LatitudeDegrees>
                            <LongitudeDegrees>73.7964192</LongitudeDegrees>
                        </Position>
                        <AltitudeMeters>493.06</AltitudeMeters>
                    </Trackpoint>
                    <Trackpoint>
                        <DistanceMeters>1702.833486915566</DistanceMeters>
                        <Time>2021-01-25T03:32:59.966Z</Time>
                    </Trackpoint>
                    <Trackpoint>
                        <DistanceMeters>1757.9281219253317</DistanceMeters>
                        <Time>2021-01-25T03:33:05.346Z</Time>
                        <Position>
                            <LatitudeDegrees>18.5917057</LatitudeDegrees>
                            <LongitudeDegrees>73.7965129</LongitudeDegrees>
                        </Position>
                        <AltitudeMeters>493.06</AltitudeMeters>
                    </Trackpoint>
                    <Trackpoint>
                        <DistanceMeters>1757.9281219253317</DistanceMeters>
                        <Time>2021-01-25T03:33:49.736Z</Time>
                    </Trackpoint>
                    <Trackpoint>
                        <DistanceMeters>1795.0256561050192</DistanceMeters>
                        <Time>2021-01-25T03:34:14.079Z</Time>
                    </Trackpoint>
                    <Trackpoint>
                        <DistanceMeters>1823.35331952665</DistanceMeters>
                        <Time>2021-01-25T03:34:32.848Z</Time>
                    </Trackpoint>
                </Track>
                <DistanceMeters>1823.35331952665</DistanceMeters>
                <TotalTimeSeconds>1318.901</TotalTimeSeconds>
                <Calories>123.9034194946289</Calories>
                <Intensity>Active</Intensity>
                <TriggerMethod>Manual</TriggerMethod>
            </Lap>
        </Activity>
        <Activity Sport="Running">
            <Id>2021-01-25T03:34:32.848Z</Id>
            <Lap StartTime="2021-01-25T03:34:32.848Z">
                <Track>
                    <Trackpoint>
                        <DistanceMeters>0.0</DistanceMeters>
                        <Time>2021-01-25T03:34:32.848Z</Time>
                    </Trackpoint>
                    <Trackpoint>
                        <DistanceMeters>10.888021469116211</DistanceMeters>
                        <Time>2021-01-25T03:34:39.936Z</Time>
                    </Trackpoint>
                    <Trackpoint>
                        <DistanceMeters>21.776042938232422</DistanceMeters>
                        <Time>2021-01-25T03:35:12.468Z</Time>
                        <Position>
                            <LatitudeDegrees>18.5932232</LatitudeDegrees>
                            <LongitudeDegrees>73.7972413</LongitudeDegrees>
                        </Position>
                        <AltitudeMeters>493.06</AltitudeMeters>
                    </Trackpoint>
                    <Trackpoint>
                        <DistanceMeters>21.776042938232422</DistanceMeters>
                        <Time>2021-01-25T03:37:19.546Z</Time>
                        <Position>
                            <LatitudeDegrees>18.5917847</LatitudeDegrees>
                            <LongitudeDegrees>73.7964</LongitudeDegrees>
                        </Position>
                        <AltitudeMeters>493.06</AltitudeMeters>
                    </Trackpoint>
                    <Trackpoint>
                        <DistanceMeters>21.776042938232422</DistanceMeters>
                        <Time>2021-01-25T03:39:20.576Z</Time>
                        <Position>
                            <LatitudeDegrees>18.5917624</LatitudeDegrees>
                            <LongitudeDegrees>73.796449</LongitudeDegrees>
                        </Position>
                        <AltitudeMeters>493.06</AltitudeMeters>
                    </Trackpoint>
                    <Trackpoint>
                        <DistanceMeters>21.776042938232422</DistanceMeters>
                        <Time>2021-01-25T03:39:39.322Z</Time>
                    </Trackpoint>
                    <Trackpoint>
                        <DistanceMeters>31.826523780822754</DistanceMeters>
                        <Time>2021-01-25T03:39:52.441Z</Time>
                    </Trackpoint>
                </Track>
                <DistanceMeters>31.826523780822754</DistanceMeters>
                <TotalTimeSeconds>319.593</TotalTimeSeconds>
                <Calories>59.25786590576172</Calories>
                <Intensity>Active</Intensity>
                <TriggerMethod>Manual</TriggerMethod>
            </Lap>
        </Activity>
        <Activity Sport="Walking">
            <Id>2021-01-25T03:39:52.441Z</Id>
            <Lap StartTime="2021-01-25T03:39:52.441Z">
                <Track>
                    <Trackpoint>
                        <DistanceMeters>0.0</DistanceMeters>
                        <Time>2021-01-25T03:39:52.441Z</Time>
                    </Trackpoint>
                    <Trackpoint>
                        <DistanceMeters>0.0</DistanceMeters>
                        <Time>2021-01-25T03:53:18.545Z</Time>
                    </Trackpoint>
                    <Trackpoint>
                        <DistanceMeters>71.66719818115234</DistanceMeters>
                        <Time>2021-01-25T03:53:43.063Z</Time>
                        <Position>
                            <LatitudeDegrees>18.591423</LatitudeDegrees>
                            <LongitudeDegrees>73.7972413</LongitudeDegrees>
                        </Position>
                        <AltitudeMeters>484.3600183105469</AltitudeMeters>
                    </Trackpoint>
                    <Trackpoint>
                        <DistanceMeters>71.66719818115234</DistanceMeters>
                        <Time>2021-01-25T03:54:18.699Z</Time>
                    </Trackpoint>
                </Track>
                <DistanceMeters>71.66719818115234</DistanceMeters>
                <TotalTimeSeconds>866.258241763</TotalTimeSeconds>
                <Calories>19.408742666244507</Calories>
                <Intensity>Active</Intensity>
                <TriggerMethod>Manual</TriggerMethod>
            </Lap>
        </Activity>
        <Activity Sport="Walking">
            <Id>2021-01-25T03:53:18.545Z</Id>
            <Lap StartTime="2021-01-25T03:53:18.545Z">
                <Track>
                    <Trackpoint>
                        <DistanceMeters>0.0</DistanceMeters>
                        <Time>2021-01-25T03:53:18.545Z</Time>
                    </Trackpoint>
                    <Trackpoint>
                        <DistanceMeters>71.66719818115234</DistanceMeters>
                        <Time>2021-01-25T03:53:46.430Z</Time>
                    </Trackpoint>
                    <Trackpoint>
                        <DistanceMeters>71.66719818115234</DistanceMeters>
                        <Time>2021-01-25T03:54:18.699Z</Time>
                    </Trackpoint>
                    <Trackpoint>
                        <DistanceMeters>101.21729850769043</DistanceMeters>
                        <Time>2021-01-25T03:55:17.328Z</Time>
                    </Trackpoint>
                </Track>
                <DistanceMeters>101.21729850769043</DistanceMeters>
                <TotalTimeSeconds>118.782953444</TotalTimeSeconds>
                <Calories>7.688882827758789</Calories>
                <Intensity>Active</Intensity>
                <TriggerMethod>Manual</TriggerMethod>
            </Lap>
        </Activity>
    </Activities>
    <Author xsi:type="Application_t">
        <Name>Google Fit</Name>
        <Build>
            <Version>
                <VersionMajor>0</VersionMajor>
                <VersionMinor>0</VersionMinor>
                <BuildMajor>0</BuildMajor>
                <BuildMinor>0</BuildMinor>
            </Version>
        </Build>
        <LangID>en</LangID>
        <PartNumber>000-00000-00</PartNumber>
    </Author>
</TrainingCenterDatabase>
