<?xml version="1.0" encoding="UTF-8"?>
<TrainingCenterDatabase
    xmlns="http://www.garmin.com/xmlschemas/TrainingCenterDatabase/v2"
    xmlns:ns2="http://www.garmin.com/xmlschemas/UserProfile/v2"
    xmlns:ns3="http://www.garmin.com/xmlschemas/ActivityExtension/v2"
    xmlns:ns4="http://www.garmin.com/xmlschemas/ProfileExtension/v1"
    xmlns:ns5="http://www.garmin.com/xmlschemas/ActivityGoals/v1"
    xmlns:xsi="http://www.w3.org/2001/XMLSchema-instance" xsi:schemaLocation="http://www.garmin.com/xmlschemas/TrainingCenterDatabase/v2 http://www.garmin.com/xmlschemas/TrainingCenterDatabasev2.xsd">
    <Activities>
        <Activity Sport="Walking">
            <Id>2021-08-30T06:03:40.814Z</Id>
            <Lap StartTime="2021-08-30T06:03:40.814Z">
                <Track>
                    <Trackpoint>
                        <DistanceMeters>0.0</DistanceMeters>
                        <Time>2021-08-30T06:03:40.814Z</Time>
                    </Trackpoint>
                    <Trackpoint>
                        <DistanceMeters>47.62994384765625</DistanceMeters>
                        <Time>2021-08-30T06:04:47.767Z</Time>
                    </Trackpoint>
                    <Trackpoint>
                        <DistanceMeters>47.62994384765625</DistanceMeters>
                        <Time>2021-08-30T06:05:49.254Z</Time>
                    </Trackpoint>
                    <Trackpoint>
                        <DistanceMeters>107.00425720214844</DistanceMeters>
                        <Time>2021-08-30T06:06:56.854Z</Time>
                    </Trackpoint>
                    <Trackpoint>
                        <DistanceMeters>144.19476318359375</DistanceMeters>
                        <Time>2021-08-30T06:07:57.494Z</Time>
                    </Trackpoint>
                    <Trackpoint>
                        <DistanceMeters>197.04442596435547</DistanceMeters>
                        <Time>2021-08-30T06:08:56.134Z</Time>
                    </Trackpoint>
                    <Trackpoint>
                        <DistanceMeters>235.53985977172852</DistanceMeters>
                        <Time>2021-08-30T06:09:57.054Z</Time>
                    </Trackpoint>
                    <Trackpoint>
                        <DistanceMeters>285.7796630859375</DistanceMeters>
                        <Time>2021-08-30T06:11:01.514Z</Time>
                    </Trackpoint>
                    <Trackpoint>
                        <DistanceMeters>302.09128761291504</DistanceMeters>
                        <Time>2021-08-30T06:11:23.254Z</Time>
                    </Trackpoint>
                    <Trackpoint>
                        <DistanceMeters>326.5814037322998</DistanceMeters>
                        <Time>2021-08-30T06:11:48.754Z</Time>
                    </Trackpoint>
                    <Trackpoint>
                        <DistanceMeters>340.9356336593628</DistanceMeters>
                        <Time>2021-08-30T06:12:32.974Z</Time>
                    </Trackpoint>
                    <Trackpoint>
                        <DistanceMeters>344.85042357444763</DistanceMeters>
                        <Time>2021-08-30T06:12:38.534Z</Time>
                    </Trackpoint>
                    <Trackpoint>
                        <DistanceMeters>354.637398481369</DistanceMeters>
                        <Time>2021-08-30T06:14:14.221Z</Time>
                    </Trackpoint>
                </Track>
                <DistanceMeters>354.637398481369</DistanceMeters>
                <TotalTimeSeconds>633.406614475</TotalTimeSeconds>
                <Calories>56.8027458190918</Calories>
                <Intensity>Active</Intensity>
                <TriggerMethod>Manual</TriggerMethod>
            </Lap>
        </Activity>
        <Activity Sport="Walking">
            <Id>2021-08-30T06:17:46.134Z</Id>
            <Lap StartTime="2021-08-30T06:17:46.134Z">
                <Track>
                    <Trackpoint>
                        <DistanceMeters>0.0</DistanceMeters>
                        <Time>2021-08-30T06:17:46.134Z</Time>
                    </Trackpoint>
                    <Trackpoint>
                        <DistanceMeters>34.58064270019531</DistanceMeters>
                        <Time>2021-08-30T06:17:51.738Z</Time>
                    </Trackpoint>
                    <Trackpoint>
                        <DistanceMeters>34.58064270019531</DistanceMeters>
                        <Time>2021-08-30T06:18:46.574Z</Time>
                    </Trackpoint>
                    <Trackpoint>
                        <DistanceMeters>81.55812072753906</DistanceMeters>
                        <Time>2021-08-30T06:19:46.774Z</Time>
                    </Trackpoint>
                    <Trackpoint>
                        <DistanceMeters>128.5355987548828</DistanceMeters>
                        <Time>2021-08-30T06:20:46.134Z</Time>
                    </Trackpoint>
                    <Trackpoint>
                        <DistanceMeters>163.11624145507812</DistanceMeters>
                        <Time>2021-08-30T06:21:40.474Z</Time>
                    </Trackpoint>
                </Track>
                <DistanceMeters>163.11624145507812</DistanceMeters>
                <TotalTimeSeconds>234.340002943</TotalTimeSeconds>
                <Calories>20.78748321533203</Calories>
                <Intensity>Active</Intensity>
                <TriggerMethod>Manual</TriggerMethod>
            </Lap>
        </Activity>
    </Activities>
    <Author xsi:type="Application_t">
        <Name>Google Fit</Name>
        <Build>
            <Version>
                <VersionMajor>0</VersionMajor>
                <VersionMinor>0</VersionMinor>
                <BuildMajor>0</BuildMajor>
                <BuildMinor>0</BuildMinor>
            </Version>
        </Build>
        <LangID>en</LangID>
        <PartNumber>000-00000-00</PartNumber>
    </Author>
</TrainingCenterDatabase>
