<?xml version="1.0" encoding="UTF-8"?>
<TrainingCenterDatabase
    xmlns="http://www.garmin.com/xmlschemas/TrainingCenterDatabase/v2"
    xmlns:ns2="http://www.garmin.com/xmlschemas/UserProfile/v2"
    xmlns:ns3="http://www.garmin.com/xmlschemas/ActivityExtension/v2"
    xmlns:ns4="http://www.garmin.com/xmlschemas/ProfileExtension/v1"
    xmlns:ns5="http://www.garmin.com/xmlschemas/ActivityGoals/v1"
    xmlns:xsi="http://www.w3.org/2001/XMLSchema-instance" xsi:schemaLocation="http://www.garmin.com/xmlschemas/TrainingCenterDatabase/v2 http://www.garmin.com/xmlschemas/TrainingCenterDatabasev2.xsd">
    <Activities>
        <Activity Sport="Biking">
            <Id>2021-06-19T13:54:27.495Z</Id>
            <Lap StartTime="2021-06-19T13:54:27.495Z">
                <Track>
                    <Trackpoint>
                        <DistanceMeters>0.0</DistanceMeters>
                        <Time>2021-06-19T13:54:27.495Z</Time>
                    </Trackpoint>
                    <Trackpoint>
                        <DistanceMeters>22.13493537902832</DistanceMeters>
                        <Time>2021-06-19T13:54:59.218Z</Time>
                        <Position>
                            <LatitudeDegrees>19.835264205932617</LatitudeDegrees>
                            <LongitudeDegrees>75.29195404052734</LongitudeDegrees>
                        </Position>
                        <AltitudeMeters>471.9705810546875</AltitudeMeters>
                    </Trackpoint>
                    <Trackpoint>
                        <DistanceMeters>516.1348133087158</DistanceMeters>
                        <Time>2021-06-19T13:57:01.567Z</Time>
                        <Position>
                            <LatitudeDegrees>19.83542823791504</LatitudeDegrees>
                            <LongitudeDegrees>75.29667663574219</LongitudeDegrees>
                        </Position>
                        <AltitudeMeters>472.2245788574219</AltitudeMeters>
                    </Trackpoint>
                    <Trackpoint>
                        <DistanceMeters>1592.6007556915283</DistanceMeters>
                        <Time>2021-06-19T14:00:37.934Z</Time>
                        <Position>
                            <LatitudeDegrees>19.83957290649414</LatitudeDegrees>
                            <LongitudeDegrees>75.30598449707031</LongitudeDegrees>
                        </Position>
                        <AltitudeMeters>472.5861511230469</AltitudeMeters>
                    </Trackpoint>
                    <Trackpoint>
                        <DistanceMeters>2007.689073562622</DistanceMeters>
                        <Time>2021-06-19T14:01:20.382Z</Time>
                        <Position>
                            <LatitudeDegrees>19.83894157409668</LatitudeDegrees>
                            <LongitudeDegrees>75.30989837646484</LongitudeDegrees>
                        </Position>
                        <AltitudeMeters>472.6244812011719</AltitudeMeters>
                    </Trackpoint>
                    <Trackpoint>
                        <DistanceMeters>2423.6494007110596</DistanceMeters>
                        <Time>2021-06-19T14:02:34.450Z</Time>
                        <Position>
                            <LatitudeDegrees>19.841773986816406</LatitudeDegrees>
                            <LongitudeDegrees>75.3125</LongitudeDegrees>
                        </Position>
                        <AltitudeMeters>496.1888732910156</AltitudeMeters>
                    </Trackpoint>
                    <Trackpoint>
                        <DistanceMeters>3035.0206775665283</DistanceMeters>
                        <Time>2021-06-19T14:09:03.819Z</Time>
                        <Position>
                            <LatitudeDegrees>19.847257614135742</LatitudeDegrees>
                            <LongitudeDegrees>75.31297302246094</LongitudeDegrees>
                        </Position>
                        <AltitudeMeters>496.1888732910156</AltitudeMeters>
                    </Trackpoint>
                    <Trackpoint>
                        <DistanceMeters>3035.0206775665283</DistanceMeters>
                        <Time>2021-06-19T14:12:11.424Z</Time>
                    </Trackpoint>
                </Track>
                <DistanceMeters>3035.0206775665283</DistanceMeters>
                <TotalTimeSeconds>1063.929</TotalTimeSeconds>
                <Calories>86.29646301269531</Calories>
                <Intensity>Active</Intensity>
                <TriggerMethod>Manual</TriggerMethod>
            </Lap>
        </Activity>
    </Activities>
    <Author xsi:type="Application_t">
        <Name>Google Fit</Name>
        <Build>
            <Version>
                <VersionMajor>0</VersionMajor>
                <VersionMinor>0</VersionMinor>
                <BuildMajor>0</BuildMajor>
                <BuildMinor>0</BuildMinor>
            </Version>
        </Build>
        <LangID>en</LangID>
        <PartNumber>000-00000-00</PartNumber>
    </Author>
</TrainingCenterDatabase>
