<?xml version="1.0" encoding="UTF-8"?>
<TrainingCenterDatabase
    xmlns="http://www.garmin.com/xmlschemas/TrainingCenterDatabase/v2"
    xmlns:ns2="http://www.garmin.com/xmlschemas/UserProfile/v2"
    xmlns:ns3="http://www.garmin.com/xmlschemas/ActivityExtension/v2"
    xmlns:ns4="http://www.garmin.com/xmlschemas/ProfileExtension/v1"
    xmlns:ns5="http://www.garmin.com/xmlschemas/ActivityGoals/v1"
    xmlns:xsi="http://www.w3.org/2001/XMLSchema-instance" xsi:schemaLocation="http://www.garmin.com/xmlschemas/TrainingCenterDatabase/v2 http://www.garmin.com/xmlschemas/TrainingCenterDatabasev2.xsd">
    <Activities>
        <Activity Sport="Walking">
            <Id>2021-02-17T03:06:05.716Z</Id>
            <Lap StartTime="2021-02-17T03:06:05.716Z">
                <Track>
                    <Trackpoint>
                        <DistanceMeters>0.0</DistanceMeters>
                        <Time>2021-02-17T03:06:05.716Z</Time>
                    </Trackpoint>
                    <Trackpoint>
                        <DistanceMeters>0.0</DistanceMeters>
                        <Time>2021-02-17T03:43:50.897Z</Time>
                    </Trackpoint>
                    <Trackpoint>
                        <DistanceMeters>41.9917106628418</DistanceMeters>
                        <Time>2021-02-17T03:44:23.125Z</Time>
                        <Position>
                            <LatitudeDegrees>18.591772079467773</LatitudeDegrees>
                            <LongitudeDegrees>73.79637145996094</LongitudeDegrees>
                        </Position>
                        <AltitudeMeters>494.05999755859375</AltitudeMeters>
                    </Trackpoint>
                    <Trackpoint>
                        <DistanceMeters>86.06830215454102</DistanceMeters>
                        <Time>2021-02-17T03:45:23.480Z</Time>
                    </Trackpoint>
                </Track>
                <DistanceMeters>86.06830215454102</DistanceMeters>
                <TotalTimeSeconds>2357.764</TotalTimeSeconds>
                <Calories>55.87581157684326</Calories>
                <Intensity>Active</Intensity>
                <TriggerMethod>Manual</TriggerMethod>
            </Lap>
        </Activity>
        <Activity Sport="Walking">
            <Id>2021-02-17T03:45:23.480Z</Id>
            <Lap StartTime="2021-02-17T03:45:23.480Z">
                <Track>
                    <Trackpoint>
                        <DistanceMeters>0.0</DistanceMeters>
                        <Time>2021-02-17T03:45:23.480Z</Time>
                    </Trackpoint>
                    <Trackpoint>
                        <DistanceMeters>132.6978759765625</DistanceMeters>
                        <Time>2021-02-17T03:48:25.186Z</Time>
                        <Position>
                            <LatitudeDegrees>18.59334373474121</LatitudeDegrees>
                            <LongitudeDegrees>73.796630859375</LongitudeDegrees>
                        </Position>
                        <AltitudeMeters>493.3600158691406</AltitudeMeters>
                    </Trackpoint>
                    <Trackpoint>
                        <DistanceMeters>234.9382553100586</DistanceMeters>
                        <Time>2021-02-17T03:50:27.172Z</Time>
                        <Position>
                            <LatitudeDegrees>18.593215942382812</LatitudeDegrees>
                            <LongitudeDegrees>73.79759216308594</LongitudeDegrees>
                        </Position>
                        <AltitudeMeters>493.3600158691406</AltitudeMeters>
                    </Trackpoint>
                    <Trackpoint>
                        <DistanceMeters>376.43444061279297</DistanceMeters>
                        <Time>2021-02-17T03:52:33.656Z</Time>
                        <Position>
                            <LatitudeDegrees>18.593074798583984</LatitudeDegrees>
                            <LongitudeDegrees>73.7989273071289</LongitudeDegrees>
                        </Position>
                        <AltitudeMeters>493.55999755859375</AltitudeMeters>
                    </Trackpoint>
                    <Trackpoint>
                        <DistanceMeters>605.402214050293</DistanceMeters>
                        <Time>2021-02-17T03:54:34.664Z</Time>
                        <Position>
                            <LatitudeDegrees>18.59273338317871</LatitudeDegrees>
                            <LongitudeDegrees>73.80107116699219</LongitudeDegrees>
                        </Position>
                        <AltitudeMeters>493.4599914550781</AltitudeMeters>
                    </Trackpoint>
                    <Trackpoint>
                        <DistanceMeters>706.8594970703125</DistanceMeters>
                        <Time>2021-02-17T03:56:35.692Z</Time>
                        <Position>
                            <LatitudeDegrees>18.593093872070312</LatitudeDegrees>
                            <LongitudeDegrees>73.80195617675781</LongitudeDegrees>
                        </Position>
                        <AltitudeMeters>493.260009765625</AltitudeMeters>
                    </Trackpoint>
                    <Trackpoint>
                        <DistanceMeters>890.2200317382812</DistanceMeters>
                        <Time>2021-02-17T03:58:36.721Z</Time>
                        <Position>
                            <LatitudeDegrees>18.5947265625</LatitudeDegrees>
                            <LongitudeDegrees>73.80220794677734</LongitudeDegrees>
                        </Position>
                        <AltitudeMeters>492.260009765625</AltitudeMeters>
                    </Trackpoint>
                    <Trackpoint>
                        <DistanceMeters>1016.3712158203125</DistanceMeters>
                        <Time>2021-02-17T04:00:42.399Z</Time>
                        <Position>
                            <LatitudeDegrees>18.595352172851562</LatitudeDegrees>
                            <LongitudeDegrees>73.80320739746094</LongitudeDegrees>
                        </Position>
                        <AltitudeMeters>490.6600036621094</AltitudeMeters>
                    </Trackpoint>
                    <Trackpoint>
                        <DistanceMeters>1022.6215023994446</DistanceMeters>
                        <Time>2021-02-17T04:00:46.697Z</Time>
                    </Trackpoint>
                    <Trackpoint>
                        <DistanceMeters>1037.0746941566467</DistanceMeters>
                        <Time>2021-02-17T04:00:57.359Z</Time>
                    </Trackpoint>
                    <Trackpoint>
                        <DistanceMeters>1074.8713326454163</DistanceMeters>
                        <Time>2021-02-17T04:02:00.139Z</Time>
                    </Trackpoint>
                </Track>
                <DistanceMeters>1074.8713326454163</DistanceMeters>
                <TotalTimeSeconds>996.659537515</TotalTimeSeconds>
                <Calories>89.15966033935547</Calories>
                <Intensity>Active</Intensity>
                <TriggerMethod>Manual</TriggerMethod>
            </Lap>
        </Activity>
    </Activities>
    <Author xsi:type="Application_t">
        <Name>Google Fit</Name>
        <Build>
            <Version>
                <VersionMajor>0</VersionMajor>
                <VersionMinor>0</VersionMinor>
                <BuildMajor>0</BuildMajor>
                <BuildMinor>0</BuildMinor>
            </Version>
        </Build>
        <LangID>en</LangID>
        <PartNumber>000-00000-00</PartNumber>
    </Author>
</TrainingCenterDatabase>
