<?xml version="1.0" encoding="UTF-8"?>
<TrainingCenterDatabase
    xmlns="http://www.garmin.com/xmlschemas/TrainingCenterDatabase/v2"
    xmlns:ns2="http://www.garmin.com/xmlschemas/UserProfile/v2"
    xmlns:ns3="http://www.garmin.com/xmlschemas/ActivityExtension/v2"
    xmlns:ns4="http://www.garmin.com/xmlschemas/ProfileExtension/v1"
    xmlns:ns5="http://www.garmin.com/xmlschemas/ActivityGoals/v1"
    xmlns:xsi="http://www.w3.org/2001/XMLSchema-instance" xsi:schemaLocation="http://www.garmin.com/xmlschemas/TrainingCenterDatabase/v2 http://www.garmin.com/xmlschemas/TrainingCenterDatabasev2.xsd">
    <Activities>
        <Activity Sport="Biking">
            <Id>2021-06-29T14:23:37.769Z</Id>
            <Lap StartTime="2021-06-29T14:23:37.769Z">
                <Track>
                    <Trackpoint>
                        <DistanceMeters>0.0</DistanceMeters>
                        <Time>2021-06-29T14:23:37.769Z</Time>
                    </Trackpoint>
                    <Trackpoint>
                        <DistanceMeters>0.0</DistanceMeters>
                        <Time>2021-06-29T14:24:18.261Z</Time>
                        <Position>
                            <LatitudeDegrees>19.835569381713867</LatitudeDegrees>
                            <LongitudeDegrees>75.29182434082031</LongitudeDegrees>
                        </Position>
                        <AltitudeMeters>477.0720520019531</AltitudeMeters>
                    </Trackpoint>
                    <Trackpoint>
                        <DistanceMeters>717.4461059570312</DistanceMeters>
                        <Time>2021-06-29T14:26:20.811Z</Time>
                        <Position>
                            <LatitudeDegrees>19.834732055664062</LatitudeDegrees>
                            <LongitudeDegrees>75.29862976074219</LongitudeDegrees>
                        </Position>
                        <AltitudeMeters>482.28656005859375</AltitudeMeters>
                    </Trackpoint>
                    <Trackpoint>
                        <DistanceMeters>1982.8644409179688</DistanceMeters>
                        <Time>2021-06-29T14:30:21.748Z</Time>
                        <Position>
                            <LatitudeDegrees>19.838911056518555</LatitudeDegrees>
                            <LongitudeDegrees>75.30989074707031</LongitudeDegrees>
                        </Position>
                        <AltitudeMeters>493.4052429199219</AltitudeMeters>
                    </Trackpoint>
                    <Trackpoint>
                        <DistanceMeters>3007.5575561523438</DistanceMeters>
                        <Time>2021-06-29T14:34:26.189Z</Time>
                        <Position>
                            <LatitudeDegrees>19.848051071166992</LatitudeDegrees>
                            <LongitudeDegrees>75.30859375</LongitudeDegrees>
                        </Position>
                        <AltitudeMeters>493.9504699707031</AltitudeMeters>
                    </Trackpoint>
                    <Trackpoint>
                        <DistanceMeters>3482.302001953125</DistanceMeters>
                        <Time>2021-06-29T14:36:27.916Z</Time>
                        <Position>
                            <LatitudeDegrees>19.847909927368164</LatitudeDegrees>
                            <LongitudeDegrees>75.3040542602539</LongitudeDegrees>
                        </Position>
                        <AltitudeMeters>480.64007568359375</AltitudeMeters>
                    </Trackpoint>
                    <Trackpoint>
                        <DistanceMeters>3482.302001953125</DistanceMeters>
                        <Time>2021-06-29T14:38:08.553Z</Time>
                    </Trackpoint>
                </Track>
                <DistanceMeters>3482.302001953125</DistanceMeters>
                <TotalTimeSeconds>870.784</TotalTimeSeconds>
                <Calories>96.75376892089844</Calories>
                <Intensity>Active</Intensity>
                <TriggerMethod>Manual</TriggerMethod>
            </Lap>
        </Activity>
    </Activities>
    <Author xsi:type="Application_t">
        <Name>Google Fit</Name>
        <Build>
            <Version>
                <VersionMajor>0</VersionMajor>
                <VersionMinor>0</VersionMinor>
                <BuildMajor>0</BuildMajor>
                <BuildMinor>0</BuildMinor>
            </Version>
        </Build>
        <LangID>en</LangID>
        <PartNumber>000-00000-00</PartNumber>
    </Author>
</TrainingCenterDatabase>
