<?xml version="1.0" encoding="UTF-8"?>
<TrainingCenterDatabase
    xmlns="http://www.garmin.com/xmlschemas/TrainingCenterDatabase/v2"
    xmlns:ns2="http://www.garmin.com/xmlschemas/UserProfile/v2"
    xmlns:ns3="http://www.garmin.com/xmlschemas/ActivityExtension/v2"
    xmlns:ns4="http://www.garmin.com/xmlschemas/ProfileExtension/v1"
    xmlns:ns5="http://www.garmin.com/xmlschemas/ActivityGoals/v1"
    xmlns:xsi="http://www.w3.org/2001/XMLSchema-instance" xsi:schemaLocation="http://www.garmin.com/xmlschemas/TrainingCenterDatabase/v2 http://www.garmin.com/xmlschemas/TrainingCenterDatabasev2.xsd">
    <Activities>
        <Activity Sport="Biking">
            <Id>2021-05-27T11:41:46.972Z</Id>
            <Lap StartTime="2021-05-27T11:41:46.972Z">
                <Track>
                    <Trackpoint>
                        <DistanceMeters>0.0</DistanceMeters>
                        <Time>2021-05-27T11:41:46.972Z</Time>
                    </Trackpoint>
                    <Trackpoint>
                        <DistanceMeters>0.0</DistanceMeters>
                        <Time>2021-05-27T11:41:52.121Z</Time>
                        <Position>
                            <LatitudeDegrees>18.591529846191406</LatitudeDegrees>
                            <LongitudeDegrees>73.79605865478516</LongitudeDegrees>
                        </Position>
                        <AltitudeMeters>492.1605224609375</AltitudeMeters>
                    </Trackpoint>
                    <Trackpoint>
                        <DistanceMeters>15.919565200805664</DistanceMeters>
                        <Time>2021-05-27T11:41:52.372Z</Time>
                        <Position>
                            <LatitudeDegrees>18.5915470123291</LatitudeDegrees>
                            <LongitudeDegrees>73.79619598388672</LongitudeDegrees>
                        </Position>
                        <AltitudeMeters>492.1694030761719</AltitudeMeters>
                    </Trackpoint>
                    <Trackpoint>
                        <DistanceMeters>15.919565200805664</DistanceMeters>
                        <Time>2021-05-27T11:41:58.199Z</Time>
                        <Position>
                            <LatitudeDegrees>18.591556549072266</LatitudeDegrees>
                            <LongitudeDegrees>73.79620361328125</LongitudeDegrees>
                        </Position>
                        <AltitudeMeters>492.110595703125</AltitudeMeters>
                    </Trackpoint>
                    <Trackpoint>
                        <DistanceMeters>26.400378227233887</DistanceMeters>
                        <Time>2021-05-27T11:42:24.220Z</Time>
                        <Position>
                            <LatitudeDegrees>18.591564178466797</LatitudeDegrees>
                            <LongitudeDegrees>73.79630279541016</LongitudeDegrees>
                        </Position>
                        <AltitudeMeters>491.96710205078125</AltitudeMeters>
                    </Trackpoint>
                    <Trackpoint>
                        <DistanceMeters>282.97868633270264</DistanceMeters>
                        <Time>2021-05-27T11:44:23.803Z</Time>
                        <Position>
                            <LatitudeDegrees>18.5935001373291</LatitudeDegrees>
                            <LongitudeDegrees>73.79497528076172</LongitudeDegrees>
                        </Position>
                        <AltitudeMeters>492.1679382324219</AltitudeMeters>
                    </Trackpoint>
                    <Trackpoint>
                        <DistanceMeters>681.9136228561401</DistanceMeters>
                        <Time>2021-05-27T11:46:29.395Z</Time>
                        <Position>
                            <LatitudeDegrees>18.594120025634766</LatitudeDegrees>
                            <LongitudeDegrees>73.79124450683594</LongitudeDegrees>
                        </Position>
                        <AltitudeMeters>491.7281799316406</AltitudeMeters>
                    </Trackpoint>
                    <Trackpoint>
                        <DistanceMeters>1026.4459104537964</DistanceMeters>
                        <Time>2021-05-27T11:48:30.425Z</Time>
                        <Position>
                            <LatitudeDegrees>18.59575843811035</LatitudeDegrees>
                            <LongitudeDegrees>73.78846740722656</LongitudeDegrees>
                        </Position>
                        <AltitudeMeters>491.640625</AltitudeMeters>
                    </Trackpoint>
                    <Trackpoint>
                        <DistanceMeters>1349.8294248580933</DistanceMeters>
                        <Time>2021-05-27T11:50:31.542Z</Time>
                        <Position>
                            <LatitudeDegrees>18.597896575927734</LatitudeDegrees>
                            <LongitudeDegrees>73.7905502319336</LongitudeDegrees>
                        </Position>
                        <AltitudeMeters>491.7203369140625</AltitudeMeters>
                    </Trackpoint>
                    <Trackpoint>
                        <DistanceMeters>1385.848292350769</DistanceMeters>
                        <Time>2021-05-27T11:52:32.380Z</Time>
                        <Position>
                            <LatitudeDegrees>18.59766960144043</LatitudeDegrees>
                            <LongitudeDegrees>73.7903060913086</LongitudeDegrees>
                        </Position>
                        <AltitudeMeters>491.5974426269531</AltitudeMeters>
                    </Trackpoint>
                    <Trackpoint>
                        <DistanceMeters>1416.10578250885</DistanceMeters>
                        <Time>2021-05-27T11:53:05.470Z</Time>
                    </Trackpoint>
                </Track>
                <DistanceMeters>1416.10578250885</DistanceMeters>
                <TotalTimeSeconds>678.498</TotalTimeSeconds>
                <Calories>55.033721923828125</Calories>
                <Intensity>Active</Intensity>
                <TriggerMethod>Manual</TriggerMethod>
            </Lap>
        </Activity>
        <Activity Sport="Walking">
            <Id>2021-05-27T11:53:05.470Z</Id>
            <Lap StartTime="2021-05-27T11:53:05.470Z">
                <Track>
                    <Trackpoint>
                        <DistanceMeters>0.0</DistanceMeters>
                        <Time>2021-05-27T11:53:05.470Z</Time>
                    </Trackpoint>
                    <Trackpoint>
                        <DistanceMeters>94.28797149658203</DistanceMeters>
                        <Time>2021-05-27T11:54:33.615Z</Time>
                        <Position>
                            <LatitudeDegrees>18.597946166992188</LatitudeDegrees>
                            <LongitudeDegrees>73.79075622558594</LongitudeDegrees>
                        </Position>
                        <AltitudeMeters>491.7043762207031</AltitudeMeters>
                    </Trackpoint>
                    <Trackpoint>
                        <DistanceMeters>94.28797149658203</DistanceMeters>
                        <Time>2021-05-27T11:56:34.742Z</Time>
                        <Position>
                            <LatitudeDegrees>18.597976684570312</LatitudeDegrees>
                            <LongitudeDegrees>73.79090881347656</LongitudeDegrees>
                        </Position>
                        <AltitudeMeters>491.6023864746094</AltitudeMeters>
                    </Trackpoint>
                    <Trackpoint>
                        <DistanceMeters>94.28797149658203</DistanceMeters>
                        <Time>2021-05-27T11:56:51.412Z</Time>
                        <Position>
                            <LatitudeDegrees>18.59798240661621</LatitudeDegrees>
                            <LongitudeDegrees>73.79095458984375</LongitudeDegrees>
                        </Position>
                        <AltitudeMeters>491.7148742675781</AltitudeMeters>
                    </Trackpoint>
                    <Trackpoint>
                        <DistanceMeters>110.17266082763672</DistanceMeters>
                        <Time>2021-05-27T11:57:32.351Z</Time>
                    </Trackpoint>
                </Track>
                <DistanceMeters>110.17266082763672</DistanceMeters>
                <TotalTimeSeconds>266.881</TotalTimeSeconds>
                <Calories>17.581071853637695</Calories>
                <Intensity>Active</Intensity>
                <TriggerMethod>Manual</TriggerMethod>
            </Lap>
        </Activity>
        <Activity Sport="Walking">
            <Id>2021-05-27T11:57:32.351Z</Id>
            <Lap StartTime="2021-05-27T11:57:32.351Z">
                <Track>
                    <Trackpoint>
                        <DistanceMeters>0.0</DistanceMeters>
                        <Time>2021-05-27T11:57:32.351Z</Time>
                    </Trackpoint>
                    <Trackpoint>
                        <DistanceMeters>33.8172607421875</DistanceMeters>
                        <Time>2021-05-27T11:57:33.623Z</Time>
                        <Position>
                            <LatitudeDegrees>18.597930908203125</LatitudeDegrees>
                            <LongitudeDegrees>73.7907943725586</LongitudeDegrees>
                        </Position>
                        <AltitudeMeters>488.5733642578125</AltitudeMeters>
                    </Trackpoint>
                    <Trackpoint>
                        <DistanceMeters>33.8172607421875</DistanceMeters>
                        <Time>2021-05-27T11:57:36.207Z</Time>
                        <Position>
                            <LatitudeDegrees>18.597923278808594</LatitudeDegrees>
                            <LongitudeDegrees>73.7907943725586</LongitudeDegrees>
                        </Position>
                        <AltitudeMeters>501.5679626464844</AltitudeMeters>
                    </Trackpoint>
                    <Trackpoint>
                        <DistanceMeters>33.8172607421875</DistanceMeters>
                        <Time>2021-05-27T11:57:47.265Z</Time>
                        <Position>
                            <LatitudeDegrees>18.597841262817383</LatitudeDegrees>
                            <LongitudeDegrees>73.7905502319336</LongitudeDegrees>
                        </Position>
                        <AltitudeMeters>500.2921447753906</AltitudeMeters>
                    </Trackpoint>
                    <Trackpoint>
                        <DistanceMeters>53.06241035461426</DistanceMeters>
                        <Time>2021-05-27T11:58:07.761Z</Time>
                    </Trackpoint>
                </Track>
                <DistanceMeters>53.06241035461426</DistanceMeters>
                <TotalTimeSeconds>35.41</TotalTimeSeconds>
                <Calories>2.7285373210906982</Calories>
                <Intensity>Active</Intensity>
                <TriggerMethod>Manual</TriggerMethod>
            </Lap>
        </Activity>
        <Activity Sport="Biking">
            <Id>2021-05-27T11:58:07.761Z</Id>
            <Lap StartTime="2021-05-27T11:58:07.761Z">
                <Track>
                    <Trackpoint>
                        <DistanceMeters>0.0</DistanceMeters>
                        <Time>2021-05-27T11:58:07.761Z</Time>
                    </Trackpoint>
                    <Trackpoint>
                        <DistanceMeters>290.1921081542969</DistanceMeters>
                        <Time>2021-05-27T11:59:48.383Z</Time>
                        <Position>
                            <LatitudeDegrees>18.596467971801758</LatitudeDegrees>
                            <LongitudeDegrees>73.79310607910156</LongitudeDegrees>
                        </Position>
                        <AltitudeMeters>500.65472412109375</AltitudeMeters>
                    </Trackpoint>
                    <Trackpoint>
                        <DistanceMeters>738.7978210449219</DistanceMeters>
                        <Time>2021-05-27T12:01:49.486Z</Time>
                        <Position>
                            <LatitudeDegrees>18.59811019897461</LatitudeDegrees>
                            <LongitudeDegrees>73.7969970703125</LongitudeDegrees>
                        </Position>
                        <AltitudeMeters>500.18609619140625</AltitudeMeters>
                    </Trackpoint>
                    <Trackpoint>
                        <DistanceMeters>1130.6263122558594</DistanceMeters>
                        <Time>2021-05-27T12:03:50.779Z</Time>
                        <Position>
                            <LatitudeDegrees>18.597681045532227</LatitudeDegrees>
                            <LongitudeDegrees>73.80068969726562</LongitudeDegrees>
                        </Position>
                        <AltitudeMeters>500.0286560058594</AltitudeMeters>
                    </Trackpoint>
                    <Trackpoint>
                        <DistanceMeters>1526.2045593261719</DistanceMeters>
                        <Time>2021-05-27T12:05:51.555Z</Time>
                        <Position>
                            <LatitudeDegrees>18.597070693969727</LatitudeDegrees>
                            <LongitudeDegrees>73.80438995361328</LongitudeDegrees>
                        </Position>
                        <AltitudeMeters>499.92108154296875</AltitudeMeters>
                    </Trackpoint>
                    <Trackpoint>
                        <DistanceMeters>1989.6028747558594</DistanceMeters>
                        <Time>2021-05-27T12:07:56.737Z</Time>
                        <Position>
                            <LatitudeDegrees>18.599292755126953</LatitudeDegrees>
                            <LongitudeDegrees>73.80811309814453</LongitudeDegrees>
                        </Position>
                        <AltitudeMeters>499.9452819824219</AltitudeMeters>
                    </Trackpoint>
                    <Trackpoint>
                        <DistanceMeters>2399.1031799316406</DistanceMeters>
                        <Time>2021-05-27T12:09:58.022Z</Time>
                        <Position>
                            <LatitudeDegrees>18.5976619720459</LatitudeDegrees>
                            <LongitudeDegrees>73.80462646484375</LongitudeDegrees>
                        </Position>
                        <AltitudeMeters>499.58148193359375</AltitudeMeters>
                    </Trackpoint>
                    <Trackpoint>
                        <DistanceMeters>3212.6536560058594</DistanceMeters>
                        <Time>2021-05-27T12:13:58.322Z</Time>
                        <Position>
                            <LatitudeDegrees>18.59817123413086</LatitudeDegrees>
                            <LongitudeDegrees>73.79692077636719</LongitudeDegrees>
                        </Position>
                        <AltitudeMeters>499.9849548339844</AltitudeMeters>
                    </Trackpoint>
                    <Trackpoint>
                        <DistanceMeters>3278.773536682129</DistanceMeters>
                        <Time>2021-05-27T12:14:19.359Z</Time>
                        <Position>
                            <LatitudeDegrees>18.59796142578125</LatitudeDegrees>
                            <LongitudeDegrees>73.7975082397461</LongitudeDegrees>
                        </Position>
                        <AltitudeMeters>500.0693359375</AltitudeMeters>
                    </Trackpoint>
                    <Trackpoint>
                        <DistanceMeters>3756.129066467285</DistanceMeters>
                        <Time>2021-05-27T12:16:20.534Z</Time>
                        <Position>
                            <LatitudeDegrees>18.596656799316406</LatitudeDegrees>
                            <LongitudeDegrees>73.7931900024414</LongitudeDegrees>
                        </Position>
                        <AltitudeMeters>500.4104309082031</AltitudeMeters>
                    </Trackpoint>
                    <Trackpoint>
                        <DistanceMeters>4199.07413482666</DistanceMeters>
                        <Time>2021-05-27T12:18:24.614Z</Time>
                        <Position>
                            <LatitudeDegrees>18.596540451049805</LatitudeDegrees>
                            <LongitudeDegrees>73.78898620605469</LongitudeDegrees>
                        </Position>
                        <AltitudeMeters>500.0549011230469</AltitudeMeters>
                    </Trackpoint>
                    <Trackpoint>
                        <DistanceMeters>4444.6740646362305</DistanceMeters>
                        <Time>2021-05-27T12:20:25.606Z</Time>
                        <Position>
                            <LatitudeDegrees>18.594432830810547</LatitudeDegrees>
                            <LongitudeDegrees>73.78968811035156</LongitudeDegrees>
                        </Position>
                        <AltitudeMeters>499.813720703125</AltitudeMeters>
                    </Trackpoint>
                    <Trackpoint>
                        <DistanceMeters>4991.692924499512</DistanceMeters>
                        <Time>2021-05-27T12:22:26.762Z</Time>
                        <Position>
                            <LatitudeDegrees>18.59348487854004</LatitudeDegrees>
                            <LongitudeDegrees>73.79478454589844</LongitudeDegrees>
                        </Position>
                        <AltitudeMeters>499.79962158203125</AltitudeMeters>
                    </Trackpoint>
                    <Trackpoint>
                        <DistanceMeters>5235.882438659668</DistanceMeters>
                        <Time>2021-05-27T12:24:27.824Z</Time>
                        <Position>
                            <LatitudeDegrees>18.591644287109375</LatitudeDegrees>
                            <LongitudeDegrees>73.79605102539062</LongitudeDegrees>
                        </Position>
                        <AltitudeMeters>499.70526123046875</AltitudeMeters>
                    </Trackpoint>
                    <Trackpoint>
                        <DistanceMeters>5235.882438659668</DistanceMeters>
                        <Time>2021-05-27T12:24:57.819Z</Time>
                    </Trackpoint>
                </Track>
                <DistanceMeters>5235.882438659668</DistanceMeters>
                <TotalTimeSeconds>1610.058</TotalTimeSeconds>
                <Calories>130.59359741210938</Calories>
                <Intensity>Active</Intensity>
                <TriggerMethod>Manual</TriggerMethod>
            </Lap>
        </Activity>
    </Activities>
    <Author xsi:type="Application_t">
        <Name>Google Fit</Name>
        <Build>
            <Version>
                <VersionMajor>0</VersionMajor>
                <VersionMinor>0</VersionMinor>
                <BuildMajor>0</BuildMajor>
                <BuildMinor>0</BuildMinor>
            </Version>
        </Build>
        <LangID>en</LangID>
        <PartNumber>000-00000-00</PartNumber>
    </Author>
</TrainingCenterDatabase>
