<?xml version="1.0" encoding="UTF-8"?>
<TrainingCenterDatabase
    xmlns="http://www.garmin.com/xmlschemas/TrainingCenterDatabase/v2"
    xmlns:ns2="http://www.garmin.com/xmlschemas/UserProfile/v2"
    xmlns:ns3="http://www.garmin.com/xmlschemas/ActivityExtension/v2"
    xmlns:ns4="http://www.garmin.com/xmlschemas/ProfileExtension/v1"
    xmlns:ns5="http://www.garmin.com/xmlschemas/ActivityGoals/v1"
    xmlns:xsi="http://www.w3.org/2001/XMLSchema-instance" xsi:schemaLocation="http://www.garmin.com/xmlschemas/TrainingCenterDatabase/v2 http://www.garmin.com/xmlschemas/TrainingCenterDatabasev2.xsd">
    <Activities>
        <Activity Sport="Walking">
            <Id>2021-02-28T04:39:02.626Z</Id>
            <Lap StartTime="2021-02-28T04:39:02.626Z">
                <Track>
                    <Trackpoint>
                        <DistanceMeters>0.0</DistanceMeters>
                        <Time>2021-02-28T04:39:02.626Z</Time>
                    </Trackpoint>
                    <Trackpoint>
                        <DistanceMeters>11.682598114013672</DistanceMeters>
                        <Time>2021-02-28T04:39:19.837Z</Time>
                    </Trackpoint>
                    <Trackpoint>
                        <DistanceMeters>11.682598114013672</DistanceMeters>
                        <Time>2021-02-28T04:39:20.736Z</Time>
                        <Position>
                            <LatitudeDegrees>18.594017028808594</LatitudeDegrees>
                            <LongitudeDegrees>73.79373931884766</LongitudeDegrees>
                        </Position>
                        <AltitudeMeters>493.5105895996094</AltitudeMeters>
                    </Trackpoint>
                    <Trackpoint>
                        <DistanceMeters>11.682598114013672</DistanceMeters>
                        <Time>2021-02-28T04:39:24.031Z</Time>
                    </Trackpoint>
                    <Trackpoint>
                        <DistanceMeters>50.16645050048828</DistanceMeters>
                        <Time>2021-02-28T04:39:45.655Z</Time>
                        <Position>
                            <LatitudeDegrees>18.594036102294922</LatitudeDegrees>
                            <LongitudeDegrees>73.79374694824219</LongitudeDegrees>
                        </Position>
                        <AltitudeMeters>493.6230163574219</AltitudeMeters>
                    </Trackpoint>
                    <Trackpoint>
                        <DistanceMeters>50.16645050048828</DistanceMeters>
                        <Time>2021-02-28T04:40:38.708Z</Time>
                    </Trackpoint>
                    <Trackpoint>
                        <DistanceMeters>104.18330001831055</DistanceMeters>
                        <Time>2021-02-28T04:41:22.312Z</Time>
                    </Trackpoint>
                    <Trackpoint>
                        <DistanceMeters>191.65495681762695</DistanceMeters>
                        <Time>2021-02-28T04:41:48.556Z</Time>
                        <Position>
                            <LatitudeDegrees>18.594173431396484</LatitudeDegrees>
                            <LongitudeDegrees>73.79383087158203</LongitudeDegrees>
                        </Position>
                        <AltitudeMeters>493.8600158691406</AltitudeMeters>
                    </Trackpoint>
                    <Trackpoint>
                        <DistanceMeters>191.65495681762695</DistanceMeters>
                        <Time>2021-02-28T04:42:23.340Z</Time>
                    </Trackpoint>
                    <Trackpoint>
                        <DistanceMeters>194.11749792099</DistanceMeters>
                        <Time>2021-02-28T04:42:24.772Z</Time>
                    </Trackpoint>
                    <Trackpoint>
                        <DistanceMeters>274.0042624473572</DistanceMeters>
                        <Time>2021-02-28T04:43:27.392Z</Time>
                    </Trackpoint>
                    <Trackpoint>
                        <DistanceMeters>310.4264807701111</DistanceMeters>
                        <Time>2021-02-28T04:43:49.592Z</Time>
                        <Position>
                            <LatitudeDegrees>18.594120025634766</LatitudeDegrees>
                            <LongitudeDegrees>73.79369354248047</LongitudeDegrees>
                        </Position>
                        <AltitudeMeters>493.9599914550781</AltitudeMeters>
                    </Trackpoint>
                    <Trackpoint>
                        <DistanceMeters>310.4264807701111</DistanceMeters>
                        <Time>2021-02-28T04:44:25.236Z</Time>
                    </Trackpoint>
                    <Trackpoint>
                        <DistanceMeters>318.67302083969116</DistanceMeters>
                        <Time>2021-02-28T04:44:40.821Z</Time>
                    </Trackpoint>
                    <Trackpoint>
                        <DistanceMeters>327.60677194595337</DistanceMeters>
                        <Time>2021-02-28T04:44:59.997Z</Time>
                    </Trackpoint>
                </Track>
                <DistanceMeters>327.60677194595337</DistanceMeters>
                <TotalTimeSeconds>357.37098281</TotalTimeSeconds>
                <Calories>31.113365173339844</Calories>
                <Intensity>Active</Intensity>
                <TriggerMethod>Manual</TriggerMethod>
            </Lap>
        </Activity>
        <Activity Sport="Running">
            <Id>2021-02-28T04:49:53.590Z</Id>
            <Lap StartTime="2021-02-28T04:49:53.590Z">
                <Track>
                    <Trackpoint>
                        <DistanceMeters>0.0</DistanceMeters>
                        <Time>2021-02-28T04:49:53.590Z</Time>
                    </Trackpoint>
                    <Trackpoint>
                        <DistanceMeters>1.6750801801681519</DistanceMeters>
                        <Time>2021-02-28T04:49:53.640Z</Time>
                        <Position>
                            <LatitudeDegrees>18.593992233276367</LatitudeDegrees>
                            <LongitudeDegrees>73.7938232421875</LongitudeDegrees>
                        </Position>
                        <AltitudeMeters>493.6600036621094</AltitudeMeters>
                    </Trackpoint>
                    <Trackpoint>
                        <DistanceMeters>1.6750801801681519</DistanceMeters>
                        <Time>2021-02-28T04:49:54.640Z</Time>
                    </Trackpoint>
                    <Trackpoint>
                        <DistanceMeters>78.72876822948456</DistanceMeters>
                        <Time>2021-02-28T04:51:02.510Z</Time>
                    </Trackpoint>
                    <Trackpoint>
                        <DistanceMeters>109.71775138378143</DistanceMeters>
                        <Time>2021-02-28T04:51:21.766Z</Time>
                    </Trackpoint>
                    <Trackpoint>
                        <DistanceMeters>150.75721442699432</DistanceMeters>
                        <Time>2021-02-28T04:51:54.308Z</Time>
                    </Trackpoint>
                    <Trackpoint>
                        <DistanceMeters>178.39603698253632</DistanceMeters>
                        <Time>2021-02-28T04:51:54.786Z</Time>
                        <Position>
                            <LatitudeDegrees>18.594087600708008</LatitudeDegrees>
                            <LongitudeDegrees>73.79373931884766</LongitudeDegrees>
                        </Position>
                        <AltitudeMeters>493.9599914550781</AltitudeMeters>
                    </Trackpoint>
                    <Trackpoint>
                        <DistanceMeters>178.39603698253632</DistanceMeters>
                        <Time>2021-02-28T04:52:19.531Z</Time>
                    </Trackpoint>
                    <Trackpoint>
                        <DistanceMeters>232.83614242076874</DistanceMeters>
                        <Time>2021-02-28T04:52:59.079Z</Time>
                        <Position>
                            <LatitudeDegrees>18.594070434570312</LatitudeDegrees>
                            <LongitudeDegrees>73.79376983642578</LongitudeDegrees>
                        </Position>
                        <AltitudeMeters>493.6600036621094</AltitudeMeters>
                    </Trackpoint>
                    <Trackpoint>
                        <DistanceMeters>232.83614242076874</DistanceMeters>
                        <Time>2021-02-28T04:53:09.180Z</Time>
                    </Trackpoint>
                    <Trackpoint>
                        <DistanceMeters>247.9118641614914</DistanceMeters>
                        <Time>2021-02-28T04:53:19.279Z</Time>
                        <Position>
                            <LatitudeDegrees>18.59394073486328</LatitudeDegrees>
                            <LongitudeDegrees>73.79367065429688</LongitudeDegrees>
                        </Position>
                        <AltitudeMeters>493.87506103515625</AltitudeMeters>
                    </Trackpoint>
                    <Trackpoint>
                        <DistanceMeters>247.9118641614914</DistanceMeters>
                        <Time>2021-02-28T04:53:20.001Z</Time>
                    </Trackpoint>
                    <Trackpoint>
                        <DistanceMeters>283.08854949474335</DistanceMeters>
                        <Time>2021-02-28T04:53:45.621Z</Time>
                    </Trackpoint>
                    <Trackpoint>
                        <DistanceMeters>288.95133006572723</DistanceMeters>
                        <Time>2021-02-28T04:53:56.689Z</Time>
                    </Trackpoint>
                </Track>
                <DistanceMeters>288.95133006572723</DistanceMeters>
                <TotalTimeSeconds>243.099</TotalTimeSeconds>
                <Calories>45.07460403442383</Calories>
                <Intensity>Active</Intensity>
                <TriggerMethod>Manual</TriggerMethod>
            </Lap>
        </Activity>
        <Activity Sport="Walking">
            <Id>2021-02-28T04:53:56.689Z</Id>
            <Lap StartTime="2021-02-28T04:53:56.689Z">
                <Track>
                    <Trackpoint>
                        <DistanceMeters>0.0</DistanceMeters>
                        <Time>2021-02-28T04:53:56.689Z</Time>
                    </Trackpoint>
                    <Trackpoint>
                        <DistanceMeters>0.6872116327285767</DistanceMeters>
                        <Time>2021-02-28T04:53:58.052Z</Time>
                    </Trackpoint>
                    <Trackpoint>
                        <DistanceMeters>47.491986870765686</DistanceMeters>
                        <Time>2021-02-28T04:54:46.427Z</Time>
                    </Trackpoint>
                    <Trackpoint>
                        <DistanceMeters>67.42112505435944</DistanceMeters>
                        <Time>2021-02-28T04:55:10.615Z</Time>
                    </Trackpoint>
                    <Trackpoint>
                        <DistanceMeters>76.35487616062164</DistanceMeters>
                        <Time>2021-02-28T04:55:20.514Z</Time>
                        <Position>
                            <LatitudeDegrees>18.594066619873047</LatitudeDegrees>
                            <LongitudeDegrees>73.79374694824219</LongitudeDegrees>
                        </Position>
                        <AltitudeMeters>493.9599914550781</AltitudeMeters>
                    </Trackpoint>
                    <Trackpoint>
                        <DistanceMeters>76.35487616062164</DistanceMeters>
                        <Time>2021-02-28T04:55:21.117Z</Time>
                    </Trackpoint>
                    <Trackpoint>
                        <DistanceMeters>142.0168253183365</DistanceMeters>
                        <Time>2021-02-28T04:56:20.944Z</Time>
                    </Trackpoint>
                    <Trackpoint>
                        <DistanceMeters>205.61583197116852</DistanceMeters>
                        <Time>2021-02-28T04:57:16.480Z</Time>
                    </Trackpoint>
                    <Trackpoint>
                        <DistanceMeters>209.7654606103897</DistanceMeters>
                        <Time>2021-02-28T04:57:20.697Z</Time>
                    </Trackpoint>
                    <Trackpoint>
                        <DistanceMeters>252.24444162845612</DistanceMeters>
                        <Time>2021-02-28T04:57:23.528Z</Time>
                        <Position>
                            <LatitudeDegrees>18.594194412231445</LatitudeDegrees>
                            <LongitudeDegrees>73.79380798339844</LongitudeDegrees>
                        </Position>
                        <AltitudeMeters>493.6600036621094</AltitudeMeters>
                    </Trackpoint>
                    <Trackpoint>
                        <DistanceMeters>252.24444162845612</DistanceMeters>
                        <Time>2021-02-28T04:57:54.193Z</Time>
                    </Trackpoint>
                    <Trackpoint>
                        <DistanceMeters>266.67588579654694</DistanceMeters>
                        <Time>2021-02-28T04:58:10.504Z</Time>
                    </Trackpoint>
                    <Trackpoint>
                        <DistanceMeters>313.597531914711</DistanceMeters>
                        <Time>2021-02-28T04:58:40.578Z</Time>
                    </Trackpoint>
                    <Trackpoint>
                        <DistanceMeters>348.95951998233795</DistanceMeters>
                        <Time>2021-02-28T04:59:11.608Z</Time>
                    </Trackpoint>
                    <Trackpoint>
                        <DistanceMeters>359.26769411563873</DistanceMeters>
                        <Time>2021-02-28T04:59:27.220Z</Time>
                        <Position>
                            <LatitudeDegrees>18.594154357910156</LatitudeDegrees>
                            <LongitudeDegrees>73.79380798339844</LongitudeDegrees>
                        </Position>
                        <AltitudeMeters>493.8600158691406</AltitudeMeters>
                    </Trackpoint>
                    <Trackpoint>
                        <DistanceMeters>359.26769411563873</DistanceMeters>
                        <Time>2021-02-28T04:59:32.513Z</Time>
                    </Trackpoint>
                    <Trackpoint>
                        <DistanceMeters>396.2363258600235</DistanceMeters>
                        <Time>2021-02-28T05:00:00.520Z</Time>
                    </Trackpoint>
                    <Trackpoint>
                        <DistanceMeters>421.153159737587</DistanceMeters>
                        <Time>2021-02-28T05:00:21.287Z</Time>
                    </Trackpoint>
                    <Trackpoint>
                        <DistanceMeters>442.456719994545</DistanceMeters>
                        <Time>2021-02-28T05:00:47.628Z</Time>
                    </Trackpoint>
                    <Trackpoint>
                        <DistanceMeters>497.92024767398834</DistanceMeters>
                        <Time>2021-02-28T05:01:23.591Z</Time>
                    </Trackpoint>
                    <Trackpoint>
                        <DistanceMeters>527.188876748085</DistanceMeters>
                        <Time>2021-02-28T05:01:29.568Z</Time>
                        <Position>
                            <LatitudeDegrees>18.59454345703125</LatitudeDegrees>
                            <LongitudeDegrees>73.79398345947266</LongitudeDegrees>
                        </Position>
                        <AltitudeMeters>493.6600036621094</AltitudeMeters>
                    </Trackpoint>
                    <Trackpoint>
                        <DistanceMeters>527.188876748085</DistanceMeters>
                        <Time>2021-02-28T05:01:52.552Z</Time>
                    </Trackpoint>
                    <Trackpoint>
                        <DistanceMeters>541.6203209161758</DistanceMeters>
                        <Time>2021-02-28T05:02:15.609Z</Time>
                    </Trackpoint>
                    <Trackpoint>
                        <DistanceMeters>556.4811760187149</DistanceMeters>
                        <Time>2021-02-28T05:02:30.567Z</Time>
                    </Trackpoint>
                </Track>
                <DistanceMeters>556.4811760187149</DistanceMeters>
                <TotalTimeSeconds>513.878</TotalTimeSeconds>
                <Calories>48.27598190307617</Calories>
                <Intensity>Active</Intensity>
                <TriggerMethod>Manual</TriggerMethod>
            </Lap>
        </Activity>
        <Activity Sport="Walking">
            <Id>2021-02-28T05:02:30.567Z</Id>
            <Lap StartTime="2021-02-28T05:02:30.567Z">
                <Track>
                    <Trackpoint>
                        <DistanceMeters>0.0</DistanceMeters>
                        <Time>2021-02-28T05:02:30.567Z</Time>
                    </Trackpoint>
                    <Trackpoint>
                        <DistanceMeters>8.689579010009766</DistanceMeters>
                        <Time>2021-02-28T05:03:30.609Z</Time>
                        <Position>
                            <LatitudeDegrees>18.594411849975586</LatitudeDegrees>
                            <LongitudeDegrees>73.79389190673828</LongitudeDegrees>
                        </Position>
                        <AltitudeMeters>493.760009765625</AltitudeMeters>
                    </Trackpoint>
                    <Trackpoint>
                        <DistanceMeters>55.0464973449707</DistanceMeters>
                        <Time>2021-02-28T05:04:40.384Z</Time>
                    </Trackpoint>
                </Track>
                <DistanceMeters>55.0464973449707</DistanceMeters>
                <TotalTimeSeconds>129.817592053</TotalTimeSeconds>
                <Calories>12.19564151763916</Calories>
                <Intensity>Active</Intensity>
                <TriggerMethod>Manual</TriggerMethod>
            </Lap>
        </Activity>
        <Activity Sport="Walking">
            <Id>2021-02-28T05:04:40.384Z</Id>
            <Lap StartTime="2021-02-28T05:04:40.384Z">
                <Track>
                    <Trackpoint>
                        <DistanceMeters>0.0</DistanceMeters>
                        <Time>2021-02-28T05:04:40.384Z</Time>
                    </Trackpoint>
                    <Trackpoint>
                        <DistanceMeters>0.0</DistanceMeters>
                        <Time>2021-02-28T05:08:25.580Z</Time>
                    </Trackpoint>
                    <Trackpoint>
                        <DistanceMeters>8.933751106262207</DistanceMeters>
                        <Time>2021-02-28T05:08:54.152Z</Time>
                    </Trackpoint>
                    <Trackpoint>
                        <DistanceMeters>17.0139799118042</DistanceMeters>
                        <Time>2021-02-28T05:09:18.292Z</Time>
                        <Position>
                            <LatitudeDegrees>18.594005584716797</LatitudeDegrees>
                            <LongitudeDegrees>73.79373168945312</LongitudeDegrees>
                        </Position>
                        <AltitudeMeters>493.760009765625</AltitudeMeters>
                    </Trackpoint>
                    <Trackpoint>
                        <DistanceMeters>31.76028537750244</DistanceMeters>
                        <Time>2021-02-28T05:09:34.139Z</Time>
                        <Position>
                            <LatitudeDegrees>18.59408187866211</LatitudeDegrees>
                            <LongitudeDegrees>73.79379272460938</LongitudeDegrees>
                        </Position>
                        <AltitudeMeters>493.7637939453125</AltitudeMeters>
                    </Trackpoint>
                    <Trackpoint>
                        <DistanceMeters>31.76028537750244</DistanceMeters>
                        <Time>2021-02-28T05:09:54.183Z</Time>
                        <Position>
                            <LatitudeDegrees>18.594045639038086</LatitudeDegrees>
                            <LongitudeDegrees>73.79378509521484</LongitudeDegrees>
                        </Position>
                        <AltitudeMeters>494.0412902832031</AltitudeMeters>
                    </Trackpoint>
                    <Trackpoint>
                        <DistanceMeters>43.29896259307861</DistanceMeters>
                        <Time>2021-02-28T05:10:07.486Z</Time>
                        <Position>
                            <LatitudeDegrees>18.59408950805664</LatitudeDegrees>
                            <LongitudeDegrees>73.7938003540039</LongitudeDegrees>
                        </Position>
                        <AltitudeMeters>494.1280517578125</AltitudeMeters>
                    </Trackpoint>
                    <Trackpoint>
                        <DistanceMeters>43.29896259307861</DistanceMeters>
                        <Time>2021-02-28T05:10:28.521Z</Time>
                        <Position>
                            <LatitudeDegrees>18.594036102294922</LatitudeDegrees>
                            <LongitudeDegrees>73.79377746582031</LongitudeDegrees>
                        </Position>
                        <AltitudeMeters>494.04266357421875</AltitudeMeters>
                    </Trackpoint>
                    <Trackpoint>
                        <DistanceMeters>43.30126590048894</DistanceMeters>
                        <Time>2021-02-28T05:10:28.536Z</Time>
                    </Trackpoint>
                </Track>
                <DistanceMeters>43.30126590048894</DistanceMeters>
                <TotalTimeSeconds>348.151407947</TotalTimeSeconds>
                <Calories>14.152194499969482</Calories>
                <Intensity>Active</Intensity>
                <TriggerMethod>Manual</TriggerMethod>
            </Lap>
        </Activity>
        <Activity Sport="Walking">
            <Id>2021-02-28T05:10:28.536Z</Id>
            <Lap StartTime="2021-02-28T05:10:28.536Z">
                <Track>
                    <Trackpoint>
                        <DistanceMeters>0.0</DistanceMeters>
                        <Time>2021-02-28T05:10:28.536Z</Time>
                    </Trackpoint>
                    <Trackpoint>
                        <DistanceMeters>9.132766723632812</DistanceMeters>
                        <Time>2021-02-28T05:11:02.757Z</Time>
                        <Position>
                            <LatitudeDegrees>18.594074249267578</LatitudeDegrees>
                            <LongitudeDegrees>73.79374694824219</LongitudeDegrees>
                        </Position>
                        <AltitudeMeters>493.9599914550781</AltitudeMeters>
                    </Trackpoint>
                    <Trackpoint>
                        <DistanceMeters>9.132766723632812</DistanceMeters>
                        <Time>2021-02-28T05:11:28.012Z</Time>
                        <Position>
                            <LatitudeDegrees>18.594039916992188</LatitudeDegrees>
                            <LongitudeDegrees>73.79374694824219</LongitudeDegrees>
                        </Position>
                        <AltitudeMeters>493.8898620605469</AltitudeMeters>
                    </Trackpoint>
                    <Trackpoint>
                        <DistanceMeters>35.92997360229492</DistanceMeters>
                        <Time>2021-02-28T05:11:51.447Z</Time>
                        <Position>
                            <LatitudeDegrees>18.59427833557129</LatitudeDegrees>
                            <LongitudeDegrees>73.79378509521484</LongitudeDegrees>
                        </Position>
                        <AltitudeMeters>494.0525817871094</AltitudeMeters>
                    </Trackpoint>
                    <Trackpoint>
                        <DistanceMeters>56.933340072631836</DistanceMeters>
                        <Time>2021-02-28T05:12:10.671Z</Time>
                        <Position>
                            <LatitudeDegrees>18.594165802001953</LatitudeDegrees>
                            <LongitudeDegrees>73.79362487792969</LongitudeDegrees>
                        </Position>
                        <AltitudeMeters>493.9675598144531</AltitudeMeters>
                    </Trackpoint>
                    <Trackpoint>
                        <DistanceMeters>87.97536087036133</DistanceMeters>
                        <Time>2021-02-28T05:12:31.415Z</Time>
                        <Position>
                            <LatitudeDegrees>18.59404182434082</LatitudeDegrees>
                            <LongitudeDegrees>73.7938461303711</LongitudeDegrees>
                        </Position>
                        <AltitudeMeters>493.8209228515625</AltitudeMeters>
                    </Trackpoint>
                    <Trackpoint>
                        <DistanceMeters>87.97536087036133</DistanceMeters>
                        <Time>2021-02-28T05:12:57.471Z</Time>
                        <Position>
                            <LatitudeDegrees>18.59402084350586</LatitudeDegrees>
                            <LongitudeDegrees>73.79381561279297</LongitudeDegrees>
                        </Position>
                        <AltitudeMeters>493.79205322265625</AltitudeMeters>
                    </Trackpoint>
                    <Trackpoint>
                        <DistanceMeters>108.36952018737793</DistanceMeters>
                        <Time>2021-02-28T05:13:16.524Z</Time>
                    </Trackpoint>
                </Track>
                <DistanceMeters>108.36952018737793</DistanceMeters>
                <TotalTimeSeconds>167.988679409</TotalTimeSeconds>
                <Calories>13.991897583007812</Calories>
                <Intensity>Active</Intensity>
                <TriggerMethod>Manual</TriggerMethod>
            </Lap>
        </Activity>
        <Activity Sport="Walking">
            <Id>2021-02-28T05:12:57.471Z</Id>
            <Lap StartTime="2021-02-28T05:12:57.471Z">
                <Track>
                    <Trackpoint>
                        <DistanceMeters>0.0</DistanceMeters>
                        <Time>2021-02-28T05:12:57.471Z</Time>
                    </Trackpoint>
                    <Trackpoint>
                        <DistanceMeters>20.3941593170166</DistanceMeters>
                        <Time>2021-02-28T05:12:57.474Z</Time>
                    </Trackpoint>
                    <Trackpoint>
                        <DistanceMeters>20.3941593170166</DistanceMeters>
                        <Time>2021-02-28T05:13:16.524Z</Time>
                    </Trackpoint>
                    <Trackpoint>
                        <DistanceMeters>31.389545440673828</DistanceMeters>
                        <Time>2021-02-28T05:13:31.485Z</Time>
                    </Trackpoint>
                </Track>
                <DistanceMeters>31.389545440673828</DistanceMeters>
                <TotalTimeSeconds>34.014049461</TotalTimeSeconds>
                <Calories>3.1951491832733154</Calories>
                <Intensity>Active</Intensity>
                <TriggerMethod>Manual</TriggerMethod>
            </Lap>
        </Activity>
    </Activities>
    <Author xsi:type="Application_t">
        <Name>Google Fit</Name>
        <Build>
            <Version>
                <VersionMajor>0</VersionMajor>
                <VersionMinor>0</VersionMinor>
                <BuildMajor>0</BuildMajor>
                <BuildMinor>0</BuildMinor>
            </Version>
        </Build>
        <LangID>en</LangID>
        <PartNumber>000-00000-00</PartNumber>
    </Author>
</TrainingCenterDatabase>
