<?xml version="1.0" encoding="UTF-8"?>
<TrainingCenterDatabase
    xmlns="http://www.garmin.com/xmlschemas/TrainingCenterDatabase/v2"
    xmlns:ns2="http://www.garmin.com/xmlschemas/UserProfile/v2"
    xmlns:ns3="http://www.garmin.com/xmlschemas/ActivityExtension/v2"
    xmlns:ns4="http://www.garmin.com/xmlschemas/ProfileExtension/v1"
    xmlns:ns5="http://www.garmin.com/xmlschemas/ActivityGoals/v1"
    xmlns:xsi="http://www.w3.org/2001/XMLSchema-instance" xsi:schemaLocation="http://www.garmin.com/xmlschemas/TrainingCenterDatabase/v2 http://www.garmin.com/xmlschemas/TrainingCenterDatabasev2.xsd">
    <Activities>
        <Activity Sport="Walking">
            <Id>2021-12-25T06:41:00.460Z</Id>
            <Lap StartTime="2021-12-25T06:41:00.460Z">
                <Track>
                    <Trackpoint>
                        <DistanceMeters>0.0</DistanceMeters>
                        <Time>2021-12-25T06:41:00.460Z</Time>
                    </Trackpoint>
                    <Trackpoint>
                        <DistanceMeters>0.0</DistanceMeters>
                        <Time>2021-12-25T06:43:56.049Z</Time>
                    </Trackpoint>
                    <Trackpoint>
                        <DistanceMeters>19.573949813842773</DistanceMeters>
                        <Time>2021-12-25T06:44:56.049Z</Time>
                    </Trackpoint>
                    <Trackpoint>
                        <DistanceMeters>33.31461238861084</DistanceMeters>
                        <Time>2021-12-25T06:46:01.595Z</Time>
                    </Trackpoint>
                </Track>
                <DistanceMeters>33.31461238861084</DistanceMeters>
                <TotalTimeSeconds>301.135</TotalTimeSeconds>
                <Calories>29.243553161621094</Calories>
                <Intensity>Active</Intensity>
                <TriggerMethod>Manual</TriggerMethod>
            </Lap>
        </Activity>
        <Activity Sport="Walking">
            <Id>2021-12-25T06:53:40.411Z</Id>
            <Lap StartTime="2021-12-25T06:53:40.411Z">
                <Track>
                    <Trackpoint>
                        <DistanceMeters>0.0</DistanceMeters>
                        <Time>2021-12-25T06:53:40.411Z</Time>
                    </Trackpoint>
                    <Trackpoint>
                        <DistanceMeters>27.859912872314453</DistanceMeters>
                        <Time>2021-12-25T06:55:05.809Z</Time>
                    </Trackpoint>
                    <Trackpoint>
                        <DistanceMeters>50.04372215270996</DistanceMeters>
                        <Time>2021-12-25T06:56:11.369Z</Time>
                    </Trackpoint>
                    <Trackpoint>
                        <DistanceMeters>97.67366600036621</DistanceMeters>
                        <Time>2021-12-25T06:57:08.489Z</Time>
                    </Trackpoint>
                    <Trackpoint>
                        <DistanceMeters>100.98546099662781</DistanceMeters>
                        <Time>2021-12-25T06:57:11.929Z</Time>
                    </Trackpoint>
                    <Trackpoint>
                        <DistanceMeters>160.04399371147156</DistanceMeters>
                        <Time>2021-12-25T06:58:08.329Z</Time>
                    </Trackpoint>
                    <Trackpoint>
                        <DistanceMeters>166.53489756584167</DistanceMeters>
                        <Time>2021-12-25T06:58:13.409Z</Time>
                    </Trackpoint>
                    <Trackpoint>
                        <DistanceMeters>220.08019709587097</DistanceMeters>
                        <Time>2021-12-25T06:59:09.409Z</Time>
                    </Trackpoint>
                    <Trackpoint>
                        <DistanceMeters>222.69005703926086</DistanceMeters>
                        <Time>2021-12-25T06:59:12.729Z</Time>
                    </Trackpoint>
                    <Trackpoint>
                        <DistanceMeters>264.9538013935089</DistanceMeters>
                        <Time>2021-12-25T06:59:57.089Z</Time>
                    </Trackpoint>
                    <Trackpoint>
                        <DistanceMeters>276.04570603370667</DistanceMeters>
                        <Time>2021-12-25T07:00:15.049Z</Time>
                    </Trackpoint>
                    <Trackpoint>
                        <DistanceMeters>311.2788145542145</DistanceMeters>
                        <Time>2021-12-25T07:01:05.729Z</Time>
                    </Trackpoint>
                    <Trackpoint>
                        <DistanceMeters>350.4267141819</DistanceMeters>
                        <Time>2021-12-25T07:02:10.489Z</Time>
                    </Trackpoint>
                    <Trackpoint>
                        <DistanceMeters>359.5612242221832</DistanceMeters>
                        <Time>2021-12-25T07:02:22.769Z</Time>
                    </Trackpoint>
                    <Trackpoint>
                        <DistanceMeters>402.6239149570465</DistanceMeters>
                        <Time>2021-12-25T07:03:11.329Z</Time>
                    </Trackpoint>
                    <Trackpoint>
                        <DistanceMeters>415.93435502052307</DistanceMeters>
                        <Time>2021-12-25T07:03:24.929Z</Time>
                    </Trackpoint>
                    <Trackpoint>
                        <DistanceMeters>462.74757981300354</DistanceMeters>
                        <Time>2021-12-25T07:04:11.969Z</Time>
                    </Trackpoint>
                    <Trackpoint>
                        <DistanceMeters>472.5345547199249</DistanceMeters>
                        <Time>2021-12-25T07:04:25.249Z</Time>
                    </Trackpoint>
                    <Trackpoint>
                        <DistanceMeters>516.6872417926788</DistanceMeters>
                        <Time>2021-12-25T07:05:11.929Z</Time>
                    </Trackpoint>
                    <Trackpoint>
                        <DistanceMeters>528.4316112995148</DistanceMeters>
                        <Time>2021-12-25T07:05:27.209Z</Time>
                    </Trackpoint>
                    <Trackpoint>
                        <DistanceMeters>578.273900270462</DistanceMeters>
                        <Time>2021-12-25T07:06:13.889Z</Time>
                    </Trackpoint>
                    <Trackpoint>
                        <DistanceMeters>590.6707346439362</DistanceMeters>
                        <Time>2021-12-25T07:06:27.729Z</Time>
                    </Trackpoint>
                    <Trackpoint>
                        <DistanceMeters>640.087494134903</DistanceMeters>
                        <Time>2021-12-25T07:07:15.369Z</Time>
                    </Trackpoint>
                    <Trackpoint>
                        <DistanceMeters>653.5969755649567</DistanceMeters>
                        <Time>2021-12-25T07:07:28.489Z</Time>
                    </Trackpoint>
                    <Trackpoint>
                        <DistanceMeters>698.5999433994293</DistanceMeters>
                        <Time>2021-12-25T07:08:15.369Z</Time>
                    </Trackpoint>
                    <Trackpoint>
                        <DistanceMeters>709.6918480396271</DistanceMeters>
                        <Time>2021-12-25T07:08:28.769Z</Time>
                    </Trackpoint>
                    <Trackpoint>
                        <DistanceMeters>752.1020729541779</DistanceMeters>
                        <Time>2021-12-25T07:09:16.969Z</Time>
                    </Trackpoint>
                    <Trackpoint>
                        <DistanceMeters>764.1299479007721</DistanceMeters>
                        <Time>2021-12-25T07:09:29.089Z</Time>
                    </Trackpoint>
                    <Trackpoint>
                        <DistanceMeters>811.1293413639069</DistanceMeters>
                        <Time>2021-12-25T07:10:18.009Z</Time>
                    </Trackpoint>
                    <Trackpoint>
                        <DistanceMeters>820.2638514041901</DistanceMeters>
                        <Time>2021-12-25T07:10:30.289Z</Time>
                    </Trackpoint>
                    <Trackpoint>
                        <DistanceMeters>860.7166788578033</DistanceMeters>
                        <Time>2021-12-25T07:11:17.049Z</Time>
                    </Trackpoint>
                </Track>
                <DistanceMeters>860.7166788578033</DistanceMeters>
                <TotalTimeSeconds>1056.638960241</TotalTimeSeconds>
                <Calories>98.09212493896484</Calories>
                <Intensity>Active</Intensity>
                <TriggerMethod>Manual</TriggerMethod>
            </Lap>
        </Activity>
        <Activity Sport="Walking">
            <Id>2021-12-25T07:10:30.289Z</Id>
            <Lap StartTime="2021-12-25T07:10:30.289Z">
                <Track>
                    <Trackpoint>
                        <DistanceMeters>0.0</DistanceMeters>
                        <Time>2021-12-25T07:10:30.289Z</Time>
                    </Trackpoint>
                    <Trackpoint>
                        <DistanceMeters>40.45282745361328</DistanceMeters>
                        <Time>2021-12-25T07:10:30.513Z</Time>
                    </Trackpoint>
                    <Trackpoint>
                        <DistanceMeters>40.45282745361328</DistanceMeters>
                        <Time>2021-12-25T07:11:17.049Z</Time>
                    </Trackpoint>
                </Track>
                <DistanceMeters>40.45282745361328</DistanceMeters>
                <TotalTimeSeconds>46.759999771</TotalTimeSeconds>
                <Calories>4.519255638122559</Calories>
                <Intensity>Active</Intensity>
                <TriggerMethod>Manual</TriggerMethod>
            </Lap>
        </Activity>
    </Activities>
    <Author xsi:type="Application_t">
        <Name>Google Fit</Name>
        <Build>
            <Version>
                <VersionMajor>0</VersionMajor>
                <VersionMinor>0</VersionMinor>
                <BuildMajor>0</BuildMajor>
                <BuildMinor>0</BuildMinor>
            </Version>
        </Build>
        <LangID>en</LangID>
        <PartNumber>000-00000-00</PartNumber>
    </Author>
</TrainingCenterDatabase>
