<?xml version="1.0" encoding="UTF-8"?>
<TrainingCenterDatabase
    xmlns="http://www.garmin.com/xmlschemas/TrainingCenterDatabase/v2"
    xmlns:ns2="http://www.garmin.com/xmlschemas/UserProfile/v2"
    xmlns:ns3="http://www.garmin.com/xmlschemas/ActivityExtension/v2"
    xmlns:ns4="http://www.garmin.com/xmlschemas/ProfileExtension/v1"
    xmlns:ns5="http://www.garmin.com/xmlschemas/ActivityGoals/v1"
    xmlns:xsi="http://www.w3.org/2001/XMLSchema-instance" xsi:schemaLocation="http://www.garmin.com/xmlschemas/TrainingCenterDatabase/v2 http://www.garmin.com/xmlschemas/TrainingCenterDatabasev2.xsd">
    <Activities>
        <Activity Sport="Walking">
            <Id>2021-05-18T04:29:05.547Z</Id>
            <Lap StartTime="2021-05-18T04:29:05.547Z">
                <Track>
                    <Trackpoint>
                        <DistanceMeters>0.0</DistanceMeters>
                        <Time>2021-05-18T04:29:05.547Z</Time>
                    </Trackpoint>
                    <Trackpoint>
                        <DistanceMeters>0.0</DistanceMeters>
                        <Time>2021-05-18T11:59:11.162Z</Time>
                    </Trackpoint>
                    <Trackpoint>
                        <DistanceMeters>42.679931640625</DistanceMeters>
                        <Time>2021-05-18T12:00:52.772Z</Time>
                    </Trackpoint>
                    <Trackpoint>
                        <DistanceMeters>51.466976165771484</DistanceMeters>
                        <Time>2021-05-18T12:01:06.617Z</Time>
                    </Trackpoint>
                </Track>
                <DistanceMeters>51.466976165771484</DistanceMeters>
                <TotalTimeSeconds>27121.070449276</TotalTimeSeconds>
                <Calories>564.6975163295865</Calories>
                <Intensity>Active</Intensity>
                <TriggerMethod>Manual</TriggerMethod>
            </Lap>
        </Activity>
        <Activity Sport="Walking">
            <Id>2021-05-18T12:00:52.772Z</Id>
            <Lap StartTime="2021-05-18T12:00:52.772Z">
                <Track>
                    <Trackpoint>
                        <DistanceMeters>0.0</DistanceMeters>
                        <Time>2021-05-18T12:00:52.772Z</Time>
                    </Trackpoint>
                    <Trackpoint>
                        <DistanceMeters>8.787044525146484</DistanceMeters>
                        <Time>2021-05-18T12:00:54.337Z</Time>
                    </Trackpoint>
                    <Trackpoint>
                        <DistanceMeters>8.787044525146484</DistanceMeters>
                        <Time>2021-05-18T12:01:43.902Z</Time>
                        <Position>
                            <LatitudeDegrees>18.591432571411133</LatitudeDegrees>
                            <LongitudeDegrees>73.7961654663086</LongitudeDegrees>
                        </Position>
                        <AltitudeMeters>495.3629150390625</AltitudeMeters>
                    </Trackpoint>
                    <Trackpoint>
                        <DistanceMeters>149.19042587280273</DistanceMeters>
                        <Time>2021-05-18T12:04:15.021Z</Time>
                        <Position>
                            <LatitudeDegrees>18.59265899658203</LatitudeDegrees>
                            <LongitudeDegrees>73.79584503173828</LongitudeDegrees>
                        </Position>
                        <AltitudeMeters>495.1794128417969</AltitudeMeters>
                    </Trackpoint>
                    <Trackpoint>
                        <DistanceMeters>226.2603645324707</DistanceMeters>
                        <Time>2021-05-18T12:06:16.073Z</Time>
                        <Position>
                            <LatitudeDegrees>18.593326568603516</LatitudeDegrees>
                            <LongitudeDegrees>73.7960433959961</LongitudeDegrees>
                        </Position>
                        <AltitudeMeters>493.8731384277344</AltitudeMeters>
                    </Trackpoint>
                    <Trackpoint>
                        <DistanceMeters>347.68840408325195</DistanceMeters>
                        <Time>2021-05-18T12:08:20.657Z</Time>
                        <Position>
                            <LatitudeDegrees>18.593284606933594</LatitudeDegrees>
                            <LongitudeDegrees>73.79719543457031</LongitudeDegrees>
                        </Position>
                        <AltitudeMeters>493.1885986328125</AltitudeMeters>
                    </Trackpoint>
                    <Trackpoint>
                        <DistanceMeters>422.4731788635254</DistanceMeters>
                        <Time>2021-05-18T12:09:20.862Z</Time>
                    </Trackpoint>
                </Track>
                <DistanceMeters>422.4731788635254</DistanceMeters>
                <TotalTimeSeconds>508.089468587</TotalTimeSeconds>
                <Calories>39.03055953979492</Calories>
                <Intensity>Active</Intensity>
                <TriggerMethod>Manual</TriggerMethod>
            </Lap>
        </Activity>
        <Activity Sport="Walking">
            <Id>2021-05-18T12:09:20.862Z</Id>
            <Lap StartTime="2021-05-18T12:09:20.862Z">
                <Track>
                    <Trackpoint>
                        <DistanceMeters>0.0</DistanceMeters>
                        <Time>2021-05-18T12:09:20.862Z</Time>
                    </Trackpoint>
                    <Trackpoint>
                        <DistanceMeters>0.0</DistanceMeters>
                        <Time>2021-05-18T12:11:28.272Z</Time>
                    </Trackpoint>
                    <Trackpoint>
                        <DistanceMeters>18.82938003540039</DistanceMeters>
                        <Time>2021-05-18T12:12:28.272Z</Time>
                    </Trackpoint>
                    <Trackpoint>
                        <DistanceMeters>112.67975234985352</DistanceMeters>
                        <Time>2021-05-18T12:12:52.854Z</Time>
                    </Trackpoint>
                </Track>
                <DistanceMeters>112.67975234985352</DistanceMeters>
                <TotalTimeSeconds>211.992</TotalTimeSeconds>
                <Calories>5.797428250312805</Calories>
                <Intensity>Active</Intensity>
                <TriggerMethod>Manual</TriggerMethod>
            </Lap>
        </Activity>
        <Activity Sport="Walking">
            <Id>2021-05-18T12:12:52.854Z</Id>
            <Lap StartTime="2021-05-18T12:12:52.854Z">
                <Track>
                    <Trackpoint>
                        <DistanceMeters>0.0</DistanceMeters>
                        <Time>2021-05-18T12:12:52.854Z</Time>
                    </Trackpoint>
                    <Trackpoint>
                        <DistanceMeters>43.45063018798828</DistanceMeters>
                        <Time>2021-05-18T12:13:28.593Z</Time>
                    </Trackpoint>
                    <Trackpoint>
                        <DistanceMeters>116.01847076416016</DistanceMeters>
                        <Time>2021-05-18T12:14:23.874Z</Time>
                        <Position>
                            <LatitudeDegrees>18.5927677154541</LatitudeDegrees>
                            <LongitudeDegrees>73.80115509033203</LongitudeDegrees>
                        </Position>
                        <AltitudeMeters>493.5417175292969</AltitudeMeters>
                    </Trackpoint>
                    <Trackpoint>
                        <DistanceMeters>286.90770721435547</DistanceMeters>
                        <Time>2021-05-18T12:16:26.070Z</Time>
                        <Position>
                            <LatitudeDegrees>18.59305191040039</LatitudeDegrees>
                            <LongitudeDegrees>73.799560546875</LongitudeDegrees>
                        </Position>
                        <AltitudeMeters>493.6044616699219</AltitudeMeters>
                    </Trackpoint>
                    <Trackpoint>
                        <DistanceMeters>423.4292221069336</DistanceMeters>
                        <Time>2021-05-18T12:18:27.115Z</Time>
                        <Position>
                            <LatitudeDegrees>18.592926025390625</LatitudeDegrees>
                            <LongitudeDegrees>73.80084991455078</LongitudeDegrees>
                        </Position>
                        <AltitudeMeters>493.58380126953125</AltitudeMeters>
                    </Trackpoint>
                    <Trackpoint>
                        <DistanceMeters>461.3398551940918</DistanceMeters>
                        <Time>2021-05-18T12:20:28.111Z</Time>
                        <Position>
                            <LatitudeDegrees>18.592689514160156</LatitudeDegrees>
                            <LongitudeDegrees>73.80110931396484</LongitudeDegrees>
                        </Position>
                        <AltitudeMeters>493.9252624511719</AltitudeMeters>
                    </Trackpoint>
                    <Trackpoint>
                        <DistanceMeters>635.8685111999512</DistanceMeters>
                        <Time>2021-05-18T12:22:24.218Z</Time>
                        <Position>
                            <LatitudeDegrees>18.59299659729004</LatitudeDegrees>
                            <LongitudeDegrees>73.79948425292969</LongitudeDegrees>
                        </Position>
                        <AltitudeMeters>497.89251708984375</AltitudeMeters>
                    </Trackpoint>
                    <Trackpoint>
                        <DistanceMeters>790.2297630310059</DistanceMeters>
                        <Time>2021-05-18T12:24:30.176Z</Time>
                        <Position>
                            <LatitudeDegrees>18.59334373474121</LatitudeDegrees>
                            <LongitudeDegrees>73.79806518554688</LongitudeDegrees>
                        </Position>
                        <AltitudeMeters>493.3536376953125</AltitudeMeters>
                    </Trackpoint>
                    <Trackpoint>
                        <DistanceMeters>905.1404685974121</DistanceMeters>
                        <Time>2021-05-18T12:26:32.000Z</Time>
                        <Position>
                            <LatitudeDegrees>18.593347549438477</LatitudeDegrees>
                            <LongitudeDegrees>73.7969741821289</LongitudeDegrees>
                        </Position>
                        <AltitudeMeters>492.9477233886719</AltitudeMeters>
                    </Trackpoint>
                    <Trackpoint>
                        <DistanceMeters>1098.8295249938965</DistanceMeters>
                        <Time>2021-05-18T12:28:36.359Z</Time>
                        <Position>
                            <LatitudeDegrees>18.5933780670166</LatitudeDegrees>
                            <LongitudeDegrees>73.79513549804688</LongitudeDegrees>
                        </Position>
                        <AltitudeMeters>493.598388671875</AltitudeMeters>
                    </Trackpoint>
                    <Trackpoint>
                        <DistanceMeters>1263.270351409912</DistanceMeters>
                        <Time>2021-05-18T12:30:41.711Z</Time>
                        <Position>
                            <LatitudeDegrees>18.593778610229492</LatitudeDegrees>
                            <LongitudeDegrees>73.79363250732422</LongitudeDegrees>
                        </Position>
                        <AltitudeMeters>493.98419189453125</AltitudeMeters>
                    </Trackpoint>
                    <Trackpoint>
                        <DistanceMeters>1284.2702503204346</DistanceMeters>
                        <Time>2021-05-18T12:32:46.264Z</Time>
                        <Position>
                            <LatitudeDegrees>18.593759536743164</LatitudeDegrees>
                            <LongitudeDegrees>73.79383087158203</LongitudeDegrees>
                        </Position>
                        <AltitudeMeters>493.7421875</AltitudeMeters>
                    </Trackpoint>
                    <Trackpoint>
                        <DistanceMeters>1423.610933303833</DistanceMeters>
                        <Time>2021-05-18T12:34:47.638Z</Time>
                        <Position>
                            <LatitudeDegrees>18.593421936035156</LatitudeDegrees>
                            <LongitudeDegrees>73.79510498046875</LongitudeDegrees>
                        </Position>
                        <AltitudeMeters>493.9402770996094</AltitudeMeters>
                    </Trackpoint>
                    <Trackpoint>
                        <DistanceMeters>1518.8509998321533</DistanceMeters>
                        <Time>2021-05-18T12:36:48.775Z</Time>
                        <Position>
                            <LatitudeDegrees>18.59284782409668</LatitudeDegrees>
                            <LongitudeDegrees>73.7957763671875</LongitudeDegrees>
                        </Position>
                        <AltitudeMeters>493.2181701660156</AltitudeMeters>
                    </Trackpoint>
                    <Trackpoint>
                        <DistanceMeters>1627.346773147583</DistanceMeters>
                        <Time>2021-05-18T12:38:19.402Z</Time>
                    </Trackpoint>
                </Track>
                <DistanceMeters>1627.346773147583</DistanceMeters>
                <TotalTimeSeconds>1526.548</TotalTimeSeconds>
                <Calories>117.62899780273438</Calories>
                <Intensity>Active</Intensity>
                <TriggerMethod>Manual</TriggerMethod>
            </Lap>
        </Activity>
        <Activity Sport="Walking">
            <Id>2021-05-18T12:38:19.402Z</Id>
            <Lap StartTime="2021-05-18T12:38:19.402Z">
                <Track>
                    <Trackpoint>
                        <DistanceMeters>0.0</DistanceMeters>
                        <Time>2021-05-18T12:38:19.402Z</Time>
                    </Trackpoint>
                    <Trackpoint>
                        <DistanceMeters>15.014429092407227</DistanceMeters>
                        <Time>2021-05-18T12:38:31.943Z</Time>
                    </Trackpoint>
                </Track>
                <DistanceMeters>15.014429092407227</DistanceMeters>
                <TotalTimeSeconds>12.54161968</TotalTimeSeconds>
                <Calories>0.9664013385772705</Calories>
                <Intensity>Active</Intensity>
                <TriggerMethod>Manual</TriggerMethod>
            </Lap>
        </Activity>
        <Activity Sport="Walking">
            <Id>2021-05-18T12:38:31.943Z</Id>
            <Lap StartTime="2021-05-18T12:38:31.943Z">
                <Track>
                    <Trackpoint>
                        <DistanceMeters>0.0</DistanceMeters>
                        <Time>2021-05-18T12:38:31.943Z</Time>
                    </Trackpoint>
                    <Trackpoint>
                        <DistanceMeters>62.76460266113281</DistanceMeters>
                        <Time>2021-05-18T12:40:20.462Z</Time>
                    </Trackpoint>
                    <Trackpoint>
                        <DistanceMeters>62.76460266113281</DistanceMeters>
                        <Time>2021-05-18T12:40:49.452Z</Time>
                    </Trackpoint>
                    <Trackpoint>
                        <DistanceMeters>141.06732177734375</DistanceMeters>
                        <Time>2021-05-18T12:40:51.076Z</Time>
                        <Position>
                            <LatitudeDegrees>18.59149169921875</LatitudeDegrees>
                            <LongitudeDegrees>73.79640197753906</LongitudeDegrees>
                        </Position>
                        <AltitudeMeters>492.8172607421875</AltitudeMeters>
                    </Trackpoint>
                    <Trackpoint>
                        <DistanceMeters>141.06732177734375</DistanceMeters>
                        <Time>2021-05-18T12:41:50.013Z</Time>
                    </Trackpoint>
                    <Trackpoint>
                        <DistanceMeters>150.39359378814697</DistanceMeters>
                        <Time>2021-05-18T12:41:56.856Z</Time>
                    </Trackpoint>
                    <Trackpoint>
                        <DistanceMeters>194.95645999908447</DistanceMeters>
                        <Time>2021-05-18T12:43:51.530Z</Time>
                    </Trackpoint>
                    <Trackpoint>
                        <DistanceMeters>233.2428674697876</DistanceMeters>
                        <Time>2021-05-18T12:44:08.668Z</Time>
                        <Position>
                            <LatitudeDegrees>18.591495513916016</LatitudeDegrees>
                            <LongitudeDegrees>73.79612731933594</LongitudeDegrees>
                        </Position>
                        <AltitudeMeters>494.28704833984375</AltitudeMeters>
                    </Trackpoint>
                    <Trackpoint>
                        <DistanceMeters>233.2428674697876</DistanceMeters>
                        <Time>2021-05-18T12:44:41.514Z</Time>
                    </Trackpoint>
                    <Trackpoint>
                        <DistanceMeters>272.15692234039307</DistanceMeters>
                        <Time>2021-05-18T12:46:33.773Z</Time>
                    </Trackpoint>
                    <Trackpoint>
                        <DistanceMeters>312.32626819610596</DistanceMeters>
                        <Time>2021-05-18T12:48:11.988Z</Time>
                    </Trackpoint>
                </Track>
                <DistanceMeters>312.32626819610596</DistanceMeters>
                <TotalTimeSeconds>580.04438032</TotalTimeSeconds>
                <Calories>36.33369827270508</Calories>
                <Intensity>Active</Intensity>
                <TriggerMethod>Manual</TriggerMethod>
            </Lap>
        </Activity>
    </Activities>
    <Author xsi:type="Application_t">
        <Name>Google Fit</Name>
        <Build>
            <Version>
                <VersionMajor>0</VersionMajor>
                <VersionMinor>0</VersionMinor>
                <BuildMajor>0</BuildMajor>
                <BuildMinor>0</BuildMinor>
            </Version>
        </Build>
        <LangID>en</LangID>
        <PartNumber>000-00000-00</PartNumber>
    </Author>
</TrainingCenterDatabase>
