<?xml version="1.0" encoding="UTF-8"?>
<TrainingCenterDatabase
    xmlns="http://www.garmin.com/xmlschemas/TrainingCenterDatabase/v2"
    xmlns:ns2="http://www.garmin.com/xmlschemas/UserProfile/v2"
    xmlns:ns3="http://www.garmin.com/xmlschemas/ActivityExtension/v2"
    xmlns:ns4="http://www.garmin.com/xmlschemas/ProfileExtension/v1"
    xmlns:ns5="http://www.garmin.com/xmlschemas/ActivityGoals/v1"
    xmlns:xsi="http://www.w3.org/2001/XMLSchema-instance" xsi:schemaLocation="http://www.garmin.com/xmlschemas/TrainingCenterDatabase/v2 http://www.garmin.com/xmlschemas/TrainingCenterDatabasev2.xsd">
    <Activities>
        <Activity Sport="Walking">
            <Id>2021-12-07T15:30:30.776Z</Id>
            <Lap StartTime="2021-12-07T15:30:30.776Z">
                <Track>
                    <Trackpoint>
                        <DistanceMeters>0.0</DistanceMeters>
                        <Time>2021-12-07T15:30:30.776Z</Time>
                    </Trackpoint>
                    <Trackpoint>
                        <DistanceMeters>12.396834373474121</DistanceMeters>
                        <Time>2021-12-07T15:30:57.213Z</Time>
                    </Trackpoint>
                    <Trackpoint>
                        <DistanceMeters>38.59776973724365</DistanceMeters>
                        <Time>2021-12-07T15:31:23.133Z</Time>
                    </Trackpoint>
                    <Trackpoint>
                        <DistanceMeters>48.53315448760986</DistanceMeters>
                        <Time>2021-12-07T15:31:33.453Z</Time>
                    </Trackpoint>
                    <Trackpoint>
                        <DistanceMeters>67.45463848114014</DistanceMeters>
                        <Time>2021-12-07T15:31:58.053Z</Time>
                    </Trackpoint>
                    <Trackpoint>
                        <DistanceMeters>90.94337749481201</DistanceMeters>
                        <Time>2021-12-07T15:32:24.653Z</Time>
                    </Trackpoint>
                    <Trackpoint>
                        <DistanceMeters>107.74549770355225</DistanceMeters>
                        <Time>2021-12-07T15:32:39.133Z</Time>
                    </Trackpoint>
                    <Trackpoint>
                        <DistanceMeters>130.58177280426025</DistanceMeters>
                        <Time>2021-12-07T15:33:07.713Z</Time>
                    </Trackpoint>
                    <Trackpoint>
                        <DistanceMeters>146.2409324645996</DistanceMeters>
                        <Time>2021-12-07T15:33:39.593Z</Time>
                    </Trackpoint>
                    <Trackpoint>
                        <DistanceMeters>149.84828186035156</DistanceMeters>
                        <Time>2021-12-07T15:33:42.413Z</Time>
                    </Trackpoint>
                    <Trackpoint>
                        <DistanceMeters>168.11730194091797</DistanceMeters>
                        <Time>2021-12-07T15:34:28.613Z</Time>
                    </Trackpoint>
                </Track>
                <DistanceMeters>168.11730194091797</DistanceMeters>
                <TotalTimeSeconds>237.837841991</TotalTimeSeconds>
                <Calories>21.993043899536133</Calories>
                <Intensity>Active</Intensity>
                <TriggerMethod>Manual</TriggerMethod>
            </Lap>
        </Activity>
        <Activity Sport="Walking">
            <Id>2021-12-07T15:34:44.023Z</Id>
            <Lap StartTime="2021-12-07T15:34:44.023Z">
                <Track>
                    <Trackpoint>
                        <DistanceMeters>0.0</DistanceMeters>
                        <Time>2021-12-07T15:34:44.023Z</Time>
                    </Trackpoint>
                    <Trackpoint>
                        <DistanceMeters>0.0</DistanceMeters>
                        <Time>2021-12-07T15:35:29.293Z</Time>
                    </Trackpoint>
                    <Trackpoint>
                        <DistanceMeters>24.367042541503906</DistanceMeters>
                        <Time>2021-12-07T15:35:55.113Z</Time>
                    </Trackpoint>
                    <Trackpoint>
                        <DistanceMeters>66.77726745605469</DistanceMeters>
                        <Time>2021-12-07T15:36:55.413Z</Time>
                    </Trackpoint>
                    <Trackpoint>
                        <DistanceMeters>71.48516750335693</DistanceMeters>
                        <Time>2021-12-07T15:37:00.053Z</Time>
                    </Trackpoint>
                    <Trackpoint>
                        <DistanceMeters>120.97582149505615</DistanceMeters>
                        <Time>2021-12-07T15:37:45.373Z</Time>
                    </Trackpoint>
                    <Trackpoint>
                        <DistanceMeters>177.29099941253662</DistanceMeters>
                        <Time>2021-12-07T15:38:37.093Z</Time>
                    </Trackpoint>
                    <Trackpoint>
                        <DistanceMeters>183.34642124176025</DistanceMeters>
                        <Time>2021-12-07T15:38:43.053Z</Time>
                    </Trackpoint>
                    <Trackpoint>
                        <DistanceMeters>230.27927494049072</DistanceMeters>
                        <Time>2021-12-07T15:39:27.573Z</Time>
                    </Trackpoint>
                    <Trackpoint>
                        <DistanceMeters>273.341965675354</DistanceMeters>
                        <Time>2021-12-07T15:40:18.773Z</Time>
                    </Trackpoint>
                    <Trackpoint>
                        <DistanceMeters>278.5865135192871</DistanceMeters>
                        <Time>2021-12-07T15:40:22.413Z</Time>
                    </Trackpoint>
                    <Trackpoint>
                        <DistanceMeters>341.747257232666</DistanceMeters>
                        <Time>2021-12-07T15:41:27.173Z</Time>
                    </Trackpoint>
                    <Trackpoint>
                        <DistanceMeters>400.6704788208008</DistanceMeters>
                        <Time>2021-12-07T15:42:26.133Z</Time>
                    </Trackpoint>
                    <Trackpoint>
                        <DistanceMeters>407.19512844085693</DistanceMeters>
                        <Time>2021-12-07T15:42:35.413Z</Time>
                    </Trackpoint>
                    <Trackpoint>
                        <DistanceMeters>413.7197780609131</DistanceMeters>
                        <Time>2021-12-07T15:44:04.736Z</Time>
                    </Trackpoint>
                </Track>
                <DistanceMeters>413.7197780609131</DistanceMeters>
                <TotalTimeSeconds>560.713</TotalTimeSeconds>
                <Calories>54.45145797729492</Calories>
                <Intensity>Active</Intensity>
                <TriggerMethod>Manual</TriggerMethod>
            </Lap>
        </Activity>
    </Activities>
    <Author xsi:type="Application_t">
        <Name>Google Fit</Name>
        <Build>
            <Version>
                <VersionMajor>0</VersionMajor>
                <VersionMinor>0</VersionMinor>
                <BuildMajor>0</BuildMajor>
                <BuildMinor>0</BuildMinor>
            </Version>
        </Build>
        <LangID>en</LangID>
        <PartNumber>000-00000-00</PartNumber>
    </Author>
</TrainingCenterDatabase>
