<?xml version="1.0" encoding="UTF-8"?>
<TrainingCenterDatabase
    xmlns="http://www.garmin.com/xmlschemas/TrainingCenterDatabase/v2"
    xmlns:ns2="http://www.garmin.com/xmlschemas/UserProfile/v2"
    xmlns:ns3="http://www.garmin.com/xmlschemas/ActivityExtension/v2"
    xmlns:ns4="http://www.garmin.com/xmlschemas/ProfileExtension/v1"
    xmlns:ns5="http://www.garmin.com/xmlschemas/ActivityGoals/v1"
    xmlns:xsi="http://www.w3.org/2001/XMLSchema-instance" xsi:schemaLocation="http://www.garmin.com/xmlschemas/TrainingCenterDatabase/v2 http://www.garmin.com/xmlschemas/TrainingCenterDatabasev2.xsd">
    <Activities>
        <Activity Sport="Walking">
            <Id>2021-12-19T14:00:41.910Z</Id>
            <Lap StartTime="2021-12-19T14:00:41.910Z">
                <Track>
                    <Trackpoint>
                        <DistanceMeters>0.0</DistanceMeters>
                        <Time>2021-12-19T14:00:41.910Z</Time>
                    </Trackpoint>
                    <Trackpoint>
                        <DistanceMeters>24.793668746948242</DistanceMeters>
                        <Time>2021-12-19T14:01:21.245Z</Time>
                    </Trackpoint>
                    <Trackpoint>
                        <DistanceMeters>24.793668746948242</DistanceMeters>
                        <Time>2021-12-19T14:01:42.710Z</Time>
                    </Trackpoint>
                    <Trackpoint>
                        <DistanceMeters>43.06268882751465</DistanceMeters>
                        <Time>2021-12-19T14:02:48.750Z</Time>
                    </Trackpoint>
                    <Trackpoint>
                        <DistanceMeters>101.78453636169434</DistanceMeters>
                        <Time>2021-12-19T14:05:48.750Z</Time>
                    </Trackpoint>
                    <Trackpoint>
                        <DistanceMeters>143.54229545593262</DistanceMeters>
                        <Time>2021-12-19T14:06:50.190Z</Time>
                    </Trackpoint>
                    <Trackpoint>
                        <DistanceMeters>152.02434062957764</DistanceMeters>
                        <Time>2021-12-19T14:07:01.350Z</Time>
                    </Trackpoint>
                    <Trackpoint>
                        <DistanceMeters>206.83140087127686</DistanceMeters>
                        <Time>2021-12-19T14:08:10.990Z</Time>
                    </Trackpoint>
                    <Trackpoint>
                        <DistanceMeters>242.71697521209717</DistanceMeters>
                        <Time>2021-12-19T14:08:58.390Z</Time>
                    </Trackpoint>
                    <Trackpoint>
                        <DistanceMeters>274.0352945327759</DistanceMeters>
                        <Time>2021-12-19T14:09:36.050Z</Time>
                    </Trackpoint>
                    <Trackpoint>
                        <DistanceMeters>296.2191038131714</DistanceMeters>
                        <Time>2021-12-19T14:10:04.190Z</Time>
                    </Trackpoint>
                    <Trackpoint>
                        <DistanceMeters>307.31100845336914</DistanceMeters>
                        <Time>2021-12-19T14:10:28.550Z</Time>
                    </Trackpoint>
                    <Trackpoint>
                        <DistanceMeters>324.92756271362305</DistanceMeters>
                        <Time>2021-12-19T14:10:52.270Z</Time>
                    </Trackpoint>
                    <Trackpoint>
                        <DistanceMeters>354.2884864807129</DistanceMeters>
                        <Time>2021-12-19T14:13:02.812Z</Time>
                    </Trackpoint>
                </Track>
                <DistanceMeters>354.2884864807129</DistanceMeters>
                <TotalTimeSeconds>740.901685224</TotalTimeSeconds>
                <Calories>68.12995147705078</Calories>
                <Intensity>Active</Intensity>
                <TriggerMethod>Manual</TriggerMethod>
            </Lap>
        </Activity>
        <Activity Sport="Walking">
            <Id>2021-12-19T14:13:02.812Z</Id>
            <Lap StartTime="2021-12-19T14:13:02.812Z">
                <Track>
                    <Trackpoint>
                        <DistanceMeters>0.0</DistanceMeters>
                        <Time>2021-12-19T14:13:02.812Z</Time>
                    </Trackpoint>
                    <Trackpoint>
                        <DistanceMeters>0.0</DistanceMeters>
                        <Time>2021-12-19T14:13:24.790Z</Time>
                    </Trackpoint>
                    <Trackpoint>
                        <DistanceMeters>12.709726333618164</DistanceMeters>
                        <Time>2021-12-19T14:13:37.550Z</Time>
                    </Trackpoint>
                </Track>
                <DistanceMeters>12.709726333618164</DistanceMeters>
                <TotalTimeSeconds>34.738314927</TotalTimeSeconds>
                <Calories>1.2427682280540466</Calories>
                <Intensity>Active</Intensity>
                <TriggerMethod>Manual</TriggerMethod>
            </Lap>
        </Activity>
        <Activity Sport="Walking">
            <Id>2021-12-19T14:13:24.790Z</Id>
            <Lap StartTime="2021-12-19T14:13:24.790Z">
                <Track>
                    <Trackpoint>
                        <DistanceMeters>0.0</DistanceMeters>
                        <Time>2021-12-19T14:13:24.790Z</Time>
                    </Trackpoint>
                    <Trackpoint>
                        <DistanceMeters>12.709726333618164</DistanceMeters>
                        <Time>2021-12-19T14:13:32.910Z</Time>
                    </Trackpoint>
                    <Trackpoint>
                        <DistanceMeters>12.709726333618164</DistanceMeters>
                        <Time>2021-12-19T14:13:37.550Z</Time>
                    </Trackpoint>
                    <Trackpoint>
                        <DistanceMeters>66.86432075500488</DistanceMeters>
                        <Time>2021-12-19T14:14:40.910Z</Time>
                    </Trackpoint>
                    <Trackpoint>
                        <DistanceMeters>84.48087501525879</DistanceMeters>
                        <Time>2021-12-19T14:15:10.230Z</Time>
                    </Trackpoint>
                    <Trackpoint>
                        <DistanceMeters>121.0189151763916</DistanceMeters>
                        <Time>2021-12-19T14:16:30.270Z</Time>
                    </Trackpoint>
                    <Trackpoint>
                        <DistanceMeters>132.76328468322754</DistanceMeters>
                        <Time>2021-12-19T14:17:01.710Z</Time>
                    </Trackpoint>
                    <Trackpoint>
                        <DistanceMeters>142.79469108581543</DistanceMeters>
                        <Time>2021-12-19T14:17:11.790Z</Time>
                    </Trackpoint>
                    <Trackpoint>
                        <DistanceMeters>170.8506851196289</DistanceMeters>
                        <Time>2021-12-19T14:18:14.390Z</Time>
                    </Trackpoint>
                </Track>
                <DistanceMeters>170.8506851196289</DistanceMeters>
                <TotalTimeSeconds>289.599998828</TotalTimeSeconds>
                <Calories>23.90924072265625</Calories>
                <Intensity>Active</Intensity>
                <TriggerMethod>Manual</TriggerMethod>
            </Lap>
        </Activity>
        <Activity Sport="Walking">
            <Id>2021-12-19T14:25:14.040Z</Id>
            <Lap StartTime="2021-12-19T14:25:14.040Z">
                <Track>
                    <Trackpoint>
                        <DistanceMeters>0.0</DistanceMeters>
                        <Time>2021-12-19T14:25:14.040Z</Time>
                    </Trackpoint>
                    <Trackpoint>
                        <DistanceMeters>0.0</DistanceMeters>
                        <Time>2021-12-19T14:25:59.750Z</Time>
                    </Trackpoint>
                    <Trackpoint>
                        <DistanceMeters>5.219719886779785</DistanceMeters>
                        <Time>2021-12-19T14:26:07.470Z</Time>
                    </Trackpoint>
                    <Trackpoint>
                        <DistanceMeters>32.623250007629395</DistanceMeters>
                        <Time>2021-12-19T14:26:44.495Z</Time>
                    </Trackpoint>
                </Track>
                <DistanceMeters>32.623250007629395</DistanceMeters>
                <TotalTimeSeconds>90.455</TotalTimeSeconds>
                <Calories>8.784184455871582</Calories>
                <Intensity>Active</Intensity>
                <TriggerMethod>Manual</TriggerMethod>
            </Lap>
        </Activity>
    </Activities>
    <Author xsi:type="Application_t">
        <Name>Google Fit</Name>
        <Build>
            <Version>
                <VersionMajor>0</VersionMajor>
                <VersionMinor>0</VersionMinor>
                <BuildMajor>0</BuildMajor>
                <BuildMinor>0</BuildMinor>
            </Version>
        </Build>
        <LangID>en</LangID>
        <PartNumber>000-00000-00</PartNumber>
    </Author>
</TrainingCenterDatabase>
