<?xml version="1.0" encoding="UTF-8"?>
<TrainingCenterDatabase
    xmlns="http://www.garmin.com/xmlschemas/TrainingCenterDatabase/v2"
    xmlns:ns2="http://www.garmin.com/xmlschemas/UserProfile/v2"
    xmlns:ns3="http://www.garmin.com/xmlschemas/ActivityExtension/v2"
    xmlns:ns4="http://www.garmin.com/xmlschemas/ProfileExtension/v1"
    xmlns:ns5="http://www.garmin.com/xmlschemas/ActivityGoals/v1"
    xmlns:xsi="http://www.w3.org/2001/XMLSchema-instance" xsi:schemaLocation="http://www.garmin.com/xmlschemas/TrainingCenterDatabase/v2 http://www.garmin.com/xmlschemas/TrainingCenterDatabasev2.xsd">
    <Activities>
        <Activity Sport="Biking">
            <Id>2021-02-20T08:56:45.888Z</Id>
            <Lap StartTime="2021-02-20T08:56:45.888Z">
                <Track>
                    <Trackpoint>
                        <DistanceMeters>0.0</DistanceMeters>
                        <Time>2021-02-20T08:56:45.888Z</Time>
                    </Trackpoint>
                    <Trackpoint>
                        <DistanceMeters>0.0</DistanceMeters>
                        <Time>2021-02-20T08:56:46.072Z</Time>
                        <Position>
                            <LatitudeDegrees>18.591562271118164</LatitudeDegrees>
                            <LongitudeDegrees>73.79585266113281</LongitudeDegrees>
                        </Position>
                        <AltitudeMeters>494.6600036621094</AltitudeMeters>
                    </Trackpoint>
                    <Trackpoint>
                        <DistanceMeters>0.8478173613548279</DistanceMeters>
                        <Time>2021-02-20T08:58:47.377Z</Time>
                        <Position>
                            <LatitudeDegrees>18.591569900512695</LatitudeDegrees>
                            <LongitudeDegrees>73.79585266113281</LongitudeDegrees>
                        </Position>
                        <AltitudeMeters>494.6600036621094</AltitudeMeters>
                    </Trackpoint>
                    <Trackpoint>
                        <DistanceMeters>1.2717260420322418</DistanceMeters>
                        <Time>2021-02-20T09:00:48.949Z</Time>
                        <Position>
                            <LatitudeDegrees>18.59156608581543</LatitudeDegrees>
                            <LongitudeDegrees>73.79585266113281</LongitudeDegrees>
                        </Position>
                        <AltitudeMeters>494.6600036621094</AltitudeMeters>
                    </Trackpoint>
                    <Trackpoint>
                        <DistanceMeters>2.102783352136612</DistanceMeters>
                        <Time>2021-02-20T09:02:50.426Z</Time>
                        <Position>
                            <LatitudeDegrees>18.591564178466797</LatitudeDegrees>
                            <LongitudeDegrees>73.79584503173828</LongitudeDegrees>
                        </Position>
                        <AltitudeMeters>494.8515625</AltitudeMeters>
                    </Trackpoint>
                    <Trackpoint>
                        <DistanceMeters>4.828379064798355</DistanceMeters>
                        <Time>2021-02-20T09:04:09.805Z</Time>
                        <Position>
                            <LatitudeDegrees>18.591552734375</LatitudeDegrees>
                            <LongitudeDegrees>73.79586791992188</LongitudeDegrees>
                        </Position>
                        <AltitudeMeters>494.6600036621094</AltitudeMeters>
                    </Trackpoint>
                    <Trackpoint>
                        <DistanceMeters>4.828379064798355</DistanceMeters>
                        <Time>2021-02-20T09:04:30.848Z</Time>
                    </Trackpoint>
                </Track>
                <DistanceMeters>4.828379064798355</DistanceMeters>
                <TotalTimeSeconds>464.96</TotalTimeSeconds>
                <Calories>45.97937774658203</Calories>
                <Intensity>Active</Intensity>
                <TriggerMethod>Manual</TriggerMethod>
            </Lap>
        </Activity>
    </Activities>
    <Author xsi:type="Application_t">
        <Name>Google Fit</Name>
        <Build>
            <Version>
                <VersionMajor>0</VersionMajor>
                <VersionMinor>0</VersionMinor>
                <BuildMajor>0</BuildMajor>
                <BuildMinor>0</BuildMinor>
            </Version>
        </Build>
        <LangID>en</LangID>
        <PartNumber>000-00000-00</PartNumber>
    </Author>
</TrainingCenterDatabase>
