<?xml version="1.0" encoding="UTF-8"?>
<TrainingCenterDatabase
    xmlns="http://www.garmin.com/xmlschemas/TrainingCenterDatabase/v2"
    xmlns:ns2="http://www.garmin.com/xmlschemas/UserProfile/v2"
    xmlns:ns3="http://www.garmin.com/xmlschemas/ActivityExtension/v2"
    xmlns:ns4="http://www.garmin.com/xmlschemas/ProfileExtension/v1"
    xmlns:ns5="http://www.garmin.com/xmlschemas/ActivityGoals/v1"
    xmlns:xsi="http://www.w3.org/2001/XMLSchema-instance" xsi:schemaLocation="http://www.garmin.com/xmlschemas/TrainingCenterDatabase/v2 http://www.garmin.com/xmlschemas/TrainingCenterDatabasev2.xsd">
    <Activities>
        <Activity Sport="Walking">
            <Id>2021-03-11T05:35:29.299Z</Id>
            <Lap StartTime="2021-03-11T05:35:29.299Z">
                <Track>
                    <Trackpoint>
                        <DistanceMeters>0.0</DistanceMeters>
                        <Time>2021-03-11T05:35:29.299Z</Time>
                    </Trackpoint>
                    <Trackpoint>
                        <DistanceMeters>0.0</DistanceMeters>
                        <Time>2021-03-11T06:38:53.971Z</Time>
                    </Trackpoint>
                    <Trackpoint>
                        <DistanceMeters>10.389378547668457</DistanceMeters>
                        <Time>2021-03-11T06:39:03.889Z</Time>
                        <Position>
                            <LatitudeDegrees>19.84585952758789</LatitudeDegrees>
                            <LongitudeDegrees>75.3049545288086</LongitudeDegrees>
                        </Position>
                        <AltitudeMeters>476.8548278808594</AltitudeMeters>
                    </Trackpoint>
                    <Trackpoint>
                        <DistanceMeters>10.389378547668457</DistanceMeters>
                        <Time>2021-03-11T06:39:04.475Z</Time>
                    </Trackpoint>
                    <Trackpoint>
                        <DistanceMeters>28.25688076019287</DistanceMeters>
                        <Time>2021-03-11T06:39:25.218Z</Time>
                        <Position>
                            <LatitudeDegrees>19.84710121154785</LatitudeDegrees>
                            <LongitudeDegrees>75.30677795410156</LongitudeDegrees>
                        </Position>
                        <AltitudeMeters>476.8548278808594</AltitudeMeters>
                    </Trackpoint>
                    <Trackpoint>
                        <DistanceMeters>28.25688076019287</DistanceMeters>
                        <Time>2021-03-11T06:39:25.232Z</Time>
                    </Trackpoint>
                    <Trackpoint>
                        <DistanceMeters>74.98727321624756</DistanceMeters>
                        <Time>2021-03-11T06:40:05.216Z</Time>
                        <Position>
                            <LatitudeDegrees>19.84710121154785</LatitudeDegrees>
                            <LongitudeDegrees>75.30677795410156</LongitudeDegrees>
                        </Position>
                        <AltitudeMeters>476.8548278808594</AltitudeMeters>
                    </Trackpoint>
                    <Trackpoint>
                        <DistanceMeters>74.98727321624756</DistanceMeters>
                        <Time>2021-03-11T06:40:14.083Z</Time>
                    </Trackpoint>
                    <Trackpoint>
                        <DistanceMeters>97.42654323577881</DistanceMeters>
                        <Time>2021-03-11T06:40:26.256Z</Time>
                        <Position>
                            <LatitudeDegrees>19.84710121154785</LatitudeDegrees>
                            <LongitudeDegrees>75.30677795410156</LongitudeDegrees>
                        </Position>
                        <AltitudeMeters>476.8548278808594</AltitudeMeters>
                    </Trackpoint>
                    <Trackpoint>
                        <DistanceMeters>97.42654323577881</DistanceMeters>
                        <Time>2021-03-11T06:40:29.759Z</Time>
                    </Trackpoint>
                </Track>
                <DistanceMeters>97.42654323577881</DistanceMeters>
                <TotalTimeSeconds>3900.460249308</TotalTimeSeconds>
                <Calories>87.91214275360107</Calories>
                <Intensity>Active</Intensity>
                <TriggerMethod>Manual</TriggerMethod>
            </Lap>
        </Activity>
        <Activity Sport="Walking">
            <Id>2021-03-11T06:40:14.083Z</Id>
            <Lap StartTime="2021-03-11T06:40:14.083Z">
                <Track>
                    <Trackpoint>
                        <DistanceMeters>0.0</DistanceMeters>
                        <Time>2021-03-11T06:40:14.083Z</Time>
                    </Trackpoint>
                    <Trackpoint>
                        <DistanceMeters>22.43927001953125</DistanceMeters>
                        <Time>2021-03-11T06:40:26.262Z</Time>
                    </Trackpoint>
                    <Trackpoint>
                        <DistanceMeters>22.43927001953125</DistanceMeters>
                        <Time>2021-03-11T06:40:29.759Z</Time>
                    </Trackpoint>
                    <Trackpoint>
                        <DistanceMeters>105.00387573242188</DistanceMeters>
                        <Time>2021-03-11T06:41:31.507Z</Time>
                    </Trackpoint>
                    <Trackpoint>
                        <DistanceMeters>150.35984420776367</DistanceMeters>
                        <Time>2021-03-11T06:42:28.241Z</Time>
                        <Position>
                            <LatitudeDegrees>19.851634979248047</LatitudeDegrees>
                            <LongitudeDegrees>75.30021667480469</LongitudeDegrees>
                        </Position>
                        <AltitudeMeters>476.8548278808594</AltitudeMeters>
                    </Trackpoint>
                    <Trackpoint>
                        <DistanceMeters>150.35984420776367</DistanceMeters>
                        <Time>2021-03-11T06:42:35.550Z</Time>
                    </Trackpoint>
                    <Trackpoint>
                        <DistanceMeters>204.64956283569336</DistanceMeters>
                        <Time>2021-03-11T06:43:32.838Z</Time>
                    </Trackpoint>
                    <Trackpoint>
                        <DistanceMeters>239.95331954956055</DistanceMeters>
                        <Time>2021-03-11T06:43:58.151Z</Time>
                    </Trackpoint>
                    <Trackpoint>
                        <DistanceMeters>259.3404884338379</DistanceMeters>
                        <Time>2021-03-11T06:44:11.600Z</Time>
                    </Trackpoint>
                    <Trackpoint>
                        <DistanceMeters>290.43506240844727</DistanceMeters>
                        <Time>2021-03-11T06:44:33.006Z</Time>
                    </Trackpoint>
                    <Trackpoint>
                        <DistanceMeters>312.71889305114746</DistanceMeters>
                        <Time>2021-03-11T06:44:48.922Z</Time>
                    </Trackpoint>
                    <Trackpoint>
                        <DistanceMeters>353.9515895843506</DistanceMeters>
                        <Time>2021-03-11T06:45:43.225Z</Time>
                    </Trackpoint>
                    <Trackpoint>
                        <DistanceMeters>397.9331340789795</DistanceMeters>
                        <Time>2021-03-11T06:46:39.118Z</Time>
                    </Trackpoint>
                    <Trackpoint>
                        <DistanceMeters>403.4308271408081</DistanceMeters>
                        <Time>2021-03-11T06:46:54.096Z</Time>
                    </Trackpoint>
                    <Trackpoint>
                        <DistanceMeters>457.75126934051514</DistanceMeters>
                        <Time>2021-03-11T06:47:16.758Z</Time>
                        <Position>
                            <LatitudeDegrees>19.847841262817383</LatitudeDegrees>
                            <LongitudeDegrees>75.30399322509766</LongitudeDegrees>
                        </Position>
                        <AltitudeMeters>476.3111877441406</AltitudeMeters>
                    </Trackpoint>
                    <Trackpoint>
                        <DistanceMeters>457.75126934051514</DistanceMeters>
                        <Time>2021-03-11T06:47:36.928Z</Time>
                        <Position>
                            <LatitudeDegrees>19.847841262817383</LatitudeDegrees>
                            <LongitudeDegrees>75.30399322509766</LongitudeDegrees>
                        </Position>
                        <AltitudeMeters>476.23297119140625</AltitudeMeters>
                    </Trackpoint>
                    <Trackpoint>
                        <DistanceMeters>457.75126934051514</DistanceMeters>
                        <Time>2021-03-11T06:47:57.821Z</Time>
                        <Position>
                            <LatitudeDegrees>19.847841262817383</LatitudeDegrees>
                            <LongitudeDegrees>75.30399322509766</LongitudeDegrees>
                        </Position>
                        <AltitudeMeters>476.3601989746094</AltitudeMeters>
                    </Trackpoint>
                    <Trackpoint>
                        <DistanceMeters>457.75126934051514</DistanceMeters>
                        <Time>2021-03-11T06:48:10.642Z</Time>
                    </Trackpoint>
                    <Trackpoint>
                        <DistanceMeters>488.5473470687866</DistanceMeters>
                        <Time>2021-03-11T06:48:36.264Z</Time>
                    </Trackpoint>
                    <Trackpoint>
                        <DistanceMeters>556.5169134140015</DistanceMeters>
                        <Time>2021-03-11T06:49:39.918Z</Time>
                    </Trackpoint>
                    <Trackpoint>
                        <DistanceMeters>564.4007782936096</DistanceMeters>
                        <Time>2021-03-11T06:49:58.157Z</Time>
                        <Position>
                            <LatitudeDegrees>19.84710121154785</LatitudeDegrees>
                            <LongitudeDegrees>75.30677795410156</LongitudeDegrees>
                        </Position>
                        <AltitudeMeters>476.3601989746094</AltitudeMeters>
                    </Trackpoint>
                    <Trackpoint>
                        <DistanceMeters>564.4007782936096</DistanceMeters>
                        <Time>2021-03-11T06:50:58.224Z</Time>
                    </Trackpoint>
                </Track>
                <DistanceMeters>564.4007782936096</DistanceMeters>
                <TotalTimeSeconds>644.140956682</TotalTimeSeconds>
                <Calories>59.36931610107422</Calories>
                <Intensity>Active</Intensity>
                <TriggerMethod>Manual</TriggerMethod>
            </Lap>
        </Activity>
    </Activities>
    <Author xsi:type="Application_t">
        <Name>Google Fit</Name>
        <Build>
            <Version>
                <VersionMajor>0</VersionMajor>
                <VersionMinor>0</VersionMinor>
                <BuildMajor>0</BuildMajor>
                <BuildMinor>0</BuildMinor>
            </Version>
        </Build>
        <LangID>en</LangID>
        <PartNumber>000-00000-00</PartNumber>
    </Author>
</TrainingCenterDatabase>
