<?xml version="1.0" encoding="UTF-8"?>
<TrainingCenterDatabase
    xmlns="http://www.garmin.com/xmlschemas/TrainingCenterDatabase/v2"
    xmlns:ns2="http://www.garmin.com/xmlschemas/UserProfile/v2"
    xmlns:ns3="http://www.garmin.com/xmlschemas/ActivityExtension/v2"
    xmlns:ns4="http://www.garmin.com/xmlschemas/ProfileExtension/v1"
    xmlns:ns5="http://www.garmin.com/xmlschemas/ActivityGoals/v1"
    xmlns:xsi="http://www.w3.org/2001/XMLSchema-instance" xsi:schemaLocation="http://www.garmin.com/xmlschemas/TrainingCenterDatabase/v2 http://www.garmin.com/xmlschemas/TrainingCenterDatabasev2.xsd">
    <Activities>
        <Activity Sport="Walking">
            <Id>2021-08-24T11:23:17.338Z</Id>
            <Lap StartTime="2021-08-24T11:23:17.338Z">
                <Track>
                    <Trackpoint>
                        <DistanceMeters>0.0</DistanceMeters>
                        <Time>2021-08-24T11:23:17.338Z</Time>
                    </Trackpoint>
                    <Trackpoint>
                        <DistanceMeters>0.0</DistanceMeters>
                        <Time>2021-08-24T11:48:36.597Z</Time>
                    </Trackpoint>
                    <Trackpoint>
                        <DistanceMeters>49.587337493896484</DistanceMeters>
                        <Time>2021-08-24T11:49:37.117Z</Time>
                    </Trackpoint>
                </Track>
                <DistanceMeters>49.587337493896484</DistanceMeters>
                <TotalTimeSeconds>1579.779595073</TotalTimeSeconds>
                <Calories>35.56309938430786</Calories>
                <Intensity>Active</Intensity>
                <TriggerMethod>Manual</TriggerMethod>
            </Lap>
        </Activity>
        <Activity Sport="Walking">
            <Id>2021-08-24T11:48:36.597Z</Id>
            <Lap StartTime="2021-08-24T11:48:36.597Z">
                <Track>
                    <Trackpoint>
                        <DistanceMeters>0.0</DistanceMeters>
                        <Time>2021-08-24T11:48:36.597Z</Time>
                    </Trackpoint>
                    <Trackpoint>
                        <DistanceMeters>49.587337493896484</DistanceMeters>
                        <Time>2021-08-24T11:49:12.846Z</Time>
                    </Trackpoint>
                    <Trackpoint>
                        <DistanceMeters>49.587337493896484</DistanceMeters>
                        <Time>2021-08-24T11:49:37.117Z</Time>
                    </Trackpoint>
                    <Trackpoint>
                        <DistanceMeters>113.40560150146484</DistanceMeters>
                        <Time>2021-08-24T11:50:38.037Z</Time>
                    </Trackpoint>
                    <Trackpoint>
                        <DistanceMeters>127.15860080718994</DistanceMeters>
                        <Time>2021-08-24T11:50:52.917Z</Time>
                    </Trackpoint>
                    <Trackpoint>
                        <DistanceMeters>161.73924350738525</DistanceMeters>
                        <Time>2021-08-24T11:52:38.917Z</Time>
                    </Trackpoint>
                </Track>
                <DistanceMeters>161.73924350738525</DistanceMeters>
                <TotalTimeSeconds>242.320002928</TotalTimeSeconds>
                <Calories>12.262868881225586</Calories>
                <Intensity>Active</Intensity>
                <TriggerMethod>Manual</TriggerMethod>
            </Lap>
        </Activity>
        <Activity Sport="Walking">
            <Id>2021-08-24T11:50:52.917Z</Id>
            <Lap StartTime="2021-08-24T11:50:52.917Z">
                <Track>
                    <Trackpoint>
                        <DistanceMeters>0.0</DistanceMeters>
                        <Time>2021-08-24T11:50:52.917Z</Time>
                    </Trackpoint>
                    <Trackpoint>
                        <DistanceMeters>34.58064270019531</DistanceMeters>
                        <Time>2021-08-24T11:52:17.050Z</Time>
                    </Trackpoint>
                    <Trackpoint>
                        <DistanceMeters>34.58064270019531</DistanceMeters>
                        <Time>2021-08-24T11:52:38.917Z</Time>
                    </Trackpoint>
                    <Trackpoint>
                        <DistanceMeters>52.19719696044922</DistanceMeters>
                        <Time>2021-08-24T11:53:22.917Z</Time>
                    </Trackpoint>
                    <Trackpoint>
                        <DistanceMeters>78.29579544067383</DistanceMeters>
                        <Time>2021-08-24T11:54:31.917Z</Time>
                    </Trackpoint>
                    <Trackpoint>
                        <DistanceMeters>86.1253752708435</DistanceMeters>
                        <Time>2021-08-24T11:56:45.637Z</Time>
                    </Trackpoint>
                    <Trackpoint>
                        <DistanceMeters>93.302490234375</DistanceMeters>
                        <Time>2021-08-24T11:56:54.837Z</Time>
                    </Trackpoint>
                </Track>
                <DistanceMeters>93.302490234375</DistanceMeters>
                <TotalTimeSeconds>361.919995686</TotalTimeSeconds>
                <Calories>27.771926879882812</Calories>
                <Intensity>Active</Intensity>
                <TriggerMethod>Manual</TriggerMethod>
            </Lap>
        </Activity>
        <Activity Sport="Walking">
            <Id>2021-08-24T11:56:45.637Z</Id>
            <Lap StartTime="2021-08-24T11:56:45.637Z">
                <Track>
                    <Trackpoint>
                        <DistanceMeters>0.0</DistanceMeters>
                        <Time>2021-08-24T11:56:45.637Z</Time>
                    </Trackpoint>
                    <Trackpoint>
                        <DistanceMeters>7.177114963531494</DistanceMeters>
                        <Time>2021-08-24T11:56:54.000Z</Time>
                    </Trackpoint>
                    <Trackpoint>
                        <DistanceMeters>7.177114963531494</DistanceMeters>
                        <Time>2021-08-24T11:56:54.837Z</Time>
                    </Trackpoint>
                </Track>
                <DistanceMeters>7.177114963531494</DistanceMeters>
                <TotalTimeSeconds>9.2</TotalTimeSeconds>
                <Calories>0.0839921310544014</Calories>
                <Intensity>Active</Intensity>
                <TriggerMethod>Manual</TriggerMethod>
            </Lap>
        </Activity>
        <Activity Sport="Walking">
            <Id>2021-08-24T12:00:39.437Z</Id>
            <Lap StartTime="2021-08-24T12:00:39.437Z">
                <Track>
                    <Trackpoint>
                        <DistanceMeters>0.0</DistanceMeters>
                        <Time>2021-08-24T12:00:39.437Z</Time>
                    </Trackpoint>
                    <Trackpoint>
                        <DistanceMeters>33.92818069458008</DistanceMeters>
                        <Time>2021-08-24T12:02:02.188Z</Time>
                    </Trackpoint>
                    <Trackpoint>
                        <DistanceMeters>33.92818069458008</DistanceMeters>
                        <Time>2021-08-24T12:02:03.997Z</Time>
                    </Trackpoint>
                    <Trackpoint>
                        <DistanceMeters>63.28910446166992</DistanceMeters>
                        <Time>2021-08-24T12:03:27.077Z</Time>
                    </Trackpoint>
                    <Trackpoint>
                        <DistanceMeters>64.59403443336487</DistanceMeters>
                        <Time>2021-08-24T12:04:35.896Z</Time>
                    </Trackpoint>
                </Track>
                <DistanceMeters>64.59403443336487</DistanceMeters>
                <TotalTimeSeconds>236.458404652</TotalTimeSeconds>
                <Calories>15.413496017456055</Calories>
                <Intensity>Active</Intensity>
                <TriggerMethod>Manual</TriggerMethod>
            </Lap>
        </Activity>
    </Activities>
    <Author xsi:type="Application_t">
        <Name>Google Fit</Name>
        <Build>
            <Version>
                <VersionMajor>0</VersionMajor>
                <VersionMinor>0</VersionMinor>
                <BuildMajor>0</BuildMajor>
                <BuildMinor>0</BuildMinor>
            </Version>
        </Build>
        <LangID>en</LangID>
        <PartNumber>000-00000-00</PartNumber>
    </Author>
</TrainingCenterDatabase>
