<?xml version="1.0" encoding="UTF-8"?>
<TrainingCenterDatabase
    xmlns="http://www.garmin.com/xmlschemas/TrainingCenterDatabase/v2"
    xmlns:ns2="http://www.garmin.com/xmlschemas/UserProfile/v2"
    xmlns:ns3="http://www.garmin.com/xmlschemas/ActivityExtension/v2"
    xmlns:ns4="http://www.garmin.com/xmlschemas/ProfileExtension/v1"
    xmlns:ns5="http://www.garmin.com/xmlschemas/ActivityGoals/v1"
    xmlns:xsi="http://www.w3.org/2001/XMLSchema-instance" xsi:schemaLocation="http://www.garmin.com/xmlschemas/TrainingCenterDatabase/v2 http://www.garmin.com/xmlschemas/TrainingCenterDatabasev2.xsd">
    <Activities>
        <Activity Sport="Walking">
            <Id>2021-05-10T15:26:09.296Z</Id>
            <Lap StartTime="2021-05-10T15:26:09.296Z">
                <Track>
                    <Trackpoint>
                        <DistanceMeters>0.0</DistanceMeters>
                        <Time>2021-05-10T15:26:09.296Z</Time>
                    </Trackpoint>
                    <Trackpoint>
                        <DistanceMeters>70.09558868408203</DistanceMeters>
                        <Time>2021-05-10T15:29:14.529Z</Time>
                    </Trackpoint>
                    <Trackpoint>
                        <DistanceMeters>70.09558868408203</DistanceMeters>
                        <Time>2021-05-10T15:29:33.296Z</Time>
                    </Trackpoint>
                    <Trackpoint>
                        <DistanceMeters>120.47352600097656</DistanceMeters>
                        <Time>2021-05-10T15:31:25.395Z</Time>
                    </Trackpoint>
                    <Trackpoint>
                        <DistanceMeters>144.52593231201172</DistanceMeters>
                        <Time>2021-05-10T15:32:35.395Z</Time>
                    </Trackpoint>
                </Track>
                <DistanceMeters>144.52593231201172</DistanceMeters>
                <TotalTimeSeconds>386.099105968</TotalTimeSeconds>
                <Calories>15.376825332641602</Calories>
                <Intensity>Active</Intensity>
                <TriggerMethod>Manual</TriggerMethod>
            </Lap>
        </Activity>
        <Activity Sport="Walking">
            <Id>2021-05-10T15:31:58.209Z</Id>
            <Lap StartTime="2021-05-10T15:31:58.209Z">
                <Track>
                    <Trackpoint>
                        <DistanceMeters>0.0</DistanceMeters>
                        <Time>2021-05-10T15:31:58.209Z</Time>
                    </Trackpoint>
                    <Trackpoint>
                        <DistanceMeters>0.0</DistanceMeters>
                        <Time>2021-05-10T15:40:19.319Z</Time>
                    </Trackpoint>
                    <Trackpoint>
                        <DistanceMeters>5.497693061828613</DistanceMeters>
                        <Time>2021-05-10T15:40:29.106Z</Time>
                    </Trackpoint>
                    <Trackpoint>
                        <DistanceMeters>37.1094274520874</DistanceMeters>
                        <Time>2021-05-10T15:41:02.845Z</Time>
                    </Trackpoint>
                </Track>
                <DistanceMeters>37.1094274520874</DistanceMeters>
                <TotalTimeSeconds>544.636083446</TotalTimeSeconds>
                <Calories>10.92825198173523</Calories>
                <Intensity>Active</Intensity>
                <TriggerMethod>Manual</TriggerMethod>
            </Lap>
        </Activity>
        <Activity Sport="Walking">
            <Id>2021-05-10T15:40:29.106Z</Id>
            <Lap StartTime="2021-05-10T15:40:29.106Z">
                <Track>
                    <Trackpoint>
                        <DistanceMeters>0.0</DistanceMeters>
                        <Time>2021-05-10T15:40:29.106Z</Time>
                    </Trackpoint>
                    <Trackpoint>
                        <DistanceMeters>31.61173439025879</DistanceMeters>
                        <Time>2021-05-10T15:40:32.167Z</Time>
                    </Trackpoint>
                    <Trackpoint>
                        <DistanceMeters>31.61173439025879</DistanceMeters>
                        <Time>2021-05-10T15:41:02.845Z</Time>
                    </Trackpoint>
                    <Trackpoint>
                        <DistanceMeters>54.28971862792969</DistanceMeters>
                        <Time>2021-05-10T15:41:28.944Z</Time>
                    </Trackpoint>
                    <Trackpoint>
                        <DistanceMeters>85.21424293518066</DistanceMeters>
                        <Time>2021-05-10T15:42:03.160Z</Time>
                    </Trackpoint>
                    <Trackpoint>
                        <DistanceMeters>107.20501518249512</DistanceMeters>
                        <Time>2021-05-10T15:42:29.578Z</Time>
                    </Trackpoint>
                    <Trackpoint>
                        <DistanceMeters>116.0453577041626</DistanceMeters>
                        <Time>2021-05-10T15:42:33.554Z</Time>
                        <Position>
                            <LatitudeDegrees>18.591562271118164</LatitudeDegrees>
                            <LongitudeDegrees>73.79605865478516</LongitudeDegrees>
                        </Position>
                        <AltitudeMeters>472.0758361816406</AltitudeMeters>
                    </Trackpoint>
                    <Trackpoint>
                        <DistanceMeters>116.0453577041626</DistanceMeters>
                        <Time>2021-05-10T15:42:36.819Z</Time>
                    </Trackpoint>
                    <Trackpoint>
                        <DistanceMeters>127.04074382781982</DistanceMeters>
                        <Time>2021-05-10T15:42:50.984Z</Time>
                    </Trackpoint>
                    <Trackpoint>
                        <DistanceMeters>138.7233419418335</DistanceMeters>
                        <Time>2021-05-10T15:43:17.247Z</Time>
                    </Trackpoint>
                </Track>
                <DistanceMeters>138.7233419418335</DistanceMeters>
                <TotalTimeSeconds>168.141075452</TotalTimeSeconds>
                <Calories>14.312623023986816</Calories>
                <Intensity>Active</Intensity>
                <TriggerMethod>Manual</TriggerMethod>
            </Lap>
        </Activity>
    </Activities>
    <Author xsi:type="Application_t">
        <Name>Google Fit</Name>
        <Build>
            <Version>
                <VersionMajor>0</VersionMajor>
                <VersionMinor>0</VersionMinor>
                <BuildMajor>0</BuildMajor>
                <BuildMinor>0</BuildMinor>
            </Version>
        </Build>
        <LangID>en</LangID>
        <PartNumber>000-00000-00</PartNumber>
    </Author>
</TrainingCenterDatabase>
