<?xml version="1.0" encoding="UTF-8"?>
<TrainingCenterDatabase
    xmlns="http://www.garmin.com/xmlschemas/TrainingCenterDatabase/v2"
    xmlns:ns2="http://www.garmin.com/xmlschemas/UserProfile/v2"
    xmlns:ns3="http://www.garmin.com/xmlschemas/ActivityExtension/v2"
    xmlns:ns4="http://www.garmin.com/xmlschemas/ProfileExtension/v1"
    xmlns:ns5="http://www.garmin.com/xmlschemas/ActivityGoals/v1"
    xmlns:xsi="http://www.w3.org/2001/XMLSchema-instance" xsi:schemaLocation="http://www.garmin.com/xmlschemas/TrainingCenterDatabase/v2 http://www.garmin.com/xmlschemas/TrainingCenterDatabasev2.xsd">
    <Activities>
        <Activity Sport="Walking">
            <Id>2021-09-30T14:19:03.828Z</Id>
            <Lap StartTime="2021-09-30T14:19:03.828Z">
                <Track>
                    <Trackpoint>
                        <DistanceMeters>0.0</DistanceMeters>
                        <Time>2021-09-30T14:19:03.828Z</Time>
                    </Trackpoint>
                    <Trackpoint>
                        <DistanceMeters>27.11541748046875</DistanceMeters>
                        <Time>2021-09-30T14:19:23.996Z</Time>
                    </Trackpoint>
                    <Trackpoint>
                        <DistanceMeters>41.61534404754639</DistanceMeters>
                        <Time>2021-09-30T14:19:35.156Z</Time>
                    </Trackpoint>
                    <Trackpoint>
                        <DistanceMeters>67.8158597946167</DistanceMeters>
                        <Time>2021-09-30T14:19:55.076Z</Time>
                    </Trackpoint>
                    <Trackpoint>
                        <DistanceMeters>104.20457363128662</DistanceMeters>
                        <Time>2021-09-30T14:20:24.556Z</Time>
                    </Trackpoint>
                    <Trackpoint>
                        <DistanceMeters>118.6573133468628</DistanceMeters>
                        <Time>2021-09-30T14:20:35.796Z</Time>
                    </Trackpoint>
                    <Trackpoint>
                        <DistanceMeters>143.17334842681885</DistanceMeters>
                        <Time>2021-09-30T14:20:54.996Z</Time>
                    </Trackpoint>
                    <Trackpoint>
                        <DistanceMeters>165.3821897506714</DistanceMeters>
                        <Time>2021-09-30T14:21:16.836Z</Time>
                    </Trackpoint>
                    <Trackpoint>
                        <DistanceMeters>171.90683937072754</DistanceMeters>
                        <Time>2021-09-30T14:21:38.676Z</Time>
                    </Trackpoint>
                    <Trackpoint>
                        <DistanceMeters>195.3838882446289</DistanceMeters>
                        <Time>2021-09-30T14:21:57.876Z</Time>
                    </Trackpoint>
                    <Trackpoint>
                        <DistanceMeters>252.2463836669922</DistanceMeters>
                        <Time>2021-09-30T14:22:44.516Z</Time>
                    </Trackpoint>
                    <Trackpoint>
                        <DistanceMeters>271.9502067565918</DistanceMeters>
                        <Time>2021-09-30T14:23:03.276Z</Time>
                    </Trackpoint>
                    <Trackpoint>
                        <DistanceMeters>305.8783874511719</DistanceMeters>
                        <Time>2021-09-30T14:24:09.116Z</Time>
                    </Trackpoint>
                </Track>
                <DistanceMeters>305.8783874511719</DistanceMeters>
                <TotalTimeSeconds>305.288236914</TotalTimeSeconds>
                <Calories>26.18663787841797</Calories>
                <Intensity>Active</Intensity>
                <TriggerMethod>Manual</TriggerMethod>
            </Lap>
        </Activity>
        <Activity Sport="Walking">
            <Id>2021-09-30T14:23:24.969Z</Id>
            <Lap StartTime="2021-09-30T14:23:24.969Z">
                <Track>
                    <Trackpoint>
                        <DistanceMeters>0.0</DistanceMeters>
                        <Time>2021-09-30T14:23:24.969Z</Time>
                    </Trackpoint>
                    <Trackpoint>
                        <DistanceMeters>0.0</DistanceMeters>
                        <Time>2021-09-30T14:35:30.876Z</Time>
                    </Trackpoint>
                    <Trackpoint>
                        <DistanceMeters>51.544734954833984</DistanceMeters>
                        <Time>2021-09-30T14:36:37.376Z</Time>
                    </Trackpoint>
                    <Trackpoint>
                        <DistanceMeters>85.32380294799805</DistanceMeters>
                        <Time>2021-09-30T14:37:05.996Z</Time>
                    </Trackpoint>
                </Track>
                <DistanceMeters>85.32380294799805</DistanceMeters>
                <TotalTimeSeconds>821.027237461</TotalTimeSeconds>
                <Calories>24.179088592529297</Calories>
                <Intensity>Active</Intensity>
                <TriggerMethod>Manual</TriggerMethod>
            </Lap>
        </Activity>
        <Activity Sport="Walking">
            <Id>2021-09-30T14:36:37.376Z</Id>
            <Lap StartTime="2021-09-30T14:36:37.376Z">
                <Track>
                    <Trackpoint>
                        <DistanceMeters>0.0</DistanceMeters>
                        <Time>2021-09-30T14:36:37.376Z</Time>
                    </Trackpoint>
                    <Trackpoint>
                        <DistanceMeters>33.77906799316406</DistanceMeters>
                        <Time>2021-09-30T14:36:59.866Z</Time>
                    </Trackpoint>
                    <Trackpoint>
                        <DistanceMeters>33.77906799316406</DistanceMeters>
                        <Time>2021-09-30T14:37:05.996Z</Time>
                    </Trackpoint>
                    <Trackpoint>
                        <DistanceMeters>48.77309226989746</DistanceMeters>
                        <Time>2021-09-30T14:37:18.116Z</Time>
                    </Trackpoint>
                    <Trackpoint>
                        <DistanceMeters>88.10046195983887</DistanceMeters>
                        <Time>2021-09-30T14:37:49.756Z</Time>
                    </Trackpoint>
                    <Trackpoint>
                        <DistanceMeters>122.68110466003418</DistanceMeters>
                        <Time>2021-09-30T14:38:58.078Z</Time>
                    </Trackpoint>
                </Track>
                <DistanceMeters>122.68110466003418</DistanceMeters>
                <TotalTimeSeconds>140.701764029</TotalTimeSeconds>
                <Calories>11.854037284851074</Calories>
                <Intensity>Active</Intensity>
                <TriggerMethod>Manual</TriggerMethod>
            </Lap>
        </Activity>
        <Activity Sport="Walking">
            <Id>2021-09-30T14:38:58.078Z</Id>
            <Lap StartTime="2021-09-30T14:38:58.078Z">
                <Track>
                    <Trackpoint>
                        <DistanceMeters>0.0</DistanceMeters>
                        <Time>2021-09-30T14:38:58.078Z</Time>
                    </Trackpoint>
                    <Trackpoint>
                        <DistanceMeters>0.0</DistanceMeters>
                        <Time>2021-09-30T14:48:11.916Z</Time>
                    </Trackpoint>
                    <Trackpoint>
                        <DistanceMeters>12.396834373474121</DistanceMeters>
                        <Time>2021-09-30T14:48:32.836Z</Time>
                    </Trackpoint>
                    <Trackpoint>
                        <DistanceMeters>12.396834373474121</DistanceMeters>
                        <Time>2021-09-30T14:49:17.452Z</Time>
                    </Trackpoint>
                </Track>
                <DistanceMeters>12.396834373474121</DistanceMeters>
                <TotalTimeSeconds>619.374</TotalTimeSeconds>
                <Calories>16.552873134613037</Calories>
                <Intensity>Active</Intensity>
                <TriggerMethod>Manual</TriggerMethod>
            </Lap>
        </Activity>
        <Activity Sport="Walking">
            <Id>2021-09-30T14:49:17.452Z</Id>
            <Lap StartTime="2021-09-30T14:49:17.452Z">
                <Track>
                    <Trackpoint>
                        <DistanceMeters>0.0</DistanceMeters>
                        <Time>2021-09-30T14:49:17.452Z</Time>
                    </Trackpoint>
                    <Trackpoint>
                        <DistanceMeters>0.836408793926239</DistanceMeters>
                        <Time>2021-09-30T14:49:57.716Z</Time>
                    </Trackpoint>
                    <Trackpoint>
                        <DistanceMeters>23.020218074321747</DistanceMeters>
                        <Time>2021-09-30T14:50:24.796Z</Time>
                    </Trackpoint>
                    <Trackpoint>
                        <DistanceMeters>28.239937961101532</DistanceMeters>
                        <Time>2021-09-30T14:51:20.876Z</Time>
                    </Trackpoint>
                    <Trackpoint>
                        <DistanceMeters>44.55156248807907</DistanceMeters>
                        <Time>2021-09-30T14:52:20.876Z</Time>
                    </Trackpoint>
                    <Trackpoint>
                        <DistanceMeters>57.600861728191376</DistanceMeters>
                        <Time>2021-09-30T14:53:12.836Z</Time>
                    </Trackpoint>
                    <Trackpoint>
                        <DistanceMeters>64.77797669172287</DistanceMeters>
                        <Time>2021-09-30T14:53:26.116Z</Time>
                    </Trackpoint>
                    <Trackpoint>
                        <DistanceMeters>85.00439041852951</DistanceMeters>
                        <Time>2021-09-30T14:54:15.196Z</Time>
                    </Trackpoint>
                </Track>
                <DistanceMeters>85.00439041852951</DistanceMeters>
                <TotalTimeSeconds>297.744235625</TotalTimeSeconds>
                <Calories>26.394012451171875</Calories>
                <Intensity>Active</Intensity>
                <TriggerMethod>Manual</TriggerMethod>
            </Lap>
        </Activity>
    </Activities>
    <Author xsi:type="Application_t">
        <Name>Google Fit</Name>
        <Build>
            <Version>
                <VersionMajor>0</VersionMajor>
                <VersionMinor>0</VersionMinor>
                <BuildMajor>0</BuildMajor>
                <BuildMinor>0</BuildMinor>
            </Version>
        </Build>
        <LangID>en</LangID>
        <PartNumber>000-00000-00</PartNumber>
    </Author>
</TrainingCenterDatabase>
