<?xml version="1.0" encoding="UTF-8"?>
<TrainingCenterDatabase
    xmlns="http://www.garmin.com/xmlschemas/TrainingCenterDatabase/v2"
    xmlns:ns2="http://www.garmin.com/xmlschemas/UserProfile/v2"
    xmlns:ns3="http://www.garmin.com/xmlschemas/ActivityExtension/v2"
    xmlns:ns4="http://www.garmin.com/xmlschemas/ProfileExtension/v1"
    xmlns:ns5="http://www.garmin.com/xmlschemas/ActivityGoals/v1"
    xmlns:xsi="http://www.w3.org/2001/XMLSchema-instance" xsi:schemaLocation="http://www.garmin.com/xmlschemas/TrainingCenterDatabase/v2 http://www.garmin.com/xmlschemas/TrainingCenterDatabasev2.xsd">
    <Activities>
        <Activity Sport="Walking">
            <Id>2021-12-28T15:01:47.032Z</Id>
            <Lap StartTime="2021-12-28T15:01:47.032Z">
                <Track>
                    <Trackpoint>
                        <DistanceMeters>0.0</DistanceMeters>
                        <Time>2021-12-28T15:01:47.032Z</Time>
                    </Trackpoint>
                    <Trackpoint>
                        <DistanceMeters>0.0</DistanceMeters>
                        <Time>2021-12-28T17:13:00.953Z</Time>
                    </Trackpoint>
                    <Trackpoint>
                        <DistanceMeters>14.354229927062988</DistanceMeters>
                        <Time>2021-12-28T17:13:45.913Z</Time>
                    </Trackpoint>
                    <Trackpoint>
                        <DistanceMeters>86.77784442901611</DistanceMeters>
                        <Time>2021-12-28T17:15:26.553Z</Time>
                    </Trackpoint>
                </Track>
                <DistanceMeters>86.77784442901611</DistanceMeters>
                <TotalTimeSeconds>8019.520838274</TotalTimeSeconds>
                <Calories>165.19767820835114</Calories>
                <Intensity>Active</Intensity>
                <TriggerMethod>Manual</TriggerMethod>
            </Lap>
        </Activity>
        <Activity Sport="Walking">
            <Id>2021-12-28T17:13:45.913Z</Id>
            <Lap StartTime="2021-12-28T17:13:45.913Z">
                <Track>
                    <Trackpoint>
                        <DistanceMeters>0.0</DistanceMeters>
                        <Time>2021-12-28T17:13:45.913Z</Time>
                    </Trackpoint>
                    <Trackpoint>
                        <DistanceMeters>72.42361450195312</DistanceMeters>
                        <Time>2021-12-28T17:14:01.638Z</Time>
                    </Trackpoint>
                    <Trackpoint>
                        <DistanceMeters>72.42361450195312</DistanceMeters>
                        <Time>2021-12-28T17:15:26.553Z</Time>
                    </Trackpoint>
                    <Trackpoint>
                        <DistanceMeters>186.37860107421875</DistanceMeters>
                        <Time>2021-12-28T17:16:57.553Z</Time>
                    </Trackpoint>
                    <Trackpoint>
                        <DistanceMeters>220.23436737060547</DistanceMeters>
                        <Time>2021-12-28T17:17:24.153Z</Time>
                    </Trackpoint>
                    <Trackpoint>
                        <DistanceMeters>286.19566345214844</DistanceMeters>
                        <Time>2021-12-28T17:18:18.633Z</Time>
                    </Trackpoint>
                    <Trackpoint>
                        <DistanceMeters>303.0592727661133</DistanceMeters>
                        <Time>2021-12-28T17:18:32.993Z</Time>
                    </Trackpoint>
                    <Trackpoint>
                        <DistanceMeters>338.6584281921387</DistanceMeters>
                        <Time>2021-12-28T17:19:02.033Z</Time>
                    </Trackpoint>
                    <Trackpoint>
                        <DistanceMeters>398.8562126159668</DistanceMeters>
                        <Time>2021-12-28T17:19:51.993Z</Time>
                    </Trackpoint>
                    <Trackpoint>
                        <DistanceMeters>450.7284622192383</DistanceMeters>
                        <Time>2021-12-28T17:20:30.953Z</Time>
                    </Trackpoint>
                    <Trackpoint>
                        <DistanceMeters>516.036247253418</DistanceMeters>
                        <Time>2021-12-28T17:21:26.673Z</Time>
                    </Trackpoint>
                    <Trackpoint>
                        <DistanceMeters>548.959056854248</DistanceMeters>
                        <Time>2021-12-28T17:21:54.993Z</Time>
                    </Trackpoint>
                    <Trackpoint>
                        <DistanceMeters>591.792781829834</DistanceMeters>
                        <Time>2021-12-28T17:22:29.633Z</Time>
                    </Trackpoint>
                    <Trackpoint>
                        <DistanceMeters>624.6345367431641</DistanceMeters>
                        <Time>2021-12-28T17:22:58.113Z</Time>
                    </Trackpoint>
                    <Trackpoint>
                        <DistanceMeters>691.1859664916992</DistanceMeters>
                        <Time>2021-12-28T17:24:35.453Z</Time>
                    </Trackpoint>
                    <Trackpoint>
                        <DistanceMeters>714.5477428436279</DistanceMeters>
                        <Time>2021-12-28T17:24:56.873Z</Time>
                    </Trackpoint>
                    <Trackpoint>
                        <DistanceMeters>731.9077682495117</DistanceMeters>
                        <Time>2021-12-28T17:26:04.519Z</Time>
                    </Trackpoint>
                </Track>
                <DistanceMeters>731.9077682495117</DistanceMeters>
                <TotalTimeSeconds>738.605817503</TotalTimeSeconds>
                <Calories>70.19977569580078</Calories>
                <Intensity>Active</Intensity>
                <TriggerMethod>Manual</TriggerMethod>
            </Lap>
        </Activity>
        <Activity Sport="Walking">
            <Id>2021-12-28T17:26:04.519Z</Id>
            <Lap StartTime="2021-12-28T17:26:04.519Z">
                <Track>
                    <Trackpoint>
                        <DistanceMeters>0.0</DistanceMeters>
                        <Time>2021-12-28T17:26:04.519Z</Time>
                    </Trackpoint>
                    <Trackpoint>
                        <DistanceMeters>0.0</DistanceMeters>
                        <Time>2021-12-28T17:29:01.753Z</Time>
                    </Trackpoint>
                    <Trackpoint>
                        <DistanceMeters>0.0</DistanceMeters>
                        <Time>2021-12-28T17:29:05.606Z</Time>
                    </Trackpoint>
                </Track>
                <DistanceMeters>0.0</DistanceMeters>
                <TotalTimeSeconds>181.087</TotalTimeSeconds>
                <Calories>4.0372985899448395</Calories>
                <Intensity>Active</Intensity>
                <TriggerMethod>Manual</TriggerMethod>
            </Lap>
        </Activity>
        <Activity Sport="Walking">
            <Id>2021-12-28T17:29:05.606Z</Id>
            <Lap StartTime="2021-12-28T17:29:05.606Z">
                <Track>
                    <Trackpoint>
                        <DistanceMeters>0.0</DistanceMeters>
                        <Time>2021-12-28T17:29:05.606Z</Time>
                    </Trackpoint>
                    <Trackpoint>
                        <DistanceMeters>25.97083854675293</DistanceMeters>
                        <Time>2021-12-28T17:30:04.153Z</Time>
                    </Trackpoint>
                    <Trackpoint>
                        <DistanceMeters>51.18749809265137</DistanceMeters>
                        <Time>2021-12-28T17:30:23.953Z</Time>
                    </Trackpoint>
                    <Trackpoint>
                        <DistanceMeters>99.12553215026855</DistanceMeters>
                        <Time>2021-12-28T17:31:00.633Z</Time>
                    </Trackpoint>
                    <Trackpoint>
                        <DistanceMeters>129.97187423706055</DistanceMeters>
                        <Time>2021-12-28T17:31:25.193Z</Time>
                    </Trackpoint>
                    <Trackpoint>
                        <DistanceMeters>178.90031051635742</DistanceMeters>
                        <Time>2021-12-28T17:32:01.993Z</Time>
                    </Trackpoint>
                    <Trackpoint>
                        <DistanceMeters>210.0478801727295</DistanceMeters>
                        <Time>2021-12-28T17:32:26.033Z</Time>
                    </Trackpoint>
                    <Trackpoint>
                        <DistanceMeters>260.51220512390137</DistanceMeters>
                        <Time>2021-12-28T17:33:02.113Z</Time>
                    </Trackpoint>
                    <Trackpoint>
                        <DistanceMeters>292.289514541626</DistanceMeters>
                        <Time>2021-12-28T17:33:26.873Z</Time>
                    </Trackpoint>
                    <Trackpoint>
                        <DistanceMeters>346.0435962677002</DistanceMeters>
                        <Time>2021-12-28T17:34:02.993Z</Time>
                    </Trackpoint>
                    <Trackpoint>
                        <DistanceMeters>383.26228523254395</DistanceMeters>
                        <Time>2021-12-28T17:34:27.753Z</Time>
                    </Trackpoint>
                    <Trackpoint>
                        <DistanceMeters>433.62195014953613</DistanceMeters>
                        <Time>2021-12-28T17:35:03.993Z</Time>
                    </Trackpoint>
                    <Trackpoint>
                        <DistanceMeters>468.91783714294434</DistanceMeters>
                        <Time>2021-12-28T17:35:28.313Z</Time>
                    </Trackpoint>
                    <Trackpoint>
                        <DistanceMeters>516.855878829956</DistanceMeters>
                        <Time>2021-12-28T17:36:04.993Z</Time>
                    </Trackpoint>
                    <Trackpoint>
                        <DistanceMeters>558.3316097259521</DistanceMeters>
                        <Time>2021-12-28T17:36:34.833Z</Time>
                    </Trackpoint>
                    <Trackpoint>
                        <DistanceMeters>613.7273349761963</DistanceMeters>
                        <Time>2021-12-28T17:37:11.793Z</Time>
                    </Trackpoint>
                    <Trackpoint>
                        <DistanceMeters>616.5345015525818</DistanceMeters>
                        <Time>2021-12-28T17:37:14.193Z</Time>
                    </Trackpoint>
                    <Trackpoint>
                        <DistanceMeters>696.5593123435974</DistanceMeters>
                        <Time>2021-12-28T17:38:22.553Z</Time>
                    </Trackpoint>
                    <Trackpoint>
                        <DistanceMeters>722.3735117912292</DistanceMeters>
                        <Time>2021-12-28T17:38:45.053Z</Time>
                    </Trackpoint>
                </Track>
                <DistanceMeters>722.3735117912292</DistanceMeters>
                <TotalTimeSeconds>579.447181837</TotalTimeSeconds>
                <Calories>56.22509765625</Calories>
                <Intensity>Active</Intensity>
                <TriggerMethod>Manual</TriggerMethod>
            </Lap>
        </Activity>
        <Activity Sport="Walking">
            <Id>2021-12-28T17:38:22.553Z</Id>
            <Lap StartTime="2021-12-28T17:38:22.553Z">
                <Track>
                    <Trackpoint>
                        <DistanceMeters>0.0</DistanceMeters>
                        <Time>2021-12-28T17:38:22.553Z</Time>
                    </Trackpoint>
                    <Trackpoint>
                        <DistanceMeters>25.814199447631836</DistanceMeters>
                        <Time>2021-12-28T17:38:44.583Z</Time>
                    </Trackpoint>
                    <Trackpoint>
                        <DistanceMeters>25.814199447631836</DistanceMeters>
                        <Time>2021-12-28T17:38:45.053Z</Time>
                    </Trackpoint>
                </Track>
                <DistanceMeters>25.814199447631836</DistanceMeters>
                <TotalTimeSeconds>22.5</TotalTimeSeconds>
                <Calories>0.045659881085157394</Calories>
                <Intensity>Active</Intensity>
                <TriggerMethod>Manual</TriggerMethod>
            </Lap>
        </Activity>
        <Activity Sport="Walking">
            <Id>2021-12-28T17:47:08.953Z</Id>
            <Lap StartTime="2021-12-28T17:47:08.953Z">
                <Track>
                    <Trackpoint>
                        <DistanceMeters>0.0</DistanceMeters>
                        <Time>2021-12-28T17:47:08.953Z</Time>
                    </Trackpoint>
                    <Trackpoint>
                        <DistanceMeters>15.006694793701172</DistanceMeters>
                        <Time>2021-12-28T17:47:53.651Z</Time>
                    </Trackpoint>
                    <Trackpoint>
                        <DistanceMeters>15.006694793701172</DistanceMeters>
                        <Time>2021-12-28T17:48:08.953Z</Time>
                    </Trackpoint>
                    <Trackpoint>
                        <DistanceMeters>67.18991470336914</DistanceMeters>
                        <Time>2021-12-28T17:48:56.913Z</Time>
                    </Trackpoint>
                    <Trackpoint>
                        <DistanceMeters>91.85637474060059</DistanceMeters>
                        <Time>2021-12-28T17:49:17.713Z</Time>
                    </Trackpoint>
                    <Trackpoint>
                        <DistanceMeters>124.47962379455566</DistanceMeters>
                        <Time>2021-12-28T17:49:57.553Z</Time>
                    </Trackpoint>
                    <Trackpoint>
                        <DistanceMeters>141.93020248413086</DistanceMeters>
                        <Time>2021-12-28T17:50:14.873Z</Time>
                    </Trackpoint>
                </Track>
                <DistanceMeters>141.93020248413086</DistanceMeters>
                <TotalTimeSeconds>185.919999805</TotalTimeSeconds>
                <Calories>12.93646240234375</Calories>
                <Intensity>Active</Intensity>
                <TriggerMethod>Manual</TriggerMethod>
            </Lap>
        </Activity>
        <Activity Sport="Walking">
            <Id>2021-12-28T17:49:57.553Z</Id>
            <Lap StartTime="2021-12-28T17:49:57.553Z">
                <Track>
                    <Trackpoint>
                        <DistanceMeters>0.0</DistanceMeters>
                        <Time>2021-12-28T17:49:57.553Z</Time>
                    </Trackpoint>
                    <Trackpoint>
                        <DistanceMeters>17.450578689575195</DistanceMeters>
                        <Time>2021-12-28T17:50:06.864Z</Time>
                    </Trackpoint>
                    <Trackpoint>
                        <DistanceMeters>17.450578689575195</DistanceMeters>
                        <Time>2021-12-28T17:50:14.873Z</Time>
                    </Trackpoint>
                </Track>
                <DistanceMeters>17.450578689575195</DistanceMeters>
                <TotalTimeSeconds>17.32</TotalTimeSeconds>
                <Calories>0.7777804136276245</Calories>
                <Intensity>Active</Intensity>
                <TriggerMethod>Manual</TriggerMethod>
            </Lap>
        </Activity>
    </Activities>
    <Author xsi:type="Application_t">
        <Name>Google Fit</Name>
        <Build>
            <Version>
                <VersionMajor>0</VersionMajor>
                <VersionMinor>0</VersionMinor>
                <BuildMajor>0</BuildMajor>
                <BuildMinor>0</BuildMinor>
            </Version>
        </Build>
        <LangID>en</LangID>
        <PartNumber>000-00000-00</PartNumber>
    </Author>
</TrainingCenterDatabase>
