<?xml version="1.0" encoding="UTF-8"?>
<TrainingCenterDatabase
    xmlns="http://www.garmin.com/xmlschemas/TrainingCenterDatabase/v2"
    xmlns:ns2="http://www.garmin.com/xmlschemas/UserProfile/v2"
    xmlns:ns3="http://www.garmin.com/xmlschemas/ActivityExtension/v2"
    xmlns:ns4="http://www.garmin.com/xmlschemas/ProfileExtension/v1"
    xmlns:ns5="http://www.garmin.com/xmlschemas/ActivityGoals/v1"
    xmlns:xsi="http://www.w3.org/2001/XMLSchema-instance" xsi:schemaLocation="http://www.garmin.com/xmlschemas/TrainingCenterDatabase/v2 http://www.garmin.com/xmlschemas/TrainingCenterDatabasev2.xsd">
    <Activities>
        <Activity Sport="Walking">
            <Id>2021-02-21T04:21:44.641Z</Id>
            <Lap StartTime="2021-02-21T04:21:44.641Z">
                <Track>
                    <Trackpoint>
                        <DistanceMeters>0.0</DistanceMeters>
                        <Time>2021-02-21T04:21:44.641Z</Time>
                    </Trackpoint>
                    <Trackpoint>
                        <DistanceMeters>30.924524307250977</DistanceMeters>
                        <Time>2021-02-21T04:22:33.466Z</Time>
                    </Trackpoint>
                    <Trackpoint>
                        <DistanceMeters>30.924524307250977</DistanceMeters>
                        <Time>2021-02-21T04:23:14.641Z</Time>
                    </Trackpoint>
                    <Trackpoint>
                        <DistanceMeters>42.60712242126465</DistanceMeters>
                        <Time>2021-02-21T04:23:27.689Z</Time>
                    </Trackpoint>
                    <Trackpoint>
                        <DistanceMeters>50.16645050048828</DistanceMeters>
                        <Time>2021-02-21T04:23:46.395Z</Time>
                    </Trackpoint>
                    <Trackpoint>
                        <DistanceMeters>58.336177825927734</DistanceMeters>
                        <Time>2021-02-21T04:24:04.896Z</Time>
                        <Position>
                            <LatitudeDegrees>18.591508865356445</LatitudeDegrees>
                            <LongitudeDegrees>73.7959213256836</LongitudeDegrees>
                        </Position>
                        <AltitudeMeters>495.2121276855469</AltitudeMeters>
                    </Trackpoint>
                    <Trackpoint>
                        <DistanceMeters>58.336177825927734</DistanceMeters>
                        <Time>2021-02-21T04:26:06.916Z</Time>
                        <Position>
                            <LatitudeDegrees>18.591508865356445</LatitudeDegrees>
                            <LongitudeDegrees>73.7959213256836</LongitudeDegrees>
                        </Position>
                        <AltitudeMeters>495.2121276855469</AltitudeMeters>
                    </Trackpoint>
                    <Trackpoint>
                        <DistanceMeters>58.336177825927734</DistanceMeters>
                        <Time>2021-02-21T04:28:09.971Z</Time>
                        <Position>
                            <LatitudeDegrees>18.591508865356445</LatitudeDegrees>
                            <LongitudeDegrees>73.7959213256836</LongitudeDegrees>
                        </Position>
                        <AltitudeMeters>495.2121276855469</AltitudeMeters>
                    </Trackpoint>
                    <Trackpoint>
                        <DistanceMeters>95.08913040161133</DistanceMeters>
                        <Time>2021-02-21T04:28:49.450Z</Time>
                        <Position>
                            <LatitudeDegrees>18.591567993164062</LatitudeDegrees>
                            <LongitudeDegrees>73.7962646484375</LongitudeDegrees>
                        </Position>
                        <AltitudeMeters>493.1600036621094</AltitudeMeters>
                    </Trackpoint>
                    <Trackpoint>
                        <DistanceMeters>282.96940994262695</DistanceMeters>
                        <Time>2021-02-21T04:32:49.357Z</Time>
                        <Position>
                            <LatitudeDegrees>18.59323501586914</LatitudeDegrees>
                            <LongitudeDegrees>73.79596710205078</LongitudeDegrees>
                        </Position>
                        <AltitudeMeters>493.55999755859375</AltitudeMeters>
                    </Trackpoint>
                    <Trackpoint>
                        <DistanceMeters>417.16516494750977</DistanceMeters>
                        <Time>2021-02-21T04:34:50.394Z</Time>
                        <Position>
                            <LatitudeDegrees>18.593236923217773</LatitudeDegrees>
                            <LongitudeDegrees>73.7972412109375</LongitudeDegrees>
                        </Position>
                        <AltitudeMeters>493.1600036621094</AltitudeMeters>
                    </Trackpoint>
                    <Trackpoint>
                        <DistanceMeters>567.7619667053223</DistanceMeters>
                        <Time>2021-02-21T04:36:52.830Z</Time>
                        <Position>
                            <LatitudeDegrees>18.59314727783203</LatitudeDegrees>
                            <LongitudeDegrees>73.79866790771484</LongitudeDegrees>
                        </Position>
                        <AltitudeMeters>493.55999755859375</AltitudeMeters>
                    </Trackpoint>
                    <Trackpoint>
                        <DistanceMeters>711.012149810791</DistanceMeters>
                        <Time>2021-02-21T04:38:53.870Z</Time>
                        <Position>
                            <LatitudeDegrees>18.592866897583008</LatitudeDegrees>
                            <LongitudeDegrees>73.79999542236328</LongitudeDegrees>
                        </Position>
                        <AltitudeMeters>494.55999755859375</AltitudeMeters>
                    </Trackpoint>
                    <Trackpoint>
                        <DistanceMeters>878.3322334289551</DistanceMeters>
                        <Time>2021-02-21T04:40:54.896Z</Time>
                        <Position>
                            <LatitudeDegrees>18.592647552490234</LatitudeDegrees>
                            <LongitudeDegrees>73.80156707763672</LongitudeDegrees>
                        </Position>
                        <AltitudeMeters>494.260009765625</AltitudeMeters>
                    </Trackpoint>
                    <Trackpoint>
                        <DistanceMeters>1005.9532356262207</DistanceMeters>
                        <Time>2021-02-21T04:42:55.924Z</Time>
                        <Position>
                            <LatitudeDegrees>18.593719482421875</LatitudeDegrees>
                            <LongitudeDegrees>73.802001953125</LongitudeDegrees>
                        </Position>
                        <AltitudeMeters>492.6600036621094</AltitudeMeters>
                    </Trackpoint>
                    <Trackpoint>
                        <DistanceMeters>1199.7020454406738</DistanceMeters>
                        <Time>2021-02-21T04:45:00.160Z</Time>
                        <Position>
                            <LatitudeDegrees>18.59539222717285</LatitudeDegrees>
                            <LongitudeDegrees>73.80252075195312</LongitudeDegrees>
                        </Position>
                        <AltitudeMeters>490.760009765625</AltitudeMeters>
                    </Trackpoint>
                    <Trackpoint>
                        <DistanceMeters>1282.3229942321777</DistanceMeters>
                        <Time>2021-02-21T04:46:46.693Z</Time>
                        <Position>
                            <LatitudeDegrees>18.595252990722656</LatitudeDegrees>
                            <LongitudeDegrees>73.80329132080078</LongitudeDegrees>
                        </Position>
                        <AltitudeMeters>490.260009765625</AltitudeMeters>
                    </Trackpoint>
                    <Trackpoint>
                        <DistanceMeters>1283.1708115935326</DistanceMeters>
                        <Time>2021-02-21T04:47:07.471Z</Time>
                        <Position>
                            <LatitudeDegrees>18.595252990722656</LatitudeDegrees>
                            <LongitudeDegrees>73.80329132080078</LongitudeDegrees>
                        </Position>
                        <AltitudeMeters>490.1706237792969</AltitudeMeters>
                    </Trackpoint>
                    <Trackpoint>
                        <DistanceMeters>1283.1708115935326</DistanceMeters>
                        <Time>2021-02-21T04:47:07.541Z</Time>
                    </Trackpoint>
                </Track>
                <DistanceMeters>1283.1708115935326</DistanceMeters>
                <TotalTimeSeconds>1522.899662123</TotalTimeSeconds>
                <Calories>138.4811553955078</Calories>
                <Intensity>Active</Intensity>
                <TriggerMethod>Manual</TriggerMethod>
            </Lap>
        </Activity>
        <Activity Sport="Walking">
            <Id>2021-02-21T05:01:24.405Z</Id>
            <Lap StartTime="2021-02-21T05:01:24.405Z">
                <Track>
                    <Trackpoint>
                        <DistanceMeters>0.0</DistanceMeters>
                        <Time>2021-02-21T05:01:24.405Z</Time>
                    </Trackpoint>
                    <Trackpoint>
                        <DistanceMeters>8.849283218383789</DistanceMeters>
                        <Time>2021-02-21T05:01:44.190Z</Time>
                        <Position>
                            <LatitudeDegrees>18.595291137695312</LatitudeDegrees>
                            <LongitudeDegrees>73.80329895019531</LongitudeDegrees>
                        </Position>
                        <AltitudeMeters>490.55999755859375</AltitudeMeters>
                    </Trackpoint>
                    <Trackpoint>
                        <DistanceMeters>14.84547758102417</DistanceMeters>
                        <Time>2021-02-21T05:02:14.323Z</Time>
                    </Trackpoint>
                </Track>
                <DistanceMeters>14.84547758102417</DistanceMeters>
                <TotalTimeSeconds>49.918</TotalTimeSeconds>
                <Calories>4.689518928527832</Calories>
                <Intensity>Active</Intensity>
                <TriggerMethod>Manual</TriggerMethod>
            </Lap>
        </Activity>
        <Activity Sport="Walking">
            <Id>2021-02-21T05:02:14.323Z</Id>
            <Lap StartTime="2021-02-21T05:02:14.323Z">
                <Track>
                    <Trackpoint>
                        <DistanceMeters>0.0</DistanceMeters>
                        <Time>2021-02-21T05:02:14.323Z</Time>
                    </Trackpoint>
                    <Trackpoint>
                        <DistanceMeters>0.0</DistanceMeters>
                        <Time>2021-02-21T05:05:47.764Z</Time>
                    </Trackpoint>
                    <Trackpoint>
                        <DistanceMeters>2.7488465309143066</DistanceMeters>
                        <Time>2021-02-21T05:05:49.517Z</Time>
                        <Position>
                            <LatitudeDegrees>18.595308303833008</LatitudeDegrees>
                            <LongitudeDegrees>73.80329132080078</LongitudeDegrees>
                        </Position>
                        <AltitudeMeters>490.55999755859375</AltitudeMeters>
                    </Trackpoint>
                    <Trackpoint>
                        <DistanceMeters>2.7488465309143066</DistanceMeters>
                        <Time>2021-02-21T05:05:51.424Z</Time>
                    </Trackpoint>
                    <Trackpoint>
                        <DistanceMeters>76.51869821548462</DistanceMeters>
                        <Time>2021-02-21T05:06:51.577Z</Time>
                    </Trackpoint>
                </Track>
                <DistanceMeters>76.51869821548462</DistanceMeters>
                <TotalTimeSeconds>277.254509653</TotalTimeSeconds>
                <Calories>7.623802661895752</Calories>
                <Intensity>Active</Intensity>
                <TriggerMethod>Manual</TriggerMethod>
            </Lap>
        </Activity>
        <Activity Sport="Walking">
            <Id>2021-02-21T05:05:51.424Z</Id>
            <Lap StartTime="2021-02-21T05:05:51.424Z">
                <Track>
                    <Trackpoint>
                        <DistanceMeters>0.0</DistanceMeters>
                        <Time>2021-02-21T05:05:51.424Z</Time>
                    </Trackpoint>
                    <Trackpoint>
                        <DistanceMeters>73.76985168457031</DistanceMeters>
                        <Time>2021-02-21T05:06:21.597Z</Time>
                    </Trackpoint>
                    <Trackpoint>
                        <DistanceMeters>73.76985168457031</DistanceMeters>
                        <Time>2021-02-21T05:06:51.577Z</Time>
                    </Trackpoint>
                    <Trackpoint>
                        <DistanceMeters>145.47721099853516</DistanceMeters>
                        <Time>2021-02-21T05:07:49.543Z</Time>
                        <Position>
                            <LatitudeDegrees>18.59529685974121</LatitudeDegrees>
                            <LongitudeDegrees>73.80337524414062</LongitudeDegrees>
                        </Position>
                        <AltitudeMeters>490.55999755859375</AltitudeMeters>
                    </Trackpoint>
                    <Trackpoint>
                        <DistanceMeters>145.47721099853516</DistanceMeters>
                        <Time>2021-02-21T05:07:51.652Z</Time>
                    </Trackpoint>
                    <Trackpoint>
                        <DistanceMeters>194.95644760131836</DistanceMeters>
                        <Time>2021-02-21T05:08:51.727Z</Time>
                    </Trackpoint>
                    <Trackpoint>
                        <DistanceMeters>214.8855857849121</DistanceMeters>
                        <Time>2021-02-21T05:09:50.583Z</Time>
                        <Position>
                            <LatitudeDegrees>18.595333099365234</LatitudeDegrees>
                            <LongitudeDegrees>73.80326843261719</LongitudeDegrees>
                        </Position>
                        <AltitudeMeters>490.55999755859375</AltitudeMeters>
                    </Trackpoint>
                    <Trackpoint>
                        <DistanceMeters>214.8855857849121</DistanceMeters>
                        <Time>2021-02-21T05:09:50.626Z</Time>
                    </Trackpoint>
                </Track>
                <DistanceMeters>214.8855857849121</DistanceMeters>
                <TotalTimeSeconds>239.201004179</TotalTimeSeconds>
                <Calories>19.63711166381836</Calories>
                <Intensity>Active</Intensity>
                <TriggerMethod>Manual</TriggerMethod>
            </Lap>
        </Activity>
    </Activities>
    <Author xsi:type="Application_t">
        <Name>Google Fit</Name>
        <Build>
            <Version>
                <VersionMajor>0</VersionMajor>
                <VersionMinor>0</VersionMinor>
                <BuildMajor>0</BuildMajor>
                <BuildMinor>0</BuildMinor>
            </Version>
        </Build>
        <LangID>en</LangID>
        <PartNumber>000-00000-00</PartNumber>
    </Author>
</TrainingCenterDatabase>
