<?xml version="1.0" encoding="UTF-8"?>
<TrainingCenterDatabase
    xmlns="http://www.garmin.com/xmlschemas/TrainingCenterDatabase/v2"
    xmlns:ns2="http://www.garmin.com/xmlschemas/UserProfile/v2"
    xmlns:ns3="http://www.garmin.com/xmlschemas/ActivityExtension/v2"
    xmlns:ns4="http://www.garmin.com/xmlschemas/ProfileExtension/v1"
    xmlns:ns5="http://www.garmin.com/xmlschemas/ActivityGoals/v1"
    xmlns:xsi="http://www.w3.org/2001/XMLSchema-instance" xsi:schemaLocation="http://www.garmin.com/xmlschemas/TrainingCenterDatabase/v2 http://www.garmin.com/xmlschemas/TrainingCenterDatabasev2.xsd">
    <Activities>
        <Activity Sport="Walking">
            <Id>2021-09-07T18:19:53.229Z</Id>
            <Lap StartTime="2021-09-07T18:19:53.229Z">
                <Track>
                    <Trackpoint>
                        <DistanceMeters>0.0</DistanceMeters>
                        <Time>2021-09-07T18:19:53.229Z</Time>
                    </Trackpoint>
                    <Trackpoint>
                        <DistanceMeters>0.0</DistanceMeters>
                        <Time>2021-09-07T18:23:04.416Z</Time>
                    </Trackpoint>
                    <Trackpoint>
                        <DistanceMeters>17.616554260253906</DistanceMeters>
                        <Time>2021-09-07T18:24:04.416Z</Time>
                    </Trackpoint>
                    <Trackpoint>
                        <DistanceMeters>33.928178787231445</DistanceMeters>
                        <Time>2021-09-07T18:26:16.216Z</Time>
                    </Trackpoint>
                    <Trackpoint>
                        <DistanceMeters>67.20389366149902</DistanceMeters>
                        <Time>2021-09-07T18:27:12.136Z</Time>
                    </Trackpoint>
                    <Trackpoint>
                        <DistanceMeters>96.56481742858887</DistanceMeters>
                        <Time>2021-09-07T18:28:30.496Z</Time>
                    </Trackpoint>
                    <Trackpoint>
                        <DistanceMeters>135.7127170562744</DistanceMeters>
                        <Time>2021-09-07T18:29:18.496Z</Time>
                    </Trackpoint>
                    <Trackpoint>
                        <DistanceMeters>143.5422968864441</DistanceMeters>
                        <Time>2021-09-07T18:29:32.816Z</Time>
                    </Trackpoint>
                    <Trackpoint>
                        <DistanceMeters>168.33596563339233</DistanceMeters>
                        <Time>2021-09-07T18:30:08.616Z</Time>
                    </Trackpoint>
                    <Trackpoint>
                        <DistanceMeters>182.8444619178772</DistanceMeters>
                        <Time>2021-09-07T18:30:23.916Z</Time>
                    </Trackpoint>
                    <Trackpoint>
                        <DistanceMeters>236.34659051895142</DistanceMeters>
                        <Time>2021-09-07T18:31:41.176Z</Time>
                    </Trackpoint>
                    <Trackpoint>
                        <DistanceMeters>258.5303997993469</DistanceMeters>
                        <Time>2021-09-07T18:32:05.976Z</Time>
                    </Trackpoint>
                    <Trackpoint>
                        <DistanceMeters>264.56906175613403</DistanceMeters>
                        <Time>2021-09-07T18:32:11.976Z</Time>
                    </Trackpoint>
                    <Trackpoint>
                        <DistanceMeters>292.6250557899475</DistanceMeters>
                        <Time>2021-09-07T18:32:44.936Z</Time>
                    </Trackpoint>
                    <Trackpoint>
                        <DistanceMeters>307.6317505836487</DistanceMeters>
                        <Time>2021-09-07T18:33:10.496Z</Time>
                    </Trackpoint>
                    <Trackpoint>
                        <DistanceMeters>319.9352984428406</DistanceMeters>
                        <Time>2021-09-07T18:33:21.976Z</Time>
                    </Trackpoint>
                </Track>
                <DistanceMeters>319.9352984428406</DistanceMeters>
                <TotalTimeSeconds>808.747131715</TotalTimeSeconds>
                <Calories>80.18822479248047</Calories>
                <Intensity>Active</Intensity>
                <TriggerMethod>Manual</TriggerMethod>
            </Lap>
        </Activity>
        <Activity Sport="Walking">
            <Id>2021-09-07T18:33:10.496Z</Id>
            <Lap StartTime="2021-09-07T18:33:10.496Z">
                <Track>
                    <Trackpoint>
                        <DistanceMeters>0.0</DistanceMeters>
                        <Time>2021-09-07T18:33:10.496Z</Time>
                    </Trackpoint>
                    <Trackpoint>
                        <DistanceMeters>12.303547859191895</DistanceMeters>
                        <Time>2021-09-07T18:33:12.890Z</Time>
                    </Trackpoint>
                    <Trackpoint>
                        <DistanceMeters>12.303547859191895</DistanceMeters>
                        <Time>2021-09-07T18:33:21.976Z</Time>
                    </Trackpoint>
                    <Trackpoint>
                        <DistanceMeters>34.4873571395874</DistanceMeters>
                        <Time>2021-09-07T18:33:46.736Z</Time>
                    </Trackpoint>
                    <Trackpoint>
                        <DistanceMeters>39.70707702636719</DistanceMeters>
                        <Time>2021-09-07T18:33:54.096Z</Time>
                    </Trackpoint>
                </Track>
                <DistanceMeters>39.70707702636719</DistanceMeters>
                <TotalTimeSeconds>43.599998104</TotalTimeSeconds>
                <Calories>4.132059097290039</Calories>
                <Intensity>Active</Intensity>
                <TriggerMethod>Manual</TriggerMethod>
            </Lap>
        </Activity>
        <Activity Sport="Walking">
            <Id>2021-09-07T18:44:55.896Z</Id>
            <Lap StartTime="2021-09-07T18:44:55.896Z">
                <Track>
                    <Trackpoint>
                        <DistanceMeters>0.0</DistanceMeters>
                        <Time>2021-09-07T18:44:55.896Z</Time>
                    </Trackpoint>
                    <Trackpoint>
                        <DistanceMeters>33.27571487426758</DistanceMeters>
                        <Time>2021-09-07T18:45:20.752Z</Time>
                    </Trackpoint>
                    <Trackpoint>
                        <DistanceMeters>33.27571487426758</DistanceMeters>
                        <Time>2021-09-07T18:46:40.749Z</Time>
                    </Trackpoint>
                </Track>
                <DistanceMeters>33.27571487426758</DistanceMeters>
                <TotalTimeSeconds>104.852878601</TotalTimeSeconds>
                <Calories>8.021921157836914</Calories>
                <Intensity>Active</Intensity>
                <TriggerMethod>Manual</TriggerMethod>
            </Lap>
        </Activity>
    </Activities>
    <Author xsi:type="Application_t">
        <Name>Google Fit</Name>
        <Build>
            <Version>
                <VersionMajor>0</VersionMajor>
                <VersionMinor>0</VersionMinor>
                <BuildMajor>0</BuildMajor>
                <BuildMinor>0</BuildMinor>
            </Version>
        </Build>
        <LangID>en</LangID>
        <PartNumber>000-00000-00</PartNumber>
    </Author>
</TrainingCenterDatabase>
