<?xml version="1.0" encoding="UTF-8"?>
<TrainingCenterDatabase
    xmlns="http://www.garmin.com/xmlschemas/TrainingCenterDatabase/v2"
    xmlns:ns2="http://www.garmin.com/xmlschemas/UserProfile/v2"
    xmlns:ns3="http://www.garmin.com/xmlschemas/ActivityExtension/v2"
    xmlns:ns4="http://www.garmin.com/xmlschemas/ProfileExtension/v1"
    xmlns:ns5="http://www.garmin.com/xmlschemas/ActivityGoals/v1"
    xmlns:xsi="http://www.w3.org/2001/XMLSchema-instance" xsi:schemaLocation="http://www.garmin.com/xmlschemas/TrainingCenterDatabase/v2 http://www.garmin.com/xmlschemas/TrainingCenterDatabasev2.xsd">
    <Activities>
        <Activity Sport="Walking">
            <Id>2021-04-11T18:47:18.995Z</Id>
            <Lap StartTime="2021-04-11T18:47:18.995Z">
                <Track>
                    <Trackpoint>
                        <DistanceMeters>0.0</DistanceMeters>
                        <Time>2021-04-11T18:47:18.995Z</Time>
                    </Trackpoint>
                    <Trackpoint>
                        <DistanceMeters>14.43144416809082</DistanceMeters>
                        <Time>2021-04-11T18:47:22.953Z</Time>
                    </Trackpoint>
                    <Trackpoint>
                        <DistanceMeters>14.43144416809082</DistanceMeters>
                        <Time>2021-04-11T18:47:41.274Z</Time>
                    </Trackpoint>
                    <Trackpoint>
                        <DistanceMeters>44.66875648498535</DistanceMeters>
                        <Time>2021-04-11T18:48:22.808Z</Time>
                    </Trackpoint>
                    <Trackpoint>
                        <DistanceMeters>54.97693061828613</DistanceMeters>
                        <Time>2021-04-11T18:48:35.936Z</Time>
                    </Trackpoint>
                    <Trackpoint>
                        <DistanceMeters>76.96770286560059</DistanceMeters>
                        <Time>2021-04-11T18:49:08.290Z</Time>
                    </Trackpoint>
                    <Trackpoint>
                        <DistanceMeters>98.95847511291504</DistanceMeters>
                        <Time>2021-04-11T18:49:51.812Z</Time>
                    </Trackpoint>
                    <Trackpoint>
                        <DistanceMeters>111.32828426361084</DistanceMeters>
                        <Time>2021-04-11T18:50:23.161Z</Time>
                    </Trackpoint>
                    <Trackpoint>
                        <DistanceMeters>128.5085744857788</DistanceMeters>
                        <Time>2021-04-11T18:50:49.656Z</Time>
                    </Trackpoint>
                    <Trackpoint>
                        <DistanceMeters>147.06328868865967</DistanceMeters>
                        <Time>2021-04-11T18:51:23.153Z</Time>
                    </Trackpoint>
                    <Trackpoint>
                        <DistanceMeters>171.11569499969482</DistanceMeters>
                        <Time>2021-04-11T18:52:00.867Z</Time>
                    </Trackpoint>
                    <Trackpoint>
                        <DistanceMeters>184.17271614074707</DistanceMeters>
                        <Time>2021-04-11T18:52:23.384Z</Time>
                    </Trackpoint>
                    <Trackpoint>
                        <DistanceMeters>209.59954643249512</DistanceMeters>
                        <Time>2021-04-11T18:53:04.569Z</Time>
                    </Trackpoint>
                    <Trackpoint>
                        <DistanceMeters>224.03099060058594</DistanceMeters>
                        <Time>2021-04-11T18:53:24.142Z</Time>
                    </Trackpoint>
                    <Trackpoint>
                        <DistanceMeters>255.64272499084473</DistanceMeters>
                        <Time>2021-04-11T18:54:05.119Z</Time>
                    </Trackpoint>
                    <Trackpoint>
                        <DistanceMeters>264.57647609710693</DistanceMeters>
                        <Time>2021-04-11T18:54:15.860Z</Time>
                    </Trackpoint>
                    <Trackpoint>
                        <DistanceMeters>286.5672483444214</DistanceMeters>
                        <Time>2021-04-11T18:54:58.985Z</Time>
                    </Trackpoint>
                    <Trackpoint>
                        <DistanceMeters>294.126576423645</DistanceMeters>
                        <Time>2021-04-11T18:55:24.087Z</Time>
                    </Trackpoint>
                    <Trackpoint>
                        <DistanceMeters>330.5487947463989</DistanceMeters>
                        <Time>2021-04-11T18:56:21.612Z</Time>
                    </Trackpoint>
                    <Trackpoint>
                        <DistanceMeters>331.9232180118561</DistanceMeters>
                        <Time>2021-04-11T18:56:23.124Z</Time>
                    </Trackpoint>
                    <Trackpoint>
                        <DistanceMeters>370.4070703983307</DistanceMeters>
                        <Time>2021-04-11T18:57:21.972Z</Time>
                    </Trackpoint>
                    <Trackpoint>
                        <DistanceMeters>371.78149366378784</DistanceMeters>
                        <Time>2021-04-11T18:57:24.597Z</Time>
                    </Trackpoint>
                    <Trackpoint>
                        <DistanceMeters>415.07582807540894</DistanceMeters>
                        <Time>2021-04-11T18:57:53.013Z</Time>
                        <Position>
                            <LatitudeDegrees>18.59156036376953</LatitudeDegrees>
                            <LongitudeDegrees>73.79598999023438</LongitudeDegrees>
                        </Position>
                        <AltitudeMeters>469.9169616699219</AltitudeMeters>
                    </Trackpoint>
                    <Trackpoint>
                        <DistanceMeters>415.07582807540894</DistanceMeters>
                        <Time>2021-04-11T18:58:23.157Z</Time>
                    </Trackpoint>
                    <Trackpoint>
                        <DistanceMeters>417.2361493110657</DistanceMeters>
                        <Time>2021-04-11T18:58:25.067Z</Time>
                    </Trackpoint>
                    <Trackpoint>
                        <DistanceMeters>462.59211778640747</DistanceMeters>
                        <Time>2021-04-11T18:59:22.831Z</Time>
                    </Trackpoint>
                    <Trackpoint>
                        <DistanceMeters>463.27932941913605</DistanceMeters>
                        <Time>2021-04-11T18:59:24.582Z</Time>
                    </Trackpoint>
                    <Trackpoint>
                        <DistanceMeters>507.26087391376495</DistanceMeters>
                        <Time>2021-04-11T19:00:21.072Z</Time>
                    </Trackpoint>
                    <Trackpoint>
                        <DistanceMeters>552.6168423891068</DistanceMeters>
                        <Time>2021-04-11T19:01:25.758Z</Time>
                    </Trackpoint>
                    <Trackpoint>
                        <DistanceMeters>599.3472348451614</DistanceMeters>
                        <Time>2021-04-11T19:02:24.636Z</Time>
                    </Trackpoint>
                    <Trackpoint>
                        <DistanceMeters>641.9543553590775</DistanceMeters>
                        <Time>2021-04-11T19:03:14.215Z</Time>
                    </Trackpoint>
                </Track>
                <DistanceMeters>641.9543553590775</DistanceMeters>
                <TotalTimeSeconds>955.219283071</TotalTimeSeconds>
                <Calories>84.85502624511719</Calories>
                <Intensity>Active</Intensity>
                <TriggerMethod>Manual</TriggerMethod>
            </Lap>
        </Activity>
        <Activity Sport="Walking">
            <Id>2021-04-11T19:02:24.636Z</Id>
            <Lap StartTime="2021-04-11T19:02:24.636Z">
                <Track>
                    <Trackpoint>
                        <DistanceMeters>0.0</DistanceMeters>
                        <Time>2021-04-11T19:02:24.636Z</Time>
                    </Trackpoint>
                    <Trackpoint>
                        <DistanceMeters>42.607120513916016</DistanceMeters>
                        <Time>2021-04-11T19:02:26.200Z</Time>
                    </Trackpoint>
                    <Trackpoint>
                        <DistanceMeters>42.607120513916016</DistanceMeters>
                        <Time>2021-04-11T19:03:14.215Z</Time>
                    </Trackpoint>
                    <Trackpoint>
                        <DistanceMeters>49.4792366027832</DistanceMeters>
                        <Time>2021-04-11T19:03:25.115Z</Time>
                    </Trackpoint>
                    <Trackpoint>
                        <DistanceMeters>89.3375129699707</DistanceMeters>
                        <Time>2021-04-11T19:04:11.581Z</Time>
                    </Trackpoint>
                </Track>
                <DistanceMeters>89.3375129699707</DistanceMeters>
                <TotalTimeSeconds>106.944841383</TotalTimeSeconds>
                <Calories>9.899979591369629</Calories>
                <Intensity>Active</Intensity>
                <TriggerMethod>Manual</TriggerMethod>
            </Lap>
        </Activity>
        <Activity Sport="Walking">
            <Id>2021-04-11T19:10:08.029Z</Id>
            <Lap StartTime="2021-04-11T19:10:08.029Z">
                <Track>
                    <Trackpoint>
                        <DistanceMeters>0.0</DistanceMeters>
                        <Time>2021-04-11T19:10:08.029Z</Time>
                    </Trackpoint>
                    <Trackpoint>
                        <DistanceMeters>47.4176025390625</DistanceMeters>
                        <Time>2021-04-11T19:10:58.258Z</Time>
                    </Trackpoint>
                    <Trackpoint>
                        <DistanceMeters>47.4176025390625</DistanceMeters>
                        <Time>2021-04-11T19:11:27.595Z</Time>
                    </Trackpoint>
                    <Trackpoint>
                        <DistanceMeters>76.28049087524414</DistanceMeters>
                        <Time>2021-04-11T19:12:27.937Z</Time>
                    </Trackpoint>
                    <Trackpoint>
                        <DistanceMeters>111.32828521728516</DistanceMeters>
                        <Time>2021-04-11T19:13:17.268Z</Time>
                    </Trackpoint>
                </Track>
                <DistanceMeters>111.32828521728516</DistanceMeters>
                <TotalTimeSeconds>189.238574075</TotalTimeSeconds>
                <Calories>11.350179672241211</Calories>
                <Intensity>Active</Intensity>
                <TriggerMethod>Manual</TriggerMethod>
            </Lap>
        </Activity>
        <Activity Sport="Walking">
            <Id>2021-04-11T19:12:27.937Z</Id>
            <Lap StartTime="2021-04-11T19:12:27.937Z">
                <Track>
                    <Trackpoint>
                        <DistanceMeters>0.0</DistanceMeters>
                        <Time>2021-04-11T19:12:27.937Z</Time>
                    </Trackpoint>
                    <Trackpoint>
                        <DistanceMeters>35.047794342041016</DistanceMeters>
                        <Time>2021-04-11T19:12:59.076Z</Time>
                    </Trackpoint>
                    <Trackpoint>
                        <DistanceMeters>35.047794342041016</DistanceMeters>
                        <Time>2021-04-11T19:13:17.268Z</Time>
                    </Trackpoint>
                </Track>
                <DistanceMeters>35.047794342041016</DistanceMeters>
                <TotalTimeSeconds>49.3311943</TotalTimeSeconds>
                <Calories>1.7090898752212524</Calories>
                <Intensity>Active</Intensity>
                <TriggerMethod>Manual</TriggerMethod>
            </Lap>
        </Activity>
    </Activities>
    <Author xsi:type="Application_t">
        <Name>Google Fit</Name>
        <Build>
            <Version>
                <VersionMajor>0</VersionMajor>
                <VersionMinor>0</VersionMinor>
                <BuildMajor>0</BuildMajor>
                <BuildMinor>0</BuildMinor>
            </Version>
        </Build>
        <LangID>en</LangID>
        <PartNumber>000-00000-00</PartNumber>
    </Author>
</TrainingCenterDatabase>
