<?xml version="1.0" encoding="UTF-8"?>
<TrainingCenterDatabase
    xmlns="http://www.garmin.com/xmlschemas/TrainingCenterDatabase/v2"
    xmlns:ns2="http://www.garmin.com/xmlschemas/UserProfile/v2"
    xmlns:ns3="http://www.garmin.com/xmlschemas/ActivityExtension/v2"
    xmlns:ns4="http://www.garmin.com/xmlschemas/ProfileExtension/v1"
    xmlns:ns5="http://www.garmin.com/xmlschemas/ActivityGoals/v1"
    xmlns:xsi="http://www.w3.org/2001/XMLSchema-instance" xsi:schemaLocation="http://www.garmin.com/xmlschemas/TrainingCenterDatabase/v2 http://www.garmin.com/xmlschemas/TrainingCenterDatabasev2.xsd">
    <Activities>
        <Activity Sport="Walking">
            <Id>2021-04-11T14:27:19.851Z</Id>
            <Lap StartTime="2021-04-11T14:27:19.851Z">
                <Track>
                    <Trackpoint>
                        <DistanceMeters>0.0</DistanceMeters>
                        <Time>2021-04-11T14:27:19.851Z</Time>
                    </Trackpoint>
                    <Trackpoint>
                        <DistanceMeters>11.682598114013672</DistanceMeters>
                        <Time>2021-04-11T14:27:22.824Z</Time>
                    </Trackpoint>
                    <Trackpoint>
                        <DistanceMeters>11.682598114013672</DistanceMeters>
                        <Time>2021-04-11T14:27:39.344Z</Time>
                    </Trackpoint>
                    <Trackpoint>
                        <DistanceMeters>39.85827445983887</DistanceMeters>
                        <Time>2021-04-11T14:27:49.015Z</Time>
                        <Position>
                            <LatitudeDegrees>18.591583251953125</LatitudeDegrees>
                            <LongitudeDegrees>73.79595947265625</LongitudeDegrees>
                        </Position>
                        <AltitudeMeters>487.7015380859375</AltitudeMeters>
                    </Trackpoint>
                    <Trackpoint>
                        <DistanceMeters>39.85827445983887</DistanceMeters>
                        <Time>2021-04-11T14:28:22.788Z</Time>
                    </Trackpoint>
                    <Trackpoint>
                        <DistanceMeters>55.66414165496826</DistanceMeters>
                        <Time>2021-04-11T14:28:40.213Z</Time>
                    </Trackpoint>
                    <Trackpoint>
                        <DistanceMeters>83.83981800079346</DistanceMeters>
                        <Time>2021-04-11T14:29:22.941Z</Time>
                    </Trackpoint>
                    <Trackpoint>
                        <DistanceMeters>93.46078109741211</DistanceMeters>
                        <Time>2021-04-11T14:29:41.161Z</Time>
                    </Trackpoint>
                    <Trackpoint>
                        <DistanceMeters>113.38991928100586</DistanceMeters>
                        <Time>2021-04-11T14:30:22.615Z</Time>
                    </Trackpoint>
                    <Trackpoint>
                        <DistanceMeters>118.88761234283447</DistanceMeters>
                        <Time>2021-04-11T14:30:31.606Z</Time>
                    </Trackpoint>
                    <Trackpoint>
                        <DistanceMeters>142.94001865386963</DistanceMeters>
                        <Time>2021-04-11T14:30:59.215Z</Time>
                    </Trackpoint>
                    <Trackpoint>
                        <DistanceMeters>156.684250831604</DistanceMeters>
                        <Time>2021-04-11T14:31:23.403Z</Time>
                    </Trackpoint>
                    <Trackpoint>
                        <DistanceMeters>164.93079090118408</DistanceMeters>
                        <Time>2021-04-11T14:31:32.235Z</Time>
                    </Trackpoint>
                    <Trackpoint>
                        <DistanceMeters>186.92156314849854</DistanceMeters>
                        <Time>2021-04-11T14:32:01.356Z</Time>
                    </Trackpoint>
                    <Trackpoint>
                        <DistanceMeters>206.16348934173584</DistanceMeters>
                        <Time>2021-04-11T14:32:22.998Z</Time>
                    </Trackpoint>
                    <Trackpoint>
                        <DistanceMeters>213.03560543060303</DistanceMeters>
                        <Time>2021-04-11T14:32:33.978Z</Time>
                    </Trackpoint>
                    <Trackpoint>
                        <DistanceMeters>241.19638538360596</DistanceMeters>
                        <Time>2021-04-11T14:33:00.871Z</Time>
                    </Trackpoint>
                    <Trackpoint>
                        <DistanceMeters>259.06388759613037</DistanceMeters>
                        <Time>2021-04-11T14:33:23.866Z</Time>
                    </Trackpoint>
                    <Trackpoint>
                        <DistanceMeters>265.24879217147827</DistanceMeters>
                        <Time>2021-04-11T14:33:33.891Z</Time>
                    </Trackpoint>
                    <Trackpoint>
                        <DistanceMeters>283.80350637435913</DistanceMeters>
                        <Time>2021-04-11T14:34:01.500Z</Time>
                    </Trackpoint>
                    <Trackpoint>
                        <DistanceMeters>303.7326445579529</DistanceMeters>
                        <Time>2021-04-11T14:34:23.460Z</Time>
                    </Trackpoint>
                    <Trackpoint>
                        <DistanceMeters>318.1640887260437</DistanceMeters>
                        <Time>2021-04-11T14:34:40.965Z</Time>
                    </Trackpoint>
                    <Trackpoint>
                        <DistanceMeters>331.22110986709595</DistanceMeters>
                        <Time>2021-04-11T14:35:02.288Z</Time>
                    </Trackpoint>
                    <Trackpoint>
                        <DistanceMeters>348.4014000892639</DistanceMeters>
                        <Time>2021-04-11T14:35:24.885Z</Time>
                    </Trackpoint>
                    <Trackpoint>
                        <DistanceMeters>358.7095742225647</DistanceMeters>
                        <Time>2021-04-11T14:35:42.469Z</Time>
                    </Trackpoint>
                    <Trackpoint>
                        <DistanceMeters>375.20265436172485</DistanceMeters>
                        <Time>2021-04-11T14:36:03.155Z</Time>
                    </Trackpoint>
                    <Trackpoint>
                        <DistanceMeters>388.94688653945923</DistanceMeters>
                        <Time>2021-04-11T14:36:22.092Z</Time>
                    </Trackpoint>
                    <Trackpoint>
                        <DistanceMeters>405.4399666786194</DistanceMeters>
                        <Time>2021-04-11T14:36:43.097Z</Time>
                    </Trackpoint>
                    <Trackpoint>
                        <DistanceMeters>418.49698781967163</DistanceMeters>
                        <Time>2021-04-11T14:36:59.806Z</Time>
                    </Trackpoint>
                    <Trackpoint>
                        <DistanceMeters>430.1795859336853</DistanceMeters>
                        <Time>2021-04-11T14:37:22.720Z</Time>
                    </Trackpoint>
                    <Trackpoint>
                        <DistanceMeters>446.67266607284546</DistanceMeters>
                        <Time>2021-04-11T14:38:08.152Z</Time>
                    </Trackpoint>
                    <Trackpoint>
                        <DistanceMeters>467.61099767684937</DistanceMeters>
                        <Time>2021-04-11T14:38:28.759Z</Time>
                    </Trackpoint>
                    <Trackpoint>
                        <DistanceMeters>490.28898191452026</DistanceMeters>
                        <Time>2021-04-11T14:38:56.766Z</Time>
                    </Trackpoint>
                    <Trackpoint>
                        <DistanceMeters>511.59254217147827</DistanceMeters>
                        <Time>2021-04-11T14:39:25.807Z</Time>
                    </Trackpoint>
                    <Trackpoint>
                        <DistanceMeters>534.9577383995056</DistanceMeters>
                        <Time>2021-04-11T14:39:54.212Z</Time>
                    </Trackpoint>
                    <Trackpoint>
                        <DistanceMeters>543.2042784690857</DistanceMeters>
                        <Time>2021-04-11T14:40:10.045Z</Time>
                    </Trackpoint>
                    <Trackpoint>
                        <DistanceMeters>560.3845686912537</DistanceMeters>
                        <Time>2021-04-11T14:40:34.154Z</Time>
                    </Trackpoint>
                    <Trackpoint>
                        <DistanceMeters>576.190435886383</DistanceMeters>
                        <Time>2021-04-11T14:40:59.376Z</Time>
                    </Trackpoint>
                    <Trackpoint>
                        <DistanceMeters>591.3090920448303</DistanceMeters>
                        <Time>2021-04-11T14:41:27.541Z</Time>
                    </Trackpoint>
                    <Trackpoint>
                        <DistanceMeters>594.7451500892639</DistanceMeters>
                        <Time>2021-04-11T14:41:33.350Z</Time>
                    </Trackpoint>
                    <Trackpoint>
                        <DistanceMeters>611.9254403114319</DistanceMeters>
                        <Time>2021-04-11T14:42:12.973Z</Time>
                    </Trackpoint>
                    <Trackpoint>
                        <DistanceMeters>622.9208264350891</DistanceMeters>
                        <Time>2021-04-11T14:42:28.408Z</Time>
                    </Trackpoint>
                    <Trackpoint>
                        <DistanceMeters>635.9778475761414</DistanceMeters>
                        <Time>2021-04-11T14:42:49.095Z</Time>
                    </Trackpoint>
                    <Trackpoint>
                        <DistanceMeters>653.8453497886658</DistanceMeters>
                        <Time>2021-04-11T14:43:14.556Z</Time>
                    </Trackpoint>
                    <Trackpoint>
                        <DistanceMeters>665.5279479026794</DistanceMeters>
                        <Time>2021-04-11T14:43:28.082Z</Time>
                    </Trackpoint>
                    <Trackpoint>
                        <DistanceMeters>684.0826621055603</DistanceMeters>
                        <Time>2021-04-11T14:43:50.519Z</Time>
                    </Trackpoint>
                </Track>
                <DistanceMeters>684.0826621055603</DistanceMeters>
                <TotalTimeSeconds>990.668286404</TotalTimeSeconds>
                <Calories>90.77156829833984</Calories>
                <Intensity>Active</Intensity>
                <TriggerMethod>Manual</TriggerMethod>
            </Lap>
        </Activity>
        <Activity Sport="Walking">
            <Id>2021-04-11T14:43:28.082Z</Id>
            <Lap StartTime="2021-04-11T14:43:28.082Z">
                <Track>
                    <Trackpoint>
                        <DistanceMeters>0.0</DistanceMeters>
                        <Time>2021-04-11T14:43:28.082Z</Time>
                    </Trackpoint>
                    <Trackpoint>
                        <DistanceMeters>18.55471420288086</DistanceMeters>
                        <Time>2021-04-11T14:43:29.050Z</Time>
                    </Trackpoint>
                    <Trackpoint>
                        <DistanceMeters>18.55471420288086</DistanceMeters>
                        <Time>2021-04-11T14:43:50.519Z</Time>
                    </Trackpoint>
                </Track>
                <DistanceMeters>18.55471420288086</DistanceMeters>
                <TotalTimeSeconds>22.437231823</TotalTimeSeconds>
                <Calories>2.016953706741333</Calories>
                <Intensity>Active</Intensity>
                <TriggerMethod>Manual</TriggerMethod>
            </Lap>
        </Activity>
    </Activities>
    <Author xsi:type="Application_t">
        <Name>Google Fit</Name>
        <Build>
            <Version>
                <VersionMajor>0</VersionMajor>
                <VersionMinor>0</VersionMinor>
                <BuildMajor>0</BuildMajor>
                <BuildMinor>0</BuildMinor>
            </Version>
        </Build>
        <LangID>en</LangID>
        <PartNumber>000-00000-00</PartNumber>
    </Author>
</TrainingCenterDatabase>
