<?xml version="1.0" encoding="UTF-8"?>
<TrainingCenterDatabase
    xmlns="http://www.garmin.com/xmlschemas/TrainingCenterDatabase/v2"
    xmlns:ns2="http://www.garmin.com/xmlschemas/UserProfile/v2"
    xmlns:ns3="http://www.garmin.com/xmlschemas/ActivityExtension/v2"
    xmlns:ns4="http://www.garmin.com/xmlschemas/ProfileExtension/v1"
    xmlns:ns5="http://www.garmin.com/xmlschemas/ActivityGoals/v1"
    xmlns:xsi="http://www.w3.org/2001/XMLSchema-instance" xsi:schemaLocation="http://www.garmin.com/xmlschemas/TrainingCenterDatabase/v2 http://www.garmin.com/xmlschemas/TrainingCenterDatabasev2.xsd">
    <Activities>
        <Activity Sport="Walking">
            <Id>2021-02-09T04:59:00.000Z</Id>
            <Lap StartTime="2021-02-09T04:59:00.000Z">
                <Track>
                    <Trackpoint>
                        <DistanceMeters>0.0</DistanceMeters>
                        <Time>2021-02-09T04:59:00.000Z</Time>
                    </Trackpoint>
                    <Trackpoint>
                        <DistanceMeters>0.0</DistanceMeters>
                        <Time>2021-02-09T04:59:42.109Z</Time>
                    </Trackpoint>
                    <Trackpoint>
                        <DistanceMeters>2.6138038635253906</DistanceMeters>
                        <Time>2021-02-09T05:00:00.000Z</Time>
                    </Trackpoint>
                </Track>
                <DistanceMeters>2.6138038635253906</DistanceMeters>
                <TotalTimeSeconds>60.0</TotalTimeSeconds>
                <Calories>5.636666774749756</Calories>
                <Intensity>Active</Intensity>
                <TriggerMethod>Manual</TriggerMethod>
            </Lap>
        </Activity>
        <Activity Sport="Walking">
            <Id>2021-02-09T05:04:00.000Z</Id>
            <Lap StartTime="2021-02-09T05:04:00.000Z">
                <Track>
                    <Trackpoint>
                        <DistanceMeters>0.0</DistanceMeters>
                        <Time>2021-02-09T05:04:00.000Z</Time>
                    </Trackpoint>
                    <Trackpoint>
                        <DistanceMeters>9.0</DistanceMeters>
                        <Time>2021-02-09T05:05:00.000Z</Time>
                    </Trackpoint>
                </Track>
                <DistanceMeters>9.0</DistanceMeters>
                <TotalTimeSeconds>60.0</TotalTimeSeconds>
                <Calories>5.636666774749756</Calories>
                <Intensity>Active</Intensity>
                <TriggerMethod>Manual</TriggerMethod>
            </Lap>
        </Activity>
        <Activity Sport="Walking">
            <Id>2021-02-09T05:05:00.000Z</Id>
            <Lap StartTime="2021-02-09T05:05:00.000Z">
                <Track>
                    <Trackpoint>
                        <DistanceMeters>0.0</DistanceMeters>
                        <Time>2021-02-09T05:05:00.000Z</Time>
                    </Trackpoint>
                    <Trackpoint>
                        <DistanceMeters>15.0</DistanceMeters>
                        <Time>2021-02-09T05:06:00.000Z</Time>
                    </Trackpoint>
                </Track>
                <DistanceMeters>15.0</DistanceMeters>
                <TotalTimeSeconds>60.0</TotalTimeSeconds>
                <Calories>5.636666774749756</Calories>
                <Intensity>Active</Intensity>
                <TriggerMethod>Manual</TriggerMethod>
            </Lap>
        </Activity>
        <Activity Sport="Walking">
            <Id>2021-02-09T05:06:00.000Z</Id>
            <Lap StartTime="2021-02-09T05:06:00.000Z">
                <Track>
                    <Trackpoint>
                        <DistanceMeters>0.0</DistanceMeters>
                        <Time>2021-02-09T05:06:00.000Z</Time>
                    </Trackpoint>
                    <Trackpoint>
                        <DistanceMeters>0.0</DistanceMeters>
                        <Time>2021-02-09T05:07:00.000Z</Time>
                    </Trackpoint>
                </Track>
                <DistanceMeters>0.0</DistanceMeters>
                <TotalTimeSeconds>60.0</TotalTimeSeconds>
                <Calories>5.636666774749756</Calories>
                <Intensity>Active</Intensity>
                <TriggerMethod>Manual</TriggerMethod>
            </Lap>
        </Activity>
        <Activity Sport="Walking">
            <Id>2021-02-09T05:13:00.000Z</Id>
            <Lap StartTime="2021-02-09T05:13:00.000Z">
                <Track>
                    <Trackpoint>
                        <DistanceMeters>0.0</DistanceMeters>
                        <Time>2021-02-09T05:13:00.000Z</Time>
                    </Trackpoint>
                    <Trackpoint>
                        <DistanceMeters>34.0</DistanceMeters>
                        <Time>2021-02-09T05:14:00.000Z</Time>
                    </Trackpoint>
                </Track>
                <DistanceMeters>34.0</DistanceMeters>
                <TotalTimeSeconds>60.0</TotalTimeSeconds>
                <Calories>5.636666774749756</Calories>
                <Intensity>Active</Intensity>
                <TriggerMethod>Manual</TriggerMethod>
            </Lap>
        </Activity>
        <Activity Sport="Walking">
            <Id>2021-02-09T05:14:00.000Z</Id>
            <Lap StartTime="2021-02-09T05:14:00.000Z">
                <Track>
                    <Trackpoint>
                        <DistanceMeters>0.0</DistanceMeters>
                        <Time>2021-02-09T05:14:00.000Z</Time>
                    </Trackpoint>
                    <Trackpoint>
                        <DistanceMeters>41.0</DistanceMeters>
                        <Time>2021-02-09T05:15:00.000Z</Time>
                    </Trackpoint>
                </Track>
                <DistanceMeters>41.0</DistanceMeters>
                <TotalTimeSeconds>60.0</TotalTimeSeconds>
                <Calories>5.636666774749756</Calories>
                <Intensity>Active</Intensity>
                <TriggerMethod>Manual</TriggerMethod>
            </Lap>
        </Activity>
        <Activity Sport="Walking">
            <Id>2021-02-09T05:15:00.000Z</Id>
            <Lap StartTime="2021-02-09T05:15:00.000Z">
                <Track>
                    <Trackpoint>
                        <DistanceMeters>0.0</DistanceMeters>
                        <Time>2021-02-09T05:15:00.000Z</Time>
                    </Trackpoint>
                    <Trackpoint>
                        <DistanceMeters>9.0</DistanceMeters>
                        <Time>2021-02-09T05:16:00.000Z</Time>
                    </Trackpoint>
                </Track>
                <DistanceMeters>9.0</DistanceMeters>
                <TotalTimeSeconds>60.0</TotalTimeSeconds>
                <Calories>5.636666774749756</Calories>
                <Intensity>Active</Intensity>
                <TriggerMethod>Manual</TriggerMethod>
            </Lap>
        </Activity>
        <Activity Sport="Walking">
            <Id>2021-02-09T05:16:00.000Z</Id>
            <Lap StartTime="2021-02-09T05:16:00.000Z">
                <Track>
                    <Trackpoint>
                        <DistanceMeters>0.0</DistanceMeters>
                        <Time>2021-02-09T05:16:00.000Z</Time>
                    </Trackpoint>
                    <Trackpoint>
                        <DistanceMeters>37.0</DistanceMeters>
                        <Time>2021-02-09T05:17:00.000Z</Time>
                    </Trackpoint>
                </Track>
                <DistanceMeters>37.0</DistanceMeters>
                <TotalTimeSeconds>60.0</TotalTimeSeconds>
                <Calories>5.636666774749756</Calories>
                <Intensity>Active</Intensity>
                <TriggerMethod>Manual</TriggerMethod>
            </Lap>
        </Activity>
        <Activity Sport="Walking">
            <Id>2021-02-09T05:17:00.000Z</Id>
            <Lap StartTime="2021-02-09T05:17:00.000Z">
                <Track>
                    <Trackpoint>
                        <DistanceMeters>0.0</DistanceMeters>
                        <Time>2021-02-09T05:17:00.000Z</Time>
                    </Trackpoint>
                    <Trackpoint>
                        <DistanceMeters>42.0</DistanceMeters>
                        <Time>2021-02-09T05:18:00.000Z</Time>
                    </Trackpoint>
                </Track>
                <DistanceMeters>42.0</DistanceMeters>
                <TotalTimeSeconds>60.0</TotalTimeSeconds>
                <Calories>5.636666774749756</Calories>
                <Intensity>Active</Intensity>
                <TriggerMethod>Manual</TriggerMethod>
            </Lap>
        </Activity>
        <Activity Sport="Walking">
            <Id>2021-02-09T05:18:00.000Z</Id>
            <Lap StartTime="2021-02-09T05:18:00.000Z">
                <Track>
                    <Trackpoint>
                        <DistanceMeters>0.0</DistanceMeters>
                        <Time>2021-02-09T05:18:00.000Z</Time>
                    </Trackpoint>
                    <Trackpoint>
                        <DistanceMeters>35.0</DistanceMeters>
                        <Time>2021-02-09T05:19:00.000Z</Time>
                    </Trackpoint>
                </Track>
                <DistanceMeters>35.0</DistanceMeters>
                <TotalTimeSeconds>60.0</TotalTimeSeconds>
                <Calories>5.636666774749756</Calories>
                <Intensity>Active</Intensity>
                <TriggerMethod>Manual</TriggerMethod>
            </Lap>
        </Activity>
        <Activity Sport="Walking">
            <Id>2021-02-09T05:19:00.000Z</Id>
            <Lap StartTime="2021-02-09T05:19:00.000Z">
                <Track>
                    <Trackpoint>
                        <DistanceMeters>0.0</DistanceMeters>
                        <Time>2021-02-09T05:19:00.000Z</Time>
                    </Trackpoint>
                    <Trackpoint>
                        <DistanceMeters>31.0</DistanceMeters>
                        <Time>2021-02-09T05:20:00.000Z</Time>
                    </Trackpoint>
                </Track>
                <DistanceMeters>31.0</DistanceMeters>
                <TotalTimeSeconds>60.0</TotalTimeSeconds>
                <Calories>5.636666774749756</Calories>
                <Intensity>Active</Intensity>
                <TriggerMethod>Manual</TriggerMethod>
            </Lap>
        </Activity>
        <Activity Sport="Walking">
            <Id>2021-02-09T05:20:00.000Z</Id>
            <Lap StartTime="2021-02-09T05:20:00.000Z">
                <Track>
                    <Trackpoint>
                        <DistanceMeters>0.0</DistanceMeters>
                        <Time>2021-02-09T05:20:00.000Z</Time>
                    </Trackpoint>
                    <Trackpoint>
                        <DistanceMeters>35.0</DistanceMeters>
                        <Time>2021-02-09T05:21:00.000Z</Time>
                    </Trackpoint>
                </Track>
                <DistanceMeters>35.0</DistanceMeters>
                <TotalTimeSeconds>60.0</TotalTimeSeconds>
                <Calories>5.636666774749756</Calories>
                <Intensity>Active</Intensity>
                <TriggerMethod>Manual</TriggerMethod>
            </Lap>
        </Activity>
        <Activity Sport="Walking">
            <Id>2021-02-09T05:21:00.000Z</Id>
            <Lap StartTime="2021-02-09T05:21:00.000Z">
                <Track>
                    <Trackpoint>
                        <DistanceMeters>0.0</DistanceMeters>
                        <Time>2021-02-09T05:21:00.000Z</Time>
                    </Trackpoint>
                    <Trackpoint>
                        <DistanceMeters>14.0</DistanceMeters>
                        <Time>2021-02-09T05:22:00.000Z</Time>
                    </Trackpoint>
                </Track>
                <DistanceMeters>14.0</DistanceMeters>
                <TotalTimeSeconds>60.0</TotalTimeSeconds>
                <Calories>5.636666774749756</Calories>
                <Intensity>Active</Intensity>
                <TriggerMethod>Manual</TriggerMethod>
            </Lap>
        </Activity>
        <Activity Sport="Walking">
            <Id>2021-02-09T05:22:00.000Z</Id>
            <Lap StartTime="2021-02-09T05:22:00.000Z">
                <Track>
                    <Trackpoint>
                        <DistanceMeters>0.0</DistanceMeters>
                        <Time>2021-02-09T05:22:00.000Z</Time>
                    </Trackpoint>
                    <Trackpoint>
                        <DistanceMeters>50.0</DistanceMeters>
                        <Time>2021-02-09T05:23:00.000Z</Time>
                    </Trackpoint>
                </Track>
                <DistanceMeters>50.0</DistanceMeters>
                <TotalTimeSeconds>60.0</TotalTimeSeconds>
                <Calories>5.636666774749756</Calories>
                <Intensity>Active</Intensity>
                <TriggerMethod>Manual</TriggerMethod>
            </Lap>
        </Activity>
        <Activity Sport="Walking">
            <Id>2021-02-09T05:23:00.000Z</Id>
            <Lap StartTime="2021-02-09T05:23:00.000Z">
                <Track>
                    <Trackpoint>
                        <DistanceMeters>0.0</DistanceMeters>
                        <Time>2021-02-09T05:23:00.000Z</Time>
                    </Trackpoint>
                    <Trackpoint>
                        <DistanceMeters>17.0</DistanceMeters>
                        <Time>2021-02-09T05:24:00.000Z</Time>
                    </Trackpoint>
                </Track>
                <DistanceMeters>17.0</DistanceMeters>
                <TotalTimeSeconds>60.0</TotalTimeSeconds>
                <Calories>5.636666774749756</Calories>
                <Intensity>Active</Intensity>
                <TriggerMethod>Manual</TriggerMethod>
            </Lap>
        </Activity>
        <Activity Sport="Walking">
            <Id>2021-02-09T05:24:00.000Z</Id>
            <Lap StartTime="2021-02-09T05:24:00.000Z">
                <Track>
                    <Trackpoint>
                        <DistanceMeters>0.0</DistanceMeters>
                        <Time>2021-02-09T05:24:00.000Z</Time>
                    </Trackpoint>
                    <Trackpoint>
                        <DistanceMeters>0.0</DistanceMeters>
                        <Time>2021-02-09T05:25:00.000Z</Time>
                    </Trackpoint>
                </Track>
                <DistanceMeters>0.0</DistanceMeters>
                <TotalTimeSeconds>60.0</TotalTimeSeconds>
                <Calories>5.636666774749756</Calories>
                <Intensity>Active</Intensity>
                <TriggerMethod>Manual</TriggerMethod>
            </Lap>
        </Activity>
        <Activity Sport="Walking">
            <Id>2021-02-09T05:27:00.000Z</Id>
            <Lap StartTime="2021-02-09T05:27:00.000Z">
                <Track>
                    <Trackpoint>
                        <DistanceMeters>0.0</DistanceMeters>
                        <Time>2021-02-09T05:27:00.000Z</Time>
                    </Trackpoint>
                    <Trackpoint>
                        <DistanceMeters>14.0</DistanceMeters>
                        <Time>2021-02-09T05:28:00.000Z</Time>
                    </Trackpoint>
                </Track>
                <DistanceMeters>14.0</DistanceMeters>
                <TotalTimeSeconds>60.0</TotalTimeSeconds>
                <Calories>5.636666774749756</Calories>
                <Intensity>Active</Intensity>
                <TriggerMethod>Manual</TriggerMethod>
            </Lap>
        </Activity>
        <Activity Sport="Walking">
            <Id>2021-02-09T05:28:00.000Z</Id>
            <Lap StartTime="2021-02-09T05:28:00.000Z">
                <Track>
                    <Trackpoint>
                        <DistanceMeters>0.0</DistanceMeters>
                        <Time>2021-02-09T05:28:00.000Z</Time>
                    </Trackpoint>
                    <Trackpoint>
                        <DistanceMeters>14.0</DistanceMeters>
                        <Time>2021-02-09T05:29:00.000Z</Time>
                    </Trackpoint>
                </Track>
                <DistanceMeters>14.0</DistanceMeters>
                <TotalTimeSeconds>60.0</TotalTimeSeconds>
                <Calories>5.636666774749756</Calories>
                <Intensity>Active</Intensity>
                <TriggerMethod>Manual</TriggerMethod>
            </Lap>
        </Activity>
        <Activity Sport="Walking">
            <Id>2021-02-09T05:29:00.000Z</Id>
            <Lap StartTime="2021-02-09T05:29:00.000Z">
                <Track>
                    <Trackpoint>
                        <DistanceMeters>0.0</DistanceMeters>
                        <Time>2021-02-09T05:29:00.000Z</Time>
                    </Trackpoint>
                    <Trackpoint>
                        <DistanceMeters>15.0</DistanceMeters>
                        <Time>2021-02-09T05:30:00.000Z</Time>
                    </Trackpoint>
                </Track>
                <DistanceMeters>15.0</DistanceMeters>
                <TotalTimeSeconds>60.0</TotalTimeSeconds>
                <Calories>5.636666774749756</Calories>
                <Intensity>Active</Intensity>
                <TriggerMethod>Manual</TriggerMethod>
            </Lap>
        </Activity>
        <Activity Sport="Walking">
            <Id>2021-02-09T05:30:00.000Z</Id>
            <Lap StartTime="2021-02-09T05:30:00.000Z">
                <Track>
                    <Trackpoint>
                        <DistanceMeters>0.0</DistanceMeters>
                        <Time>2021-02-09T05:30:00.000Z</Time>
                    </Trackpoint>
                    <Trackpoint>
                        <DistanceMeters>0.0</DistanceMeters>
                        <Time>2021-02-09T05:31:00.000Z</Time>
                    </Trackpoint>
                </Track>
                <DistanceMeters>0.0</DistanceMeters>
                <TotalTimeSeconds>60.0</TotalTimeSeconds>
                <Calories>5.636666774749756</Calories>
                <Intensity>Active</Intensity>
                <TriggerMethod>Manual</TriggerMethod>
            </Lap>
        </Activity>
        <Activity Sport="Walking">
            <Id>2021-02-09T05:33:00.000Z</Id>
            <Lap StartTime="2021-02-09T05:33:00.000Z">
                <Track>
                    <Trackpoint>
                        <DistanceMeters>0.0</DistanceMeters>
                        <Time>2021-02-09T05:33:00.000Z</Time>
                    </Trackpoint>
                    <Trackpoint>
                        <DistanceMeters>25.0</DistanceMeters>
                        <Time>2021-02-09T05:34:00.000Z</Time>
                    </Trackpoint>
                </Track>
                <DistanceMeters>25.0</DistanceMeters>
                <TotalTimeSeconds>60.0</TotalTimeSeconds>
                <Calories>5.636666774749756</Calories>
                <Intensity>Active</Intensity>
                <TriggerMethod>Manual</TriggerMethod>
            </Lap>
        </Activity>
        <Activity Sport="Walking">
            <Id>2021-02-09T05:34:00.000Z</Id>
            <Lap StartTime="2021-02-09T05:34:00.000Z">
                <Track>
                    <Trackpoint>
                        <DistanceMeters>0.0</DistanceMeters>
                        <Time>2021-02-09T05:34:00.000Z</Time>
                    </Trackpoint>
                    <Trackpoint>
                        <DistanceMeters>0.0</DistanceMeters>
                        <Time>2021-02-09T05:35:00.000Z</Time>
                    </Trackpoint>
                </Track>
                <DistanceMeters>0.0</DistanceMeters>
                <TotalTimeSeconds>60.0</TotalTimeSeconds>
                <Calories>5.636666774749756</Calories>
                <Intensity>Active</Intensity>
                <TriggerMethod>Manual</TriggerMethod>
            </Lap>
        </Activity>
        <Activity Sport="Walking">
            <Id>2021-02-09T05:37:00.000Z</Id>
            <Lap StartTime="2021-02-09T05:37:00.000Z">
                <Track>
                    <Trackpoint>
                        <DistanceMeters>0.0</DistanceMeters>
                        <Time>2021-02-09T05:37:00.000Z</Time>
                    </Trackpoint>
                    <Trackpoint>
                        <DistanceMeters>0.0</DistanceMeters>
                        <Time>2021-02-09T05:38:00.000Z</Time>
                    </Trackpoint>
                </Track>
                <DistanceMeters>0.0</DistanceMeters>
                <TotalTimeSeconds>60.0</TotalTimeSeconds>
                <Calories>5.636666774749756</Calories>
                <Intensity>Active</Intensity>
                <TriggerMethod>Manual</TriggerMethod>
            </Lap>
        </Activity>
        <Activity Sport="Walking">
            <Id>2021-02-09T05:40:00.000Z</Id>
            <Lap StartTime="2021-02-09T05:40:00.000Z">
                <Track>
                    <Trackpoint>
                        <DistanceMeters>0.0</DistanceMeters>
                        <Time>2021-02-09T05:40:00.000Z</Time>
                    </Trackpoint>
                    <Trackpoint>
                        <DistanceMeters>0.0</DistanceMeters>
                        <Time>2021-02-09T05:41:00.000Z</Time>
                    </Trackpoint>
                </Track>
                <DistanceMeters>0.0</DistanceMeters>
                <TotalTimeSeconds>60.0</TotalTimeSeconds>
                <Calories>5.636666774749756</Calories>
                <Intensity>Active</Intensity>
                <TriggerMethod>Manual</TriggerMethod>
            </Lap>
        </Activity>
    </Activities>
    <Author xsi:type="Application_t">
        <Name>Google Fit</Name>
        <Build>
            <Version>
                <VersionMajor>0</VersionMajor>
                <VersionMinor>0</VersionMinor>
                <BuildMajor>0</BuildMajor>
                <BuildMinor>0</BuildMinor>
            </Version>
        </Build>
        <LangID>en</LangID>
        <PartNumber>000-00000-00</PartNumber>
    </Author>
</TrainingCenterDatabase>
