<?xml version="1.0" encoding="UTF-8"?>
<TrainingCenterDatabase
    xmlns="http://www.garmin.com/xmlschemas/TrainingCenterDatabase/v2"
    xmlns:ns2="http://www.garmin.com/xmlschemas/UserProfile/v2"
    xmlns:ns3="http://www.garmin.com/xmlschemas/ActivityExtension/v2"
    xmlns:ns4="http://www.garmin.com/xmlschemas/ProfileExtension/v1"
    xmlns:ns5="http://www.garmin.com/xmlschemas/ActivityGoals/v1"
    xmlns:xsi="http://www.w3.org/2001/XMLSchema-instance" xsi:schemaLocation="http://www.garmin.com/xmlschemas/TrainingCenterDatabase/v2 http://www.garmin.com/xmlschemas/TrainingCenterDatabasev2.xsd">
    <Activities>
        <Activity Sport="Walking">
            <Id>2021-12-26T09:08:46.702Z</Id>
            <Lap StartTime="2021-12-26T09:08:46.702Z">
                <Track>
                    <Trackpoint>
                        <DistanceMeters>0.0</DistanceMeters>
                        <Time>2021-12-26T09:08:46.702Z</Time>
                    </Trackpoint>
                    <Trackpoint>
                        <DistanceMeters>60.67924499511719</DistanceMeters>
                        <Time>2021-12-26T09:08:47.715Z</Time>
                    </Trackpoint>
                    <Trackpoint>
                        <DistanceMeters>60.67924499511719</DistanceMeters>
                        <Time>2021-12-26T09:10:37.662Z</Time>
                    </Trackpoint>
                    <Trackpoint>
                        <DistanceMeters>103.74193572998047</DistanceMeters>
                        <Time>2021-12-26T09:11:52.416Z</Time>
                    </Trackpoint>
                </Track>
                <DistanceMeters>103.74193572998047</DistanceMeters>
                <TotalTimeSeconds>185.713835821</TotalTimeSeconds>
                <Calories>17.936519622802734</Calories>
                <Intensity>Active</Intensity>
                <TriggerMethod>Manual</TriggerMethod>
            </Lap>
        </Activity>
        <Activity Sport="Walking">
            <Id>2021-12-26T09:11:52.416Z</Id>
            <Lap StartTime="2021-12-26T09:11:52.416Z">
                <Track>
                    <Trackpoint>
                        <DistanceMeters>0.0</DistanceMeters>
                        <Time>2021-12-26T09:11:52.416Z</Time>
                    </Trackpoint>
                    <Trackpoint>
                        <DistanceMeters>0.0</DistanceMeters>
                        <Time>2021-12-26T09:23:31.142Z</Time>
                    </Trackpoint>
                    <Trackpoint>
                        <DistanceMeters>36.53804016113281</DistanceMeters>
                        <Time>2021-12-26T09:25:23.142Z</Time>
                    </Trackpoint>
                    <Trackpoint>
                        <DistanceMeters>36.53804016113281</DistanceMeters>
                        <Time>2021-12-26T09:26:07.435Z</Time>
                    </Trackpoint>
                </Track>
                <DistanceMeters>36.53804016113281</DistanceMeters>
                <TotalTimeSeconds>855.019</TotalTimeSeconds>
                <Calories>21.057740688323975</Calories>
                <Intensity>Active</Intensity>
                <TriggerMethod>Manual</TriggerMethod>
            </Lap>
        </Activity>
        <Activity Sport="Walking">
            <Id>2021-12-26T09:26:07.435Z</Id>
            <Lap StartTime="2021-12-26T09:26:07.435Z">
                <Track>
                    <Trackpoint>
                        <DistanceMeters>0.0</DistanceMeters>
                        <Time>2021-12-26T09:26:07.435Z</Time>
                    </Trackpoint>
                    <Trackpoint>
                        <DistanceMeters>25.672225952148438</DistanceMeters>
                        <Time>2021-12-26T09:26:35.702Z</Time>
                    </Trackpoint>
                    <Trackpoint>
                        <DistanceMeters>28.28208589553833</DistanceMeters>
                        <Time>2021-12-26T09:26:39.142Z</Time>
                    </Trackpoint>
                    <Trackpoint>
                        <DistanceMeters>89.61379289627075</DistanceMeters>
                        <Time>2021-12-26T09:28:33.782Z</Time>
                    </Trackpoint>
                    <Trackpoint>
                        <DistanceMeters>99.79812097549438</DistanceMeters>
                        <Time>2021-12-26T09:28:43.502Z</Time>
                    </Trackpoint>
                    <Trackpoint>
                        <DistanceMeters>118.71960496902466</DistanceMeters>
                        <Time>2021-12-26T09:29:11.542Z</Time>
                    </Trackpoint>
                    <Trackpoint>
                        <DistanceMeters>153.30024766921997</DistanceMeters>
                        <Time>2021-12-26T09:33:52.502Z</Time>
                    </Trackpoint>
                    <Trackpoint>
                        <DistanceMeters>172.22173166275024</DistanceMeters>
                        <Time>2021-12-26T09:34:52.502Z</Time>
                    </Trackpoint>
                    <Trackpoint>
                        <DistanceMeters>189.18582201004028</DistanceMeters>
                        <Time>2021-12-26T09:38:49.742Z</Time>
                    </Trackpoint>
                    <Trackpoint>
                        <DistanceMeters>226.3763279914856</DistanceMeters>
                        <Time>2021-12-26T09:39:38.422Z</Time>
                    </Trackpoint>
                    <Trackpoint>
                        <DistanceMeters>243.34041833877563</DistanceMeters>
                        <Time>2021-12-26T09:40:01.662Z</Time>
                    </Trackpoint>
                </Track>
                <DistanceMeters>243.34041833877563</DistanceMeters>
                <TotalTimeSeconds>834.22716233</TotalTimeSeconds>
                <Calories>78.9544448852539</Calories>
                <Intensity>Active</Intensity>
                <TriggerMethod>Manual</TriggerMethod>
            </Lap>
        </Activity>
        <Activity Sport="Walking">
            <Id>2021-12-26T09:39:38.422Z</Id>
            <Lap StartTime="2021-12-26T09:39:38.422Z">
                <Track>
                    <Trackpoint>
                        <DistanceMeters>0.0</DistanceMeters>
                        <Time>2021-12-26T09:39:38.422Z</Time>
                    </Trackpoint>
                    <Trackpoint>
                        <DistanceMeters>16.96409034729004</DistanceMeters>
                        <Time>2021-12-26T09:39:40.467Z</Time>
                    </Trackpoint>
                    <Trackpoint>
                        <DistanceMeters>16.96409034729004</DistanceMeters>
                        <Time>2021-12-26T09:40:01.662Z</Time>
                    </Trackpoint>
                </Track>
                <DistanceMeters>16.96409034729004</DistanceMeters>
                <TotalTimeSeconds>23.24</TotalTimeSeconds>
                <Calories>2.0582854747772217</Calories>
                <Intensity>Active</Intensity>
                <TriggerMethod>Manual</TriggerMethod>
            </Lap>
        </Activity>
        <Activity Sport="Walking">
            <Id>2021-12-26T09:49:10.982Z</Id>
            <Lap StartTime="2021-12-26T09:49:10.982Z">
                <Track>
                    <Trackpoint>
                        <DistanceMeters>0.0</DistanceMeters>
                        <Time>2021-12-26T09:49:10.982Z</Time>
                    </Trackpoint>
                    <Trackpoint>
                        <DistanceMeters>19.573949813842773</DistanceMeters>
                        <Time>2021-12-26T09:49:43.486Z</Time>
                    </Trackpoint>
                    <Trackpoint>
                        <DistanceMeters>19.573949813842773</DistanceMeters>
                        <Time>2021-12-26T09:50:10.982Z</Time>
                    </Trackpoint>
                    <Trackpoint>
                        <DistanceMeters>26.098599433898926</DistanceMeters>
                        <Time>2021-12-26T09:50:44.533Z</Time>
                    </Trackpoint>
                </Track>
                <DistanceMeters>26.098599433898926</DistanceMeters>
                <TotalTimeSeconds>93.550840073</TotalTimeSeconds>
                <Calories>5.928341865539551</Calories>
                <Intensity>Active</Intensity>
                <TriggerMethod>Manual</TriggerMethod>
            </Lap>
        </Activity>
        <Activity Sport="Walking">
            <Id>2021-12-26T09:50:44.533Z</Id>
            <Lap StartTime="2021-12-26T09:50:44.533Z">
                <Track>
                    <Trackpoint>
                        <DistanceMeters>0.0</DistanceMeters>
                        <Time>2021-12-26T09:50:44.533Z</Time>
                    </Trackpoint>
                    <Trackpoint>
                        <DistanceMeters>0.0</DistanceMeters>
                        <Time>2021-12-26T09:58:28.662Z</Time>
                    </Trackpoint>
                    <Trackpoint>
                        <DistanceMeters>19.573949813842773</DistanceMeters>
                        <Time>2021-12-26T09:59:28.662Z</Time>
                    </Trackpoint>
                    <Trackpoint>
                        <DistanceMeters>44.90922737121582</DistanceMeters>
                        <Time>2021-12-26T09:59:52.162Z</Time>
                    </Trackpoint>
                </Track>
                <DistanceMeters>44.90922737121582</DistanceMeters>
                <TotalTimeSeconds>547.629161848</TotalTimeSeconds>
                <Calories>11.48791116476059</Calories>
                <Intensity>Active</Intensity>
                <TriggerMethod>Manual</TriggerMethod>
            </Lap>
        </Activity>
        <Activity Sport="Walking">
            <Id>2021-12-26T09:59:28.662Z</Id>
            <Lap StartTime="2021-12-26T09:59:28.662Z">
                <Track>
                    <Trackpoint>
                        <DistanceMeters>0.0</DistanceMeters>
                        <Time>2021-12-26T09:59:28.662Z</Time>
                    </Trackpoint>
                    <Trackpoint>
                        <DistanceMeters>25.335277557373047</DistanceMeters>
                        <Time>2021-12-26T09:59:35.407Z</Time>
                    </Trackpoint>
                    <Trackpoint>
                        <DistanceMeters>25.335277557373047</DistanceMeters>
                        <Time>2021-12-26T10:00:31.624Z</Time>
                    </Trackpoint>
                </Track>
                <DistanceMeters>25.335277557373047</DistanceMeters>
                <TotalTimeSeconds>62.961838152</TotalTimeSeconds>
                <Calories>5.459295272827148</Calories>
                <Intensity>Active</Intensity>
                <TriggerMethod>Manual</TriggerMethod>
            </Lap>
        </Activity>
    </Activities>
    <Author xsi:type="Application_t">
        <Name>Google Fit</Name>
        <Build>
            <Version>
                <VersionMajor>0</VersionMajor>
                <VersionMinor>0</VersionMinor>
                <BuildMajor>0</BuildMajor>
                <BuildMinor>0</BuildMinor>
            </Version>
        </Build>
        <LangID>en</LangID>
        <PartNumber>000-00000-00</PartNumber>
    </Author>
</TrainingCenterDatabase>
