<?xml version="1.0" encoding="UTF-8"?>
<TrainingCenterDatabase
    xmlns="http://www.garmin.com/xmlschemas/TrainingCenterDatabase/v2"
    xmlns:ns2="http://www.garmin.com/xmlschemas/UserProfile/v2"
    xmlns:ns3="http://www.garmin.com/xmlschemas/ActivityExtension/v2"
    xmlns:ns4="http://www.garmin.com/xmlschemas/ProfileExtension/v1"
    xmlns:ns5="http://www.garmin.com/xmlschemas/ActivityGoals/v1"
    xmlns:xsi="http://www.w3.org/2001/XMLSchema-instance" xsi:schemaLocation="http://www.garmin.com/xmlschemas/TrainingCenterDatabase/v2 http://www.garmin.com/xmlschemas/TrainingCenterDatabasev2.xsd">
    <Activities>
        <Activity Sport="Walking">
            <Id>2021-06-25T13:42:44.249Z</Id>
            <Lap StartTime="2021-06-25T13:42:44.249Z">
                <Track>
                    <Trackpoint>
                        <DistanceMeters>0.0</DistanceMeters>
                        <Time>2021-06-25T13:42:44.249Z</Time>
                    </Trackpoint>
                    <Trackpoint>
                        <DistanceMeters>1.3049299716949463</DistanceMeters>
                        <Time>2021-06-25T13:42:49.614Z</Time>
                    </Trackpoint>
                    <Trackpoint>
                        <DistanceMeters>62.149004220962524</DistanceMeters>
                        <Time>2021-06-25T13:43:44.254Z</Time>
                    </Trackpoint>
                    <Trackpoint>
                        <DistanceMeters>86.64188599586487</DistanceMeters>
                        <Time>2021-06-25T13:44:03.494Z</Time>
                    </Trackpoint>
                    <Trackpoint>
                        <DistanceMeters>130.72125840187073</DistanceMeters>
                        <Time>2021-06-25T13:44:08.618Z</Time>
                        <Position>
                            <LatitudeDegrees>19.83528709411621</LatitudeDegrees>
                            <LongitudeDegrees>75.29256439208984</LongitudeDegrees>
                        </Position>
                        <AltitudeMeters>477.6965026855469</AltitudeMeters>
                    </Trackpoint>
                    <Trackpoint>
                        <DistanceMeters>130.72125840187073</DistanceMeters>
                        <Time>2021-06-25T13:44:29.533Z</Time>
                        <Position>
                            <LatitudeDegrees>19.835294723510742</LatitudeDegrees>
                            <LongitudeDegrees>75.29254150390625</LongitudeDegrees>
                        </Position>
                        <AltitudeMeters>477.51953125</AltitudeMeters>
                    </Trackpoint>
                    <Trackpoint>
                        <DistanceMeters>130.72125840187073</DistanceMeters>
                        <Time>2021-06-25T13:44:45.734Z</Time>
                    </Trackpoint>
                    <Trackpoint>
                        <DistanceMeters>143.62669777870178</DistanceMeters>
                        <Time>2021-06-25T13:44:59.271Z</Time>
                    </Trackpoint>
                </Track>
                <DistanceMeters>143.62669777870178</DistanceMeters>
                <TotalTimeSeconds>135.022</TotalTimeSeconds>
                <Calories>14.25232219696045</Calories>
                <Intensity>Active</Intensity>
                <TriggerMethod>Manual</TriggerMethod>
            </Lap>
        </Activity>
        <Activity Sport="Walking">
            <Id>2021-06-25T13:51:53.694Z</Id>
            <Lap StartTime="2021-06-25T13:51:53.694Z">
                <Track>
                    <Trackpoint>
                        <DistanceMeters>0.0</DistanceMeters>
                        <Time>2021-06-25T13:51:53.694Z</Time>
                    </Trackpoint>
                    <Trackpoint>
                        <DistanceMeters>34.58064270019531</DistanceMeters>
                        <Time>2021-06-25T13:53:18.551Z</Time>
                    </Trackpoint>
                    <Trackpoint>
                        <DistanceMeters>34.58064270019531</DistanceMeters>
                        <Time>2021-06-25T13:53:18.647Z</Time>
                        <Position>
                            <LatitudeDegrees>19.835275650024414</LatitudeDegrees>
                            <LongitudeDegrees>75.29242706298828</LongitudeDegrees>
                        </Position>
                        <AltitudeMeters>478.24371337890625</AltitudeMeters>
                    </Trackpoint>
                    <Trackpoint>
                        <DistanceMeters>34.58064270019531</DistanceMeters>
                        <Time>2021-06-25T13:53:19.274Z</Time>
                    </Trackpoint>
                    <Trackpoint>
                        <DistanceMeters>52.84966278076172</DistanceMeters>
                        <Time>2021-06-25T13:54:06.494Z</Time>
                    </Trackpoint>
                    <Trackpoint>
                        <DistanceMeters>78.94826126098633</DistanceMeters>
                        <Time>2021-06-25T13:55:01.734Z</Time>
                    </Trackpoint>
                </Track>
                <DistanceMeters>78.94826126098633</DistanceMeters>
                <TotalTimeSeconds>188.039998874</TotalTimeSeconds>
                <Calories>6.3546552658081055</Calories>
                <Intensity>Active</Intensity>
                <TriggerMethod>Manual</TriggerMethod>
            </Lap>
        </Activity>
        <Activity Sport="Running">
            <Id>2021-06-25T13:58:26.588Z</Id>
            <Lap StartTime="2021-06-25T13:58:26.588Z">
                <Track>
                    <Trackpoint>
                        <DistanceMeters>0.0</DistanceMeters>
                        <Time>2021-06-25T13:58:26.588Z</Time>
                    </Trackpoint>
                    <Trackpoint>
                        <DistanceMeters>28.92475128173828</DistanceMeters>
                        <Time>2021-06-25T13:58:41.283Z</Time>
                        <Position>
                            <LatitudeDegrees>19.835289001464844</LatitudeDegrees>
                            <LongitudeDegrees>75.29242706298828</LongitudeDegrees>
                        </Position>
                        <AltitudeMeters>477.9084167480469</AltitudeMeters>
                    </Trackpoint>
                    <Trackpoint>
                        <DistanceMeters>28.92475128173828</DistanceMeters>
                        <Time>2021-06-25T13:58:50.194Z</Time>
                    </Trackpoint>
                    <Trackpoint>
                        <DistanceMeters>46.12325096130371</DistanceMeters>
                        <Time>2021-06-25T13:59:01.598Z</Time>
                        <Position>
                            <LatitudeDegrees>19.835277557373047</LatitudeDegrees>
                            <LongitudeDegrees>75.29241943359375</LongitudeDegrees>
                        </Position>
                        <AltitudeMeters>477.8487243652344</AltitudeMeters>
                    </Trackpoint>
                    <Trackpoint>
                        <DistanceMeters>46.12325096130371</DistanceMeters>
                        <Time>2021-06-25T14:00:15.074Z</Time>
                    </Trackpoint>
                    <Trackpoint>
                        <DistanceMeters>50.813751220703125</DistanceMeters>
                        <Time>2021-06-25T14:00:27.606Z</Time>
                    </Trackpoint>
                </Track>
                <DistanceMeters>50.813751220703125</DistanceMeters>
                <TotalTimeSeconds>121.018</TotalTimeSeconds>
                <Calories>25.212081909179688</Calories>
                <Intensity>Active</Intensity>
                <TriggerMethod>Manual</TriggerMethod>
            </Lap>
        </Activity>
        <Activity Sport="Walking">
            <Id>2021-06-25T14:00:27.606Z</Id>
            <Lap StartTime="2021-06-25T14:00:27.606Z">
                <Track>
                    <Trackpoint>
                        <DistanceMeters>0.0</DistanceMeters>
                        <Time>2021-06-25T14:00:27.606Z</Time>
                    </Trackpoint>
                    <Trackpoint>
                        <DistanceMeters>22.836275100708008</DistanceMeters>
                        <Time>2021-06-25T14:01:37.074Z</Time>
                    </Trackpoint>
                    <Trackpoint>
                        <DistanceMeters>35.88557434082031</DistanceMeters>
                        <Time>2021-06-25T14:03:02.662Z</Time>
                        <Position>
                            <LatitudeDegrees>19.83529281616211</LatitudeDegrees>
                            <LongitudeDegrees>75.29243469238281</LongitudeDegrees>
                        </Position>
                        <AltitudeMeters>477.9154968261719</AltitudeMeters>
                    </Trackpoint>
                    <Trackpoint>
                        <DistanceMeters>35.88557434082031</DistanceMeters>
                        <Time>2021-06-25T14:03:15.081Z</Time>
                        <Position>
                            <LatitudeDegrees>19.835275650024414</LatitudeDegrees>
                            <LongitudeDegrees>75.29241943359375</LongitudeDegrees>
                        </Position>
                        <AltitudeMeters>477.9167175292969</AltitudeMeters>
                    </Trackpoint>
                    <Trackpoint>
                        <DistanceMeters>35.88557434082031</DistanceMeters>
                        <Time>2021-06-25T14:03:35.125Z</Time>
                        <Position>
                            <LatitudeDegrees>19.83528709411621</LatitudeDegrees>
                            <LongitudeDegrees>75.29243469238281</LongitudeDegrees>
                        </Position>
                        <AltitudeMeters>477.85272216796875</AltitudeMeters>
                    </Trackpoint>
                    <Trackpoint>
                        <DistanceMeters>35.88557434082031</DistanceMeters>
                        <Time>2021-06-25T14:04:23.546Z</Time>
                    </Trackpoint>
                </Track>
                <DistanceMeters>35.88557434082031</DistanceMeters>
                <TotalTimeSeconds>235.94</TotalTimeSeconds>
                <Calories>24.90477752685547</Calories>
                <Intensity>Active</Intensity>
                <TriggerMethod>Manual</TriggerMethod>
            </Lap>
        </Activity>
        <Activity Sport="Walking">
            <Id>2021-06-25T14:12:00.550Z</Id>
            <Lap StartTime="2021-06-25T14:12:00.550Z">
                <Track>
                    <Trackpoint>
                        <DistanceMeters>0.0</DistanceMeters>
                        <Time>2021-06-25T14:12:00.550Z</Time>
                    </Trackpoint>
                    <Trackpoint>
                        <DistanceMeters>0.0</DistanceMeters>
                        <Time>2021-06-25T14:12:24.295Z</Time>
                        <Position>
                            <LatitudeDegrees>19.835289001464844</LatitudeDegrees>
                            <LongitudeDegrees>75.29243469238281</LongitudeDegrees>
                        </Position>
                        <AltitudeMeters>478.0728759765625</AltitudeMeters>
                    </Trackpoint>
                    <Trackpoint>
                        <DistanceMeters>0.0</DistanceMeters>
                        <Time>2021-06-25T14:12:31.556Z</Time>
                    </Trackpoint>
                </Track>
                <DistanceMeters>0.0</DistanceMeters>
                <TotalTimeSeconds>31.006</TotalTimeSeconds>
                <Calories>3.272855281829834</Calories>
                <Intensity>Active</Intensity>
                <TriggerMethod>Manual</TriggerMethod>
            </Lap>
        </Activity>
    </Activities>
    <Author xsi:type="Application_t">
        <Name>Google Fit</Name>
        <Build>
            <Version>
                <VersionMajor>0</VersionMajor>
                <VersionMinor>0</VersionMinor>
                <BuildMajor>0</BuildMajor>
                <BuildMinor>0</BuildMinor>
            </Version>
        </Build>
        <LangID>en</LangID>
        <PartNumber>000-00000-00</PartNumber>
    </Author>
</TrainingCenterDatabase>
