<?xml version="1.0" encoding="UTF-8"?>
<TrainingCenterDatabase
    xmlns="http://www.garmin.com/xmlschemas/TrainingCenterDatabase/v2"
    xmlns:ns2="http://www.garmin.com/xmlschemas/UserProfile/v2"
    xmlns:ns3="http://www.garmin.com/xmlschemas/ActivityExtension/v2"
    xmlns:ns4="http://www.garmin.com/xmlschemas/ProfileExtension/v1"
    xmlns:ns5="http://www.garmin.com/xmlschemas/ActivityGoals/v1"
    xmlns:xsi="http://www.w3.org/2001/XMLSchema-instance" xsi:schemaLocation="http://www.garmin.com/xmlschemas/TrainingCenterDatabase/v2 http://www.garmin.com/xmlschemas/TrainingCenterDatabasev2.xsd">
    <Activities>
        <Activity Sport="Walking">
            <Id>2021-10-31T07:16:02.751Z</Id>
            <Lap StartTime="2021-10-31T07:16:02.751Z">
                <Track>
                    <Trackpoint>
                        <DistanceMeters>0.0</DistanceMeters>
                        <Time>2021-10-31T07:16:02.751Z</Time>
                    </Trackpoint>
                    <Trackpoint>
                        <DistanceMeters>65.89896392822266</DistanceMeters>
                        <Time>2021-10-31T07:17:53.423Z</Time>
                    </Trackpoint>
                    <Trackpoint>
                        <DistanceMeters>65.89896392822266</DistanceMeters>
                        <Time>2021-10-31T07:19:24.751Z</Time>
                    </Trackpoint>
                    <Trackpoint>
                        <DistanceMeters>163.36791229248047</DistanceMeters>
                        <Time>2021-10-31T07:20:42.591Z</Time>
                    </Trackpoint>
                    <Trackpoint>
                        <DistanceMeters>231.93417358398438</DistanceMeters>
                        <Time>2021-10-31T07:21:34.351Z</Time>
                    </Trackpoint>
                    <Trackpoint>
                        <DistanceMeters>312.2754135131836</DistanceMeters>
                        <Time>2021-10-31T07:22:34.751Z</Time>
                    </Trackpoint>
                    <Trackpoint>
                        <DistanceMeters>346.1589546203613</DistanceMeters>
                        <Time>2021-10-31T07:22:59.551Z</Time>
                    </Trackpoint>
                    <Trackpoint>
                        <DistanceMeters>412.1443214416504</DistanceMeters>
                        <Time>2021-10-31T07:23:50.311Z</Time>
                    </Trackpoint>
                    <Trackpoint>
                        <DistanceMeters>443.7311496734619</DistanceMeters>
                        <Time>2021-10-31T07:24:13.631Z</Time>
                    </Trackpoint>
                    <Trackpoint>
                        <DistanceMeters>456.88012981414795</DistanceMeters>
                        <Time>2021-10-31T07:24:23.511Z</Time>
                    </Trackpoint>
                    <Trackpoint>
                        <DistanceMeters>493.1656713485718</DistanceMeters>
                        <Time>2021-10-31T07:24:51.351Z</Time>
                    </Trackpoint>
                    <Trackpoint>
                        <DistanceMeters>521.9781084060669</DistanceMeters>
                        <Time>2021-10-31T07:25:13.991Z</Time>
                    </Trackpoint>
                    <Trackpoint>
                        <DistanceMeters>534.8017110824585</DistanceMeters>
                        <Time>2021-10-31T07:25:24.431Z</Time>
                    </Trackpoint>
                    <Trackpoint>
                        <DistanceMeters>569.8546934127808</DistanceMeters>
                        <Time>2021-10-31T07:25:52.591Z</Time>
                    </Trackpoint>
                    <Trackpoint>
                        <DistanceMeters>602.5370321273804</DistanceMeters>
                        <Time>2021-10-31T07:27:42.991Z</Time>
                    </Trackpoint>
                    <Trackpoint>
                        <DistanceMeters>611.6715421676636</DistanceMeters>
                        <Time>2021-10-31T07:28:35.591Z</Time>
                    </Trackpoint>
                    <Trackpoint>
                        <DistanceMeters>631.2454919815063</DistanceMeters>
                        <Time>2021-10-31T07:29:35.591Z</Time>
                    </Trackpoint>
                    <Trackpoint>
                        <DistanceMeters>639.075071811676</DistanceMeters>
                        <Time>2021-10-31T07:30:00.911Z</Time>
                    </Trackpoint>
                </Track>
                <DistanceMeters>639.075071811676</DistanceMeters>
                <TotalTimeSeconds>838.160006606</TotalTimeSeconds>
                <Calories>70.63716888427734</Calories>
                <Intensity>Active</Intensity>
                <TriggerMethod>Manual</TriggerMethod>
            </Lap>
        </Activity>
    </Activities>
    <Author xsi:type="Application_t">
        <Name>Google Fit</Name>
        <Build>
            <Version>
                <VersionMajor>0</VersionMajor>
                <VersionMinor>0</VersionMinor>
                <BuildMajor>0</BuildMajor>
                <BuildMinor>0</BuildMinor>
            </Version>
        </Build>
        <LangID>en</LangID>
        <PartNumber>000-00000-00</PartNumber>
    </Author>
</TrainingCenterDatabase>
