<?xml version="1.0" encoding="UTF-8"?>
<TrainingCenterDatabase
    xmlns="http://www.garmin.com/xmlschemas/TrainingCenterDatabase/v2"
    xmlns:ns2="http://www.garmin.com/xmlschemas/UserProfile/v2"
    xmlns:ns3="http://www.garmin.com/xmlschemas/ActivityExtension/v2"
    xmlns:ns4="http://www.garmin.com/xmlschemas/ProfileExtension/v1"
    xmlns:ns5="http://www.garmin.com/xmlschemas/ActivityGoals/v1"
    xmlns:xsi="http://www.w3.org/2001/XMLSchema-instance" xsi:schemaLocation="http://www.garmin.com/xmlschemas/TrainingCenterDatabase/v2 http://www.garmin.com/xmlschemas/TrainingCenterDatabasev2.xsd">
    <Activities>
        <Activity Sport="Walking">
            <Id>2021-10-09T15:48:21.818Z</Id>
            <Lap StartTime="2021-10-09T15:48:21.818Z">
                <Track>
                    <Trackpoint>
                        <DistanceMeters>0.0</DistanceMeters>
                        <Time>2021-10-09T15:48:21.818Z</Time>
                    </Trackpoint>
                    <Trackpoint>
                        <DistanceMeters>25.446134567260742</DistanceMeters>
                        <Time>2021-10-09T15:49:39.409Z</Time>
                    </Trackpoint>
                    <Trackpoint>
                        <DistanceMeters>91.98976707458496</DistanceMeters>
                        <Time>2021-10-09T15:50:31.009Z</Time>
                    </Trackpoint>
                    <Trackpoint>
                        <DistanceMeters>110.30302619934082</DistanceMeters>
                        <Time>2021-10-09T15:50:44.649Z</Time>
                    </Trackpoint>
                    <Trackpoint>
                        <DistanceMeters>181.58572578430176</DistanceMeters>
                        <Time>2021-10-09T15:51:37.209Z</Time>
                    </Trackpoint>
                    <Trackpoint>
                        <DistanceMeters>194.93775177001953</DistanceMeters>
                        <Time>2021-10-09T15:51:46.769Z</Time>
                    </Trackpoint>
                    <Trackpoint>
                        <DistanceMeters>279.4656448364258</DistanceMeters>
                        <Time>2021-10-09T15:52:47.369Z</Time>
                    </Trackpoint>
                    <Trackpoint>
                        <DistanceMeters>331.5338439941406</DistanceMeters>
                        <Time>2021-10-09T15:53:24.329Z</Time>
                    </Trackpoint>
                    <Trackpoint>
                        <DistanceMeters>413.32877349853516</DistanceMeters>
                        <Time>2021-10-09T15:54:22.449Z</Time>
                    </Trackpoint>
                    <Trackpoint>
                        <DistanceMeters>462.03540802001953</DistanceMeters>
                        <Time>2021-10-09T15:54:57.889Z</Time>
                    </Trackpoint>
                    <Trackpoint>
                        <DistanceMeters>499.63743591308594</DistanceMeters>
                        <Time>2021-10-09T15:55:25.329Z</Time>
                    </Trackpoint>
                    <Trackpoint>
                        <DistanceMeters>558.869384765625</DistanceMeters>
                        <Time>2021-10-09T15:56:09.689Z</Time>
                    </Trackpoint>
                    <Trackpoint>
                        <DistanceMeters>593.9990921020508</DistanceMeters>
                        <Time>2021-10-09T15:56:35.929Z</Time>
                    </Trackpoint>
                    <Trackpoint>
                        <DistanceMeters>618.792760848999</DistanceMeters>
                        <Time>2021-10-09T15:57:05.129Z</Time>
                    </Trackpoint>
                    <Trackpoint>
                        <DistanceMeters>634.4519205093384</DistanceMeters>
                        <Time>2021-10-09T15:57:50.889Z</Time>
                    </Trackpoint>
                    <Trackpoint>
                        <DistanceMeters>643.5864305496216</DistanceMeters>
                        <Time>2021-10-09T15:58:01.989Z</Time>
                    </Trackpoint>
                    <Trackpoint>
                        <DistanceMeters>667.0751695632935</DistanceMeters>
                        <Time>2021-10-09T15:58:29.949Z</Time>
                    </Trackpoint>
                    <Trackpoint>
                        <DistanceMeters>691.8688383102417</DistanceMeters>
                        <Time>2021-10-09T15:58:59.889Z</Time>
                    </Trackpoint>
                    <Trackpoint>
                        <DistanceMeters>722.9539937973022</DistanceMeters>
                        <Time>2021-10-09T15:59:27.889Z</Time>
                    </Trackpoint>
                    <Trackpoint>
                        <DistanceMeters>768.841212272644</DistanceMeters>
                        <Time>2021-10-09T16:00:02.689Z</Time>
                    </Trackpoint>
                    <Trackpoint>
                        <DistanceMeters>787.9069585800171</DistanceMeters>
                        <Time>2021-10-09T16:00:32.337Z</Time>
                    </Trackpoint>
                </Track>
                <DistanceMeters>787.9069585800171</DistanceMeters>
                <TotalTimeSeconds>730.519</TotalTimeSeconds>
                <Calories>73.25482177734375</Calories>
                <Intensity>Active</Intensity>
                <TriggerMethod>Manual</TriggerMethod>
            </Lap>
        </Activity>
        <Activity Sport="Walking">
            <Id>2021-10-09T16:00:32.337Z</Id>
            <Lap StartTime="2021-10-09T16:00:32.337Z">
                <Track>
                    <Trackpoint>
                        <DistanceMeters>0.0</DistanceMeters>
                        <Time>2021-10-09T16:00:32.337Z</Time>
                    </Trackpoint>
                    <Trackpoint>
                        <DistanceMeters>0.0</DistanceMeters>
                        <Time>2021-10-09T16:01:03.269Z</Time>
                    </Trackpoint>
                    <Trackpoint>
                        <DistanceMeters>81.55812072753906</DistanceMeters>
                        <Time>2021-10-09T16:05:13.269Z</Time>
                    </Trackpoint>
                    <Trackpoint>
                        <DistanceMeters>125.50701522827148</DistanceMeters>
                        <Time>2021-10-09T16:05:55.809Z</Time>
                    </Trackpoint>
                </Track>
                <DistanceMeters>125.50701522827148</DistanceMeters>
                <TotalTimeSeconds>323.472850829</TotalTimeSeconds>
                <Calories>7.631980061531067</Calories>
                <Intensity>Active</Intensity>
                <TriggerMethod>Manual</TriggerMethod>
            </Lap>
        </Activity>
        <Activity Sport="Walking">
            <Id>2021-10-09T16:05:13.269Z</Id>
            <Lap StartTime="2021-10-09T16:05:13.269Z">
                <Track>
                    <Trackpoint>
                        <DistanceMeters>0.0</DistanceMeters>
                        <Time>2021-10-09T16:05:13.269Z</Time>
                    </Trackpoint>
                    <Trackpoint>
                        <DistanceMeters>43.94889450073242</DistanceMeters>
                        <Time>2021-10-09T16:05:30.502Z</Time>
                    </Trackpoint>
                    <Trackpoint>
                        <DistanceMeters>43.94889450073242</DistanceMeters>
                        <Time>2021-10-09T16:05:55.809Z</Time>
                    </Trackpoint>
                    <Trackpoint>
                        <DistanceMeters>72.52011299133301</DistanceMeters>
                        <Time>2021-10-09T16:06:20.809Z</Time>
                    </Trackpoint>
                    <Trackpoint>
                        <DistanceMeters>124.85029792785645</DistanceMeters>
                        <Time>2021-10-09T16:07:02.569Z</Time>
                    </Trackpoint>
                    <Trackpoint>
                        <DistanceMeters>172.4089870452881</DistanceMeters>
                        <Time>2021-10-09T16:07:43.689Z</Time>
                    </Trackpoint>
                    <Trackpoint>
                        <DistanceMeters>181.5434970855713</DistanceMeters>
                        <Time>2021-10-09T16:07:57.009Z</Time>
                    </Trackpoint>
                    <Trackpoint>
                        <DistanceMeters>244.8326015472412</DistanceMeters>
                        <Time>2021-10-09T16:09:45.289Z</Time>
                    </Trackpoint>
                </Track>
                <DistanceMeters>244.8326015472412</DistanceMeters>
                <TotalTimeSeconds>272.020002131</TotalTimeSeconds>
                <Calories>20.75168228149414</Calories>
                <Intensity>Active</Intensity>
                <TriggerMethod>Manual</TriggerMethod>
            </Lap>
        </Activity>
        <Activity Sport="Walking">
            <Id>2021-10-09T16:08:57.444Z</Id>
            <Lap StartTime="2021-10-09T16:08:57.444Z">
                <Track>
                    <Trackpoint>
                        <DistanceMeters>0.0</DistanceMeters>
                        <Time>2021-10-09T16:08:57.444Z</Time>
                    </Trackpoint>
                    <Trackpoint>
                        <DistanceMeters>0.0</DistanceMeters>
                        <Time>2021-10-09T16:09:45.289Z</Time>
                    </Trackpoint>
                    <Trackpoint>
                        <DistanceMeters>37.84296798706055</DistanceMeters>
                        <Time>2021-10-09T16:10:51.289Z</Time>
                    </Trackpoint>
                    <Trackpoint>
                        <DistanceMeters>87.4084587097168</DistanceMeters>
                        <Time>2021-10-09T16:11:38.589Z</Time>
                    </Trackpoint>
                    <Trackpoint>
                        <DistanceMeters>153.30742263793945</DistanceMeters>
                        <Time>2021-10-09T16:12:53.529Z</Time>
                    </Trackpoint>
                    <Trackpoint>
                        <DistanceMeters>191.2999496459961</DistanceMeters>
                        <Time>2021-10-09T16:13:23.849Z</Time>
                    </Trackpoint>
                </Track>
                <DistanceMeters>191.2999496459961</DistanceMeters>
                <TotalTimeSeconds>266.405851219</TotalTimeSeconds>
                <Calories>15.260701894760132</Calories>
                <Intensity>Active</Intensity>
                <TriggerMethod>Manual</TriggerMethod>
            </Lap>
        </Activity>
        <Activity Sport="Walking">
            <Id>2021-10-09T16:12:53.529Z</Id>
            <Lap StartTime="2021-10-09T16:12:53.529Z">
                <Track>
                    <Trackpoint>
                        <DistanceMeters>0.0</DistanceMeters>
                        <Time>2021-10-09T16:12:53.529Z</Time>
                    </Trackpoint>
                    <Trackpoint>
                        <DistanceMeters>37.99252700805664</DistanceMeters>
                        <Time>2021-10-09T16:12:59.615Z</Time>
                    </Trackpoint>
                    <Trackpoint>
                        <DistanceMeters>37.99252700805664</DistanceMeters>
                        <Time>2021-10-09T16:13:23.849Z</Time>
                    </Trackpoint>
                    <Trackpoint>
                        <DistanceMeters>103.57897567749023</DistanceMeters>
                        <Time>2021-10-09T16:14:15.289Z</Time>
                    </Trackpoint>
                    <Trackpoint>
                        <DistanceMeters>154.0586280822754</DistanceMeters>
                        <Time>2021-10-09T16:14:54.809Z</Time>
                    </Trackpoint>
                    <Trackpoint>
                        <DistanceMeters>220.61005783081055</DistanceMeters>
                        <Time>2021-10-09T16:16:35.669Z</Time>
                    </Trackpoint>
                    <Trackpoint>
                        <DistanceMeters>232.78065395355225</DistanceMeters>
                        <Time>2021-10-09T16:16:47.449Z</Time>
                    </Trackpoint>
                    <Trackpoint>
                        <DistanceMeters>244.52502346038818</DistanceMeters>
                        <Time>2021-10-09T16:17:21.929Z</Time>
                    </Trackpoint>
                    <Trackpoint>
                        <DistanceMeters>292.42356395721436</DistanceMeters>
                        <Time>2021-10-09T16:18:00.489Z</Time>
                    </Trackpoint>
                    <Trackpoint>
                        <DistanceMeters>369.8107633590698</DistanceMeters>
                        <Time>2021-10-09T16:19:02.329Z</Time>
                    </Trackpoint>
                    <Trackpoint>
                        <DistanceMeters>374.0852975845337</DistanceMeters>
                        <Time>2021-10-09T16:19:05.809Z</Time>
                    </Trackpoint>
                    <Trackpoint>
                        <DistanceMeters>443.47720432281494</DistanceMeters>
                        <Time>2021-10-09T16:19:59.729Z</Time>
                    </Trackpoint>
                    <Trackpoint>
                        <DistanceMeters>471.1494379043579</DistanceMeters>
                        <Time>2021-10-09T16:20:20.729Z</Time>
                    </Trackpoint>
                    <Trackpoint>
                        <DistanceMeters>523.6848840713501</DistanceMeters>
                        <Time>2021-10-09T16:21:02.129Z</Time>
                    </Trackpoint>
                    <Trackpoint>
                        <DistanceMeters>578.4919443130493</DistanceMeters>
                        <Time>2021-10-09T16:22:11.609Z</Time>
                    </Trackpoint>
                    <Trackpoint>
                        <DistanceMeters>588.2789192199707</DistanceMeters>
                        <Time>2021-10-09T16:22:25.569Z</Time>
                    </Trackpoint>
                    <Trackpoint>
                        <DistanceMeters>616.9873790740967</DistanceMeters>
                        <Time>2021-10-09T16:23:21.989Z</Time>
                    </Trackpoint>
                    <Trackpoint>
                        <DistanceMeters>618.2923090457916</DistanceMeters>
                        <Time>2021-10-09T16:24:02.329Z</Time>
                    </Trackpoint>
                    <Trackpoint>
                        <DistanceMeters>668.5321123600006</DistanceMeters>
                        <Time>2021-10-09T16:26:36.329Z</Time>
                    </Trackpoint>
                    <Trackpoint>
                        <DistanceMeters>710.0411684513092</DistanceMeters>
                        <Time>2021-10-09T16:27:11.529Z</Time>
                    </Trackpoint>
                    <Trackpoint>
                        <DistanceMeters>779.788078546524</DistanceMeters>
                        <Time>2021-10-09T16:28:10.409Z</Time>
                    </Trackpoint>
                    <Trackpoint>
                        <DistanceMeters>789.1509659290314</DistanceMeters>
                        <Time>2021-10-09T16:28:17.769Z</Time>
                    </Trackpoint>
                    <Trackpoint>
                        <DistanceMeters>817.4104244709015</DistanceMeters>
                        <Time>2021-10-09T16:28:41.409Z</Time>
                    </Trackpoint>
                    <Trackpoint>
                        <DistanceMeters>858.5135586261749</DistanceMeters>
                        <Time>2021-10-09T16:29:15.449Z</Time>
                    </Trackpoint>
                    <Trackpoint>
                        <DistanceMeters>928.2814037799835</DistanceMeters>
                        <Time>2021-10-09T16:30:14.289Z</Time>
                    </Trackpoint>
                    <Trackpoint>
                        <DistanceMeters>935.9534170627594</DistanceMeters>
                        <Time>2021-10-09T16:30:20.984Z</Time>
                    </Trackpoint>
                </Track>
                <DistanceMeters>935.9534170627594</DistanceMeters>
                <TotalTimeSeconds>1047.454148781</TotalTimeSeconds>
                <Calories>104.42616271972656</Calories>
                <Intensity>Active</Intensity>
                <TriggerMethod>Manual</TriggerMethod>
            </Lap>
        </Activity>
    </Activities>
    <Author xsi:type="Application_t">
        <Name>Google Fit</Name>
        <Build>
            <Version>
                <VersionMajor>0</VersionMajor>
                <VersionMinor>0</VersionMinor>
                <BuildMajor>0</BuildMajor>
                <BuildMinor>0</BuildMinor>
            </Version>
        </Build>
        <LangID>en</LangID>
        <PartNumber>000-00000-00</PartNumber>
    </Author>
</TrainingCenterDatabase>
