<?xml version="1.0" encoding="UTF-8"?>
<TrainingCenterDatabase
    xmlns="http://www.garmin.com/xmlschemas/TrainingCenterDatabase/v2"
    xmlns:ns2="http://www.garmin.com/xmlschemas/UserProfile/v2"
    xmlns:ns3="http://www.garmin.com/xmlschemas/ActivityExtension/v2"
    xmlns:ns4="http://www.garmin.com/xmlschemas/ProfileExtension/v1"
    xmlns:ns5="http://www.garmin.com/xmlschemas/ActivityGoals/v1"
    xmlns:xsi="http://www.w3.org/2001/XMLSchema-instance" xsi:schemaLocation="http://www.garmin.com/xmlschemas/TrainingCenterDatabase/v2 http://www.garmin.com/xmlschemas/TrainingCenterDatabasev2.xsd">
    <Activities>
        <Activity Sport="Walking">
            <Id>2021-12-01T17:10:50.761Z</Id>
            <Lap StartTime="2021-12-01T17:10:50.761Z">
                <Track>
                    <Trackpoint>
                        <DistanceMeters>0.0</DistanceMeters>
                        <Time>2021-12-01T17:10:50.761Z</Time>
                    </Trackpoint>
                    <Trackpoint>
                        <DistanceMeters>0.0</DistanceMeters>
                        <Time>2021-12-01T17:33:04.456Z</Time>
                    </Trackpoint>
                    <Trackpoint>
                        <DistanceMeters>35.23310852050781</DistanceMeters>
                        <Time>2021-12-01T17:34:52.456Z</Time>
                    </Trackpoint>
                    <Trackpoint>
                        <DistanceMeters>96.1527214050293</DistanceMeters>
                        <Time>2021-12-01T17:35:53.456Z</Time>
                    </Trackpoint>
                    <Trackpoint>
                        <DistanceMeters>113.7692756652832</DistanceMeters>
                        <Time>2021-12-01T17:36:16.316Z</Time>
                    </Trackpoint>
                </Track>
                <DistanceMeters>113.7692756652832</DistanceMeters>
                <TotalTimeSeconds>1525.555344925</TotalTimeSeconds>
                <Calories>36.85806703567505</Calories>
                <Intensity>Active</Intensity>
                <TriggerMethod>Manual</TriggerMethod>
            </Lap>
        </Activity>
        <Activity Sport="Walking">
            <Id>2021-12-01T17:35:53.456Z</Id>
            <Lap StartTime="2021-12-01T17:35:53.456Z">
                <Track>
                    <Trackpoint>
                        <DistanceMeters>0.0</DistanceMeters>
                        <Time>2021-12-01T17:35:53.456Z</Time>
                    </Trackpoint>
                    <Trackpoint>
                        <DistanceMeters>17.616554260253906</DistanceMeters>
                        <Time>2021-12-01T17:36:05.162Z</Time>
                    </Trackpoint>
                    <Trackpoint>
                        <DistanceMeters>17.616554260253906</DistanceMeters>
                        <Time>2021-12-01T17:37:06.209Z</Time>
                    </Trackpoint>
                </Track>
                <DistanceMeters>17.616554260253906</DistanceMeters>
                <TotalTimeSeconds>72.752655315</TotalTimeSeconds>
                <Calories>5.928341865539551</Calories>
                <Intensity>Active</Intensity>
                <TriggerMethod>Manual</TriggerMethod>
            </Lap>
        </Activity>
        <Activity Sport="Walking">
            <Id>2021-12-01T17:44:08.336Z</Id>
            <Lap StartTime="2021-12-01T17:44:08.336Z">
                <Track>
                    <Trackpoint>
                        <DistanceMeters>0.0</DistanceMeters>
                        <Time>2021-12-01T17:44:08.336Z</Time>
                    </Trackpoint>
                    <Trackpoint>
                        <DistanceMeters>26.09859848022461</DistanceMeters>
                        <Time>2021-12-01T17:44:15.645Z</Time>
                    </Trackpoint>
                    <Trackpoint>
                        <DistanceMeters>26.09859848022461</DistanceMeters>
                        <Time>2021-12-01T17:44:52.976Z</Time>
                    </Trackpoint>
                    <Trackpoint>
                        <DistanceMeters>43.06268882751465</DistanceMeters>
                        <Time>2021-12-01T17:45:48.856Z</Time>
                    </Trackpoint>
                </Track>
                <DistanceMeters>43.06268882751465</DistanceMeters>
                <TotalTimeSeconds>100.520001781</TotalTimeSeconds>
                <Calories>5.861140727996826</Calories>
                <Intensity>Active</Intensity>
                <TriggerMethod>Manual</TriggerMethod>
            </Lap>
        </Activity>
        <Activity Sport="Walking">
            <Id>2021-12-01T17:45:16.000Z</Id>
            <Lap StartTime="2021-12-01T17:45:16.000Z">
                <Track>
                    <Trackpoint>
                        <DistanceMeters>0.0</DistanceMeters>
                        <Time>2021-12-01T17:45:16.000Z</Time>
                    </Trackpoint>
                    <Trackpoint>
                        <DistanceMeters>0.0</DistanceMeters>
                        <Time>2021-12-01T17:47:12.056Z</Time>
                    </Trackpoint>
                    <Trackpoint>
                        <DistanceMeters>48.93487548828125</DistanceMeters>
                        <Time>2021-12-01T17:48:12.296Z</Time>
                    </Trackpoint>
                </Track>
                <DistanceMeters>48.93487548828125</DistanceMeters>
                <TotalTimeSeconds>176.296343677</TotalTimeSeconds>
                <Calories>2.947828948497772</Calories>
                <Intensity>Active</Intensity>
                <TriggerMethod>Manual</TriggerMethod>
            </Lap>
        </Activity>
        <Activity Sport="Walking">
            <Id>2021-12-01T17:47:12.056Z</Id>
            <Lap StartTime="2021-12-01T17:47:12.056Z">
                <Track>
                    <Trackpoint>
                        <DistanceMeters>0.0</DistanceMeters>
                        <Time>2021-12-01T17:47:12.056Z</Time>
                    </Trackpoint>
                    <Trackpoint>
                        <DistanceMeters>48.93487548828125</DistanceMeters>
                        <Time>2021-12-01T17:47:17.711Z</Time>
                    </Trackpoint>
                    <Trackpoint>
                        <DistanceMeters>48.93487548828125</DistanceMeters>
                        <Time>2021-12-01T17:48:12.296Z</Time>
                    </Trackpoint>
                    <Trackpoint>
                        <DistanceMeters>88.7352409362793</DistanceMeters>
                        <Time>2021-12-01T17:49:08.296Z</Time>
                    </Trackpoint>
                    <Trackpoint>
                        <DistanceMeters>123.96834945678711</DistanceMeters>
                        <Time>2021-12-01T17:50:25.195Z</Time>
                    </Trackpoint>
                </Track>
                <DistanceMeters>123.96834945678711</DistanceMeters>
                <TotalTimeSeconds>193.138655786</TotalTimeSeconds>
                <Calories>18.20677947998047</Calories>
                <Intensity>Active</Intensity>
                <TriggerMethod>Manual</TriggerMethod>
            </Lap>
        </Activity>
        <Activity Sport="Walking">
            <Id>2021-12-01T17:50:25.195Z</Id>
            <Lap StartTime="2021-12-01T17:50:25.195Z">
                <Track>
                    <Trackpoint>
                        <DistanceMeters>0.0</DistanceMeters>
                        <Time>2021-12-01T17:50:25.195Z</Time>
                    </Trackpoint>
                    <Trackpoint>
                        <DistanceMeters>0.0</DistanceMeters>
                        <Time>2021-12-01T17:55:19.256Z</Time>
                    </Trackpoint>
                    <Trackpoint>
                        <DistanceMeters>30.013389587402344</DistanceMeters>
                        <Time>2021-12-01T17:56:05.136Z</Time>
                    </Trackpoint>
                </Track>
                <DistanceMeters>30.013389587402344</DistanceMeters>
                <TotalTimeSeconds>339.941343115</TotalTimeSeconds>
                <Calories>7.656771540641785</Calories>
                <Intensity>Active</Intensity>
                <TriggerMethod>Manual</TriggerMethod>
            </Lap>
        </Activity>
        <Activity Sport="Walking">
            <Id>2021-12-01T17:55:19.256Z</Id>
            <Lap StartTime="2021-12-01T17:55:19.256Z">
                <Track>
                    <Trackpoint>
                        <DistanceMeters>0.0</DistanceMeters>
                        <Time>2021-12-01T17:55:19.256Z</Time>
                    </Trackpoint>
                    <Trackpoint>
                        <DistanceMeters>30.013389587402344</DistanceMeters>
                        <Time>2021-12-01T17:55:35.516Z</Time>
                    </Trackpoint>
                    <Trackpoint>
                        <DistanceMeters>30.013389587402344</DistanceMeters>
                        <Time>2021-12-01T17:56:05.136Z</Time>
                    </Trackpoint>
                    <Trackpoint>
                        <DistanceMeters>40.452829360961914</DistanceMeters>
                        <Time>2021-12-01T17:56:16.876Z</Time>
                    </Trackpoint>
                    <Trackpoint>
                        <DistanceMeters>71.77114868164062</DistanceMeters>
                        <Time>2021-12-01T17:57:05.735Z</Time>
                    </Trackpoint>
                </Track>
                <DistanceMeters>71.77114868164062</DistanceMeters>
                <TotalTimeSeconds>106.47865707</TotalTimeSeconds>
                <Calories>8.76126766204834</Calories>
                <Intensity>Active</Intensity>
                <TriggerMethod>Manual</TriggerMethod>
            </Lap>
        </Activity>
    </Activities>
    <Author xsi:type="Application_t">
        <Name>Google Fit</Name>
        <Build>
            <Version>
                <VersionMajor>0</VersionMajor>
                <VersionMinor>0</VersionMinor>
                <BuildMajor>0</BuildMajor>
                <BuildMinor>0</BuildMinor>
            </Version>
        </Build>
        <LangID>en</LangID>
        <PartNumber>000-00000-00</PartNumber>
    </Author>
</TrainingCenterDatabase>
