<?xml version="1.0" encoding="UTF-8"?>
<TrainingCenterDatabase
    xmlns="http://www.garmin.com/xmlschemas/TrainingCenterDatabase/v2"
    xmlns:ns2="http://www.garmin.com/xmlschemas/UserProfile/v2"
    xmlns:ns3="http://www.garmin.com/xmlschemas/ActivityExtension/v2"
    xmlns:ns4="http://www.garmin.com/xmlschemas/ProfileExtension/v1"
    xmlns:ns5="http://www.garmin.com/xmlschemas/ActivityGoals/v1"
    xmlns:xsi="http://www.w3.org/2001/XMLSchema-instance" xsi:schemaLocation="http://www.garmin.com/xmlschemas/TrainingCenterDatabase/v2 http://www.garmin.com/xmlschemas/TrainingCenterDatabasev2.xsd">
    <Activities>
        <Activity Sport="Biking">
            <Id>2021-01-21T14:47:46.757Z</Id>
            <Lap StartTime="2021-01-21T14:47:46.757Z">
                <Track>
                    <Trackpoint>
                        <DistanceMeters>0.0</DistanceMeters>
                        <Time>2021-01-21T14:47:46.757Z</Time>
                    </Trackpoint>
                    <Trackpoint>
                        <DistanceMeters>0.0</DistanceMeters>
                        <Time>2021-01-21T14:52:35.358Z</Time>
                        <Position>
                            <LatitudeDegrees>18.5925673</LatitudeDegrees>
                            <LongitudeDegrees>73.7959842</LongitudeDegrees>
                        </Position>
                        <AltitudeMeters>494.56</AltitudeMeters>
                    </Trackpoint>
                    <Trackpoint>
                        <DistanceMeters>89.92871856689453</DistanceMeters>
                        <Time>2021-01-21T14:58:19.230Z</Time>
                        <Position>
                            <LatitudeDegrees>18.5938189</LatitudeDegrees>
                            <LongitudeDegrees>73.7917264</LongitudeDegrees>
                        </Position>
                        <AltitudeMeters>494.56</AltitudeMeters>
                    </Trackpoint>
                    <Trackpoint>
                        <DistanceMeters>89.92871856689453</DistanceMeters>
                        <Time>2021-01-21T15:01:56.889Z</Time>
                        <Position>
                            <LatitudeDegrees>18.5937543</LatitudeDegrees>
                            <LongitudeDegrees>73.7909911</LongitudeDegrees>
                        </Position>
                        <AltitudeMeters>494.56</AltitudeMeters>
                    </Trackpoint>
                    <Trackpoint>
                        <DistanceMeters>89.92871856689453</DistanceMeters>
                        <Time>2021-01-21T15:02:17.888Z</Time>
                        <Position>
                            <LatitudeDegrees>18.5938189</LatitudeDegrees>
                            <LongitudeDegrees>73.7917264</LongitudeDegrees>
                        </Position>
                        <AltitudeMeters>494.56</AltitudeMeters>
                    </Trackpoint>
                    <Trackpoint>
                        <DistanceMeters>89.92871856689453</DistanceMeters>
                        <Time>2021-01-21T15:05:07.910Z</Time>
                        <Position>
                            <LatitudeDegrees>18.5936574</LatitudeDegrees>
                            <LongitudeDegrees>73.7898881</LongitudeDegrees>
                        </Position>
                        <AltitudeMeters>494.56</AltitudeMeters>
                    </Trackpoint>
                    <Trackpoint>
                        <DistanceMeters>89.92871856689453</DistanceMeters>
                        <Time>2021-01-21T15:05:34.891Z</Time>
                        <Position>
                            <LatitudeDegrees>18.5938189</LatitudeDegrees>
                            <LongitudeDegrees>73.7917264</LongitudeDegrees>
                        </Position>
                        <AltitudeMeters>494.56</AltitudeMeters>
                    </Trackpoint>
                    <Trackpoint>
                        <DistanceMeters>89.92871856689453</DistanceMeters>
                        <Time>2021-01-21T15:10:11.790Z</Time>
                        <Position>
                            <LatitudeDegrees>18.5933356</LatitudeDegrees>
                            <LongitudeDegrees>73.795717</LongitudeDegrees>
                        </Position>
                        <AltitudeMeters>493.64381447328344</AltitudeMeters>
                    </Trackpoint>
                    <Trackpoint>
                        <DistanceMeters>161.92220306396484</DistanceMeters>
                        <Time>2021-01-21T15:14:21.408Z</Time>
                        <Position>
                            <LatitudeDegrees>18.5934108</LatitudeDegrees>
                            <LongitudeDegrees>73.7963952</LongitudeDegrees>
                        </Position>
                        <AltitudeMeters>483.8600183105469</AltitudeMeters>
                    </Trackpoint>
                    <Trackpoint>
                        <DistanceMeters>262.7052536010742</DistanceMeters>
                        <Time>2021-01-21T15:18:08.143Z</Time>
                        <Position>
                            <LatitudeDegrees>18.5933177</LatitudeDegrees>
                            <LongitudeDegrees>73.7956199</LongitudeDegrees>
                        </Position>
                        <AltitudeMeters>483.8600183105469</AltitudeMeters>
                    </Trackpoint>
                    <Trackpoint>
                        <DistanceMeters>288.951509475708</DistanceMeters>
                        <Time>2021-01-21T15:18:26.326Z</Time>
                        <Position>
                            <LatitudeDegrees>18.5932431</LatitudeDegrees>
                            <LongitudeDegrees>73.795855</LongitudeDegrees>
                        </Position>
                        <AltitudeMeters>493.4599938964844</AltitudeMeters>
                    </Trackpoint>
                    <Trackpoint>
                        <DistanceMeters>486.36375617980957</DistanceMeters>
                        <Time>2021-01-21T15:19:57.391Z</Time>
                        <Position>
                            <LatitudeDegrees>18.5915349</LatitudeDegrees>
                            <LongitudeDegrees>73.7963679</LongitudeDegrees>
                        </Position>
                        <AltitudeMeters>497.56</AltitudeMeters>
                    </Trackpoint>
                    <Trackpoint>
                        <DistanceMeters>575.9625186920166</DistanceMeters>
                        <Time>2021-01-21T15:21:52.421Z</Time>
                    </Trackpoint>
                </Track>
                <DistanceMeters>575.9625186920166</DistanceMeters>
                <TotalTimeSeconds>2045.664</TotalTimeSeconds>
                <Calories>202.29342651367188</Calories>
                <Intensity>Active</Intensity>
                <TriggerMethod>Manual</TriggerMethod>
            </Lap>
        </Activity>
    </Activities>
    <Author xsi:type="Application_t">
        <Name>Google Fit</Name>
        <Build>
            <Version>
                <VersionMajor>0</VersionMajor>
                <VersionMinor>0</VersionMinor>
                <BuildMajor>0</BuildMajor>
                <BuildMinor>0</BuildMinor>
            </Version>
        </Build>
        <LangID>en</LangID>
        <PartNumber>000-00000-00</PartNumber>
    </Author>
</TrainingCenterDatabase>
