<?xml version="1.0" encoding="UTF-8"?>
<TrainingCenterDatabase
    xmlns="http://www.garmin.com/xmlschemas/TrainingCenterDatabase/v2"
    xmlns:ns2="http://www.garmin.com/xmlschemas/UserProfile/v2"
    xmlns:ns3="http://www.garmin.com/xmlschemas/ActivityExtension/v2"
    xmlns:ns4="http://www.garmin.com/xmlschemas/ProfileExtension/v1"
    xmlns:ns5="http://www.garmin.com/xmlschemas/ActivityGoals/v1"
    xmlns:xsi="http://www.w3.org/2001/XMLSchema-instance" xsi:schemaLocation="http://www.garmin.com/xmlschemas/TrainingCenterDatabase/v2 http://www.garmin.com/xmlschemas/TrainingCenterDatabasev2.xsd">
    <Activities>
        <Activity Sport="Walking">
            <Id>2021-09-15T10:00:20.591Z</Id>
            <Lap StartTime="2021-09-15T10:00:20.591Z">
                <Track>
                    <Trackpoint>
                        <DistanceMeters>0.0</DistanceMeters>
                        <Time>2021-09-15T10:00:20.591Z</Time>
                    </Trackpoint>
                    <Trackpoint>
                        <DistanceMeters>21.53134536743164</DistanceMeters>
                        <Time>2021-09-15T10:00:43.703Z</Time>
                    </Trackpoint>
                    <Trackpoint>
                        <DistanceMeters>21.53134536743164</DistanceMeters>
                        <Time>2021-09-15T10:02:52.376Z</Time>
                    </Trackpoint>
                </Track>
                <DistanceMeters>21.53134536743164</DistanceMeters>
                <TotalTimeSeconds>151.7845845</TotalTimeSeconds>
                <Calories>12.903040885925293</Calories>
                <Intensity>Active</Intensity>
                <TriggerMethod>Manual</TriggerMethod>
            </Lap>
        </Activity>
        <Activity Sport="Walking">
            <Id>2021-09-15T10:02:52.376Z</Id>
            <Lap StartTime="2021-09-15T10:02:52.376Z">
                <Track>
                    <Trackpoint>
                        <DistanceMeters>0.0</DistanceMeters>
                        <Time>2021-09-15T10:02:52.376Z</Time>
                    </Trackpoint>
                    <Trackpoint>
                        <DistanceMeters>0.0</DistanceMeters>
                        <Time>2021-09-15T10:04:59.191Z</Time>
                    </Trackpoint>
                    <Trackpoint>
                        <DistanceMeters>27.40353012084961</DistanceMeters>
                        <Time>2021-09-15T10:06:09.411Z</Time>
                    </Trackpoint>
                    <Trackpoint>
                        <DistanceMeters>28.8283748626709</DistanceMeters>
                        <Time>2021-09-15T10:06:10.571Z</Time>
                    </Trackpoint>
                    <Trackpoint>
                        <DistanceMeters>69.28120231628418</DistanceMeters>
                        <Time>2021-09-15T10:07:07.791Z</Time>
                    </Trackpoint>
                    <Trackpoint>
                        <DistanceMeters>95.00950813293457</DistanceMeters>
                        <Time>2021-09-15T10:07:34.891Z</Time>
                    </Trackpoint>
                    <Trackpoint>
                        <DistanceMeters>153.07889366149902</DistanceMeters>
                        <Time>2021-09-15T10:08:46.731Z</Time>
                    </Trackpoint>
                    <Trackpoint>
                        <DistanceMeters>208.53841590881348</DistanceMeters>
                        <Time>2021-09-15T10:09:48.331Z</Time>
                    </Trackpoint>
                </Track>
                <DistanceMeters>208.53841590881348</DistanceMeters>
                <TotalTimeSeconds>415.95541856</TotalTimeSeconds>
                <Calories>20.894288063049316</Calories>
                <Intensity>Active</Intensity>
                <TriggerMethod>Manual</TriggerMethod>
            </Lap>
        </Activity>
        <Activity Sport="Walking">
            <Id>2021-09-15T10:08:46.731Z</Id>
            <Lap StartTime="2021-09-15T10:08:46.731Z">
                <Track>
                    <Trackpoint>
                        <DistanceMeters>0.0</DistanceMeters>
                        <Time>2021-09-15T10:08:46.731Z</Time>
                    </Trackpoint>
                    <Trackpoint>
                        <DistanceMeters>55.45952224731445</DistanceMeters>
                        <Time>2021-09-15T10:08:56.482Z</Time>
                    </Trackpoint>
                    <Trackpoint>
                        <DistanceMeters>55.45952224731445</DistanceMeters>
                        <Time>2021-09-15T10:09:48.331Z</Time>
                    </Trackpoint>
                    <Trackpoint>
                        <DistanceMeters>105.43154907226562</DistanceMeters>
                        <Time>2021-09-15T10:10:30.651Z</Time>
                    </Trackpoint>
                    <Trackpoint>
                        <DistanceMeters>121.09070873260498</DistanceMeters>
                        <Time>2021-09-15T10:10:50.491Z</Time>
                    </Trackpoint>
                    <Trackpoint>
                        <DistanceMeters>199.38650798797607</DistanceMeters>
                        <Time>2021-09-15T10:12:47.251Z</Time>
                    </Trackpoint>
                    <Trackpoint>
                        <DistanceMeters>275.7149610519409</DistanceMeters>
                        <Time>2021-09-15T10:13:49.131Z</Time>
                    </Trackpoint>
                    <Trackpoint>
                        <DistanceMeters>286.08305835723877</DistanceMeters>
                        <Time>2021-09-15T10:14:14.751Z</Time>
                    </Trackpoint>
                    <Trackpoint>
                        <DistanceMeters>323.2735643386841</DistanceMeters>
                        <Time>2021-09-15T10:16:08.751Z</Time>
                    </Trackpoint>
                </Track>
                <DistanceMeters>323.2735643386841</DistanceMeters>
                <TotalTimeSeconds>442.019997955</TotalTimeSeconds>
                <Calories>33.12515640258789</Calories>
                <Intensity>Active</Intensity>
                <TriggerMethod>Manual</TriggerMethod>
            </Lap>
        </Activity>
    </Activities>
    <Author xsi:type="Application_t">
        <Name>Google Fit</Name>
        <Build>
            <Version>
                <VersionMajor>0</VersionMajor>
                <VersionMinor>0</VersionMinor>
                <BuildMajor>0</BuildMajor>
                <BuildMinor>0</BuildMinor>
            </Version>
        </Build>
        <LangID>en</LangID>
        <PartNumber>000-00000-00</PartNumber>
    </Author>
</TrainingCenterDatabase>
