<?xml version="1.0" encoding="UTF-8"?>
<TrainingCenterDatabase
    xmlns="http://www.garmin.com/xmlschemas/TrainingCenterDatabase/v2"
    xmlns:ns2="http://www.garmin.com/xmlschemas/UserProfile/v2"
    xmlns:ns3="http://www.garmin.com/xmlschemas/ActivityExtension/v2"
    xmlns:ns4="http://www.garmin.com/xmlschemas/ProfileExtension/v1"
    xmlns:ns5="http://www.garmin.com/xmlschemas/ActivityGoals/v1"
    xmlns:xsi="http://www.w3.org/2001/XMLSchema-instance" xsi:schemaLocation="http://www.garmin.com/xmlschemas/TrainingCenterDatabase/v2 http://www.garmin.com/xmlschemas/TrainingCenterDatabasev2.xsd">
    <Activities>
        <Activity Sport="Walking">
            <Id>2021-09-01T06:30:11.994Z</Id>
            <Lap StartTime="2021-09-01T06:30:11.994Z">
                <Track>
                    <Trackpoint>
                        <DistanceMeters>0.0</DistanceMeters>
                        <Time>2021-09-01T06:30:11.994Z</Time>
                    </Trackpoint>
                    <Trackpoint>
                        <DistanceMeters>30.66585350036621</DistanceMeters>
                        <Time>2021-09-01T06:31:08.003Z</Time>
                    </Trackpoint>
                    <Trackpoint>
                        <DistanceMeters>30.66585350036621</DistanceMeters>
                        <Time>2021-09-01T06:32:42.166Z</Time>
                    </Trackpoint>
                </Track>
                <DistanceMeters>30.66585350036621</DistanceMeters>
                <TotalTimeSeconds>150.171691748</TotalTimeSeconds>
                <Calories>9.442456245422363</Calories>
                <Intensity>Active</Intensity>
                <TriggerMethod>Manual</TriggerMethod>
            </Lap>
        </Activity>
        <Activity Sport="Walking">
            <Id>2021-09-01T06:35:16.571Z</Id>
            <Lap StartTime="2021-09-01T06:35:16.571Z">
                <Track>
                    <Trackpoint>
                        <DistanceMeters>0.0</DistanceMeters>
                        <Time>2021-09-01T06:35:16.571Z</Time>
                    </Trackpoint>
                    <Trackpoint>
                        <DistanceMeters>0.0</DistanceMeters>
                        <Time>2021-09-01T06:35:24.894Z</Time>
                    </Trackpoint>
                    <Trackpoint>
                        <DistanceMeters>9.134510040283203</DistanceMeters>
                        <Time>2021-09-01T06:35:52.454Z</Time>
                    </Trackpoint>
                    <Trackpoint>
                        <DistanceMeters>42.41022491455078</DistanceMeters>
                        <Time>2021-09-01T06:37:49.001Z</Time>
                    </Trackpoint>
                </Track>
                <DistanceMeters>42.41022491455078</DistanceMeters>
                <TotalTimeSeconds>152.43</TotalTimeSeconds>
                <Calories>15.285340309143066</Calories>
                <Intensity>Active</Intensity>
                <TriggerMethod>Manual</TriggerMethod>
            </Lap>
        </Activity>
        <Activity Sport="Walking">
            <Id>2021-09-01T06:37:49.001Z</Id>
            <Lap StartTime="2021-09-01T06:37:49.001Z">
                <Track>
                    <Trackpoint>
                        <DistanceMeters>0.0</DistanceMeters>
                        <Time>2021-09-01T06:37:49.001Z</Time>
                    </Trackpoint>
                    <Trackpoint>
                        <DistanceMeters>0.0</DistanceMeters>
                        <Time>2021-09-01T06:49:14.094Z</Time>
                    </Trackpoint>
                    <Trackpoint>
                        <DistanceMeters>38.49543380737305</DistanceMeters>
                        <Time>2021-09-01T06:50:35.094Z</Time>
                    </Trackpoint>
                    <Trackpoint>
                        <DistanceMeters>54.85716438293457</DistanceMeters>
                        <Time>2021-09-01T06:50:52.814Z</Time>
                    </Trackpoint>
                    <Trackpoint>
                        <DistanceMeters>99.87724876403809</DistanceMeters>
                        <Time>2021-09-01T06:51:53.174Z</Time>
                    </Trackpoint>
                </Track>
                <DistanceMeters>99.87724876403809</DistanceMeters>
                <TotalTimeSeconds>844.173313206</TotalTimeSeconds>
                <Calories>18.385728120803833</Calories>
                <Intensity>Active</Intensity>
                <TriggerMethod>Manual</TriggerMethod>
            </Lap>
        </Activity>
        <Activity Sport="Walking">
            <Id>2021-09-01T06:50:52.814Z</Id>
            <Lap StartTime="2021-09-01T06:50:52.814Z">
                <Track>
                    <Trackpoint>
                        <DistanceMeters>0.0</DistanceMeters>
                        <Time>2021-09-01T06:50:52.814Z</Time>
                    </Trackpoint>
                    <Trackpoint>
                        <DistanceMeters>45.020084381103516</DistanceMeters>
                        <Time>2021-09-01T06:50:57.889Z</Time>
                    </Trackpoint>
                    <Trackpoint>
                        <DistanceMeters>45.020084381103516</DistanceMeters>
                        <Time>2021-09-01T06:51:53.174Z</Time>
                    </Trackpoint>
                    <Trackpoint>
                        <DistanceMeters>114.18136978149414</DistanceMeters>
                        <Time>2021-09-01T06:53:11.374Z</Time>
                    </Trackpoint>
                    <Trackpoint>
                        <DistanceMeters>137.67010879516602</DistanceMeters>
                        <Time>2021-09-01T06:53:40.334Z</Time>
                    </Trackpoint>
                    <Trackpoint>
                        <DistanceMeters>148.1095485687256</DistanceMeters>
                        <Time>2021-09-01T06:54:03.454Z</Time>
                    </Trackpoint>
                    <Trackpoint>
                        <DistanceMeters>163.76870822906494</DistanceMeters>
                        <Time>2021-09-01T06:54:24.094Z</Time>
                    </Trackpoint>
                    <Trackpoint>
                        <DistanceMeters>180.6555585861206</DistanceMeters>
                        <Time>2021-09-01T06:54:40.494Z</Time>
                    </Trackpoint>
                    <Trackpoint>
                        <DistanceMeters>196.96718311309814</DistanceMeters>
                        <Time>2021-09-01T06:55:05.414Z</Time>
                    </Trackpoint>
                    <Trackpoint>
                        <DistanceMeters>216.09514713287354</DistanceMeters>
                        <Time>2021-09-01T06:55:25.574Z</Time>
                    </Trackpoint>
                    <Trackpoint>
                        <DistanceMeters>234.44283199310303</DistanceMeters>
                        <Time>2021-09-01T06:55:43.034Z</Time>
                    </Trackpoint>
                    <Trackpoint>
                        <DistanceMeters>251.40692234039307</DistanceMeters>
                        <Time>2021-09-01T06:56:12.414Z</Time>
                    </Trackpoint>
                    <Trackpoint>
                        <DistanceMeters>261.19389724731445</DistanceMeters>
                        <Time>2021-09-01T06:56:26.974Z</Time>
                    </Trackpoint>
                    <Trackpoint>
                        <DistanceMeters>281.4581184387207</DistanceMeters>
                        <Time>2021-09-01T06:56:46.654Z</Time>
                    </Trackpoint>
                    <Trackpoint>
                        <DistanceMeters>308.72854232788086</DistanceMeters>
                        <Time>2021-09-01T06:57:14.574Z</Time>
                    </Trackpoint>
                    <Trackpoint>
                        <DistanceMeters>319.8204469680786</DistanceMeters>
                        <Time>2021-09-01T06:57:26.974Z</Time>
                    </Trackpoint>
                    <Trackpoint>
                        <DistanceMeters>340.03340244293213</DistanceMeters>
                        <Time>2021-09-01T06:57:46.774Z</Time>
                    </Trackpoint>
                    <Trackpoint>
                        <DistanceMeters>366.80022716522217</DistanceMeters>
                        <Time>2021-09-01T06:58:13.614Z</Time>
                    </Trackpoint>
                    <Trackpoint>
                        <DistanceMeters>377.8921318054199</DistanceMeters>
                        <Time>2021-09-01T06:58:27.534Z</Time>
                    </Trackpoint>
                    <Trackpoint>
                        <DistanceMeters>401.9626865386963</DistanceMeters>
                        <Time>2021-09-01T06:58:47.534Z</Time>
                    </Trackpoint>
                    <Trackpoint>
                        <DistanceMeters>424.3876304626465</DistanceMeters>
                        <Time>2021-09-01T06:59:08.874Z</Time>
                    </Trackpoint>
                    <Trackpoint>
                        <DistanceMeters>445.2665100097656</DistanceMeters>
                        <Time>2021-09-01T06:59:48.494Z</Time>
                    </Trackpoint>
                    <Trackpoint>
                        <DistanceMeters>451.1386947631836</DistanceMeters>
                        <Time>2021-09-01T07:00:17.549Z</Time>
                    </Trackpoint>
                </Track>
                <DistanceMeters>451.1386947631836</DistanceMeters>
                <TotalTimeSeconds>564.734687187</TotalTimeSeconds>
                <Calories>56.121456146240234</Calories>
                <Intensity>Active</Intensity>
                <TriggerMethod>Manual</TriggerMethod>
            </Lap>
        </Activity>
    </Activities>
    <Author xsi:type="Application_t">
        <Name>Google Fit</Name>
        <Build>
            <Version>
                <VersionMajor>0</VersionMajor>
                <VersionMinor>0</VersionMinor>
                <BuildMajor>0</BuildMajor>
                <BuildMinor>0</BuildMinor>
            </Version>
        </Build>
        <LangID>en</LangID>
        <PartNumber>000-00000-00</PartNumber>
    </Author>
</TrainingCenterDatabase>
