<?xml version="1.0" encoding="UTF-8"?>
<TrainingCenterDatabase
    xmlns="http://www.garmin.com/xmlschemas/TrainingCenterDatabase/v2"
    xmlns:ns2="http://www.garmin.com/xmlschemas/UserProfile/v2"
    xmlns:ns3="http://www.garmin.com/xmlschemas/ActivityExtension/v2"
    xmlns:ns4="http://www.garmin.com/xmlschemas/ProfileExtension/v1"
    xmlns:ns5="http://www.garmin.com/xmlschemas/ActivityGoals/v1"
    xmlns:xsi="http://www.w3.org/2001/XMLSchema-instance" xsi:schemaLocation="http://www.garmin.com/xmlschemas/TrainingCenterDatabase/v2 http://www.garmin.com/xmlschemas/TrainingCenterDatabasev2.xsd">
    <Activities>
        <Activity Sport="Walking">
            <Id>2021-08-24T05:22:12.987Z</Id>
            <Lap StartTime="2021-08-24T05:22:12.987Z">
                <Track>
                    <Trackpoint>
                        <DistanceMeters>0.0</DistanceMeters>
                        <Time>2021-08-24T05:22:12.987Z</Time>
                    </Trackpoint>
                    <Trackpoint>
                        <DistanceMeters>38.49543380737305</DistanceMeters>
                        <Time>2021-08-24T05:23:46.338Z</Time>
                    </Trackpoint>
                    <Trackpoint>
                        <DistanceMeters>38.49543380737305</DistanceMeters>
                        <Time>2021-08-24T05:24:10.987Z</Time>
                    </Trackpoint>
                    <Trackpoint>
                        <DistanceMeters>40.452828764915466</DistanceMeters>
                        <Time>2021-08-24T05:25:39.929Z</Time>
                    </Trackpoint>
                </Track>
                <DistanceMeters>40.452828764915466</DistanceMeters>
                <TotalTimeSeconds>206.941693154</TotalTimeSeconds>
                <Calories>11.390652656555176</Calories>
                <Intensity>Active</Intensity>
                <TriggerMethod>Manual</TriggerMethod>
            </Lap>
        </Activity>
        <Activity Sport="Walking">
            <Id>2021-08-24T05:28:22.981Z</Id>
            <Lap StartTime="2021-08-24T05:28:22.981Z">
                <Track>
                    <Trackpoint>
                        <DistanceMeters>0.0</DistanceMeters>
                        <Time>2021-08-24T05:28:22.981Z</Time>
                    </Trackpoint>
                    <Trackpoint>
                        <DistanceMeters>0.0</DistanceMeters>
                        <Time>2021-08-24T05:28:27.787Z</Time>
                    </Trackpoint>
                    <Trackpoint>
                        <DistanceMeters>59.37431335449219</DistanceMeters>
                        <Time>2021-08-24T05:29:48.347Z</Time>
                    </Trackpoint>
                    <Trackpoint>
                        <DistanceMeters>65.24649810791016</DistanceMeters>
                        <Time>2021-08-24T05:30:23.145Z</Time>
                    </Trackpoint>
                </Track>
                <DistanceMeters>65.24649810791016</DistanceMeters>
                <TotalTimeSeconds>120.164</TotalTimeSeconds>
                <Calories>12.04977798461914</Calories>
                <Intensity>Active</Intensity>
                <TriggerMethod>Manual</TriggerMethod>
            </Lap>
        </Activity>
        <Activity Sport="Walking">
            <Id>2021-08-24T05:35:25.787Z</Id>
            <Lap StartTime="2021-08-24T05:35:25.787Z">
                <Track>
                    <Trackpoint>
                        <DistanceMeters>0.0</DistanceMeters>
                        <Time>2021-08-24T05:35:25.787Z</Time>
                    </Trackpoint>
                    <Trackpoint>
                        <DistanceMeters>67.20389556884766</DistanceMeters>
                        <Time>2021-08-24T05:38:22.132Z</Time>
                    </Trackpoint>
                    <Trackpoint>
                        <DistanceMeters>67.20389556884766</DistanceMeters>
                        <Time>2021-08-24T05:38:51.787Z</Time>
                    </Trackpoint>
                    <Trackpoint>
                        <DistanceMeters>121.35848999023438</DistanceMeters>
                        <Time>2021-08-24T05:39:52.507Z</Time>
                    </Trackpoint>
                </Track>
                <DistanceMeters>121.35848999023438</DistanceMeters>
                <TotalTimeSeconds>266.720013186</TotalTimeSeconds>
                <Calories>6.100899696350098</Calories>
                <Intensity>Active</Intensity>
                <TriggerMethod>Manual</TriggerMethod>
            </Lap>
        </Activity>
        <Activity Sport="Walking">
            <Id>2021-08-24T05:38:51.787Z</Id>
            <Lap StartTime="2021-08-24T05:38:51.787Z">
                <Track>
                    <Trackpoint>
                        <DistanceMeters>0.0</DistanceMeters>
                        <Time>2021-08-24T05:38:51.787Z</Time>
                    </Trackpoint>
                    <Trackpoint>
                        <DistanceMeters>54.15459442138672</DistanceMeters>
                        <Time>2021-08-24T05:39:22.972Z</Time>
                    </Trackpoint>
                    <Trackpoint>
                        <DistanceMeters>54.15459442138672</DistanceMeters>
                        <Time>2021-08-24T05:39:52.507Z</Time>
                    </Trackpoint>
                </Track>
                <DistanceMeters>54.15459442138672</DistanceMeters>
                <TotalTimeSeconds>60.719999874</TotalTimeSeconds>
                <Calories>2.961735725402832</Calories>
                <Intensity>Active</Intensity>
                <TriggerMethod>Manual</TriggerMethod>
            </Lap>
        </Activity>
        <Activity Sport="Walking">
            <Id>2021-08-24T05:50:25.467Z</Id>
            <Lap StartTime="2021-08-24T05:50:25.467Z">
                <Track>
                    <Trackpoint>
                        <DistanceMeters>0.0</DistanceMeters>
                        <Time>2021-08-24T05:50:25.467Z</Time>
                    </Trackpoint>
                    <Trackpoint>
                        <DistanceMeters>31.31831932067871</DistanceMeters>
                        <Time>2021-08-24T05:51:22.329Z</Time>
                    </Trackpoint>
                    <Trackpoint>
                        <DistanceMeters>31.31831932067871</DistanceMeters>
                        <Time>2021-08-24T05:51:47.747Z</Time>
                    </Trackpoint>
                    <Trackpoint>
                        <DistanceMeters>80.9056568145752</DistanceMeters>
                        <Time>2021-08-24T05:52:43.627Z</Time>
                    </Trackpoint>
                    <Trackpoint>
                        <DistanceMeters>127.88313484191895</DistanceMeters>
                        <Time>2021-08-24T05:53:48.507Z</Time>
                    </Trackpoint>
                    <Trackpoint>
                        <DistanceMeters>179.42786979675293</DistanceMeters>
                        <Time>2021-08-24T05:54:49.267Z</Time>
                    </Trackpoint>
                    <Trackpoint>
                        <DistanceMeters>227.05781364440918</DistanceMeters>
                        <Time>2021-08-24T05:55:50.747Z</Time>
                    </Trackpoint>
                    <Trackpoint>
                        <DistanceMeters>281.8648738861084</DistanceMeters>
                        <Time>2021-08-24T05:56:50.827Z</Time>
                    </Trackpoint>
                </Track>
                <DistanceMeters>281.8648738861084</DistanceMeters>
                <TotalTimeSeconds>385.360002455</TotalTimeSeconds>
                <Calories>32.489501953125</Calories>
                <Intensity>Active</Intensity>
                <TriggerMethod>Manual</TriggerMethod>
            </Lap>
        </Activity>
        <Activity Sport="Walking">
            <Id>2021-08-24T05:55:50.747Z</Id>
            <Lap StartTime="2021-08-24T05:55:50.747Z">
                <Track>
                    <Trackpoint>
                        <DistanceMeters>0.0</DistanceMeters>
                        <Time>2021-08-24T05:55:50.747Z</Time>
                    </Trackpoint>
                    <Trackpoint>
                        <DistanceMeters>54.80706024169922</DistanceMeters>
                        <Time>2021-08-24T05:56:46.324Z</Time>
                    </Trackpoint>
                    <Trackpoint>
                        <DistanceMeters>54.80706024169922</DistanceMeters>
                        <Time>2021-08-24T05:56:50.827Z</Time>
                    </Trackpoint>
                </Track>
                <DistanceMeters>54.80706024169922</DistanceMeters>
                <TotalTimeSeconds>60.080002222</TotalTimeSeconds>
                <Calories>0.451582670211792</Calories>
                <Intensity>Active</Intensity>
                <TriggerMethod>Manual</TriggerMethod>
            </Lap>
        </Activity>
        <Activity Sport="Walking">
            <Id>2021-08-24T05:56:50.827Z</Id>
            <Lap StartTime="2021-08-24T05:56:50.827Z">
                <Track>
                    <Trackpoint>
                        <DistanceMeters>0.0</DistanceMeters>
                        <Time>2021-08-24T05:56:50.827Z</Time>
                    </Trackpoint>
                    <Trackpoint>
                        <DistanceMeters>30.013389587402344</DistanceMeters>
                        <Time>2021-08-24T05:57:53.027Z</Time>
                    </Trackpoint>
                    <Trackpoint>
                        <DistanceMeters>30.013389587402344</DistanceMeters>
                        <Time>2021-08-24T05:58:52.814Z</Time>
                    </Trackpoint>
                </Track>
                <DistanceMeters>30.013389587402344</DistanceMeters>
                <TotalTimeSeconds>121.986682352</TotalTimeSeconds>
                <Calories>7.30244779586792</Calories>
                <Intensity>Active</Intensity>
                <TriggerMethod>Manual</TriggerMethod>
            </Lap>
        </Activity>
        <Activity Sport="Walking">
            <Id>2021-08-24T05:58:52.814Z</Id>
            <Lap StartTime="2021-08-24T05:58:52.814Z">
                <Track>
                    <Trackpoint>
                        <DistanceMeters>0.0</DistanceMeters>
                        <Time>2021-08-24T05:58:52.814Z</Time>
                    </Trackpoint>
                    <Trackpoint>
                        <DistanceMeters>0.5534871220588684</DistanceMeters>
                        <Time>2021-08-24T05:58:53.507Z</Time>
                    </Trackpoint>
                    <Trackpoint>
                        <DistanceMeters>9.035532295703888</DistanceMeters>
                        <Time>2021-08-24T05:59:19.027Z</Time>
                    </Trackpoint>
                    <Trackpoint>
                        <DistanceMeters>25.999622642993927</DistanceMeters>
                        <Time>2021-08-24T05:59:53.078Z</Time>
                    </Trackpoint>
                </Track>
                <DistanceMeters>25.999622642993927</DistanceMeters>
                <TotalTimeSeconds>60.264</TotalTimeSeconds>
                <Calories>6.043140411376953</Calories>
                <Intensity>Active</Intensity>
                <TriggerMethod>Manual</TriggerMethod>
            </Lap>
        </Activity>
        <Activity Sport="Walking">
            <Id>2021-08-24T06:00:02.907Z</Id>
            <Lap StartTime="2021-08-24T06:00:02.907Z">
                <Track>
                    <Trackpoint>
                        <DistanceMeters>0.0</DistanceMeters>
                        <Time>2021-08-24T06:00:02.907Z</Time>
                    </Trackpoint>
                    <Trackpoint>
                        <DistanceMeters>44.367618560791016</DistanceMeters>
                        <Time>2021-08-24T06:01:54.065Z</Time>
                    </Trackpoint>
                    <Trackpoint>
                        <DistanceMeters>44.367618560791016</DistanceMeters>
                        <Time>2021-08-24T06:02:18.907Z</Time>
                    </Trackpoint>
                    <Trackpoint>
                        <DistanceMeters>81.55812454223633</DistanceMeters>
                        <Time>2021-08-24T06:03:18.667Z</Time>
                    </Trackpoint>
                </Track>
                <DistanceMeters>81.55812454223633</DistanceMeters>
                <TotalTimeSeconds>195.760003243</TotalTimeSeconds>
                <Calories>6.077033519744873</Calories>
                <Intensity>Active</Intensity>
                <TriggerMethod>Manual</TriggerMethod>
            </Lap>
        </Activity>
        <Activity Sport="Walking">
            <Id>2021-08-24T06:09:37.187Z</Id>
            <Lap StartTime="2021-08-24T06:09:37.187Z">
                <Track>
                    <Trackpoint>
                        <DistanceMeters>0.0</DistanceMeters>
                        <Time>2021-08-24T06:09:37.187Z</Time>
                    </Trackpoint>
                    <Trackpoint>
                        <DistanceMeters>54.80706024169922</DistanceMeters>
                        <Time>2021-08-24T06:10:52.483Z</Time>
                    </Trackpoint>
                    <Trackpoint>
                        <DistanceMeters>54.80706024169922</DistanceMeters>
                        <Time>2021-08-24T06:11:04.027Z</Time>
                    </Trackpoint>
                    <Trackpoint>
                        <DistanceMeters>83.5155200958252</DistanceMeters>
                        <Time>2021-08-24T06:12:01.829Z</Time>
                    </Trackpoint>
                </Track>
                <DistanceMeters>83.5155200958252</DistanceMeters>
                <TotalTimeSeconds>144.641682691</TotalTimeSeconds>
                <Calories>6.953862190246582</Calories>
                <Intensity>Active</Intensity>
                <TriggerMethod>Manual</TriggerMethod>
            </Lap>
        </Activity>
    </Activities>
    <Author xsi:type="Application_t">
        <Name>Google Fit</Name>
        <Build>
            <Version>
                <VersionMajor>0</VersionMajor>
                <VersionMinor>0</VersionMinor>
                <BuildMajor>0</BuildMajor>
                <BuildMinor>0</BuildMinor>
            </Version>
        </Build>
        <LangID>en</LangID>
        <PartNumber>000-00000-00</PartNumber>
    </Author>
</TrainingCenterDatabase>
