<?xml version="1.0" encoding="UTF-8"?>
<TrainingCenterDatabase
    xmlns="http://www.garmin.com/xmlschemas/TrainingCenterDatabase/v2"
    xmlns:ns2="http://www.garmin.com/xmlschemas/UserProfile/v2"
    xmlns:ns3="http://www.garmin.com/xmlschemas/ActivityExtension/v2"
    xmlns:ns4="http://www.garmin.com/xmlschemas/ProfileExtension/v1"
    xmlns:ns5="http://www.garmin.com/xmlschemas/ActivityGoals/v1"
    xmlns:xsi="http://www.w3.org/2001/XMLSchema-instance" xsi:schemaLocation="http://www.garmin.com/xmlschemas/TrainingCenterDatabase/v2 http://www.garmin.com/xmlschemas/TrainingCenterDatabasev2.xsd">
    <Activities>
        <Activity Sport="Walking">
            <Id>2021-08-31T06:52:46.214Z</Id>
            <Lap StartTime="2021-08-31T06:52:46.214Z">
                <Track>
                    <Trackpoint>
                        <DistanceMeters>0.0</DistanceMeters>
                        <Time>2021-08-31T06:52:46.214Z</Time>
                    </Trackpoint>
                    <Trackpoint>
                        <DistanceMeters>0.0</DistanceMeters>
                        <Time>2021-08-31T08:54:27.534Z</Time>
                    </Trackpoint>
                    <Trackpoint>
                        <DistanceMeters>54.15459442138672</DistanceMeters>
                        <Time>2021-08-31T08:57:13.534Z</Time>
                    </Trackpoint>
                    <Trackpoint>
                        <DistanceMeters>102.43700408935547</DistanceMeters>
                        <Time>2021-08-31T08:58:22.374Z</Time>
                    </Trackpoint>
                    <Trackpoint>
                        <DistanceMeters>148.76201629638672</DistanceMeters>
                        <Time>2021-08-31T08:59:24.494Z</Time>
                    </Trackpoint>
                    <Trackpoint>
                        <DistanceMeters>150.71941125392914</DistanceMeters>
                        <Time>2021-08-31T08:59:26.654Z</Time>
                    </Trackpoint>
                    <Trackpoint>
                        <DistanceMeters>181.38526475429535</DistanceMeters>
                        <Time>2021-08-31T09:00:10.714Z</Time>
                    </Trackpoint>
                    <Trackpoint>
                        <DistanceMeters>271.4254335165024</DistanceMeters>
                        <Time>2021-08-31T09:01:49.774Z</Time>
                    </Trackpoint>
                    <Trackpoint>
                        <DistanceMeters>327.91667878627777</DistanceMeters>
                        <Time>2021-08-31T09:02:50.174Z</Time>
                    </Trackpoint>
                    <Trackpoint>
                        <DistanceMeters>353.9269269704819</DistanceMeters>
                        <Time>2021-08-31T09:03:10.414Z</Time>
                    </Trackpoint>
                    <Trackpoint>
                        <DistanceMeters>432.7966321706772</DistanceMeters>
                        <Time>2021-08-31T09:04:34.574Z</Time>
                    </Trackpoint>
                    <Trackpoint>
                        <DistanceMeters>467.33144891262054</DistanceMeters>
                        <Time>2021-08-31T09:05:05.694Z</Time>
                    </Trackpoint>
                    <Trackpoint>
                        <DistanceMeters>509.69918954372406</DistanceMeters>
                        <Time>2021-08-31T09:05:43.174Z</Time>
                    </Trackpoint>
                </Track>
                <DistanceMeters>509.69918954372406</DistanceMeters>
                <TotalTimeSeconds>7976.959993292</TotalTimeSeconds>
                <Calories>206.7164649963379</Calories>
                <Intensity>Active</Intensity>
                <TriggerMethod>Manual</TriggerMethod>
            </Lap>
        </Activity>
        <Activity Sport="Walking">
            <Id>2021-08-31T09:05:05.694Z</Id>
            <Lap StartTime="2021-08-31T09:05:05.694Z">
                <Track>
                    <Trackpoint>
                        <DistanceMeters>0.0</DistanceMeters>
                        <Time>2021-08-31T09:05:05.694Z</Time>
                    </Trackpoint>
                    <Trackpoint>
                        <DistanceMeters>42.367740631103516</DistanceMeters>
                        <Time>2021-08-31T09:05:30.016Z</Time>
                    </Trackpoint>
                    <Trackpoint>
                        <DistanceMeters>42.367740631103516</DistanceMeters>
                        <Time>2021-08-31T09:05:43.174Z</Time>
                    </Trackpoint>
                    <Trackpoint>
                        <DistanceMeters>61.04257011413574</DistanceMeters>
                        <Time>2021-08-31T09:06:02.114Z</Time>
                    </Trackpoint>
                    <Trackpoint>
                        <DistanceMeters>76.04926490783691</DistanceMeters>
                        <Time>2021-08-31T09:06:24.574Z</Time>
                    </Trackpoint>
                    <Trackpoint>
                        <DistanceMeters>100.84293365478516</DistanceMeters>
                        <Time>2021-08-31T09:06:52.734Z</Time>
                    </Trackpoint>
                    <Trackpoint>
                        <DistanceMeters>131.45974159240723</DistanceMeters>
                        <Time>2021-08-31T09:07:19.654Z</Time>
                    </Trackpoint>
                    <Trackpoint>
                        <DistanceMeters>151.31662368774414</DistanceMeters>
                        <Time>2021-08-31T09:07:56.547Z</Time>
                    </Trackpoint>
                </Track>
                <DistanceMeters>151.31662368774414</DistanceMeters>
                <TotalTimeSeconds>170.852656019</TotalTimeSeconds>
                <Calories>14.693801879882812</Calories>
                <Intensity>Active</Intensity>
                <TriggerMethod>Manual</TriggerMethod>
            </Lap>
        </Activity>
    </Activities>
    <Author xsi:type="Application_t">
        <Name>Google Fit</Name>
        <Build>
            <Version>
                <VersionMajor>0</VersionMajor>
                <VersionMinor>0</VersionMinor>
                <BuildMajor>0</BuildMajor>
                <BuildMinor>0</BuildMinor>
            </Version>
        </Build>
        <LangID>en</LangID>
        <PartNumber>000-00000-00</PartNumber>
    </Author>
</TrainingCenterDatabase>
