<?xml version="1.0" encoding="UTF-8"?>
<TrainingCenterDatabase
    xmlns="http://www.garmin.com/xmlschemas/TrainingCenterDatabase/v2"
    xmlns:ns2="http://www.garmin.com/xmlschemas/UserProfile/v2"
    xmlns:ns3="http://www.garmin.com/xmlschemas/ActivityExtension/v2"
    xmlns:ns4="http://www.garmin.com/xmlschemas/ProfileExtension/v1"
    xmlns:ns5="http://www.garmin.com/xmlschemas/ActivityGoals/v1"
    xmlns:xsi="http://www.w3.org/2001/XMLSchema-instance" xsi:schemaLocation="http://www.garmin.com/xmlschemas/TrainingCenterDatabase/v2 http://www.garmin.com/xmlschemas/TrainingCenterDatabasev2.xsd">
    <Activities>
        <Activity Sport="Walking">
            <Id>2021-02-25T15:48:02.527Z</Id>
            <Lap StartTime="2021-02-25T15:48:02.527Z">
                <Track>
                    <Trackpoint>
                        <DistanceMeters>0.0</DistanceMeters>
                        <Time>2021-02-25T15:48:02.527Z</Time>
                    </Trackpoint>
                    <Trackpoint>
                        <DistanceMeters>0.0</DistanceMeters>
                        <Time>2021-02-25T16:05:42.444Z</Time>
                    </Trackpoint>
                    <Trackpoint>
                        <DistanceMeters>23.55947494506836</DistanceMeters>
                        <Time>2021-02-25T16:06:01.781Z</Time>
                    </Trackpoint>
                    <Trackpoint>
                        <DistanceMeters>85.86803436279297</DistanceMeters>
                        <Time>2021-02-25T16:06:42.764Z</Time>
                    </Trackpoint>
                    <Trackpoint>
                        <DistanceMeters>119.79387283325195</DistanceMeters>
                        <Time>2021-02-25T16:07:02.021Z</Time>
                    </Trackpoint>
                    <Trackpoint>
                        <DistanceMeters>131.25118160247803</DistanceMeters>
                        <Time>2021-02-25T16:07:09.759Z</Time>
                        <Position>
                            <LatitudeDegrees>18.591535568237305</LatitudeDegrees>
                            <LongitudeDegrees>73.79619598388672</LongitudeDegrees>
                        </Position>
                        <AltitudeMeters>493.3600158691406</AltitudeMeters>
                    </Trackpoint>
                    <Trackpoint>
                        <DistanceMeters>131.25118160247803</DistanceMeters>
                        <Time>2021-02-25T16:07:09.802Z</Time>
                    </Trackpoint>
                </Track>
                <DistanceMeters>131.25118160247803</DistanceMeters>
                <TotalTimeSeconds>1147.275</TotalTimeSeconds>
                <Calories>30.282261848449707</Calories>
                <Intensity>Active</Intensity>
                <TriggerMethod>Manual</TriggerMethod>
            </Lap>
        </Activity>
        <Activity Sport="Walking">
            <Id>2021-02-25T16:07:09.802Z</Id>
            <Lap StartTime="2021-02-25T16:07:09.802Z">
                <Track>
                    <Trackpoint>
                        <DistanceMeters>0.0</DistanceMeters>
                        <Time>2021-02-25T16:07:09.802Z</Time>
                    </Trackpoint>
                    <Trackpoint>
                        <DistanceMeters>91.02145385742188</DistanceMeters>
                        <Time>2021-02-25T16:09:15.040Z</Time>
                        <Position>
                            <LatitudeDegrees>18.592334747314453</LatitudeDegrees>
                            <LongitudeDegrees>73.79600524902344</LongitudeDegrees>
                        </Position>
                        <AltitudeMeters>468.4599914550781</AltitudeMeters>
                    </Trackpoint>
                    <Trackpoint>
                        <DistanceMeters>205.17755889892578</DistanceMeters>
                        <Time>2021-02-25T16:11:16.148Z</Time>
                        <Position>
                            <LatitudeDegrees>18.593326568603516</LatitudeDegrees>
                            <LongitudeDegrees>73.79572296142578</LongitudeDegrees>
                        </Position>
                        <AltitudeMeters>493.6600036621094</AltitudeMeters>
                    </Trackpoint>
                    <Trackpoint>
                        <DistanceMeters>206.0086081624031</DistanceMeters>
                        <Time>2021-02-25T16:12:16.458Z</Time>
                    </Trackpoint>
                </Track>
                <DistanceMeters>206.0086081624031</DistanceMeters>
                <TotalTimeSeconds>306.656</TotalTimeSeconds>
                <Calories>28.808626174926758</Calories>
                <Intensity>Active</Intensity>
                <TriggerMethod>Manual</TriggerMethod>
            </Lap>
        </Activity>
        <Activity Sport="Walking">
            <Id>2021-02-25T16:16:53.039Z</Id>
            <Lap StartTime="2021-02-25T16:16:53.039Z">
                <Track>
                    <Trackpoint>
                        <DistanceMeters>0.0</DistanceMeters>
                        <Time>2021-02-25T16:16:53.039Z</Time>
                    </Trackpoint>
                    <Trackpoint>
                        <DistanceMeters>21.04696273803711</DistanceMeters>
                        <Time>2021-02-25T16:17:23.931Z</Time>
                        <Position>
                            <LatitudeDegrees>18.593347549438477</LatitudeDegrees>
                            <LongitudeDegrees>73.79591369628906</LongitudeDegrees>
                        </Position>
                        <AltitudeMeters>493.3600158691406</AltitudeMeters>
                    </Trackpoint>
                    <Trackpoint>
                        <DistanceMeters>119.88647842407227</DistanceMeters>
                        <Time>2021-02-25T16:19:20.198Z</Time>
                        <Position>
                            <LatitudeDegrees>18.59334373474121</LatitudeDegrees>
                            <LongitudeDegrees>73.7968521118164</LongitudeDegrees>
                        </Position>
                        <AltitudeMeters>493.260009765625</AltitudeMeters>
                    </Trackpoint>
                    <Trackpoint>
                        <DistanceMeters>127.42276668548584</DistanceMeters>
                        <Time>2021-02-25T16:19:25.007Z</Time>
                    </Trackpoint>
                </Track>
                <DistanceMeters>127.42276668548584</DistanceMeters>
                <TotalTimeSeconds>151.968</TotalTimeSeconds>
                <Calories>14.27655029296875</Calories>
                <Intensity>Active</Intensity>
                <TriggerMethod>Manual</TriggerMethod>
            </Lap>
        </Activity>
        <Activity Sport="Walking">
            <Id>2021-02-25T16:19:25.007Z</Id>
            <Lap StartTime="2021-02-25T16:19:25.007Z">
                <Track>
                    <Trackpoint>
                        <DistanceMeters>0.0</DistanceMeters>
                        <Time>2021-02-25T16:19:25.007Z</Time>
                    </Trackpoint>
                    <Trackpoint>
                        <DistanceMeters>0.0</DistanceMeters>
                        <Time>2021-02-25T16:29:01.700Z</Time>
                    </Trackpoint>
                    <Trackpoint>
                        <DistanceMeters>0.11715392023324966</DistanceMeters>
                        <Time>2021-02-25T16:29:01.814Z</Time>
                    </Trackpoint>
                </Track>
                <DistanceMeters>0.11715392023324966</DistanceMeters>
                <TotalTimeSeconds>576.807</TotalTimeSeconds>
                <Calories>12.02180854883045</Calories>
                <Intensity>Active</Intensity>
                <TriggerMethod>Manual</TriggerMethod>
            </Lap>
        </Activity>
        <Activity Sport="Walking">
            <Id>2021-02-25T16:29:01.814Z</Id>
            <Lap StartTime="2021-02-25T16:29:01.814Z">
                <Track>
                    <Trackpoint>
                        <DistanceMeters>0.0</DistanceMeters>
                        <Time>2021-02-25T16:29:01.814Z</Time>
                    </Trackpoint>
                    <Trackpoint>
                        <DistanceMeters>8.953522682189941</DistanceMeters>
                        <Time>2021-02-25T16:29:31.157Z</Time>
                        <Position>
                            <LatitudeDegrees>18.59332847595215</LatitudeDegrees>
                            <LongitudeDegrees>73.79686737060547</LongitudeDegrees>
                        </Position>
                        <AltitudeMeters>493.260009765625</AltitudeMeters>
                    </Trackpoint>
                    <Trackpoint>
                        <DistanceMeters>65.56140995025635</DistanceMeters>
                        <Time>2021-02-25T16:31:30.280Z</Time>
                        <Position>
                            <LatitudeDegrees>18.593271255493164</LatitudeDegrees>
                            <LongitudeDegrees>73.79633331298828</LongitudeDegrees>
                        </Position>
                        <AltitudeMeters>493.260009765625</AltitudeMeters>
                    </Trackpoint>
                    <Trackpoint>
                        <DistanceMeters>167.13570499420166</DistanceMeters>
                        <Time>2021-02-25T16:33:32.190Z</Time>
                        <Position>
                            <LatitudeDegrees>18.592409133911133</LatitudeDegrees>
                            <LongitudeDegrees>73.79601287841797</LongitudeDegrees>
                        </Position>
                        <AltitudeMeters>468.4599914550781</AltitudeMeters>
                    </Trackpoint>
                    <Trackpoint>
                        <DistanceMeters>229.00028324127197</DistanceMeters>
                        <Time>2021-02-25T16:34:49.471Z</Time>
                        <Position>
                            <LatitudeDegrees>18.591917037963867</LatitudeDegrees>
                            <LongitudeDegrees>73.7962875366211</LongitudeDegrees>
                        </Position>
                        <AltitudeMeters>492.8600158691406</AltitudeMeters>
                    </Trackpoint>
                    <Trackpoint>
                        <DistanceMeters>260.985915184021</DistanceMeters>
                        <Time>2021-02-25T16:35:10.735Z</Time>
                        <Position>
                            <LatitudeDegrees>18.591636657714844</LatitudeDegrees>
                            <LongitudeDegrees>73.79635620117188</LongitudeDegrees>
                        </Position>
                        <AltitudeMeters>492.8276672363281</AltitudeMeters>
                    </Trackpoint>
                    <Trackpoint>
                        <DistanceMeters>332.1339330673218</DistanceMeters>
                        <Time>2021-02-25T16:36:44.857Z</Time>
                        <Position>
                            <LatitudeDegrees>18.591012954711914</LatitudeDegrees>
                            <LongitudeDegrees>73.79620361328125</LongitudeDegrees>
                        </Position>
                        <AltitudeMeters>495.6600036621094</AltitudeMeters>
                    </Trackpoint>
                    <Trackpoint>
                        <DistanceMeters>379.62496852874756</DistanceMeters>
                        <Time>2021-02-25T16:37:16.158Z</Time>
                        <Position>
                            <LatitudeDegrees>18.59103775024414</LatitudeDegrees>
                            <LongitudeDegrees>73.7957534790039</LongitudeDegrees>
                        </Position>
                        <AltitudeMeters>495.6600036621094</AltitudeMeters>
                    </Trackpoint>
                    <Trackpoint>
                        <DistanceMeters>507.24757289886475</DistanceMeters>
                        <Time>2021-02-25T16:39:12.871Z</Time>
                    </Trackpoint>
                    <Trackpoint>
                        <DistanceMeters>507.24757289886475</DistanceMeters>
                        <Time>2021-02-25T16:39:47.468Z</Time>
                    </Trackpoint>
                    <Trackpoint>
                        <DistanceMeters>543.4639921188354</DistanceMeters>
                        <Time>2021-02-25T16:40:08.493Z</Time>
                    </Trackpoint>
                    <Trackpoint>
                        <DistanceMeters>670.4882001876831</DistanceMeters>
                        <Time>2021-02-25T16:42:16.121Z</Time>
                    </Trackpoint>
                    <Trackpoint>
                        <DistanceMeters>730.1700506210327</DistanceMeters>
                        <Time>2021-02-25T16:43:20.644Z</Time>
                        <Position>
                            <LatitudeDegrees>18.591049194335938</LatitudeDegrees>
                            <LongitudeDegrees>73.79570770263672</LongitudeDegrees>
                        </Position>
                        <AltitudeMeters>494.6600036621094</AltitudeMeters>
                    </Trackpoint>
                    <Trackpoint>
                        <DistanceMeters>738.6284523010254</DistanceMeters>
                        <Time>2021-02-25T16:43:40.650Z</Time>
                        <Position>
                            <LatitudeDegrees>18.591083526611328</LatitudeDegrees>
                            <LongitudeDegrees>73.79573059082031</LongitudeDegrees>
                        </Position>
                        <AltitudeMeters>494.8957214355469</AltitudeMeters>
                    </Trackpoint>
                    <Trackpoint>
                        <DistanceMeters>738.6284523010254</DistanceMeters>
                        <Time>2021-02-25T16:43:40.710Z</Time>
                        <Position>
                            <LatitudeDegrees>18.591115951538086</LatitudeDegrees>
                            <LongitudeDegrees>73.79571533203125</LongitudeDegrees>
                        </Position>
                        <AltitudeMeters>494.8454284667969</AltitudeMeters>
                    </Trackpoint>
                    <Trackpoint>
                        <DistanceMeters>762.4050788879395</DistanceMeters>
                        <Time>2021-02-25T16:44:06.366Z</Time>
                        <Position>
                            <LatitudeDegrees>18.59132194519043</LatitudeDegrees>
                            <LongitudeDegrees>73.7957763671875</LongitudeDegrees>
                        </Position>
                        <AltitudeMeters>494.7212219238281</AltitudeMeters>
                    </Trackpoint>
                    <Trackpoint>
                        <DistanceMeters>887.3512763977051</DistanceMeters>
                        <Time>2021-02-25T16:46:14.288Z</Time>
                    </Trackpoint>
                    <Trackpoint>
                        <DistanceMeters>1029.8713111877441</DistanceMeters>
                        <Time>2021-02-25T16:48:15.319Z</Time>
                    </Trackpoint>
                    <Trackpoint>
                        <DistanceMeters>1127.599323272705</DistanceMeters>
                        <Time>2021-02-25T16:50:20.053Z</Time>
                    </Trackpoint>
                    <Trackpoint>
                        <DistanceMeters>1181.573745727539</DistanceMeters>
                        <Time>2021-02-25T16:52:26.570Z</Time>
                        <Position>
                            <LatitudeDegrees>18.59174156188965</LatitudeDegrees>
                            <LongitudeDegrees>73.79647064208984</LongitudeDegrees>
                        </Position>
                        <AltitudeMeters>493.3600158691406</AltitudeMeters>
                    </Trackpoint>
                    <Trackpoint>
                        <DistanceMeters>1215.8797492980957</DistanceMeters>
                        <Time>2021-02-25T16:52:56.555Z</Time>
                        <Position>
                            <LatitudeDegrees>18.591575622558594</LatitudeDegrees>
                            <LongitudeDegrees>73.79619598388672</LongitudeDegrees>
                        </Position>
                        <AltitudeMeters>493.2876892089844</AltitudeMeters>
                    </Trackpoint>
                    <Trackpoint>
                        <DistanceMeters>1234.472396850586</DistanceMeters>
                        <Time>2021-02-25T16:53:12.935Z</Time>
                        <Position>
                            <LatitudeDegrees>18.591432571411133</LatitudeDegrees>
                            <LongitudeDegrees>73.7962875366211</LongitudeDegrees>
                        </Position>
                        <AltitudeMeters>493.859130859375</AltitudeMeters>
                    </Trackpoint>
                    <Trackpoint>
                        <DistanceMeters>1314.9497146606445</DistanceMeters>
                        <Time>2021-02-25T16:54:31.264Z</Time>
                        <Position>
                            <LatitudeDegrees>18.591005325317383</LatitudeDegrees>
                            <LongitudeDegrees>73.79588317871094</LongitudeDegrees>
                        </Position>
                        <AltitudeMeters>496.3600158691406</AltitudeMeters>
                    </Trackpoint>
                    <Trackpoint>
                        <DistanceMeters>1314.9497146606445</DistanceMeters>
                        <Time>2021-02-25T16:54:52.264Z</Time>
                        <Position>
                            <LatitudeDegrees>18.591140747070312</LatitudeDegrees>
                            <LongitudeDegrees>73.79581451416016</LongitudeDegrees>
                        </Position>
                        <AltitudeMeters>495.3699035644531</AltitudeMeters>
                    </Trackpoint>
                    <Trackpoint>
                        <DistanceMeters>1453.4131393432617</DistanceMeters>
                        <Time>2021-02-25T16:56:53.296Z</Time>
                    </Trackpoint>
                    <Trackpoint>
                        <DistanceMeters>1526.2139587402344</DistanceMeters>
                        <Time>2021-02-25T16:58:06.214Z</Time>
                        <Position>
                            <LatitudeDegrees>18.591691970825195</LatitudeDegrees>
                            <LongitudeDegrees>73.79635620117188</LongitudeDegrees>
                        </Position>
                        <AltitudeMeters>493.55999755859375</AltitudeMeters>
                    </Trackpoint>
                    <Trackpoint>
                        <DistanceMeters>1547.2449779510498</DistanceMeters>
                        <Time>2021-02-25T16:58:32.207Z</Time>
                        <Position>
                            <LatitudeDegrees>18.591569900512695</LatitudeDegrees>
                            <LongitudeDegrees>73.79620361328125</LongitudeDegrees>
                        </Position>
                        <AltitudeMeters>493.586181640625</AltitudeMeters>
                    </Trackpoint>
                    <Trackpoint>
                        <DistanceMeters>1586.8074436187744</DistanceMeters>
                        <Time>2021-02-25T17:00:33.258Z</Time>
                    </Trackpoint>
                    <Trackpoint>
                        <DistanceMeters>1693.8564472198486</DistanceMeters>
                        <Time>2021-02-25T17:02:06.974Z</Time>
                        <Position>
                            <LatitudeDegrees>18.59225082397461</LatitudeDegrees>
                            <LongitudeDegrees>73.79598999023438</LongitudeDegrees>
                        </Position>
                        <AltitudeMeters>473.260009765625</AltitudeMeters>
                    </Trackpoint>
                    <Trackpoint>
                        <DistanceMeters>1709.3499660491943</DistanceMeters>
                        <Time>2021-02-25T17:02:32.992Z</Time>
                        <Position>
                            <LatitudeDegrees>18.592111587524414</LatitudeDegrees>
                            <LongitudeDegrees>73.79598236083984</LongitudeDegrees>
                        </Position>
                        <AltitudeMeters>494.29547119140625</AltitudeMeters>
                    </Trackpoint>
                    <Trackpoint>
                        <DistanceMeters>1778.9869976043701</DistanceMeters>
                        <Time>2021-02-25T17:04:34.016Z</Time>
                    </Trackpoint>
                    <Trackpoint>
                        <DistanceMeters>1779.0014550108463</DistanceMeters>
                        <Time>2021-02-25T17:04:34.044Z</Time>
                    </Trackpoint>
                </Track>
                <DistanceMeters>1779.0014550108463</DistanceMeters>
                <TotalTimeSeconds>2132.23</TotalTimeSeconds>
                <Calories>200.3111572265625</Calories>
                <Intensity>Active</Intensity>
                <TriggerMethod>Manual</TriggerMethod>
            </Lap>
        </Activity>
        <Activity Sport="Walking">
            <Id>2021-02-25T17:04:34.044Z</Id>
            <Lap StartTime="2021-02-25T17:04:34.044Z">
                <Track>
                    <Trackpoint>
                        <DistanceMeters>0.0</DistanceMeters>
                        <Time>2021-02-25T17:04:34.044Z</Time>
                    </Trackpoint>
                    <Trackpoint>
                        <DistanceMeters>0.0</DistanceMeters>
                        <Time>2021-02-25T17:10:22.026Z</Time>
                    </Trackpoint>
                    <Trackpoint>
                        <DistanceMeters>24.052406311035156</DistanceMeters>
                        <Time>2021-02-25T17:10:28.588Z</Time>
                        <Position>
                            <LatitudeDegrees>18.591520309448242</LatitudeDegrees>
                            <LongitudeDegrees>73.79596710205078</LongitudeDegrees>
                        </Position>
                        <AltitudeMeters>494.0817565917969</AltitudeMeters>
                    </Trackpoint>
                    <Trackpoint>
                        <DistanceMeters>24.052406311035156</DistanceMeters>
                        <Time>2021-02-25T17:10:47.713Z</Time>
                    </Trackpoint>
                    <Trackpoint>
                        <DistanceMeters>69.40837478637695</DistanceMeters>
                        <Time>2021-02-25T17:11:38.916Z</Time>
                    </Trackpoint>
                </Track>
                <DistanceMeters>69.40837478637695</DistanceMeters>
                <TotalTimeSeconds>424.872538495</TotalTimeSeconds>
                <Calories>13.524316787719727</Calories>
                <Intensity>Active</Intensity>
                <TriggerMethod>Manual</TriggerMethod>
            </Lap>
        </Activity>
        <Activity Sport="Walking">
            <Id>2021-02-25T17:10:47.713Z</Id>
            <Lap StartTime="2021-02-25T17:10:47.713Z">
                <Track>
                    <Trackpoint>
                        <DistanceMeters>0.0</DistanceMeters>
                        <Time>2021-02-25T17:10:47.713Z</Time>
                    </Trackpoint>
                    <Trackpoint>
                        <DistanceMeters>45.3559684753418</DistanceMeters>
                        <Time>2021-02-25T17:11:28.839Z</Time>
                    </Trackpoint>
                    <Trackpoint>
                        <DistanceMeters>45.3559684753418</DistanceMeters>
                        <Time>2021-02-25T17:11:38.916Z</Time>
                    </Trackpoint>
                    <Trackpoint>
                        <DistanceMeters>66.6595287322998</DistanceMeters>
                        <Time>2021-02-25T17:12:02.473Z</Time>
                    </Trackpoint>
                </Track>
                <DistanceMeters>66.6595287322998</DistanceMeters>
                <TotalTimeSeconds>74.759403467</TotalTimeSeconds>
                <Calories>3.1052393913269043</Calories>
                <Intensity>Active</Intensity>
                <TriggerMethod>Manual</TriggerMethod>
            </Lap>
        </Activity>
        <Activity Sport="Walking">
            <Id>2021-02-25T17:11:38.916Z</Id>
            <Lap StartTime="2021-02-25T17:11:38.916Z">
                <Track>
                    <Trackpoint>
                        <DistanceMeters>0.0</DistanceMeters>
                        <Time>2021-02-25T17:11:38.916Z</Time>
                    </Trackpoint>
                    <Trackpoint>
                        <DistanceMeters>21.303560256958008</DistanceMeters>
                        <Time>2021-02-25T17:12:01.893Z</Time>
                    </Trackpoint>
                    <Trackpoint>
                        <DistanceMeters>21.303560256958008</DistanceMeters>
                        <Time>2021-02-25T17:12:02.473Z</Time>
                    </Trackpoint>
                </Track>
                <DistanceMeters>21.303560256958008</DistanceMeters>
                <TotalTimeSeconds>23.556666123</TotalTimeSeconds>
                <Calories>0.054506998509168625</Calories>
                <Intensity>Active</Intensity>
                <TriggerMethod>Manual</TriggerMethod>
            </Lap>
        </Activity>
    </Activities>
    <Author xsi:type="Application_t">
        <Name>Google Fit</Name>
        <Build>
            <Version>
                <VersionMajor>0</VersionMajor>
                <VersionMinor>0</VersionMinor>
                <BuildMajor>0</BuildMajor>
                <BuildMinor>0</BuildMinor>
            </Version>
        </Build>
        <LangID>en</LangID>
        <PartNumber>000-00000-00</PartNumber>
    </Author>
</TrainingCenterDatabase>
