<?xml version="1.0" encoding="UTF-8"?>
<TrainingCenterDatabase
    xmlns="http://www.garmin.com/xmlschemas/TrainingCenterDatabase/v2"
    xmlns:ns2="http://www.garmin.com/xmlschemas/UserProfile/v2"
    xmlns:ns3="http://www.garmin.com/xmlschemas/ActivityExtension/v2"
    xmlns:ns4="http://www.garmin.com/xmlschemas/ProfileExtension/v1"
    xmlns:ns5="http://www.garmin.com/xmlschemas/ActivityGoals/v1"
    xmlns:xsi="http://www.w3.org/2001/XMLSchema-instance" xsi:schemaLocation="http://www.garmin.com/xmlschemas/TrainingCenterDatabase/v2 http://www.garmin.com/xmlschemas/TrainingCenterDatabasev2.xsd">
    <Activities>
        <Activity Sport="Walking">
            <Id>2021-06-11T12:10:31.724Z</Id>
            <Lap StartTime="2021-06-11T12:10:31.724Z">
                <Track>
                    <Trackpoint>
                        <DistanceMeters>0.0</DistanceMeters>
                        <Time>2021-06-11T12:10:31.724Z</Time>
                    </Trackpoint>
                    <Trackpoint>
                        <DistanceMeters>9.468194007873535</DistanceMeters>
                        <Time>2021-06-11T12:11:01.894Z</Time>
                    </Trackpoint>
                    <Trackpoint>
                        <DistanceMeters>41.478142738342285</DistanceMeters>
                        <Time>2021-06-11T12:12:00.334Z</Time>
                    </Trackpoint>
                    <Trackpoint>
                        <DistanceMeters>87.92394733428955</DistanceMeters>
                        <Time>2021-06-11T12:12:55.714Z</Time>
                    </Trackpoint>
                    <Trackpoint>
                        <DistanceMeters>142.52915287017822</DistanceMeters>
                        <Time>2021-06-11T12:14:09.374Z</Time>
                    </Trackpoint>
                    <Trackpoint>
                        <DistanceMeters>213.94744205474854</DistanceMeters>
                        <Time>2021-06-11T12:15:09.534Z</Time>
                    </Trackpoint>
                    <Trackpoint>
                        <DistanceMeters>290.19275760650635</DistanceMeters>
                        <Time>2021-06-11T12:16:10.094Z</Time>
                    </Trackpoint>
                    <Trackpoint>
                        <DistanceMeters>368.4716501235962</DistanceMeters>
                        <Time>2021-06-11T12:17:10.694Z</Time>
                    </Trackpoint>
                    <Trackpoint>
                        <DistanceMeters>443.7198877334595</DistanceMeters>
                        <Time>2021-06-11T12:18:11.214Z</Time>
                    </Trackpoint>
                    <Trackpoint>
                        <DistanceMeters>454.469744682312</DistanceMeters>
                        <Time>2021-06-11T12:18:20.934Z</Time>
                    </Trackpoint>
                    <Trackpoint>
                        <DistanceMeters>526.4136304855347</DistanceMeters>
                        <Time>2021-06-11T12:19:21.974Z</Time>
                    </Trackpoint>
                    <Trackpoint>
                        <DistanceMeters>601.8922910690308</DistanceMeters>
                        <Time>2021-06-11T12:20:22.094Z</Time>
                    </Trackpoint>
                    <Trackpoint>
                        <DistanceMeters>674.7469205856323</DistanceMeters>
                        <Time>2021-06-11T12:21:23.294Z</Time>
                    </Trackpoint>
                    <Trackpoint>
                        <DistanceMeters>696.6954145431519</DistanceMeters>
                        <Time>2021-06-11T12:21:41.854Z</Time>
                    </Trackpoint>
                    <Trackpoint>
                        <DistanceMeters>714.9950475692749</DistanceMeters>
                        <Time>2021-06-11T12:22:02.294Z</Time>
                    </Trackpoint>
                    <Trackpoint>
                        <DistanceMeters>732.8186483383179</DistanceMeters>
                        <Time>2021-06-11T12:22:19.374Z</Time>
                    </Trackpoint>
                    <Trackpoint>
                        <DistanceMeters>759.1276807785034</DistanceMeters>
                        <Time>2021-06-11T12:22:44.894Z</Time>
                    </Trackpoint>
                    <Trackpoint>
                        <DistanceMeters>779.8555994033813</DistanceMeters>
                        <Time>2021-06-11T12:23:03.934Z</Time>
                    </Trackpoint>
                    <Trackpoint>
                        <DistanceMeters>811.8002519607544</DistanceMeters>
                        <Time>2021-06-11T12:23:33.734Z</Time>
                    </Trackpoint>
                    <Trackpoint>
                        <DistanceMeters>823.0560102462769</DistanceMeters>
                        <Time>2021-06-11T12:23:44.414Z</Time>
                    </Trackpoint>
                    <Trackpoint>
                        <DistanceMeters>850.4028730392456</DistanceMeters>
                        <Time>2021-06-11T12:24:11.854Z</Time>
                    </Trackpoint>
                    <Trackpoint>
                        <DistanceMeters>883.2890958786011</DistanceMeters>
                        <Time>2021-06-11T12:24:41.694Z</Time>
                    </Trackpoint>
                    <Trackpoint>
                        <DistanceMeters>896.2891368865967</DistanceMeters>
                        <Time>2021-06-11T12:24:52.774Z</Time>
                    </Trackpoint>
                    <Trackpoint>
                        <DistanceMeters>919.5880889892578</DistanceMeters>
                        <Time>2021-06-11T12:25:12.534Z</Time>
                    </Trackpoint>
                    <Trackpoint>
                        <DistanceMeters>953.4465484619141</DistanceMeters>
                        <Time>2021-06-11T12:25:42.374Z</Time>
                    </Trackpoint>
                    <Trackpoint>
                        <DistanceMeters>965.4327955245972</DistanceMeters>
                        <Time>2021-06-11T12:25:53.534Z</Time>
                    </Trackpoint>
                    <Trackpoint>
                        <DistanceMeters>986.6491212844849</DistanceMeters>
                        <Time>2021-06-11T12:26:13.574Z</Time>
                    </Trackpoint>
                    <Trackpoint>
                        <DistanceMeters>1018.5937757492065</DistanceMeters>
                        <Time>2021-06-11T12:26:43.374Z</Time>
                    </Trackpoint>
                    <Trackpoint>
                        <DistanceMeters>1030.5428924560547</DistanceMeters>
                        <Time>2021-06-11T12:26:54.614Z</Time>
                    </Trackpoint>
                    <Trackpoint>
                        <DistanceMeters>1052.718126296997</DistanceMeters>
                        <Time>2021-06-11T12:27:14.654Z</Time>
                    </Trackpoint>
                    <Trackpoint>
                        <DistanceMeters>1087.5818881988525</DistanceMeters>
                        <Time>2021-06-11T12:27:44.454Z</Time>
                    </Trackpoint>
                    <Trackpoint>
                        <DistanceMeters>1099.549503326416</DistanceMeters>
                        <Time>2021-06-11T12:27:55.654Z</Time>
                    </Trackpoint>
                    <Trackpoint>
                        <DistanceMeters>1122.7015762329102</DistanceMeters>
                        <Time>2021-06-11T12:28:15.694Z</Time>
                    </Trackpoint>
                    <Trackpoint>
                        <DistanceMeters>1154.9511489868164</DistanceMeters>
                        <Time>2021-06-11T12:28:44.854Z</Time>
                    </Trackpoint>
                    <Trackpoint>
                        <DistanceMeters>1166.7395191192627</DistanceMeters>
                        <Time>2021-06-11T12:28:56.454Z</Time>
                    </Trackpoint>
                    <Trackpoint>
                        <DistanceMeters>1196.6876525878906</DistanceMeters>
                        <Time>2021-06-11T12:29:22.414Z</Time>
                    </Trackpoint>
                    <Trackpoint>
                        <DistanceMeters>1235.1250801086426</DistanceMeters>
                        <Time>2021-06-11T12:29:58.774Z</Time>
                    </Trackpoint>
                    <Trackpoint>
                        <DistanceMeters>1266.0673942565918</DistanceMeters>
                        <Time>2021-06-11T12:30:28.694Z</Time>
                    </Trackpoint>
                    <Trackpoint>
                        <DistanceMeters>1291.597333908081</DistanceMeters>
                        <Time>2021-06-11T12:30:53.854Z</Time>
                    </Trackpoint>
                    <Trackpoint>
                        <DistanceMeters>1323.0364532470703</DistanceMeters>
                        <Time>2021-06-11T12:31:22.694Z</Time>
                    </Trackpoint>
                    <Trackpoint>
                        <DistanceMeters>1335.6239280700684</DistanceMeters>
                        <Time>2021-06-11T12:31:34.614Z</Time>
                    </Trackpoint>
                    <Trackpoint>
                        <DistanceMeters>1357.6646099090576</DistanceMeters>
                        <Time>2021-06-11T12:31:54.934Z</Time>
                    </Trackpoint>
                    <Trackpoint>
                        <DistanceMeters>1390.1316928863525</DistanceMeters>
                        <Time>2021-06-11T12:32:23.654Z</Time>
                    </Trackpoint>
                    <Trackpoint>
                        <DistanceMeters>1404.6550664901733</DistanceMeters>
                        <Time>2021-06-11T12:32:35.614Z</Time>
                    </Trackpoint>
                    <Trackpoint>
                        <DistanceMeters>1428.8019132614136</DistanceMeters>
                        <Time>2021-06-11T12:32:55.654Z</Time>
                    </Trackpoint>
                    <Trackpoint>
                        <DistanceMeters>1463.0750951766968</DistanceMeters>
                        <Time>2021-06-11T12:33:24.694Z</Time>
                    </Trackpoint>
                    <Trackpoint>
                        <DistanceMeters>1477.5544452667236</DistanceMeters>
                        <Time>2021-06-11T12:33:36.734Z</Time>
                    </Trackpoint>
                    <Trackpoint>
                        <DistanceMeters>1500.8321590423584</DistanceMeters>
                        <Time>2021-06-11T12:33:56.534Z</Time>
                    </Trackpoint>
                    <Trackpoint>
                        <DistanceMeters>1528.2952556610107</DistanceMeters>
                        <Time>2021-06-11T12:34:21.614Z</Time>
                    </Trackpoint>
                    <Trackpoint>
                        <DistanceMeters>1550.5490760803223</DistanceMeters>
                        <Time>2021-06-11T12:34:41.494Z</Time>
                    </Trackpoint>
                    <Trackpoint>
                        <DistanceMeters>1584.3272438049316</DistanceMeters>
                        <Time>2021-06-11T12:35:11.494Z</Time>
                    </Trackpoint>
                    <Trackpoint>
                        <DistanceMeters>1608.3870887756348</DistanceMeters>
                        <Time>2021-06-11T12:35:31.694Z</Time>
                    </Trackpoint>
                    <Trackpoint>
                        <DistanceMeters>1631.7935256958008</DistanceMeters>
                        <Time>2021-06-11T12:35:51.254Z</Time>
                    </Trackpoint>
                    <Trackpoint>
                        <DistanceMeters>1660.57958984375</DistanceMeters>
                        <Time>2021-06-11T12:36:15.654Z</Time>
                    </Trackpoint>
                    <Trackpoint>
                        <DistanceMeters>1683.6495609283447</DistanceMeters>
                        <Time>2021-06-11T12:36:35.854Z</Time>
                    </Trackpoint>
                    <Trackpoint>
                        <DistanceMeters>1716.9545764923096</DistanceMeters>
                        <Time>2021-06-11T12:37:04.854Z</Time>
                    </Trackpoint>
                    <Trackpoint>
                        <DistanceMeters>1730.4459447860718</DistanceMeters>
                        <Time>2021-06-11T12:37:16.894Z</Time>
                    </Trackpoint>
                    <Trackpoint>
                        <DistanceMeters>1752.8200483322144</DistanceMeters>
                        <Time>2021-06-11T12:37:36.534Z</Time>
                    </Trackpoint>
                    <Trackpoint>
                        <DistanceMeters>1790.1814756393433</DistanceMeters>
                        <Time>2021-06-11T12:38:05.494Z</Time>
                    </Trackpoint>
                    <Trackpoint>
                        <DistanceMeters>1806.1653394699097</DistanceMeters>
                        <Time>2021-06-11T12:38:16.774Z</Time>
                    </Trackpoint>
                    <Trackpoint>
                        <DistanceMeters>1830.921862602234</DistanceMeters>
                        <Time>2021-06-11T12:38:37.534Z</Time>
                    </Trackpoint>
                    <Trackpoint>
                        <DistanceMeters>1865.9990072250366</DistanceMeters>
                        <Time>2021-06-11T12:39:06.934Z</Time>
                    </Trackpoint>
                    <Trackpoint>
                        <DistanceMeters>1879.1286687850952</DistanceMeters>
                        <Time>2021-06-11T12:39:17.774Z</Time>
                    </Trackpoint>
                    <Trackpoint>
                        <DistanceMeters>1902.0978231430054</DistanceMeters>
                        <Time>2021-06-11T12:39:38.174Z</Time>
                    </Trackpoint>
                    <Trackpoint>
                        <DistanceMeters>1932.8045568466187</DistanceMeters>
                        <Time>2021-06-11T12:40:06.534Z</Time>
                    </Trackpoint>
                    <Trackpoint>
                        <DistanceMeters>1945.4103546142578</DistanceMeters>
                        <Time>2021-06-11T12:40:18.414Z</Time>
                    </Trackpoint>
                    <Trackpoint>
                        <DistanceMeters>1968.0137901306152</DistanceMeters>
                        <Time>2021-06-11T12:40:39.574Z</Time>
                    </Trackpoint>
                    <Trackpoint>
                        <DistanceMeters>1998.7965927124023</DistanceMeters>
                        <Time>2021-06-11T12:41:07.774Z</Time>
                    </Trackpoint>
                    <Trackpoint>
                        <DistanceMeters>2012.2290487289429</DistanceMeters>
                        <Time>2021-06-11T12:41:19.934Z</Time>
                    </Trackpoint>
                    <Trackpoint>
                        <DistanceMeters>2082.7586736679077</DistanceMeters>
                        <Time>2021-06-11T12:42:19.894Z</Time>
                    </Trackpoint>
                    <Trackpoint>
                        <DistanceMeters>2114.7027521133423</DistanceMeters>
                        <Time>2021-06-11T12:42:51.814Z</Time>
                    </Trackpoint>
                    <Trackpoint>
                        <DistanceMeters>2139.7790384292603</DistanceMeters>
                        <Time>2021-06-11T12:43:13.854Z</Time>
                    </Trackpoint>
                    <Trackpoint>
                        <DistanceMeters>2162.4384603500366</DistanceMeters>
                        <Time>2021-06-11T12:43:34.894Z</Time>
                    </Trackpoint>
                    <Trackpoint>
                        <DistanceMeters>2186.557999610901</DistanceMeters>
                        <Time>2021-06-11T12:44:01.294Z</Time>
                    </Trackpoint>
                    <Trackpoint>
                        <DistanceMeters>2205.245951652527</DistanceMeters>
                        <Time>2021-06-11T12:44:20.714Z</Time>
                    </Trackpoint>
                    <Trackpoint>
                        <DistanceMeters>2255.4576330184937</DistanceMeters>
                        <Time>2021-06-11T12:46:12.814Z</Time>
                    </Trackpoint>
                    <Trackpoint>
                        <DistanceMeters>2288.5999822616577</DistanceMeters>
                        <Time>2021-06-11T12:46:36.814Z</Time>
                    </Trackpoint>
                    <Trackpoint>
                        <DistanceMeters>2317.242371559143</DistanceMeters>
                        <Time>2021-06-11T12:46:54.894Z</Time>
                    </Trackpoint>
                    <Trackpoint>
                        <DistanceMeters>2394.7886819839478</DistanceMeters>
                        <Time>2021-06-11T12:47:56.734Z</Time>
                    </Trackpoint>
                    <Trackpoint>
                        <DistanceMeters>2428.3866357803345</DistanceMeters>
                        <Time>2021-06-11T12:48:25.174Z</Time>
                    </Trackpoint>
                    <Trackpoint>
                        <DistanceMeters>2443.1121740341187</DistanceMeters>
                        <Time>2021-06-11T12:48:38.654Z</Time>
                    </Trackpoint>
                    <Trackpoint>
                        <DistanceMeters>2493.759711265564</DistanceMeters>
                        <Time>2021-06-11T12:49:27.774Z</Time>
                    </Trackpoint>
                    <Trackpoint>
                        <DistanceMeters>2525.1417989730835</DistanceMeters>
                        <Time>2021-06-11T12:49:56.734Z</Time>
                    </Trackpoint>
                    <Trackpoint>
                        <DistanceMeters>2558.224467277527</DistanceMeters>
                        <Time>2021-06-11T12:50:26.174Z</Time>
                    </Trackpoint>
                    <Trackpoint>
                        <DistanceMeters>2585.2072038650513</DistanceMeters>
                        <Time>2021-06-11T12:50:50.254Z</Time>
                    </Trackpoint>
                    <Trackpoint>
                        <DistanceMeters>2592.579574108124</DistanceMeters>
                        <Time>2021-06-11T12:50:56.974Z</Time>
                    </Trackpoint>
                    <Trackpoint>
                        <DistanceMeters>2626.953860759735</DistanceMeters>
                        <Time>2021-06-11T12:51:27.734Z</Time>
                    </Trackpoint>
                    <Trackpoint>
                        <DistanceMeters>2662.8586688041687</DistanceMeters>
                        <Time>2021-06-11T12:51:57.454Z</Time>
                    </Trackpoint>
                    <Trackpoint>
                        <DistanceMeters>2696.2101130485535</DistanceMeters>
                        <Time>2021-06-11T12:52:28.334Z</Time>
                    </Trackpoint>
                    <Trackpoint>
                        <DistanceMeters>2721.987334728241</DistanceMeters>
                        <Time>2021-06-11T12:52:52.934Z</Time>
                    </Trackpoint>
                    <Trackpoint>
                        <DistanceMeters>2728.008810520172</DistanceMeters>
                        <Time>2021-06-11T12:52:58.454Z</Time>
                    </Trackpoint>
                    <Trackpoint>
                        <DistanceMeters>2762.324049472809</DistanceMeters>
                        <Time>2021-06-11T12:53:29.334Z</Time>
                    </Trackpoint>
                    <Trackpoint>
                        <DistanceMeters>2784.612898349762</DistanceMeters>
                        <Time>2021-06-11T12:53:53.454Z</Time>
                    </Trackpoint>
                    <Trackpoint>
                        <DistanceMeters>2790.3915162086487</DistanceMeters>
                        <Time>2021-06-11T12:53:59.534Z</Time>
                    </Trackpoint>
                    <Trackpoint>
                        <DistanceMeters>2823.286638736725</DistanceMeters>
                        <Time>2021-06-11T12:54:31.414Z</Time>
                    </Trackpoint>
                    <Trackpoint>
                        <DistanceMeters>2833.693293094635</DistanceMeters>
                        <Time>2021-06-11T12:55:03.688Z</Time>
                    </Trackpoint>
                </Track>
                <DistanceMeters>2833.693293094635</DistanceMeters>
                <TotalTimeSeconds>2671.964</TotalTimeSeconds>
                <Calories>205.88966369628906</Calories>
                <Intensity>Active</Intensity>
                <TriggerMethod>Manual</TriggerMethod>
            </Lap>
        </Activity>
        <Activity Sport="Walking">
            <Id>2021-06-11T12:56:23.694Z</Id>
            <Lap StartTime="2021-06-11T12:56:23.694Z">
                <Track>
                    <Trackpoint>
                        <DistanceMeters>0.0</DistanceMeters>
                        <Time>2021-06-11T12:56:23.694Z</Time>
                    </Trackpoint>
                    <Trackpoint>
                        <DistanceMeters>23.850549697875977</DistanceMeters>
                        <Time>2021-06-11T12:57:04.696Z</Time>
                    </Trackpoint>
                    <Trackpoint>
                        <DistanceMeters>23.850549697875977</DistanceMeters>
                        <Time>2021-06-11T12:57:39.694Z</Time>
                    </Trackpoint>
                    <Trackpoint>
                        <DistanceMeters>39.54170036315918</DistanceMeters>
                        <Time>2021-06-11T12:58:04.654Z</Time>
                    </Trackpoint>
                    <Trackpoint>
                        <DistanceMeters>57.11578941345215</DistanceMeters>
                        <Time>2021-06-11T12:59:35.956Z</Time>
                    </Trackpoint>
                </Track>
                <DistanceMeters>57.11578941345215</DistanceMeters>
                <TotalTimeSeconds>192.261513833</TotalTimeSeconds>
                <Calories>11.655423164367676</Calories>
                <Intensity>Active</Intensity>
                <TriggerMethod>Manual</TriggerMethod>
            </Lap>
        </Activity>
    </Activities>
    <Author xsi:type="Application_t">
        <Name>Google Fit</Name>
        <Build>
            <Version>
                <VersionMajor>0</VersionMajor>
                <VersionMinor>0</VersionMinor>
                <BuildMajor>0</BuildMajor>
                <BuildMinor>0</BuildMinor>
            </Version>
        </Build>
        <LangID>en</LangID>
        <PartNumber>000-00000-00</PartNumber>
    </Author>
</TrainingCenterDatabase>
