<?xml version="1.0" encoding="UTF-8"?>
<TrainingCenterDatabase
    xmlns="http://www.garmin.com/xmlschemas/TrainingCenterDatabase/v2"
    xmlns:ns2="http://www.garmin.com/xmlschemas/UserProfile/v2"
    xmlns:ns3="http://www.garmin.com/xmlschemas/ActivityExtension/v2"
    xmlns:ns4="http://www.garmin.com/xmlschemas/ProfileExtension/v1"
    xmlns:ns5="http://www.garmin.com/xmlschemas/ActivityGoals/v1"
    xmlns:xsi="http://www.w3.org/2001/XMLSchema-instance" xsi:schemaLocation="http://www.garmin.com/xmlschemas/TrainingCenterDatabase/v2 http://www.garmin.com/xmlschemas/TrainingCenterDatabasev2.xsd">
    <Activities>
        <Activity Sport="Walking">
            <Id>2021-02-12T15:49:31.808Z</Id>
            <Lap StartTime="2021-02-12T15:49:31.808Z">
                <Track>
                    <Trackpoint>
                        <DistanceMeters>0.0</DistanceMeters>
                        <Time>2021-02-12T15:49:31.808Z</Time>
                    </Trackpoint>
                    <Trackpoint>
                        <DistanceMeters>0.0</DistanceMeters>
                        <Time>2021-02-13T03:43:33.231Z</Time>
                    </Trackpoint>
                    <Trackpoint>
                        <DistanceMeters>7.559328079223633</DistanceMeters>
                        <Time>2021-02-13T03:43:52.610Z</Time>
                    </Trackpoint>
                    <Trackpoint>
                        <DistanceMeters>26.153541564941406</DistanceMeters>
                        <Time>2021-02-13T03:44:03.674Z</Time>
                        <Position>
                            <LatitudeDegrees>18.59170913696289</LatitudeDegrees>
                            <LongitudeDegrees>73.79615783691406</LongitudeDegrees>
                        </Position>
                        <AltitudeMeters>495.05999755859375</AltitudeMeters>
                    </Trackpoint>
                    <Trackpoint>
                        <DistanceMeters>26.153541564941406</DistanceMeters>
                        <Time>2021-02-13T03:44:05.732Z</Time>
                    </Trackpoint>
                </Track>
                <DistanceMeters>26.153541564941406</DistanceMeters>
                <TotalTimeSeconds>42873.924</TotalTimeSeconds>
                <Calories>893.9180641174316</Calories>
                <Intensity>Active</Intensity>
                <TriggerMethod>Manual</TriggerMethod>
            </Lap>
        </Activity>
        <Activity Sport="Walking">
            <Id>2021-02-13T03:44:05.732Z</Id>
            <Lap StartTime="2021-02-13T03:44:05.732Z">
                <Track>
                    <Trackpoint>
                        <DistanceMeters>0.0</DistanceMeters>
                        <Time>2021-02-13T03:44:05.732Z</Time>
                    </Trackpoint>
                    <Trackpoint>
                        <DistanceMeters>23.121797561645508</DistanceMeters>
                        <Time>2021-02-13T03:44:34.235Z</Time>
                        <Position>
                            <LatitudeDegrees>18.59186553955078</LatitudeDegrees>
                            <LongitudeDegrees>73.79632568359375</LongitudeDegrees>
                        </Position>
                        <AltitudeMeters>494.05999755859375</AltitudeMeters>
                    </Trackpoint>
                    <Trackpoint>
                        <DistanceMeters>138.2854175567627</DistanceMeters>
                        <Time>2021-02-13T03:46:35.242Z</Time>
                        <Position>
                            <LatitudeDegrees>18.592748641967773</LatitudeDegrees>
                            <LongitudeDegrees>73.7957534790039</LongitudeDegrees>
                        </Position>
                        <AltitudeMeters>494.1600036621094</AltitudeMeters>
                    </Trackpoint>
                    <Trackpoint>
                        <DistanceMeters>290.15954780578613</DistanceMeters>
                        <Time>2021-02-13T03:48:40.872Z</Time>
                        <Position>
                            <LatitudeDegrees>18.59331512451172</LatitudeDegrees>
                            <LongitudeDegrees>73.79706573486328</LongitudeDegrees>
                        </Position>
                        <AltitudeMeters>493.3600158691406</AltitudeMeters>
                    </Trackpoint>
                    <Trackpoint>
                        <DistanceMeters>404.89868354797363</DistanceMeters>
                        <Time>2021-02-13T03:50:41.919Z</Time>
                        <Position>
                            <LatitudeDegrees>18.593050003051758</LatitudeDegrees>
                            <LongitudeDegrees>73.7981185913086</LongitudeDegrees>
                        </Position>
                        <AltitudeMeters>493.3600158691406</AltitudeMeters>
                    </Trackpoint>
                    <Trackpoint>
                        <DistanceMeters>580.5684986114502</DistanceMeters>
                        <Time>2021-02-13T03:52:43.090Z</Time>
                        <Position>
                            <LatitudeDegrees>18.593168258666992</LatitudeDegrees>
                            <LongitudeDegrees>73.7997817993164</LongitudeDegrees>
                        </Position>
                        <AltitudeMeters>493.760009765625</AltitudeMeters>
                    </Trackpoint>
                    <Trackpoint>
                        <DistanceMeters>767.519136428833</DistanceMeters>
                        <Time>2021-02-13T03:54:44.219Z</Time>
                        <Position>
                            <LatitudeDegrees>18.592525482177734</LatitudeDegrees>
                            <LongitudeDegrees>73.80142211914062</LongitudeDegrees>
                        </Position>
                        <AltitudeMeters>493.4599914550781</AltitudeMeters>
                    </Trackpoint>
                    <Trackpoint>
                        <DistanceMeters>928.9646015167236</DistanceMeters>
                        <Time>2021-02-13T03:56:45.253Z</Time>
                        <Position>
                            <LatitudeDegrees>18.593767166137695</LatitudeDegrees>
                            <LongitudeDegrees>73.80207824707031</LongitudeDegrees>
                        </Position>
                        <AltitudeMeters>492.6600036621094</AltitudeMeters>
                    </Trackpoint>
                    <Trackpoint>
                        <DistanceMeters>928.9646015167236</DistanceMeters>
                        <Time>2021-02-13T03:56:55.376Z</Time>
                        <Position>
                            <LatitudeDegrees>18.59370994567871</LatitudeDegrees>
                            <LongitudeDegrees>73.80210876464844</LongitudeDegrees>
                        </Position>
                        <AltitudeMeters>492.77642822265625</AltitudeMeters>
                    </Trackpoint>
                    <Trackpoint>
                        <DistanceMeters>1003.460771560669</DistanceMeters>
                        <Time>2021-02-13T03:57:16.435Z</Time>
                        <Position>
                            <LatitudeDegrees>18.59437370300293</LatitudeDegrees>
                            <LongitudeDegrees>73.80220794677734</LongitudeDegrees>
                        </Position>
                        <AltitudeMeters>492.98480224609375</AltitudeMeters>
                    </Trackpoint>
                    <Trackpoint>
                        <DistanceMeters>1133.3139972686768</DistanceMeters>
                        <Time>2021-02-13T03:59:12.497Z</Time>
                    </Trackpoint>
                    <Trackpoint>
                        <DistanceMeters>1186.6915302276611</DistanceMeters>
                        <Time>2021-02-13T04:00:05.740Z</Time>
                        <Position>
                            <LatitudeDegrees>18.59528160095215</LatitudeDegrees>
                            <LongitudeDegrees>73.80339813232422</LongitudeDegrees>
                        </Position>
                        <AltitudeMeters>490.55999755859375</AltitudeMeters>
                    </Trackpoint>
                    <Trackpoint>
                        <DistanceMeters>1186.6915302276611</DistanceMeters>
                        <Time>2021-02-13T04:00:26.818Z</Time>
                        <Position>
                            <LatitudeDegrees>18.59529685974121</LatitudeDegrees>
                            <LongitudeDegrees>73.8033447265625</LongitudeDegrees>
                        </Position>
                        <AltitudeMeters>490.4106140136719</AltitudeMeters>
                    </Trackpoint>
                    <Trackpoint>
                        <DistanceMeters>1191.6322627067566</DistanceMeters>
                        <Time>2021-02-13T04:02:27.953Z</Time>
                        <Position>
                            <LatitudeDegrees>18.595340728759766</LatitudeDegrees>
                            <LongitudeDegrees>73.80333709716797</LongitudeDegrees>
                        </Position>
                        <AltitudeMeters>490.6600036621094</AltitudeMeters>
                    </Trackpoint>
                    <Trackpoint>
                        <DistanceMeters>1191.6322627067566</DistanceMeters>
                        <Time>2021-02-13T04:02:32.054Z</Time>
                    </Trackpoint>
                    <Trackpoint>
                        <DistanceMeters>1215.9967093467712</DistanceMeters>
                        <Time>2021-02-13T04:02:46.692Z</Time>
                    </Trackpoint>
                    <Trackpoint>
                        <DistanceMeters>1263.0362219810486</DistanceMeters>
                        <Time>2021-02-13T04:03:27.583Z</Time>
                    </Trackpoint>
                    <Trackpoint>
                        <DistanceMeters>1274.0316081047058</DistanceMeters>
                        <Time>2021-02-13T04:03:47.068Z</Time>
                    </Trackpoint>
                    <Trackpoint>
                        <DistanceMeters>1301.5200724601746</DistanceMeters>
                        <Time>2021-02-13T04:04:21.198Z</Time>
                    </Trackpoint>
                </Track>
                <DistanceMeters>1301.5200724601746</DistanceMeters>
                <TotalTimeSeconds>1215.46692819</TotalTimeSeconds>
                <Calories>112.34064483642578</Calories>
                <Intensity>Active</Intensity>
                <TriggerMethod>Manual</TriggerMethod>
            </Lap>
        </Activity>
        <Activity Sport="Walking">
            <Id>2021-02-13T04:03:47.068Z</Id>
            <Lap StartTime="2021-02-13T04:03:47.068Z">
                <Track>
                    <Trackpoint>
                        <DistanceMeters>0.0</DistanceMeters>
                        <Time>2021-02-13T04:03:47.068Z</Time>
                    </Trackpoint>
                    <Trackpoint>
                        <DistanceMeters>27.48846435546875</DistanceMeters>
                        <Time>2021-02-13T04:04:01.552Z</Time>
                    </Trackpoint>
                    <Trackpoint>
                        <DistanceMeters>27.48846435546875</DistanceMeters>
                        <Time>2021-02-13T04:04:21.198Z</Time>
                    </Trackpoint>
                </Track>
                <DistanceMeters>27.48846435546875</DistanceMeters>
                <TotalTimeSeconds>34.130660625</TotalTimeSeconds>
                <Calories>1.845719814300537</Calories>
                <Intensity>Active</Intensity>
                <TriggerMethod>Manual</TriggerMethod>
            </Lap>
        </Activity>
    </Activities>
    <Author xsi:type="Application_t">
        <Name>Google Fit</Name>
        <Build>
            <Version>
                <VersionMajor>0</VersionMajor>
                <VersionMinor>0</VersionMinor>
                <BuildMajor>0</BuildMajor>
                <BuildMinor>0</BuildMinor>
            </Version>
        </Build>
        <LangID>en</LangID>
        <PartNumber>000-00000-00</PartNumber>
    </Author>
</TrainingCenterDatabase>
