<?xml version="1.0" encoding="UTF-8"?>
<TrainingCenterDatabase
    xmlns="http://www.garmin.com/xmlschemas/TrainingCenterDatabase/v2"
    xmlns:ns2="http://www.garmin.com/xmlschemas/UserProfile/v2"
    xmlns:ns3="http://www.garmin.com/xmlschemas/ActivityExtension/v2"
    xmlns:ns4="http://www.garmin.com/xmlschemas/ProfileExtension/v1"
    xmlns:ns5="http://www.garmin.com/xmlschemas/ActivityGoals/v1"
    xmlns:xsi="http://www.w3.org/2001/XMLSchema-instance" xsi:schemaLocation="http://www.garmin.com/xmlschemas/TrainingCenterDatabase/v2 http://www.garmin.com/xmlschemas/TrainingCenterDatabasev2.xsd">
    <Activities>
        <Activity Sport="Walking">
            <Id>2021-09-18T16:55:40.763Z</Id>
            <Lap StartTime="2021-09-18T16:55:40.763Z">
                <Track>
                    <Trackpoint>
                        <DistanceMeters>0.0</DistanceMeters>
                        <Time>2021-09-18T16:55:40.763Z</Time>
                    </Trackpoint>
                    <Trackpoint>
                        <DistanceMeters>0.0</DistanceMeters>
                        <Time>2021-09-18T17:20:15.812Z</Time>
                    </Trackpoint>
                    <Trackpoint>
                        <DistanceMeters>45.020084381103516</DistanceMeters>
                        <Time>2021-09-18T17:22:33.812Z</Time>
                    </Trackpoint>
                    <Trackpoint>
                        <DistanceMeters>45.020084381103516</DistanceMeters>
                        <Time>2021-09-18T17:22:40.428Z</Time>
                    </Trackpoint>
                </Track>
                <DistanceMeters>45.020084381103516</DistanceMeters>
                <TotalTimeSeconds>1619.665</TotalTimeSeconds>
                <Calories>34.56265491247177</Calories>
                <Intensity>Active</Intensity>
                <TriggerMethod>Manual</TriggerMethod>
            </Lap>
        </Activity>
        <Activity Sport="Walking">
            <Id>2021-09-18T17:22:40.428Z</Id>
            <Lap StartTime="2021-09-18T17:22:40.428Z">
                <Track>
                    <Trackpoint>
                        <DistanceMeters>0.0</DistanceMeters>
                        <Time>2021-09-18T17:22:40.428Z</Time>
                    </Trackpoint>
                    <Trackpoint>
                        <DistanceMeters>57.830291748046875</DistanceMeters>
                        <Time>2021-09-18T17:23:34.452Z</Time>
                    </Trackpoint>
                    <Trackpoint>
                        <DistanceMeters>69.85816669464111</DistanceMeters>
                        <Time>2021-09-18T17:23:46.572Z</Time>
                    </Trackpoint>
                    <Trackpoint>
                        <DistanceMeters>130.484845161438</DistanceMeters>
                        <Time>2021-09-18T17:24:48.292Z</Time>
                    </Trackpoint>
                    <Trackpoint>
                        <DistanceMeters>186.5993127822876</DistanceMeters>
                        <Time>2021-09-18T17:25:47.252Z</Time>
                    </Trackpoint>
                    <Trackpoint>
                        <DistanceMeters>236.8561029434204</DistanceMeters>
                        <Time>2021-09-18T17:26:35.172Z</Time>
                    </Trackpoint>
                    <Trackpoint>
                        <DistanceMeters>298.9756669998169</DistanceMeters>
                        <Time>2021-09-18T17:27:37.852Z</Time>
                    </Trackpoint>
                    <Trackpoint>
                        <DistanceMeters>358.3196611404419</DistanceMeters>
                        <Time>2021-09-18T17:28:38.092Z</Time>
                    </Trackpoint>
                    <Trackpoint>
                        <DistanceMeters>405.29713916778564</DistanceMeters>
                        <Time>2021-09-18T17:29:30.892Z</Time>
                    </Trackpoint>
                    <Trackpoint>
                        <DistanceMeters>429.43834400177</DistanceMeters>
                        <Time>2021-09-18T17:29:59.572Z</Time>
                    </Trackpoint>
                    <Trackpoint>
                        <DistanceMeters>451.6221532821655</DistanceMeters>
                        <Time>2021-09-18T17:30:26.692Z</Time>
                    </Trackpoint>
                    <Trackpoint>
                        <DistanceMeters>481.50697231292725</DistanceMeters>
                        <Time>2021-09-18T17:30:57.452Z</Time>
                    </Trackpoint>
                    <Trackpoint>
                        <DistanceMeters>495.86120223999023</DistanceMeters>
                        <Time>2021-09-18T17:31:25.412Z</Time>
                    </Trackpoint>
                    <Trackpoint>
                        <DistanceMeters>520.0024070739746</DistanceMeters>
                        <Time>2021-09-18T17:31:53.812Z</Time>
                    </Trackpoint>
                    <Trackpoint>
                        <DistanceMeters>537.6189613342285</DistanceMeters>
                        <Time>2021-09-18T17:32:22.612Z</Time>
                    </Trackpoint>
                </Track>
                <DistanceMeters>537.6189613342285</DistanceMeters>
                <TotalTimeSeconds>582.184211994</TotalTimeSeconds>
                <Calories>57.915225982666016</Calories>
                <Intensity>Active</Intensity>
                <TriggerMethod>Manual</TriggerMethod>
            </Lap>
        </Activity>
    </Activities>
    <Author xsi:type="Application_t">
        <Name>Google Fit</Name>
        <Build>
            <Version>
                <VersionMajor>0</VersionMajor>
                <VersionMinor>0</VersionMinor>
                <BuildMajor>0</BuildMajor>
                <BuildMinor>0</BuildMinor>
            </Version>
        </Build>
        <LangID>en</LangID>
        <PartNumber>000-00000-00</PartNumber>
    </Author>
</TrainingCenterDatabase>
