<?xml version="1.0" encoding="UTF-8"?>
<TrainingCenterDatabase
    xmlns="http://www.garmin.com/xmlschemas/TrainingCenterDatabase/v2"
    xmlns:ns2="http://www.garmin.com/xmlschemas/UserProfile/v2"
    xmlns:ns3="http://www.garmin.com/xmlschemas/ActivityExtension/v2"
    xmlns:ns4="http://www.garmin.com/xmlschemas/ProfileExtension/v1"
    xmlns:ns5="http://www.garmin.com/xmlschemas/ActivityGoals/v1"
    xmlns:xsi="http://www.w3.org/2001/XMLSchema-instance" xsi:schemaLocation="http://www.garmin.com/xmlschemas/TrainingCenterDatabase/v2 http://www.garmin.com/xmlschemas/TrainingCenterDatabasev2.xsd">
    <Activities>
        <Activity Sport="Walking">
            <Id>2021-06-26T12:25:01.539Z</Id>
            <Lap StartTime="2021-06-26T12:25:01.539Z">
                <Track>
                    <Trackpoint>
                        <DistanceMeters>0.0</DistanceMeters>
                        <Time>2021-06-26T12:25:01.539Z</Time>
                    </Trackpoint>
                    <Trackpoint>
                        <DistanceMeters>0.0</DistanceMeters>
                        <Time>2021-06-26T12:25:23.062Z</Time>
                    </Trackpoint>
                    <Trackpoint>
                        <DistanceMeters>21.53134536743164</DistanceMeters>
                        <Time>2021-06-26T12:26:12.022Z</Time>
                        <Position>
                            <LatitudeDegrees>19.847930908203125</LatitudeDegrees>
                            <LongitudeDegrees>75.30403900146484</LongitudeDegrees>
                        </Position>
                        <AltitudeMeters>478.0249328613281</AltitudeMeters>
                    </Trackpoint>
                    <Trackpoint>
                        <DistanceMeters>21.53134536743164</DistanceMeters>
                        <Time>2021-06-26T12:26:20.982Z</Time>
                    </Trackpoint>
                </Track>
                <DistanceMeters>21.53134536743164</DistanceMeters>
                <TotalTimeSeconds>79.443556109</TotalTimeSeconds>
                <Calories>7.440927505493164</Calories>
                <Intensity>Active</Intensity>
                <TriggerMethod>Manual</TriggerMethod>
            </Lap>
        </Activity>
        <Activity Sport="Walking">
            <Id>2021-06-26T12:27:19.742Z</Id>
            <Lap StartTime="2021-06-26T12:27:19.742Z">
                <Track>
                    <Trackpoint>
                        <DistanceMeters>0.0</DistanceMeters>
                        <Time>2021-06-26T12:27:19.742Z</Time>
                    </Trackpoint>
                    <Trackpoint>
                        <DistanceMeters>3.914789915084839</DistanceMeters>
                        <Time>2021-06-26T12:27:27.098Z</Time>
                    </Trackpoint>
                    <Trackpoint>
                        <DistanceMeters>3.914789915084839</DistanceMeters>
                        <Time>2021-06-26T12:28:57.761Z</Time>
                    </Trackpoint>
                </Track>
                <DistanceMeters>3.914789915084839</DistanceMeters>
                <TotalTimeSeconds>98.018446936</TotalTimeSeconds>
                <Calories>9.56998348236084</Calories>
                <Intensity>Active</Intensity>
                <TriggerMethod>Manual</TriggerMethod>
            </Lap>
        </Activity>
        <Activity Sport="Walking">
            <Id>2021-06-26T12:33:17.823Z</Id>
            <Lap StartTime="2021-06-26T12:33:17.823Z">
                <Track>
                    <Trackpoint>
                        <DistanceMeters>0.0</DistanceMeters>
                        <Time>2021-06-26T12:33:17.823Z</Time>
                    </Trackpoint>
                    <Trackpoint>
                        <DistanceMeters>18.70270347595215</DistanceMeters>
                        <Time>2021-06-26T12:34:50.518Z</Time>
                        <Position>
                            <LatitudeDegrees>19.847936630249023</LatitudeDegrees>
                            <LongitudeDegrees>75.30403900146484</LongitudeDegrees>
                        </Position>
                        <AltitudeMeters>477.99102783203125</AltitudeMeters>
                    </Trackpoint>
                    <Trackpoint>
                        <DistanceMeters>18.70270347595215</DistanceMeters>
                        <Time>2021-06-26T12:34:54.377Z</Time>
                        <Position>
                            <LatitudeDegrees>19.847875595092773</LatitudeDegrees>
                            <LongitudeDegrees>75.30389404296875</LongitudeDegrees>
                        </Position>
                        <AltitudeMeters>477.97967529296875</AltitudeMeters>
                    </Trackpoint>
                    <Trackpoint>
                        <DistanceMeters>18.70270347595215</DistanceMeters>
                        <Time>2021-06-26T12:34:55.370Z</Time>
                        <Position>
                            <LatitudeDegrees>19.847871780395508</LatitudeDegrees>
                            <LongitudeDegrees>75.30390167236328</LongitudeDegrees>
                        </Position>
                        <AltitudeMeters>477.9534606933594</AltitudeMeters>
                    </Trackpoint>
                    <Trackpoint>
                        <DistanceMeters>18.70270347595215</DistanceMeters>
                        <Time>2021-06-26T12:34:56.363Z</Time>
                        <Position>
                            <LatitudeDegrees>19.847808837890625</LatitudeDegrees>
                            <LongitudeDegrees>75.30394744873047</LongitudeDegrees>
                        </Position>
                        <AltitudeMeters>477.948974609375</AltitudeMeters>
                    </Trackpoint>
                    <Trackpoint>
                        <DistanceMeters>18.70270347595215</DistanceMeters>
                        <Time>2021-06-26T12:34:56.486Z</Time>
                        <Position>
                            <LatitudeDegrees>19.84779930114746</LatitudeDegrees>
                            <LongitudeDegrees>75.30394744873047</LongitudeDegrees>
                        </Position>
                        <AltitudeMeters>477.9482727050781</AltitudeMeters>
                    </Trackpoint>
                    <Trackpoint>
                        <DistanceMeters>18.70270347595215</DistanceMeters>
                        <Time>2021-06-26T12:34:57.493Z</Time>
                        <Position>
                            <LatitudeDegrees>19.847787857055664</LatitudeDegrees>
                            <LongitudeDegrees>75.30393981933594</LongitudeDegrees>
                        </Position>
                        <AltitudeMeters>477.9704284667969</AltitudeMeters>
                    </Trackpoint>
                    <Trackpoint>
                        <DistanceMeters>18.70270347595215</DistanceMeters>
                        <Time>2021-06-26T12:34:58.497Z</Time>
                        <Position>
                            <LatitudeDegrees>19.847782135009766</LatitudeDegrees>
                            <LongitudeDegrees>75.3039321899414</LongitudeDegrees>
                        </Position>
                        <AltitudeMeters>477.982177734375</AltitudeMeters>
                    </Trackpoint>
                    <Trackpoint>
                        <DistanceMeters>18.70270347595215</DistanceMeters>
                        <Time>2021-06-26T12:34:59.484Z</Time>
                        <Position>
                            <LatitudeDegrees>19.847761154174805</LatitudeDegrees>
                            <LongitudeDegrees>75.3039321899414</LongitudeDegrees>
                        </Position>
                        <AltitudeMeters>478.0027770996094</AltitudeMeters>
                    </Trackpoint>
                    <Trackpoint>
                        <DistanceMeters>32.56158256530762</DistanceMeters>
                        <Time>2021-06-26T12:35:00.496Z</Time>
                        <Position>
                            <LatitudeDegrees>19.847726821899414</LatitudeDegrees>
                            <LongitudeDegrees>75.30392456054688</LongitudeDegrees>
                        </Position>
                        <AltitudeMeters>478.0316162109375</AltitudeMeters>
                    </Trackpoint>
                    <Trackpoint>
                        <DistanceMeters>32.56158256530762</DistanceMeters>
                        <Time>2021-06-26T12:35:01.494Z</Time>
                        <Position>
                            <LatitudeDegrees>19.847705841064453</LatitudeDegrees>
                            <LongitudeDegrees>75.30391693115234</LongitudeDegrees>
                        </Position>
                        <AltitudeMeters>478.033203125</AltitudeMeters>
                    </Trackpoint>
                    <Trackpoint>
                        <DistanceMeters>32.56158256530762</DistanceMeters>
                        <Time>2021-06-26T12:35:02.497Z</Time>
                        <Position>
                            <LatitudeDegrees>19.847698211669922</LatitudeDegrees>
                            <LongitudeDegrees>75.30390167236328</LongitudeDegrees>
                        </Position>
                        <AltitudeMeters>478.0200500488281</AltitudeMeters>
                    </Trackpoint>
                    <Trackpoint>
                        <DistanceMeters>32.56158256530762</DistanceMeters>
                        <Time>2021-06-26T12:35:03.503Z</Time>
                        <Position>
                            <LatitudeDegrees>19.847688674926758</LatitudeDegrees>
                            <LongitudeDegrees>75.30389404296875</LongitudeDegrees>
                        </Position>
                        <AltitudeMeters>477.9810485839844</AltitudeMeters>
                    </Trackpoint>
                    <Trackpoint>
                        <DistanceMeters>32.56158256530762</DistanceMeters>
                        <Time>2021-06-26T12:35:05.495Z</Time>
                        <Position>
                            <LatitudeDegrees>19.84768295288086</LatitudeDegrees>
                            <LongitudeDegrees>75.30387878417969</LongitudeDegrees>
                        </Position>
                        <AltitudeMeters>477.976318359375</AltitudeMeters>
                    </Trackpoint>
                    <Trackpoint>
                        <DistanceMeters>32.56158256530762</DistanceMeters>
                        <Time>2021-06-26T12:35:08.491Z</Time>
                        <Position>
                            <LatitudeDegrees>19.84769630432129</LatitudeDegrees>
                            <LongitudeDegrees>75.30387878417969</LongitudeDegrees>
                        </Position>
                        <AltitudeMeters>477.87213134765625</AltitudeMeters>
                    </Trackpoint>
                    <Trackpoint>
                        <DistanceMeters>32.56158256530762</DistanceMeters>
                        <Time>2021-06-26T12:35:11.597Z</Time>
                    </Trackpoint>
                </Track>
                <DistanceMeters>32.56158256530762</DistanceMeters>
                <TotalTimeSeconds>113.774</TotalTimeSeconds>
                <Calories>12.009476661682129</Calories>
                <Intensity>Active</Intensity>
                <TriggerMethod>Manual</TriggerMethod>
            </Lap>
        </Activity>
        <Activity Sport="Walking">
            <Id>2021-06-26T12:35:11.597Z</Id>
            <Lap StartTime="2021-06-26T12:35:11.597Z">
                <Track>
                    <Trackpoint>
                        <DistanceMeters>0.0</DistanceMeters>
                        <Time>2021-06-26T12:35:11.597Z</Time>
                    </Trackpoint>
                    <Trackpoint>
                        <DistanceMeters>0.0</DistanceMeters>
                        <Time>2021-06-26T12:36:33.182Z</Time>
                    </Trackpoint>
                    <Trackpoint>
                        <DistanceMeters>3.8738152980804443</DistanceMeters>
                        <Time>2021-06-26T12:36:42.571Z</Time>
                    </Trackpoint>
                </Track>
                <DistanceMeters>3.8738152980804443</DistanceMeters>
                <TotalTimeSeconds>90.974</TotalTimeSeconds>
                <Calories>2.75278776884079</Calories>
                <Intensity>Active</Intensity>
                <TriggerMethod>Manual</TriggerMethod>
            </Lap>
        </Activity>
        <Activity Sport="Walking">
            <Id>2021-06-26T12:36:42.571Z</Id>
            <Lap StartTime="2021-06-26T12:36:42.571Z">
                <Track>
                    <Trackpoint>
                        <DistanceMeters>0.0</DistanceMeters>
                        <Time>2021-06-26T12:36:42.571Z</Time>
                    </Trackpoint>
                    <Trackpoint>
                        <DistanceMeters>12.690390586853027</DistanceMeters>
                        <Time>2021-06-26T12:37:13.327Z</Time>
                        <Position>
                            <LatitudeDegrees>19.847965240478516</LatitudeDegrees>
                            <LongitudeDegrees>75.30401611328125</LongitudeDegrees>
                        </Position>
                        <AltitudeMeters>516.6668090820312</AltitudeMeters>
                    </Trackpoint>
                    <Trackpoint>
                        <DistanceMeters>89.42369747161865</DistanceMeters>
                        <Time>2021-06-26T12:37:43.313Z</Time>
                        <Position>
                            <LatitudeDegrees>19.847862243652344</LatitudeDegrees>
                            <LongitudeDegrees>75.30425262451172</LongitudeDegrees>
                        </Position>
                        <AltitudeMeters>516.517333984375</AltitudeMeters>
                    </Trackpoint>
                    <Trackpoint>
                        <DistanceMeters>89.42369747161865</DistanceMeters>
                        <Time>2021-06-26T12:37:43.504Z</Time>
                        <Position>
                            <LatitudeDegrees>19.847780227661133</LatitudeDegrees>
                            <LongitudeDegrees>75.30378723144531</LongitudeDegrees>
                        </Position>
                        <AltitudeMeters>516.5032958984375</AltitudeMeters>
                    </Trackpoint>
                    <Trackpoint>
                        <DistanceMeters>130.21908473968506</DistanceMeters>
                        <Time>2021-06-26T12:38:10.859Z</Time>
                    </Trackpoint>
                </Track>
                <DistanceMeters>130.21908473968506</DistanceMeters>
                <TotalTimeSeconds>88.288</TotalTimeSeconds>
                <Calories>9.31928825378418</Calories>
                <Intensity>Active</Intensity>
                <TriggerMethod>Manual</TriggerMethod>
            </Lap>
        </Activity>
        <Activity Sport="Walking">
            <Id>2021-06-26T12:38:10.859Z</Id>
            <Lap StartTime="2021-06-26T12:38:10.859Z">
                <Track>
                    <Trackpoint>
                        <DistanceMeters>0.0</DistanceMeters>
                        <Time>2021-06-26T12:38:10.859Z</Time>
                    </Trackpoint>
                    <Trackpoint>
                        <DistanceMeters>0.0</DistanceMeters>
                        <Time>2021-06-26T12:41:26.942Z</Time>
                    </Trackpoint>
                    <Trackpoint>
                        <DistanceMeters>31.31831932067871</DistanceMeters>
                        <Time>2021-06-26T12:42:12.662Z</Time>
                    </Trackpoint>
                </Track>
                <DistanceMeters>31.31831932067871</DistanceMeters>
                <TotalTimeSeconds>241.803554848</TotalTimeSeconds>
                <Calories>6.216039299964905</Calories>
                <Intensity>Active</Intensity>
                <TriggerMethod>Manual</TriggerMethod>
            </Lap>
        </Activity>
        <Activity Sport="Walking">
            <Id>2021-06-26T12:41:26.942Z</Id>
            <Lap StartTime="2021-06-26T12:41:26.942Z">
                <Track>
                    <Trackpoint>
                        <DistanceMeters>0.0</DistanceMeters>
                        <Time>2021-06-26T12:41:26.942Z</Time>
                    </Trackpoint>
                    <Trackpoint>
                        <DistanceMeters>31.31831932067871</DistanceMeters>
                        <Time>2021-06-26T12:41:45.717Z</Time>
                    </Trackpoint>
                    <Trackpoint>
                        <DistanceMeters>31.31831932067871</DistanceMeters>
                        <Time>2021-06-26T12:42:12.662Z</Time>
                    </Trackpoint>
                    <Trackpoint>
                        <DistanceMeters>51.27729034423828</DistanceMeters>
                        <Time>2021-06-26T12:42:47.265Z</Time>
                    </Trackpoint>
                </Track>
                <DistanceMeters>51.27729034423828</DistanceMeters>
                <TotalTimeSeconds>80.32244716</TotalTimeSeconds>
                <Calories>6.49673318862915</Calories>
                <Intensity>Active</Intensity>
                <TriggerMethod>Manual</TriggerMethod>
            </Lap>
        </Activity>
        <Activity Sport="Walking">
            <Id>2021-06-26T12:50:41.462Z</Id>
            <Lap StartTime="2021-06-26T12:50:41.462Z">
                <Track>
                    <Trackpoint>
                        <DistanceMeters>0.0</DistanceMeters>
                        <Time>2021-06-26T12:50:41.462Z</Time>
                    </Trackpoint>
                    <Trackpoint>
                        <DistanceMeters>24.793668746948242</DistanceMeters>
                        <Time>2021-06-26T12:51:23.835Z</Time>
                    </Trackpoint>
                    <Trackpoint>
                        <DistanceMeters>24.793668746948242</DistanceMeters>
                        <Time>2021-06-26T12:54:00.702Z</Time>
                    </Trackpoint>
                    <Trackpoint>
                        <DistanceMeters>95.25988578796387</DistanceMeters>
                        <Time>2021-06-26T12:56:17.142Z</Time>
                        <Position>
                            <LatitudeDegrees>19.84792709350586</LatitudeDegrees>
                            <LongitudeDegrees>75.30403900146484</LongitudeDegrees>
                        </Position>
                        <AltitudeMeters>478.1850891113281</AltitudeMeters>
                    </Trackpoint>
                    <Trackpoint>
                        <DistanceMeters>95.25988578796387</DistanceMeters>
                        <Time>2021-06-26T12:57:42.682Z</Time>
                    </Trackpoint>
                    <Trackpoint>
                        <DistanceMeters>104.05472946166992</DistanceMeters>
                        <Time>2021-06-26T12:58:25.942Z</Time>
                    </Trackpoint>
                    <Trackpoint>
                        <DistanceMeters>120.36635398864746</DistanceMeters>
                        <Time>2021-06-26T12:58:41.401Z</Time>
                        <Position>
                            <LatitudeDegrees>19.84788703918457</LatitudeDegrees>
                            <LongitudeDegrees>75.30416870117188</LongitudeDegrees>
                        </Position>
                        <AltitudeMeters>477.9771423339844</AltitudeMeters>
                    </Trackpoint>
                    <Trackpoint>
                        <DistanceMeters>120.36635398864746</DistanceMeters>
                        <Time>2021-06-26T12:59:25.942Z</Time>
                    </Trackpoint>
                    <Trackpoint>
                        <DistanceMeters>128.25935411453247</DistanceMeters>
                        <Time>2021-06-26T12:59:34.342Z</Time>
                    </Trackpoint>
                    <Trackpoint>
                        <DistanceMeters>161.53506898880005</DistanceMeters>
                        <Time>2021-06-26T13:00:15.862Z</Time>
                    </Trackpoint>
                    <Trackpoint>
                        <DistanceMeters>183.49729585647583</DistanceMeters>
                        <Time>2021-06-26T13:00:38.302Z</Time>
                    </Trackpoint>
                    <Trackpoint>
                        <DistanceMeters>210.24836015701294</DistanceMeters>
                        <Time>2021-06-26T13:00:41.925Z</Time>
                        <Position>
                            <LatitudeDegrees>19.847946166992188</LatitudeDegrees>
                            <LongitudeDegrees>75.3041000366211</LongitudeDegrees>
                        </Position>
                        <AltitudeMeters>478.019775390625</AltitudeMeters>
                    </Trackpoint>
                    <Trackpoint>
                        <DistanceMeters>210.24836015701294</DistanceMeters>
                        <Time>2021-06-26T13:01:14.222Z</Time>
                    </Trackpoint>
                    <Trackpoint>
                        <DistanceMeters>224.60259008407593</DistanceMeters>
                        <Time>2021-06-26T13:01:35.142Z</Time>
                    </Trackpoint>
                    <Trackpoint>
                        <DistanceMeters>250.70118856430054</DistanceMeters>
                        <Time>2021-06-26T13:02:24.202Z</Time>
                    </Trackpoint>
                </Track>
                <DistanceMeters>250.70118856430054</DistanceMeters>
                <TotalTimeSeconds>702.740000067</TotalTimeSeconds>
                <Calories>69.011474609375</Calories>
                <Intensity>Active</Intensity>
                <TriggerMethod>Manual</TriggerMethod>
            </Lap>
        </Activity>
    </Activities>
    <Author xsi:type="Application_t">
        <Name>Google Fit</Name>
        <Build>
            <Version>
                <VersionMajor>0</VersionMajor>
                <VersionMinor>0</VersionMinor>
                <BuildMajor>0</BuildMajor>
                <BuildMinor>0</BuildMinor>
            </Version>
        </Build>
        <LangID>en</LangID>
        <PartNumber>000-00000-00</PartNumber>
    </Author>
</TrainingCenterDatabase>
