<?xml version="1.0" encoding="UTF-8"?>
<TrainingCenterDatabase
    xmlns="http://www.garmin.com/xmlschemas/TrainingCenterDatabase/v2"
    xmlns:ns2="http://www.garmin.com/xmlschemas/UserProfile/v2"
    xmlns:ns3="http://www.garmin.com/xmlschemas/ActivityExtension/v2"
    xmlns:ns4="http://www.garmin.com/xmlschemas/ProfileExtension/v1"
    xmlns:ns5="http://www.garmin.com/xmlschemas/ActivityGoals/v1"
    xmlns:xsi="http://www.w3.org/2001/XMLSchema-instance" xsi:schemaLocation="http://www.garmin.com/xmlschemas/TrainingCenterDatabase/v2 http://www.garmin.com/xmlschemas/TrainingCenterDatabasev2.xsd">
    <Activities>
        <Activity Sport="Walking">
            <Id>2021-01-11T04:44:48.725Z</Id>
            <Lap StartTime="2021-01-11T04:44:48.725Z">
                <Track>
                    <Trackpoint>
                        <DistanceMeters>0.0</DistanceMeters>
                        <Time>2021-01-11T04:44:48.725Z</Time>
                    </Trackpoint>
                    <Trackpoint>
                        <DistanceMeters>0.0</DistanceMeters>
                        <Time>2021-01-11T05:17:45.964Z</Time>
                    </Trackpoint>
                    <Trackpoint>
                        <DistanceMeters>0.6872116327285767</DistanceMeters>
                        <Time>2021-01-11T05:17:47.157Z</Time>
                    </Trackpoint>
                    <Trackpoint>
                        <DistanceMeters>43.98154604434967</DistanceMeters>
                        <Time>2021-01-11T05:18:47.226Z</Time>
                    </Trackpoint>
                </Track>
                <DistanceMeters>43.98154604434967</DistanceMeters>
                <TotalTimeSeconds>2038.501654198</TotalTimeSeconds>
                <Calories>46.015034675598145</Calories>
                <Intensity>Active</Intensity>
                <TriggerMethod>Manual</TriggerMethod>
            </Lap>
        </Activity>
        <Activity Sport="Walking">
            <Id>2021-01-11T05:17:47.157Z</Id>
            <Lap StartTime="2021-01-11T05:17:47.157Z">
                <Track>
                    <Trackpoint>
                        <DistanceMeters>0.0</DistanceMeters>
                        <Time>2021-01-11T05:17:47.157Z</Time>
                    </Trackpoint>
                    <Trackpoint>
                        <DistanceMeters>43.294334411621094</DistanceMeters>
                        <Time>2021-01-11T05:18:38.349Z</Time>
                    </Trackpoint>
                    <Trackpoint>
                        <DistanceMeters>43.294334411621094</DistanceMeters>
                        <Time>2021-01-11T05:18:47.226Z</Time>
                    </Trackpoint>
                    <Trackpoint>
                        <DistanceMeters>66.65953063964844</DistanceMeters>
                        <Time>2021-01-11T05:19:30.985Z</Time>
                    </Trackpoint>
                    <Trackpoint>
                        <DistanceMeters>72.15722370147705</DistanceMeters>
                        <Time>2021-01-11T05:19:49.364Z</Time>
                    </Trackpoint>
                    <Trackpoint>
                        <DistanceMeters>97.5840539932251</DistanceMeters>
                        <Time>2021-01-11T05:20:46.950Z</Time>
                    </Trackpoint>
                    <Trackpoint>
                        <DistanceMeters>98.27126562595367</DistanceMeters>
                        <Time>2021-01-11T05:20:48.944Z</Time>
                        <Position>
                            <LatitudeDegrees>19.8478827</LatitudeDegrees>
                            <LongitudeDegrees>75.3040453</LongitudeDegrees>
                        </Position>
                        <AltitudeMeters>478.0</AltitudeMeters>
                    </Trackpoint>
                    <Trackpoint>
                        <DistanceMeters>98.27126562595367</DistanceMeters>
                        <Time>2021-01-11T05:20:49.496Z</Time>
                    </Trackpoint>
                    <Trackpoint>
                        <DistanceMeters>133.3190599679947</DistanceMeters>
                        <Time>2021-01-11T05:22:12.961Z</Time>
                    </Trackpoint>
                    <Trackpoint>
                        <DistanceMeters>187.60877859592438</DistanceMeters>
                        <Time>2021-01-11T05:23:12.953Z</Time>
                    </Trackpoint>
                    <Trackpoint>
                        <DistanceMeters>188.29599022865295</DistanceMeters>
                        <Time>2021-01-11T05:23:14.385Z</Time>
                    </Trackpoint>
                    <Trackpoint>
                        <DistanceMeters>221.96936058998108</DistanceMeters>
                        <Time>2021-01-11T05:24:04.033Z</Time>
                    </Trackpoint>
                    <Trackpoint>
                        <DistanceMeters>227.4670536518097</DistanceMeters>
                        <Time>2021-01-11T05:24:24.800Z</Time>
                    </Trackpoint>
                    <Trackpoint>
                        <DistanceMeters>279.0079243183136</DistanceMeters>
                        <Time>2021-01-11T05:24:26.850Z</Time>
                        <Position>
                            <LatitudeDegrees>19.8479773</LatitudeDegrees>
                            <LongitudeDegrees>75.3042279</LongitudeDegrees>
                        </Position>
                        <AltitudeMeters>0.0</AltitudeMeters>
                    </Trackpoint>
                    <Trackpoint>
                        <DistanceMeters>279.0079243183136</DistanceMeters>
                        <Time>2021-01-11T05:25:24.950Z</Time>
                    </Trackpoint>
                    <Trackpoint>
                        <DistanceMeters>310.6196587085724</DistanceMeters>
                        <Time>2021-01-11T05:26:35.833Z</Time>
                    </Trackpoint>
                    <Trackpoint>
                        <DistanceMeters>346.3546631336212</DistanceMeters>
                        <Time>2021-01-11T05:27:24.527Z</Time>
                    </Trackpoint>
                    <Trackpoint>
                        <DistanceMeters>351.85235619544983</DistanceMeters>
                        <Time>2021-01-11T05:27:40.280Z</Time>
                    </Trackpoint>
                    <Trackpoint>
                        <DistanceMeters>369.0326464176178</DistanceMeters>
                        <Time>2021-01-11T05:28:10.992Z</Time>
                    </Trackpoint>
                </Track>
                <DistanceMeters>369.0326464176178</DistanceMeters>
                <TotalTimeSeconds>623.83520308</TotalTimeSeconds>
                <Calories>52.2137565612793</Calories>
                <Intensity>Active</Intensity>
                <TriggerMethod>Manual</TriggerMethod>
            </Lap>
        </Activity>
        <Activity Sport="Walking">
            <Id>2021-01-11T05:27:54.143Z</Id>
            <Lap StartTime="2021-01-11T05:27:54.143Z">
                <Track>
                    <Trackpoint>
                        <DistanceMeters>0.0</DistanceMeters>
                        <Time>2021-01-11T05:27:54.143Z</Time>
                    </Trackpoint>
                    <Trackpoint>
                        <DistanceMeters>0.0</DistanceMeters>
                        <Time>2021-01-11T05:36:47.950Z</Time>
                    </Trackpoint>
                    <Trackpoint>
                        <DistanceMeters>35.757545471191406</DistanceMeters>
                        <Time>2021-01-11T05:37:18.299Z</Time>
                    </Trackpoint>
                </Track>
                <DistanceMeters>35.757545471191406</DistanceMeters>
                <TotalTimeSeconds>564.156</TotalTimeSeconds>
                <Calories>13.968958616256714</Calories>
                <Intensity>Active</Intensity>
                <TriggerMethod>Manual</TriggerMethod>
            </Lap>
        </Activity>
        <Activity Sport="Walking">
            <Id>2021-01-11T05:37:18.299Z</Id>
            <Lap StartTime="2021-01-11T05:37:18.299Z">
                <Track>
                    <Trackpoint>
                        <DistanceMeters>0.0</DistanceMeters>
                        <Time>2021-01-11T05:37:18.299Z</Time>
                    </Trackpoint>
                    <Trackpoint>
                        <DistanceMeters>23.233680725097656</DistanceMeters>
                        <Time>2021-01-11T05:37:38.018Z</Time>
                        <Position>
                            <LatitudeDegrees>19.8478357</LatitudeDegrees>
                            <LongitudeDegrees>75.30406</LongitudeDegrees>
                        </Position>
                        <AltitudeMeters>477.1000061035156</AltitudeMeters>
                    </Trackpoint>
                    <Trackpoint>
                        <DistanceMeters>27.842825412750244</DistanceMeters>
                        <Time>2021-01-11T05:37:52.560Z</Time>
                    </Trackpoint>
                    <Trackpoint>
                        <DistanceMeters>59.45455980300903</DistanceMeters>
                        <Time>2021-01-11T05:38:28.838Z</Time>
                    </Trackpoint>
                </Track>
                <DistanceMeters>59.45455980300903</DistanceMeters>
                <TotalTimeSeconds>70.539</TotalTimeSeconds>
                <Calories>6.626747131347656</Calories>
                <Intensity>Active</Intensity>
                <TriggerMethod>Manual</TriggerMethod>
            </Lap>
        </Activity>
    </Activities>
    <Author xsi:type="Application_t">
        <Name>Google Fit</Name>
        <Build>
            <Version>
                <VersionMajor>0</VersionMajor>
                <VersionMinor>0</VersionMinor>
                <BuildMajor>0</BuildMajor>
                <BuildMinor>0</BuildMinor>
            </Version>
        </Build>
        <LangID>en</LangID>
        <PartNumber>000-00000-00</PartNumber>
    </Author>
</TrainingCenterDatabase>
