<?xml version="1.0" encoding="UTF-8"?>
<TrainingCenterDatabase
    xmlns="http://www.garmin.com/xmlschemas/TrainingCenterDatabase/v2"
    xmlns:ns2="http://www.garmin.com/xmlschemas/UserProfile/v2"
    xmlns:ns3="http://www.garmin.com/xmlschemas/ActivityExtension/v2"
    xmlns:ns4="http://www.garmin.com/xmlschemas/ProfileExtension/v1"
    xmlns:ns5="http://www.garmin.com/xmlschemas/ActivityGoals/v1"
    xmlns:xsi="http://www.w3.org/2001/XMLSchema-instance" xsi:schemaLocation="http://www.garmin.com/xmlschemas/TrainingCenterDatabase/v2 http://www.garmin.com/xmlschemas/TrainingCenterDatabasev2.xsd">
    <Activities>
        <Activity Sport="Walking">
            <Id>2021-01-08T04:44:07.773Z</Id>
            <Lap StartTime="2021-01-08T04:44:07.773Z">
                <Track>
                    <Trackpoint>
                        <DistanceMeters>0.0</DistanceMeters>
                        <Time>2021-01-08T04:44:07.773Z</Time>
                    </Trackpoint>
                    <Trackpoint>
                        <DistanceMeters>0.0</DistanceMeters>
                        <Time>2021-01-08T05:36:53.325Z</Time>
                    </Trackpoint>
                    <Trackpoint>
                        <DistanceMeters>46.54801559448242</DistanceMeters>
                        <Time>2021-01-08T05:37:19.747Z</Time>
                        <Position>
                            <LatitudeDegrees>21.147533</LatitudeDegrees>
                            <LongitudeDegrees>79.0653092</LongitudeDegrees>
                        </Position>
                        <AltitudeMeters>249.1999969482422</AltitudeMeters>
                    </Trackpoint>
                    <Trackpoint>
                        <DistanceMeters>46.54801559448242</DistanceMeters>
                        <Time>2021-01-08T05:37:35.253Z</Time>
                    </Trackpoint>
                    <Trackpoint>
                        <DistanceMeters>52.644224643707275</DistanceMeters>
                        <Time>2021-01-08T05:37:41.668Z</Time>
                        <Position>
                            <LatitudeDegrees>21.1475627</LatitudeDegrees>
                            <LongitudeDegrees>79.0652716</LongitudeDegrees>
                        </Position>
                        <AltitudeMeters>248.79998779296875</AltitudeMeters>
                    </Trackpoint>
                    <Trackpoint>
                        <DistanceMeters>163.68355417251587</DistanceMeters>
                        <Time>2021-01-08T05:39:43.820Z</Time>
                    </Trackpoint>
                </Track>
                <DistanceMeters>163.68355417251587</DistanceMeters>
                <TotalTimeSeconds>3336.047</TotalTimeSeconds>
                <Calories>81.94769859313965</Calories>
                <Intensity>Active</Intensity>
                <TriggerMethod>Manual</TriggerMethod>
            </Lap>
        </Activity>
        <Activity Sport="Walking">
            <Id>2021-01-08T05:39:43.820Z</Id>
            <Lap StartTime="2021-01-08T05:39:43.820Z">
                <Track>
                    <Trackpoint>
                        <DistanceMeters>0.0</DistanceMeters>
                        <Time>2021-01-08T05:39:43.820Z</Time>
                    </Trackpoint>
                    <Trackpoint>
                        <DistanceMeters>0.03999713808298111</DistanceMeters>
                        <Time>2021-01-08T05:39:43.864Z</Time>
                        <Position>
                            <LatitudeDegrees>21.1465754</LatitudeDegrees>
                            <LongitudeDegrees>79.0650962</LongitudeDegrees>
                        </Position>
                        <AltitudeMeters>247.0</AltitudeMeters>
                    </Trackpoint>
                    <Trackpoint>
                        <DistanceMeters>40.55300907045603</DistanceMeters>
                        <Time>2021-01-08T05:40:11.846Z</Time>
                    </Trackpoint>
                    <Trackpoint>
                        <DistanceMeters>44.37056640535593</DistanceMeters>
                        <Time>2021-01-08T05:40:14.629Z</Time>
                    </Trackpoint>
                    <Trackpoint>
                        <DistanceMeters>126.85578063875437</DistanceMeters>
                        <Time>2021-01-08T05:41:14.700Z</Time>
                    </Trackpoint>
                    <Trackpoint>
                        <DistanceMeters>127.54299227148294</DistanceMeters>
                        <Time>2021-01-08T05:41:15.775Z</Time>
                    </Trackpoint>
                    <Trackpoint>
                        <DistanceMeters>154.68476168066263</DistanceMeters>
                        <Time>2021-01-08T05:41:45.742Z</Time>
                        <Position>
                            <LatitudeDegrees>21.1458732</LatitudeDegrees>
                            <LongitudeDegrees>79.0652185</LongitudeDegrees>
                        </Position>
                        <AltitudeMeters>247.1999969482422</AltitudeMeters>
                    </Trackpoint>
                    <Trackpoint>
                        <DistanceMeters>269.8055273666978</DistanceMeters>
                        <Time>2021-01-08T05:43:46.910Z</Time>
                        <Position>
                            <LatitudeDegrees>21.14689</LatitudeDegrees>
                            <LongitudeDegrees>79.0654289</LongitudeDegrees>
                        </Position>
                        <AltitudeMeters>247.29998779296875</AltitudeMeters>
                    </Trackpoint>
                    <Trackpoint>
                        <DistanceMeters>332.3259245529771</DistanceMeters>
                        <Time>2021-01-08T05:44:30.846Z</Time>
                    </Trackpoint>
                    <Trackpoint>
                        <DistanceMeters>363.1209341660142</DistanceMeters>
                        <Time>2021-01-08T05:44:54.516Z</Time>
                    </Trackpoint>
                </Track>
                <DistanceMeters>363.1209341660142</DistanceMeters>
                <TotalTimeSeconds>310.696775612</TotalTimeSeconds>
                <Calories>28.4984188079834</Calories>
                <Intensity>Active</Intensity>
                <TriggerMethod>Manual</TriggerMethod>
            </Lap>
        </Activity>
        <Activity Sport="Walking">
            <Id>2021-01-08T05:44:30.846Z</Id>
            <Lap StartTime="2021-01-08T05:44:30.846Z">
                <Track>
                    <Trackpoint>
                        <DistanceMeters>0.0</DistanceMeters>
                        <Time>2021-01-08T05:44:30.846Z</Time>
                    </Trackpoint>
                    <Trackpoint>
                        <DistanceMeters>30.79500961303711</DistanceMeters>
                        <Time>2021-01-08T05:44:47.174Z</Time>
                    </Trackpoint>
                    <Trackpoint>
                        <DistanceMeters>30.79500961303711</DistanceMeters>
                        <Time>2021-01-08T05:44:54.516Z</Time>
                    </Trackpoint>
                    <Trackpoint>
                        <DistanceMeters>60.60263252258301</DistanceMeters>
                        <Time>2021-01-08T05:45:22.204Z</Time>
                    </Trackpoint>
                    <Trackpoint>
                        <DistanceMeters>80.76618194580078</DistanceMeters>
                        <Time>2021-01-08T05:45:40.026Z</Time>
                    </Trackpoint>
                </Track>
                <DistanceMeters>80.76618194580078</DistanceMeters>
                <TotalTimeSeconds>69.180252514</TotalTimeSeconds>
                <Calories>4.965175628662109</Calories>
                <Intensity>Active</Intensity>
                <TriggerMethod>Manual</TriggerMethod>
            </Lap>
        </Activity>
    </Activities>
    <Author xsi:type="Application_t">
        <Name>Google Fit</Name>
        <Build>
            <Version>
                <VersionMajor>0</VersionMajor>
                <VersionMinor>0</VersionMinor>
                <BuildMajor>0</BuildMajor>
                <BuildMinor>0</BuildMinor>
            </Version>
        </Build>
        <LangID>en</LangID>
        <PartNumber>000-00000-00</PartNumber>
    </Author>
</TrainingCenterDatabase>
