<?xml version="1.0" encoding="UTF-8"?>
<TrainingCenterDatabase
    xmlns="http://www.garmin.com/xmlschemas/TrainingCenterDatabase/v2"
    xmlns:ns2="http://www.garmin.com/xmlschemas/UserProfile/v2"
    xmlns:ns3="http://www.garmin.com/xmlschemas/ActivityExtension/v2"
    xmlns:ns4="http://www.garmin.com/xmlschemas/ProfileExtension/v1"
    xmlns:ns5="http://www.garmin.com/xmlschemas/ActivityGoals/v1"
    xmlns:xsi="http://www.w3.org/2001/XMLSchema-instance" xsi:schemaLocation="http://www.garmin.com/xmlschemas/TrainingCenterDatabase/v2 http://www.garmin.com/xmlschemas/TrainingCenterDatabasev2.xsd">
    <Activities>
        <Activity Sport="Walking">
            <Id>2021-11-12T17:07:27.451Z</Id>
            <Lap StartTime="2021-11-12T17:07:27.451Z">
                <Track>
                    <Trackpoint>
                        <DistanceMeters>0.0</DistanceMeters>
                        <Time>2021-11-12T17:07:27.451Z</Time>
                    </Trackpoint>
                    <Trackpoint>
                        <DistanceMeters>0.0</DistanceMeters>
                        <Time>2021-11-12T17:55:38.009Z</Time>
                    </Trackpoint>
                    <Trackpoint>
                        <DistanceMeters>26.09859848022461</DistanceMeters>
                        <Time>2021-11-12T17:56:58.009Z</Time>
                    </Trackpoint>
                    <Trackpoint>
                        <DistanceMeters>56.67799377441406</DistanceMeters>
                        <Time>2021-11-12T17:57:25.492Z</Time>
                    </Trackpoint>
                </Track>
                <DistanceMeters>56.67799377441406</DistanceMeters>
                <TotalTimeSeconds>2998.040823219</TotalTimeSeconds>
                <Calories>64.06551051139832</Calories>
                <Intensity>Active</Intensity>
                <TriggerMethod>Manual</TriggerMethod>
            </Lap>
        </Activity>
        <Activity Sport="Walking">
            <Id>2021-11-12T17:57:25.492Z</Id>
            <Lap StartTime="2021-11-12T17:57:25.492Z">
                <Track>
                    <Trackpoint>
                        <DistanceMeters>0.0</DistanceMeters>
                        <Time>2021-11-12T17:57:25.492Z</Time>
                    </Trackpoint>
                    <Trackpoint>
                        <DistanceMeters>54.76851272583008</DistanceMeters>
                        <Time>2021-11-12T17:57:26.567Z</Time>
                        <Position>
                            <LatitudeDegrees>19.84786033630371</LatitudeDegrees>
                            <LongitudeDegrees>75.30453491210938</LongitudeDegrees>
                        </Position>
                        <AltitudeMeters>477.8692626953125</AltitudeMeters>
                    </Trackpoint>
                    <Trackpoint>
                        <DistanceMeters>54.76851272583008</DistanceMeters>
                        <Time>2021-11-12T17:58:24.449Z</Time>
                    </Trackpoint>
                    <Trackpoint>
                        <DistanceMeters>73.03753280639648</DistanceMeters>
                        <Time>2021-11-12T17:59:06.809Z</Time>
                    </Trackpoint>
                    <Trackpoint>
                        <DistanceMeters>89.22896575927734</DistanceMeters>
                        <Time>2021-11-12T17:59:23.114Z</Time>
                        <Position>
                            <LatitudeDegrees>19.84821319580078</LatitudeDegrees>
                            <LongitudeDegrees>75.303955078125</LongitudeDegrees>
                        </Position>
                        <AltitudeMeters>477.48895263671875</AltitudeMeters>
                    </Trackpoint>
                    <Trackpoint>
                        <DistanceMeters>154.3187484741211</DistanceMeters>
                        <Time>2021-11-12T18:01:28.734Z</Time>
                        <Position>
                            <LatitudeDegrees>19.847999572753906</LatitudeDegrees>
                            <LongitudeDegrees>75.30453491210938</LongitudeDegrees>
                        </Position>
                        <AltitudeMeters>477.64862060546875</AltitudeMeters>
                    </Trackpoint>
                    <Trackpoint>
                        <DistanceMeters>179.58491706848145</DistanceMeters>
                        <Time>2021-11-12T18:03:28.204Z</Time>
                        <Position>
                            <LatitudeDegrees>19.84779930114746</LatitudeDegrees>
                            <LongitudeDegrees>75.30464935302734</LongitudeDegrees>
                        </Position>
                        <AltitudeMeters>478.03271484375</AltitudeMeters>
                    </Trackpoint>
                    <Trackpoint>
                        <DistanceMeters>255.5911045074463</DistanceMeters>
                        <Time>2021-11-12T18:05:32.510Z</Time>
                        <Position>
                            <LatitudeDegrees>19.848230361938477</LatitudeDegrees>
                            <LongitudeDegrees>75.30408477783203</LongitudeDegrees>
                        </Position>
                        <AltitudeMeters>477.1223449707031</AltitudeMeters>
                    </Trackpoint>
                    <Trackpoint>
                        <DistanceMeters>300.4492244720459</DistanceMeters>
                        <Time>2021-11-12T18:07:32.946Z</Time>
                        <Position>
                            <LatitudeDegrees>19.84819221496582</LatitudeDegrees>
                            <LongitudeDegrees>75.30451202392578</LongitudeDegrees>
                        </Position>
                        <AltitudeMeters>477.58197021484375</AltitudeMeters>
                    </Trackpoint>
                    <Trackpoint>
                        <DistanceMeters>314.24931621551514</DistanceMeters>
                        <Time>2021-11-12T18:09:37.561Z</Time>
                        <Position>
                            <LatitudeDegrees>19.848068237304688</LatitudeDegrees>
                            <LongitudeDegrees>75.30451965332031</LongitudeDegrees>
                        </Position>
                        <AltitudeMeters>477.58441162109375</AltitudeMeters>
                    </Trackpoint>
                    <Trackpoint>
                        <DistanceMeters>323.044189453125</DistanceMeters>
                        <Time>2021-11-12T18:09:46.929Z</Time>
                    </Trackpoint>
                    <Trackpoint>
                        <DistanceMeters>340.59621238708496</DistanceMeters>
                        <Time>2021-11-12T18:10:04.009Z</Time>
                    </Trackpoint>
                    <Trackpoint>
                        <DistanceMeters>356.118390083313</DistanceMeters>
                        <Time>2021-11-12T18:10:19.129Z</Time>
                    </Trackpoint>
                    <Trackpoint>
                        <DistanceMeters>383.85060596466064</DistanceMeters>
                        <Time>2021-11-12T18:10:48.249Z</Time>
                    </Trackpoint>
                    <Trackpoint>
                        <DistanceMeters>400.5208101272583</DistanceMeters>
                        <Time>2021-11-12T18:11:05.169Z</Time>
                    </Trackpoint>
                    <Trackpoint>
                        <DistanceMeters>413.5701093673706</DistanceMeters>
                        <Time>2021-11-12T18:11:19.729Z</Time>
                    </Trackpoint>
                    <Trackpoint>
                        <DistanceMeters>440.3232431411743</DistanceMeters>
                        <Time>2021-11-12T18:11:49.009Z</Time>
                    </Trackpoint>
                    <Trackpoint>
                        <DistanceMeters>455.4742269515991</DistanceMeters>
                        <Time>2021-11-12T18:12:05.049Z</Time>
                    </Trackpoint>
                    <Trackpoint>
                        <DistanceMeters>469.8284568786621</DistanceMeters>
                        <Time>2021-11-12T18:12:20.969Z</Time>
                    </Trackpoint>
                    <Trackpoint>
                        <DistanceMeters>496.6546287536621</DistanceMeters>
                        <Time>2021-11-12T18:12:50.049Z</Time>
                    </Trackpoint>
                    <Trackpoint>
                        <DistanceMeters>511.0088586807251</DistanceMeters>
                        <Time>2021-11-12T18:13:06.009Z</Time>
                    </Trackpoint>
                    <Trackpoint>
                        <DistanceMeters>526.099591255188</DistanceMeters>
                        <Time>2021-11-12T18:13:22.209Z</Time>
                    </Trackpoint>
                    <Trackpoint>
                        <DistanceMeters>552.9404935836792</DistanceMeters>
                        <Time>2021-11-12T18:13:51.249Z</Time>
                    </Trackpoint>
                    <Trackpoint>
                        <DistanceMeters>566.8220348358154</DistanceMeters>
                        <Time>2021-11-12T18:14:05.769Z</Time>
                    </Trackpoint>
                    <Trackpoint>
                        <DistanceMeters>582.6536598205566</DistanceMeters>
                        <Time>2021-11-12T18:14:22.449Z</Time>
                    </Trackpoint>
                    <Trackpoint>
                        <DistanceMeters>623.1708793640137</DistanceMeters>
                        <Time>2021-11-12T18:15:04.129Z</Time>
                    </Trackpoint>
                    <Trackpoint>
                        <DistanceMeters>667.7768707275391</DistanceMeters>
                        <Time>2021-11-12T18:15:49.649Z</Time>
                    </Trackpoint>
                    <Trackpoint>
                        <DistanceMeters>712.1444892883301</DistanceMeters>
                        <Time>2021-11-12T18:17:12.257Z</Time>
                    </Trackpoint>
                </Track>
                <DistanceMeters>712.1444892883301</DistanceMeters>
                <TotalTimeSeconds>1186.765</TotalTimeSeconds>
                <Calories>115.24805450439453</Calories>
                <Intensity>Active</Intensity>
                <TriggerMethod>Manual</TriggerMethod>
            </Lap>
        </Activity>
    </Activities>
    <Author xsi:type="Application_t">
        <Name>Google Fit</Name>
        <Build>
            <Version>
                <VersionMajor>0</VersionMajor>
                <VersionMinor>0</VersionMinor>
                <BuildMajor>0</BuildMajor>
                <BuildMinor>0</BuildMinor>
            </Version>
        </Build>
        <LangID>en</LangID>
        <PartNumber>000-00000-00</PartNumber>
    </Author>
</TrainingCenterDatabase>
