<?xml version="1.0" encoding="UTF-8"?>
<TrainingCenterDatabase
    xmlns="http://www.garmin.com/xmlschemas/TrainingCenterDatabase/v2"
    xmlns:ns2="http://www.garmin.com/xmlschemas/UserProfile/v2"
    xmlns:ns3="http://www.garmin.com/xmlschemas/ActivityExtension/v2"
    xmlns:ns4="http://www.garmin.com/xmlschemas/ProfileExtension/v1"
    xmlns:ns5="http://www.garmin.com/xmlschemas/ActivityGoals/v1"
    xmlns:xsi="http://www.w3.org/2001/XMLSchema-instance" xsi:schemaLocation="http://www.garmin.com/xmlschemas/TrainingCenterDatabase/v2 http://www.garmin.com/xmlschemas/TrainingCenterDatabasev2.xsd">
    <Activities>
        <Activity Sport="Walking">
            <Id>2021-06-06T11:51:44.098Z</Id>
            <Lap StartTime="2021-06-06T11:51:44.098Z">
                <Track>
                    <Trackpoint>
                        <DistanceMeters>0.0</DistanceMeters>
                        <Time>2021-06-06T11:51:44.098Z</Time>
                    </Trackpoint>
                    <Trackpoint>
                        <DistanceMeters>58.3710823059082</DistanceMeters>
                        <Time>2021-06-06T11:53:10.374Z</Time>
                    </Trackpoint>
                    <Trackpoint>
                        <DistanceMeters>58.3710823059082</DistanceMeters>
                        <Time>2021-06-06T11:53:35.098Z</Time>
                    </Trackpoint>
                    <Trackpoint>
                        <DistanceMeters>60.90251874923706</DistanceMeters>
                        <Time>2021-06-06T11:53:40.596Z</Time>
                        <Position>
                            <LatitudeDegrees>19.847761154174805</LatitudeDegrees>
                            <LongitudeDegrees>75.3045883178711</LongitudeDegrees>
                        </Position>
                        <AltitudeMeters>477.98028564453125</AltitudeMeters>
                    </Trackpoint>
                    <Trackpoint>
                        <DistanceMeters>328.4644389152527</DistanceMeters>
                        <Time>2021-06-06T11:57:42.824Z</Time>
                        <Position>
                            <LatitudeDegrees>19.847532272338867</LatitudeDegrees>
                            <LongitudeDegrees>75.30713653564453</LongitudeDegrees>
                        </Position>
                        <AltitudeMeters>480.0156555175781</AltitudeMeters>
                    </Trackpoint>
                    <Trackpoint>
                        <DistanceMeters>358.15343618392944</DistanceMeters>
                        <Time>2021-06-06T11:59:45.087Z</Time>
                        <Position>
                            <LatitudeDegrees>19.84731674194336</LatitudeDegrees>
                            <LongitudeDegrees>75.30730438232422</LongitudeDegrees>
                        </Position>
                        <AltitudeMeters>478.87786865234375</AltitudeMeters>
                    </Trackpoint>
                    <Trackpoint>
                        <DistanceMeters>545.8121428489685</DistanceMeters>
                        <Time>2021-06-06T12:05:57.209Z</Time>
                        <Position>
                            <LatitudeDegrees>19.848064422607422</LatitudeDegrees>
                            <LongitudeDegrees>75.30891418457031</LongitudeDegrees>
                        </Position>
                        <AltitudeMeters>482.5430603027344</AltitudeMeters>
                    </Trackpoint>
                    <Trackpoint>
                        <DistanceMeters>574.1560530662537</DistanceMeters>
                        <Time>2021-06-06T12:06:21.778Z</Time>
                    </Trackpoint>
                    <Trackpoint>
                        <DistanceMeters>630.8039450645447</DistanceMeters>
                        <Time>2021-06-06T12:07:12.378Z</Time>
                    </Trackpoint>
                    <Trackpoint>
                        <DistanceMeters>706.8859915733337</DistanceMeters>
                        <Time>2021-06-06T12:08:22.698Z</Time>
                    </Trackpoint>
                    <Trackpoint>
                        <DistanceMeters>728.8131632804871</DistanceMeters>
                        <Time>2021-06-06T12:08:41.298Z</Time>
                    </Trackpoint>
                    <Trackpoint>
                        <DistanceMeters>748.8278002738953</DistanceMeters>
                        <Time>2021-06-06T12:08:59.818Z</Time>
                    </Trackpoint>
                    <Trackpoint>
                        <DistanceMeters>814.993136882782</DistanceMeters>
                        <Time>2021-06-06T12:09:58.698Z</Time>
                    </Trackpoint>
                    <Trackpoint>
                        <DistanceMeters>876.9110255241394</DistanceMeters>
                        <Time>2021-06-06T12:11:00.618Z</Time>
                    </Trackpoint>
                    <Trackpoint>
                        <DistanceMeters>944.5074610710144</DistanceMeters>
                        <Time>2021-06-06T12:11:58.618Z</Time>
                    </Trackpoint>
                    <Trackpoint>
                        <DistanceMeters>962.8080153465271</DistanceMeters>
                        <Time>2021-06-06T12:12:14.698Z</Time>
                    </Trackpoint>
                    <Trackpoint>
                        <DistanceMeters>1027.31667470932</DistanceMeters>
                        <Time>2021-06-06T12:13:15.018Z</Time>
                    </Trackpoint>
                    <Trackpoint>
                        <DistanceMeters>1042.6606001853943</DistanceMeters>
                        <Time>2021-06-06T12:13:29.218Z</Time>
                    </Trackpoint>
                    <Trackpoint>
                        <DistanceMeters>1069.769467830658</DistanceMeters>
                        <Time>2021-06-06T12:13:55.058Z</Time>
                    </Trackpoint>
                    <Trackpoint>
                        <DistanceMeters>1104.760247707367</DistanceMeters>
                        <Time>2021-06-06T12:14:26.538Z</Time>
                    </Trackpoint>
                    <Trackpoint>
                        <DistanceMeters>1200.4717574119568</DistanceMeters>
                        <Time>2021-06-06T12:15:52.178Z</Time>
                    </Trackpoint>
                    <Trackpoint>
                        <DistanceMeters>1261.0021224021912</DistanceMeters>
                        <Time>2021-06-06T12:16:42.898Z</Time>
                    </Trackpoint>
                    <Trackpoint>
                        <DistanceMeters>1286.0987029075623</DistanceMeters>
                        <Time>2021-06-06T12:17:04.898Z</Time>
                    </Trackpoint>
                    <Trackpoint>
                        <DistanceMeters>1308.6836161613464</DistanceMeters>
                        <Time>2021-06-06T12:17:26.098Z</Time>
                    </Trackpoint>
                    <Trackpoint>
                        <DistanceMeters>1344.3303446769714</DistanceMeters>
                        <Time>2021-06-06T12:17:58.218Z</Time>
                    </Trackpoint>
                    <Trackpoint>
                        <DistanceMeters>1362.452510356903</DistanceMeters>
                        <Time>2021-06-06T12:18:14.658Z</Time>
                    </Trackpoint>
                    <Trackpoint>
                        <DistanceMeters>1379.2625765800476</DistanceMeters>
                        <Time>2021-06-06T12:18:29.818Z</Time>
                    </Trackpoint>
                    <Trackpoint>
                        <DistanceMeters>1405.5105662345886</DistanceMeters>
                        <Time>2021-06-06T12:18:53.418Z</Time>
                    </Trackpoint>
                    <Trackpoint>
                        <DistanceMeters>1433.7546381950378</DistanceMeters>
                        <Time>2021-06-06T12:19:29.818Z</Time>
                    </Trackpoint>
                    <Trackpoint>
                        <DistanceMeters>1437.030147075653</DistanceMeters>
                        <Time>2021-06-06T12:21:30.539Z</Time>
                    </Trackpoint>
                </Track>
                <DistanceMeters>1437.030147075653</DistanceMeters>
                <TotalTimeSeconds>1786.440592963</TotalTimeSeconds>
                <Calories>131.00717163085938</Calories>
                <Intensity>Active</Intensity>
                <TriggerMethod>Manual</TriggerMethod>
            </Lap>
        </Activity>
    </Activities>
    <Author xsi:type="Application_t">
        <Name>Google Fit</Name>
        <Build>
            <Version>
                <VersionMajor>0</VersionMajor>
                <VersionMinor>0</VersionMinor>
                <BuildMajor>0</BuildMajor>
                <BuildMinor>0</BuildMinor>
            </Version>
        </Build>
        <LangID>en</LangID>
        <PartNumber>000-00000-00</PartNumber>
    </Author>
</TrainingCenterDatabase>
