<?xml version="1.0" encoding="UTF-8"?>
<TrainingCenterDatabase
    xmlns="http://www.garmin.com/xmlschemas/TrainingCenterDatabase/v2"
    xmlns:ns2="http://www.garmin.com/xmlschemas/UserProfile/v2"
    xmlns:ns3="http://www.garmin.com/xmlschemas/ActivityExtension/v2"
    xmlns:ns4="http://www.garmin.com/xmlschemas/ProfileExtension/v1"
    xmlns:ns5="http://www.garmin.com/xmlschemas/ActivityGoals/v1"
    xmlns:xsi="http://www.w3.org/2001/XMLSchema-instance" xsi:schemaLocation="http://www.garmin.com/xmlschemas/TrainingCenterDatabase/v2 http://www.garmin.com/xmlschemas/TrainingCenterDatabasev2.xsd">
    <Activities>
        <Activity Sport="Walking">
            <Id>2021-11-05T16:34:42.103Z</Id>
            <Lap StartTime="2021-11-05T16:34:42.103Z">
                <Track>
                    <Trackpoint>
                        <DistanceMeters>0.0</DistanceMeters>
                        <Time>2021-11-05T16:34:42.103Z</Time>
                    </Trackpoint>
                    <Trackpoint>
                        <DistanceMeters>48.93487548828125</DistanceMeters>
                        <Time>2021-11-05T16:35:38.963Z</Time>
                    </Trackpoint>
                    <Trackpoint>
                        <DistanceMeters>48.93487548828125</DistanceMeters>
                        <Time>2021-11-05T16:36:03.663Z</Time>
                    </Trackpoint>
                    <Trackpoint>
                        <DistanceMeters>109.1233139038086</DistanceMeters>
                        <Time>2021-11-05T16:37:04.143Z</Time>
                    </Trackpoint>
                    <Trackpoint>
                        <DistanceMeters>173.6770248413086</DistanceMeters>
                        <Time>2021-11-05T16:38:05.583Z</Time>
                    </Trackpoint>
                    <Trackpoint>
                        <DistanceMeters>218.0446434020996</DistanceMeters>
                        <Time>2021-11-05T16:38:56.043Z</Time>
                    </Trackpoint>
                    <Trackpoint>
                        <DistanceMeters>260.4548683166504</DistanceMeters>
                        <Time>2021-11-05T16:40:19.423Z</Time>
                    </Trackpoint>
                    <Trackpoint>
                        <DistanceMeters>322.4386558532715</DistanceMeters>
                        <Time>2021-11-05T16:41:17.943Z</Time>
                    </Trackpoint>
                    <Trackpoint>
                        <DistanceMeters>372.61175537109375</DistanceMeters>
                        <Time>2021-11-05T16:42:03.903Z</Time>
                    </Trackpoint>
                    <Trackpoint>
                        <DistanceMeters>441.03199768066406</DistanceMeters>
                        <Time>2021-11-05T16:43:09.703Z</Time>
                    </Trackpoint>
                    <Trackpoint>
                        <DistanceMeters>514.2038726806641</DistanceMeters>
                        <Time>2021-11-05T16:44:09.823Z</Time>
                    </Trackpoint>
                    <Trackpoint>
                        <DistanceMeters>572.1104545593262</DistanceMeters>
                        <Time>2021-11-05T16:45:04.463Z</Time>
                    </Trackpoint>
                    <Trackpoint>
                        <DistanceMeters>596.1453800201416</DistanceMeters>
                        <Time>2021-11-05T16:45:26.543Z</Time>
                    </Trackpoint>
                    <Trackpoint>
                        <DistanceMeters>630.7932720184326</DistanceMeters>
                        <Time>2021-11-05T16:45:59.543Z</Time>
                    </Trackpoint>
                    <Trackpoint>
                        <DistanceMeters>652.9770812988281</DistanceMeters>
                        <Time>2021-11-05T16:46:24.303Z</Time>
                    </Trackpoint>
                    <Trackpoint>
                        <DistanceMeters>673.2034950256348</DistanceMeters>
                        <Time>2021-11-05T16:46:59.543Z</Time>
                    </Trackpoint>
                    <Trackpoint>
                        <DistanceMeters>702.3041477203369</DistanceMeters>
                        <Time>2021-11-05T16:47:27.623Z</Time>
                    </Trackpoint>
                    <Trackpoint>
                        <DistanceMeters>752.3082599639893</DistanceMeters>
                        <Time>2021-11-05T16:48:20.783Z</Time>
                    </Trackpoint>
                    <Trackpoint>
                        <DistanceMeters>835.1713123321533</DistanceMeters>
                        <Time>2021-11-05T16:49:55.543Z</Time>
                    </Trackpoint>
                    <Trackpoint>
                        <DistanceMeters>874.039098739624</DistanceMeters>
                        <Time>2021-11-05T16:50:32.103Z</Time>
                    </Trackpoint>
                    <Trackpoint>
                        <DistanceMeters>899.121654510498</DistanceMeters>
                        <Time>2021-11-05T16:50:54.063Z</Time>
                    </Trackpoint>
                    <Trackpoint>
                        <DistanceMeters>919.3480682373047</DistanceMeters>
                        <Time>2021-11-05T16:51:16.263Z</Time>
                    </Trackpoint>
                    <Trackpoint>
                        <DistanceMeters>937.8182983398438</DistanceMeters>
                        <Time>2021-11-05T16:51:35.723Z</Time>
                    </Trackpoint>
                    <Trackpoint>
                        <DistanceMeters>957.3922481536865</DistanceMeters>
                        <Time>2021-11-05T16:52:05.423Z</Time>
                    </Trackpoint>
                    <Trackpoint>
                        <DistanceMeters>967.8316879272461</DistanceMeters>
                        <Time>2021-11-05T16:52:16.943Z</Time>
                    </Trackpoint>
                    <Trackpoint>
                        <DistanceMeters>1020.6813507080078</DistanceMeters>
                        <Time>2021-11-05T16:53:14.943Z</Time>
                    </Trackpoint>
                    <Trackpoint>
                        <DistanceMeters>1078.0773620605469</DistanceMeters>
                        <Time>2021-11-05T16:54:13.023Z</Time>
                    </Trackpoint>
                    <Trackpoint>
                        <DistanceMeters>1109.3956813812256</DistanceMeters>
                        <Time>2021-11-05T16:54:49.203Z</Time>
                    </Trackpoint>
                </Track>
                <DistanceMeters>1109.3956813812256</DistanceMeters>
                <TotalTimeSeconds>1207.099999583</TotalTimeSeconds>
                <Calories>111.57308959960938</Calories>
                <Intensity>Active</Intensity>
                <TriggerMethod>Manual</TriggerMethod>
            </Lap>
        </Activity>
        <Activity Sport="Walking">
            <Id>2021-11-05T16:54:13.023Z</Id>
            <Lap StartTime="2021-11-05T16:54:13.023Z">
                <Track>
                    <Trackpoint>
                        <DistanceMeters>0.0</DistanceMeters>
                        <Time>2021-11-05T16:54:13.023Z</Time>
                    </Trackpoint>
                    <Trackpoint>
                        <DistanceMeters>31.31831932067871</DistanceMeters>
                        <Time>2021-11-05T16:54:47.885Z</Time>
                    </Trackpoint>
                    <Trackpoint>
                        <DistanceMeters>31.31831932067871</DistanceMeters>
                        <Time>2021-11-05T16:54:49.203Z</Time>
                    </Trackpoint>
                </Track>
                <DistanceMeters>31.31831932067871</DistanceMeters>
                <TotalTimeSeconds>36.179999872</TotalTimeSeconds>
                <Calories>0.12802620232105255</Calories>
                <Intensity>Active</Intensity>
                <TriggerMethod>Manual</TriggerMethod>
            </Lap>
        </Activity>
    </Activities>
    <Author xsi:type="Application_t">
        <Name>Google Fit</Name>
        <Build>
            <Version>
                <VersionMajor>0</VersionMajor>
                <VersionMinor>0</VersionMinor>
                <BuildMajor>0</BuildMajor>
                <BuildMinor>0</BuildMinor>
            </Version>
        </Build>
        <LangID>en</LangID>
        <PartNumber>000-00000-00</PartNumber>
    </Author>
</TrainingCenterDatabase>
