<?xml version="1.0" encoding="UTF-8"?>
<TrainingCenterDatabase
    xmlns="http://www.garmin.com/xmlschemas/TrainingCenterDatabase/v2"
    xmlns:ns2="http://www.garmin.com/xmlschemas/UserProfile/v2"
    xmlns:ns3="http://www.garmin.com/xmlschemas/ActivityExtension/v2"
    xmlns:ns4="http://www.garmin.com/xmlschemas/ProfileExtension/v1"
    xmlns:ns5="http://www.garmin.com/xmlschemas/ActivityGoals/v1"
    xmlns:xsi="http://www.w3.org/2001/XMLSchema-instance" xsi:schemaLocation="http://www.garmin.com/xmlschemas/TrainingCenterDatabase/v2 http://www.garmin.com/xmlschemas/TrainingCenterDatabasev2.xsd">
    <Activities>
        <Activity Sport="Walking">
            <Id>2021-09-14T05:23:58.593Z</Id>
            <Lap StartTime="2021-09-14T05:23:58.593Z">
                <Track>
                    <Trackpoint>
                        <DistanceMeters>0.0</DistanceMeters>
                        <Time>2021-09-14T05:23:58.593Z</Time>
                    </Trackpoint>
                    <Trackpoint>
                        <DistanceMeters>8.48204517364502</DistanceMeters>
                        <Time>2021-09-14T05:24:25.349Z</Time>
                    </Trackpoint>
                    <Trackpoint>
                        <DistanceMeters>95.73447895050049</DistanceMeters>
                        <Time>2021-09-14T05:25:26.789Z</Time>
                    </Trackpoint>
                    <Trackpoint>
                        <DistanceMeters>139.17739582061768</DistanceMeters>
                        <Time>2021-09-14T05:25:55.389Z</Time>
                    </Trackpoint>
                    <Trackpoint>
                        <DistanceMeters>162.54178524017334</DistanceMeters>
                        <Time>2021-09-14T05:26:11.309Z</Time>
                    </Trackpoint>
                    <Trackpoint>
                        <DistanceMeters>185.9343023300171</DistanceMeters>
                        <Time>2021-09-14T05:26:27.189Z</Time>
                    </Trackpoint>
                    <Trackpoint>
                        <DistanceMeters>225.7828550338745</DistanceMeters>
                        <Time>2021-09-14T05:26:56.189Z</Time>
                    </Trackpoint>
                    <Trackpoint>
                        <DistanceMeters>250.15435695648193</DistanceMeters>
                        <Time>2021-09-14T05:27:12.269Z</Time>
                    </Trackpoint>
                    <Trackpoint>
                        <DistanceMeters>274.584755897522</DistanceMeters>
                        <Time>2021-09-14T05:27:28.269Z</Time>
                    </Trackpoint>
                    <Trackpoint>
                        <DistanceMeters>314.4590005874634</DistanceMeters>
                        <Time>2021-09-14T05:27:57.229Z</Time>
                    </Trackpoint>
                    <Trackpoint>
                        <DistanceMeters>329.1799259185791</DistanceMeters>
                        <Time>2021-09-14T05:28:08.029Z</Time>
                    </Trackpoint>
                    <Trackpoint>
                        <DistanceMeters>346.14401626586914</DistanceMeters>
                        <Time>2021-09-14T05:28:29.029Z</Time>
                    </Trackpoint>
                    <Trackpoint>
                        <DistanceMeters>389.1551513671875</DistanceMeters>
                        <Time>2021-09-14T05:28:58.229Z</Time>
                    </Trackpoint>
                    <Trackpoint>
                        <DistanceMeters>411.10621452331543</DistanceMeters>
                        <Time>2021-09-14T05:29:12.989Z</Time>
                    </Trackpoint>
                    <Trackpoint>
                        <DistanceMeters>430.9885425567627</DistanceMeters>
                        <Time>2021-09-14T05:29:29.349Z</Time>
                    </Trackpoint>
                    <Trackpoint>
                        <DistanceMeters>472.75520515441895</DistanceMeters>
                        <Time>2021-09-14T05:29:58.749Z</Time>
                    </Trackpoint>
                </Track>
                <DistanceMeters>472.75520515441895</DistanceMeters>
                <TotalTimeSeconds>360.156004815</TotalTimeSeconds>
                <Calories>33.47201919555664</Calories>
                <Intensity>Active</Intensity>
                <TriggerMethod>Manual</TriggerMethod>
            </Lap>
        </Activity>
        <Activity Sport="Walking">
            <Id>2021-09-14T05:29:29.349Z</Id>
            <Lap StartTime="2021-09-14T05:29:29.349Z">
                <Track>
                    <Trackpoint>
                        <DistanceMeters>0.0</DistanceMeters>
                        <Time>2021-09-14T05:29:29.349Z</Time>
                    </Trackpoint>
                    <Trackpoint>
                        <DistanceMeters>41.76666259765625</DistanceMeters>
                        <Time>2021-09-14T05:29:32.386Z</Time>
                    </Trackpoint>
                    <Trackpoint>
                        <DistanceMeters>41.76666259765625</DistanceMeters>
                        <Time>2021-09-14T05:29:58.749Z</Time>
                    </Trackpoint>
                    <Trackpoint>
                        <DistanceMeters>55.0598840713501</DistanceMeters>
                        <Time>2021-09-14T05:30:10.229Z</Time>
                    </Trackpoint>
                </Track>
                <DistanceMeters>55.0598840713501</DistanceMeters>
                <TotalTimeSeconds>40.880000969</TotalTimeSeconds>
                <Calories>3.7948122024536133</Calories>
                <Intensity>Active</Intensity>
                <TriggerMethod>Manual</TriggerMethod>
            </Lap>
        </Activity>
    </Activities>
    <Author xsi:type="Application_t">
        <Name>Google Fit</Name>
        <Build>
            <Version>
                <VersionMajor>0</VersionMajor>
                <VersionMinor>0</VersionMinor>
                <BuildMajor>0</BuildMajor>
                <BuildMinor>0</BuildMinor>
            </Version>
        </Build>
        <LangID>en</LangID>
        <PartNumber>000-00000-00</PartNumber>
    </Author>
</TrainingCenterDatabase>
