<?xml version="1.0" encoding="UTF-8"?>
<TrainingCenterDatabase
    xmlns="http://www.garmin.com/xmlschemas/TrainingCenterDatabase/v2"
    xmlns:ns2="http://www.garmin.com/xmlschemas/UserProfile/v2"
    xmlns:ns3="http://www.garmin.com/xmlschemas/ActivityExtension/v2"
    xmlns:ns4="http://www.garmin.com/xmlschemas/ProfileExtension/v1"
    xmlns:ns5="http://www.garmin.com/xmlschemas/ActivityGoals/v1"
    xmlns:xsi="http://www.w3.org/2001/XMLSchema-instance" xsi:schemaLocation="http://www.garmin.com/xmlschemas/TrainingCenterDatabase/v2 http://www.garmin.com/xmlschemas/TrainingCenterDatabasev2.xsd">
    <Activities>
        <Activity Sport="Walking">
            <Id>2021-11-04T16:56:58.971Z</Id>
            <Lap StartTime="2021-11-04T16:56:58.971Z">
                <Track>
                    <Trackpoint>
                        <DistanceMeters>0.0</DistanceMeters>
                        <Time>2021-11-04T16:56:58.971Z</Time>
                    </Trackpoint>
                    <Trackpoint>
                        <DistanceMeters>43.73857498168945</DistanceMeters>
                        <Time>2021-11-04T16:59:13.042Z</Time>
                    </Trackpoint>
                    <Trackpoint>
                        <DistanceMeters>47.00089979171753</DistanceMeters>
                        <Time>2021-11-04T16:59:16.642Z</Time>
                    </Trackpoint>
                    <Trackpoint>
                        <DistanceMeters>88.75865888595581</DistanceMeters>
                        <Time>2021-11-04T17:00:13.082Z</Time>
                    </Trackpoint>
                    <Trackpoint>
                        <DistanceMeters>94.48022413253784</DistanceMeters>
                        <Time>2021-11-04T17:00:17.682Z</Time>
                    </Trackpoint>
                    <Trackpoint>
                        <DistanceMeters>122.53621816635132</DistanceMeters>
                        <Time>2021-11-04T17:00:52.682Z</Time>
                    </Trackpoint>
                    <Trackpoint>
                        <DistanceMeters>159.07425832748413</DistanceMeters>
                        <Time>2021-11-04T17:02:21.282Z</Time>
                    </Trackpoint>
                    <Trackpoint>
                        <DistanceMeters>213.88131856918335</DistanceMeters>
                        <Time>2021-11-04T17:03:22.162Z</Time>
                    </Trackpoint>
                    <Trackpoint>
                        <DistanceMeters>260.8587965965271</DistanceMeters>
                        <Time>2021-11-04T17:04:22.642Z</Time>
                    </Trackpoint>
                    <Trackpoint>
                        <DistanceMeters>307.18380880355835</DistanceMeters>
                        <Time>2021-11-04T17:05:19.042Z</Time>
                    </Trackpoint>
                    <Trackpoint>
                        <DistanceMeters>359.38100576400757</DistanceMeters>
                        <Time>2021-11-04T17:06:23.642Z</Time>
                    </Trackpoint>
                    <Trackpoint>
                        <DistanceMeters>420.89047384262085</DistanceMeters>
                        <Time>2021-11-04T17:07:23.242Z</Time>
                    </Trackpoint>
                    <Trackpoint>
                        <DistanceMeters>483.88611364364624</DistanceMeters>
                        <Time>2021-11-04T17:08:23.842Z</Time>
                    </Trackpoint>
                    <Trackpoint>
                        <DistanceMeters>544.855218410492</DistanceMeters>
                        <Time>2021-11-04T17:09:24.722Z</Time>
                    </Trackpoint>
                    <Trackpoint>
                        <DistanceMeters>594.8739104270935</DistanceMeters>
                        <Time>2021-11-04T17:11:06.282Z</Time>
                    </Trackpoint>
                    <Trackpoint>
                        <DistanceMeters>628.1496253013611</DistanceMeters>
                        <Time>2021-11-04T17:12:04.562Z</Time>
                    </Trackpoint>
                    <Trackpoint>
                        <DistanceMeters>648.3760390281677</DistanceMeters>
                        <Time>2021-11-04T17:12:59.393Z</Time>
                    </Trackpoint>
                </Track>
                <DistanceMeters>648.3760390281677</DistanceMeters>
                <TotalTimeSeconds>960.422</TotalTimeSeconds>
                <Calories>93.26764678955078</Calories>
                <Intensity>Active</Intensity>
                <TriggerMethod>Manual</TriggerMethod>
            </Lap>
        </Activity>
    </Activities>
    <Author xsi:type="Application_t">
        <Name>Google Fit</Name>
        <Build>
            <Version>
                <VersionMajor>0</VersionMajor>
                <VersionMinor>0</VersionMinor>
                <BuildMajor>0</BuildMajor>
                <BuildMinor>0</BuildMinor>
            </Version>
        </Build>
        <LangID>en</LangID>
        <PartNumber>000-00000-00</PartNumber>
    </Author>
</TrainingCenterDatabase>
