<?xml version="1.0" encoding="UTF-8"?>
<TrainingCenterDatabase
    xmlns="http://www.garmin.com/xmlschemas/TrainingCenterDatabase/v2"
    xmlns:ns2="http://www.garmin.com/xmlschemas/UserProfile/v2"
    xmlns:ns3="http://www.garmin.com/xmlschemas/ActivityExtension/v2"
    xmlns:ns4="http://www.garmin.com/xmlschemas/ProfileExtension/v1"
    xmlns:ns5="http://www.garmin.com/xmlschemas/ActivityGoals/v1"
    xmlns:xsi="http://www.w3.org/2001/XMLSchema-instance" xsi:schemaLocation="http://www.garmin.com/xmlschemas/TrainingCenterDatabase/v2 http://www.garmin.com/xmlschemas/TrainingCenterDatabasev2.xsd">
    <Activities>
        <Activity Sport="Walking">
            <Id>2021-12-05T05:38:17.618Z</Id>
            <Lap StartTime="2021-12-05T05:38:17.618Z">
                <Track>
                    <Trackpoint>
                        <DistanceMeters>0.0</DistanceMeters>
                        <Time>2021-12-05T05:38:17.618Z</Time>
                    </Trackpoint>
                    <Trackpoint>
                        <DistanceMeters>66.55142974853516</DistanceMeters>
                        <Time>2021-12-05T05:41:00.338Z</Time>
                    </Trackpoint>
                    <Trackpoint>
                        <DistanceMeters>66.55142974853516</DistanceMeters>
                        <Time>2021-12-05T05:41:41.618Z</Time>
                    </Trackpoint>
                    <Trackpoint>
                        <DistanceMeters>92.33569717407227</DistanceMeters>
                        <Time>2021-12-05T05:42:04.178Z</Time>
                    </Trackpoint>
                    <Trackpoint>
                        <DistanceMeters>148.44768524169922</DistanceMeters>
                        <Time>2021-12-05T05:43:08.658Z</Time>
                    </Trackpoint>
                    <Trackpoint>
                        <DistanceMeters>159.53958988189697</DistanceMeters>
                        <Time>2021-12-05T05:43:22.138Z</Time>
                    </Trackpoint>
                    <Trackpoint>
                        <DistanceMeters>197.38255786895752</DistanceMeters>
                        <Time>2021-12-05T05:44:09.938Z</Time>
                    </Trackpoint>
                    <Trackpoint>
                        <DistanceMeters>208.55677032470703</DistanceMeters>
                        <Time>2021-12-05T05:44:21.858Z</Time>
                    </Trackpoint>
                    <Trackpoint>
                        <DistanceMeters>253.57685470581055</DistanceMeters>
                        <Time>2021-12-05T05:45:11.538Z</Time>
                    </Trackpoint>
                    <Trackpoint>
                        <DistanceMeters>264.0162944793701</DistanceMeters>
                        <Time>2021-12-05T05:45:24.418Z</Time>
                    </Trackpoint>
                    <Trackpoint>
                        <DistanceMeters>310.1956958770752</DistanceMeters>
                        <Time>2021-12-05T05:46:13.058Z</Time>
                    </Trackpoint>
                    <Trackpoint>
                        <DistanceMeters>321.94006538391113</DistanceMeters>
                        <Time>2021-12-05T05:46:26.298Z</Time>
                    </Trackpoint>
                    <Trackpoint>
                        <DistanceMeters>370.5193271636963</DistanceMeters>
                        <Time>2021-12-05T05:47:13.658Z</Time>
                    </Trackpoint>
                    <Trackpoint>
                        <DistanceMeters>384.6095390319824</DistanceMeters>
                        <Time>2021-12-05T05:47:27.658Z</Time>
                    </Trackpoint>
                    <Trackpoint>
                        <DistanceMeters>431.73918533325195</DistanceMeters>
                        <Time>2021-12-05T05:48:13.938Z</Time>
                    </Trackpoint>
                    <Trackpoint>
                        <DistanceMeters>448.3243103027344</DistanceMeters>
                        <Time>2021-12-05T05:48:28.858Z</Time>
                    </Trackpoint>
                    <Trackpoint>
                        <DistanceMeters>503.5008239746094</DistanceMeters>
                        <Time>2021-12-05T05:49:20.938Z</Time>
                    </Trackpoint>
                    <Trackpoint>
                        <DistanceMeters>522.4223079681396</DistanceMeters>
                        <Time>2021-12-05T05:49:41.818Z</Time>
                    </Trackpoint>
                    <Trackpoint>
                        <DistanceMeters>546.720495223999</DistanceMeters>
                        <Time>2021-12-05T05:50:05.478Z</Time>
                    </Trackpoint>
                </Track>
                <DistanceMeters>546.720495223999</DistanceMeters>
                <TotalTimeSeconds>707.860019582</TotalTimeSeconds>
                <Calories>52.22188949584961</Calories>
                <Intensity>Active</Intensity>
                <TriggerMethod>Manual</TriggerMethod>
            </Lap>
        </Activity>
        <Activity Sport="Walking">
            <Id>2021-12-05T05:49:41.818Z</Id>
            <Lap StartTime="2021-12-05T05:49:41.818Z">
                <Track>
                    <Trackpoint>
                        <DistanceMeters>0.0</DistanceMeters>
                        <Time>2021-12-05T05:49:41.818Z</Time>
                    </Trackpoint>
                    <Trackpoint>
                        <DistanceMeters>24.298187255859375</DistanceMeters>
                        <Time>2021-12-05T05:49:58.092Z</Time>
                    </Trackpoint>
                    <Trackpoint>
                        <DistanceMeters>24.298187255859375</DistanceMeters>
                        <Time>2021-12-05T05:50:05.478Z</Time>
                    </Trackpoint>
                </Track>
                <DistanceMeters>24.298187255859375</DistanceMeters>
                <TotalTimeSeconds>23.66</TotalTimeSeconds>
                <Calories>0.7172722220420837</Calories>
                <Intensity>Active</Intensity>
                <TriggerMethod>Manual</TriggerMethod>
            </Lap>
        </Activity>
        <Activity Sport="Walking">
            <Id>2021-12-05T05:59:45.553Z</Id>
            <Lap StartTime="2021-12-05T05:59:45.553Z">
                <Track>
                    <Trackpoint>
                        <DistanceMeters>0.0</DistanceMeters>
                        <Time>2021-12-05T05:59:45.553Z</Time>
                    </Trackpoint>
                    <Trackpoint>
                        <DistanceMeters>0.0</DistanceMeters>
                        <Time>2021-12-05T06:00:23.058Z</Time>
                    </Trackpoint>
                    <Trackpoint>
                        <DistanceMeters>27.264921188354492</DistanceMeters>
                        <Time>2021-12-05T06:00:48.738Z</Time>
                    </Trackpoint>
                    <Trackpoint>
                        <DistanceMeters>35.09450101852417</DistanceMeters>
                        <Time>2021-12-05T06:00:58.898Z</Time>
                    </Trackpoint>
                    <Trackpoint>
                        <DistanceMeters>57.93077611923218</DistanceMeters>
                        <Time>2021-12-05T06:01:30.698Z</Time>
                    </Trackpoint>
                    <Trackpoint>
                        <DistanceMeters>80.44785642623901</DistanceMeters>
                        <Time>2021-12-05T06:01:54.098Z</Time>
                    </Trackpoint>
                    <Trackpoint>
                        <DistanceMeters>118.31572675704956</DistanceMeters>
                        <Time>2021-12-05T06:02:35.458Z</Time>
                    </Trackpoint>
                    <Trackpoint>
                        <DistanceMeters>136.23712873458862</DistanceMeters>
                        <Time>2021-12-05T06:02:53.938Z</Time>
                    </Trackpoint>
                    <Trackpoint>
                        <DistanceMeters>159.7258677482605</DistanceMeters>
                        <Time>2021-12-05T06:03:48.898Z</Time>
                    </Trackpoint>
                    <Trackpoint>
                        <DistanceMeters>174.13198518753052</DistanceMeters>
                        <Time>2021-12-05T06:04:02.178Z</Time>
                    </Trackpoint>
                    <Trackpoint>
                        <DistanceMeters>228.74790239334106</DistanceMeters>
                        <Time>2021-12-05T06:05:00.218Z</Time>
                    </Trackpoint>
                    <Trackpoint>
                        <DistanceMeters>255.45736360549927</DistanceMeters>
                        <Time>2021-12-05T06:05:24.978Z</Time>
                    </Trackpoint>
                </Track>
                <DistanceMeters>255.45736360549927</DistanceMeters>
                <TotalTimeSeconds>339.425099976</TotalTimeSeconds>
                <Calories>30.67759132385254</Calories>
                <Intensity>Active</Intensity>
                <TriggerMethod>Manual</TriggerMethod>
            </Lap>
        </Activity>
        <Activity Sport="Walking">
            <Id>2021-12-05T06:05:00.218Z</Id>
            <Lap StartTime="2021-12-05T06:05:00.218Z">
                <Track>
                    <Trackpoint>
                        <DistanceMeters>0.0</DistanceMeters>
                        <Time>2021-12-05T06:05:00.218Z</Time>
                    </Trackpoint>
                    <Trackpoint>
                        <DistanceMeters>26.709461212158203</DistanceMeters>
                        <Time>2021-12-05T06:05:01.455Z</Time>
                    </Trackpoint>
                    <Trackpoint>
                        <DistanceMeters>26.709461212158203</DistanceMeters>
                        <Time>2021-12-05T06:05:24.978Z</Time>
                    </Trackpoint>
                    <Trackpoint>
                        <DistanceMeters>40.288564682006836</DistanceMeters>
                        <Time>2021-12-05T06:05:37.938Z</Time>
                    </Trackpoint>
                    <Trackpoint>
                        <DistanceMeters>75.64168739318848</DistanceMeters>
                        <Time>2021-12-05T06:06:13.778Z</Time>
                    </Trackpoint>
                </Track>
                <DistanceMeters>75.64168739318848</DistanceMeters>
                <TotalTimeSeconds>73.559996726</TotalTimeSeconds>
                <Calories>7.023375988006592</Calories>
                <Intensity>Active</Intensity>
                <TriggerMethod>Manual</TriggerMethod>
            </Lap>
        </Activity>
    </Activities>
    <Author xsi:type="Application_t">
        <Name>Google Fit</Name>
        <Build>
            <Version>
                <VersionMajor>0</VersionMajor>
                <VersionMinor>0</VersionMinor>
                <BuildMajor>0</BuildMajor>
                <BuildMinor>0</BuildMinor>
            </Version>
        </Build>
        <LangID>en</LangID>
        <PartNumber>000-00000-00</PartNumber>
    </Author>
</TrainingCenterDatabase>
