<?xml version="1.0" encoding="UTF-8"?>
<TrainingCenterDatabase
    xmlns="http://www.garmin.com/xmlschemas/TrainingCenterDatabase/v2"
    xmlns:ns2="http://www.garmin.com/xmlschemas/UserProfile/v2"
    xmlns:ns3="http://www.garmin.com/xmlschemas/ActivityExtension/v2"
    xmlns:ns4="http://www.garmin.com/xmlschemas/ProfileExtension/v1"
    xmlns:ns5="http://www.garmin.com/xmlschemas/ActivityGoals/v1"
    xmlns:xsi="http://www.w3.org/2001/XMLSchema-instance" xsi:schemaLocation="http://www.garmin.com/xmlschemas/TrainingCenterDatabase/v2 http://www.garmin.com/xmlschemas/TrainingCenterDatabasev2.xsd">
    <Activities>
        <Activity Sport="Biking">
            <Id>2021-08-30T13:43:05.648Z</Id>
            <Lap StartTime="2021-08-30T13:43:05.648Z">
                <Track>
                    <Trackpoint>
                        <DistanceMeters>0.0</DistanceMeters>
                        <Time>2021-08-30T13:43:05.648Z</Time>
                    </Trackpoint>
                    <Trackpoint>
                        <DistanceMeters>0.0</DistanceMeters>
                        <Time>2021-08-30T13:53:27.028Z</Time>
                    </Trackpoint>
                </Track>
                <DistanceMeters>0.0</DistanceMeters>
                <TotalTimeSeconds>621.38</TotalTimeSeconds>
                <Calories>65.5901107788086</Calories>
                <Intensity>Active</Intensity>
                <TriggerMethod>Manual</TriggerMethod>
            </Lap>
        </Activity>
        <Activity Sport="Walking">
            <Id>2021-08-30T13:53:27.028Z</Id>
            <Lap StartTime="2021-08-30T13:53:27.028Z">
                <Track>
                    <Trackpoint>
                        <DistanceMeters>0.0</DistanceMeters>
                        <Time>2021-08-30T13:53:27.028Z</Time>
                    </Trackpoint>
                    <Trackpoint>
                        <DistanceMeters>7.829579830169678</DistanceMeters>
                        <Time>2021-08-30T13:53:51.654Z</Time>
                    </Trackpoint>
                    <Trackpoint>
                        <DistanceMeters>80.48843145370483</DistanceMeters>
                        <Time>2021-08-30T13:54:52.734Z</Time>
                    </Trackpoint>
                    <Trackpoint>
                        <DistanceMeters>84.40322136878967</DistanceMeters>
                        <Time>2021-08-30T13:55:28.026Z</Time>
                    </Trackpoint>
                </Track>
                <DistanceMeters>84.40322136878967</DistanceMeters>
                <TotalTimeSeconds>120.998</TotalTimeSeconds>
                <Calories>12.133410453796387</Calories>
                <Intensity>Active</Intensity>
                <TriggerMethod>Manual</TriggerMethod>
            </Lap>
        </Activity>
        <Activity Sport="Walking">
            <Id>2021-08-30T14:05:55.294Z</Id>
            <Lap StartTime="2021-08-30T14:05:55.294Z">
                <Track>
                    <Trackpoint>
                        <DistanceMeters>0.0</DistanceMeters>
                        <Time>2021-08-30T14:05:55.294Z</Time>
                    </Trackpoint>
                    <Trackpoint>
                        <DistanceMeters>20.22641372680664</DistanceMeters>
                        <Time>2021-08-30T14:06:24.840Z</Time>
                    </Trackpoint>
                    <Trackpoint>
                        <DistanceMeters>20.22641372680664</DistanceMeters>
                        <Time>2021-08-30T14:07:47.054Z</Time>
                    </Trackpoint>
                    <Trackpoint>
                        <DistanceMeters>58.06938171386719</DistanceMeters>
                        <Time>2021-08-30T14:09:43.054Z</Time>
                    </Trackpoint>
                    <Trackpoint>
                        <DistanceMeters>60.02677667140961</DistanceMeters>
                        <Time>2021-08-30T14:11:44.494Z</Time>
                    </Trackpoint>
                    <Trackpoint>
                        <DistanceMeters>78.29579675197601</DistanceMeters>
                        <Time>2021-08-30T14:13:46.185Z</Time>
                    </Trackpoint>
                </Track>
                <DistanceMeters>78.29579675197601</DistanceMeters>
                <TotalTimeSeconds>470.890628936</TotalTimeSeconds>
                <Calories>44.2570915222168</Calories>
                <Intensity>Active</Intensity>
                <TriggerMethod>Manual</TriggerMethod>
            </Lap>
        </Activity>
        <Activity Sport="Biking">
            <Id>2021-08-30T14:25:04.023Z</Id>
            <Lap StartTime="2021-08-30T14:25:04.023Z">
                <Track>
                    <Trackpoint>
                        <DistanceMeters>0.0</DistanceMeters>
                        <Time>2021-08-30T14:25:04.023Z</Time>
                    </Trackpoint>
                    <Trackpoint>
                        <DistanceMeters>0.0</DistanceMeters>
                        <Time>2021-08-30T14:34:39.428Z</Time>
                    </Trackpoint>
                </Track>
                <DistanceMeters>0.0</DistanceMeters>
                <TotalTimeSeconds>575.405</TotalTimeSeconds>
                <Calories>60.7371940612793</Calories>
                <Intensity>Active</Intensity>
                <TriggerMethod>Manual</TriggerMethod>
            </Lap>
        </Activity>
    </Activities>
    <Author xsi:type="Application_t">
        <Name>Google Fit</Name>
        <Build>
            <Version>
                <VersionMajor>0</VersionMajor>
                <VersionMinor>0</VersionMinor>
                <BuildMajor>0</BuildMajor>
                <BuildMinor>0</BuildMinor>
            </Version>
        </Build>
        <LangID>en</LangID>
        <PartNumber>000-00000-00</PartNumber>
    </Author>
</TrainingCenterDatabase>
