<?xml version="1.0" encoding="UTF-8"?>
<TrainingCenterDatabase
    xmlns="http://www.garmin.com/xmlschemas/TrainingCenterDatabase/v2"
    xmlns:ns2="http://www.garmin.com/xmlschemas/UserProfile/v2"
    xmlns:ns3="http://www.garmin.com/xmlschemas/ActivityExtension/v2"
    xmlns:ns4="http://www.garmin.com/xmlschemas/ProfileExtension/v1"
    xmlns:ns5="http://www.garmin.com/xmlschemas/ActivityGoals/v1"
    xmlns:xsi="http://www.w3.org/2001/XMLSchema-instance" xsi:schemaLocation="http://www.garmin.com/xmlschemas/TrainingCenterDatabase/v2 http://www.garmin.com/xmlschemas/TrainingCenterDatabasev2.xsd">
    <Activities>
        <Activity Sport="Walking">
            <Id>2021-08-26T09:04:55.108Z</Id>
            <Lap StartTime="2021-08-26T09:04:55.108Z">
                <Track>
                    <Trackpoint>
                        <DistanceMeters>0.0</DistanceMeters>
                        <Time>2021-08-26T09:04:55.108Z</Time>
                    </Trackpoint>
                    <Trackpoint>
                        <DistanceMeters>0.0</DistanceMeters>
                        <Time>2021-08-26T09:14:08.348Z</Time>
                    </Trackpoint>
                    <Trackpoint>
                        <DistanceMeters>19.573949813842773</DistanceMeters>
                        <Time>2021-08-26T09:15:08.348Z</Time>
                    </Trackpoint>
                    <Trackpoint>
                        <DistanceMeters>41.75775909423828</DistanceMeters>
                        <Time>2021-08-26T09:15:35.088Z</Time>
                    </Trackpoint>
                    <Trackpoint>
                        <DistanceMeters>70.46621894836426</DistanceMeters>
                        <Time>2021-08-26T09:16:06.928Z</Time>
                    </Trackpoint>
                    <Trackpoint>
                        <DistanceMeters>94.60742378234863</DistanceMeters>
                        <Time>2021-08-26T09:16:34.848Z</Time>
                    </Trackpoint>
                </Track>
                <DistanceMeters>94.60742378234863</DistanceMeters>
                <TotalTimeSeconds>699.740000017</TotalTimeSeconds>
                <Calories>19.2336483001709</Calories>
                <Intensity>Active</Intensity>
                <TriggerMethod>Manual</TriggerMethod>
            </Lap>
        </Activity>
        <Activity Sport="Walking">
            <Id>2021-08-26T09:16:06.928Z</Id>
            <Lap StartTime="2021-08-26T09:16:06.928Z">
                <Track>
                    <Trackpoint>
                        <DistanceMeters>0.0</DistanceMeters>
                        <Time>2021-08-26T09:16:06.928Z</Time>
                    </Trackpoint>
                    <Trackpoint>
                        <DistanceMeters>24.141204833984375</DistanceMeters>
                        <Time>2021-08-26T09:16:11.633Z</Time>
                    </Trackpoint>
                    <Trackpoint>
                        <DistanceMeters>24.141204833984375</DistanceMeters>
                        <Time>2021-08-26T09:16:34.848Z</Time>
                    </Trackpoint>
                    <Trackpoint>
                        <DistanceMeters>30.013389587402344</DistanceMeters>
                        <Time>2021-08-26T09:16:55.888Z</Time>
                    </Trackpoint>
                    <Trackpoint>
                        <DistanceMeters>54.15459442138672</DistanceMeters>
                        <Time>2021-08-26T09:18:09.888Z</Time>
                    </Trackpoint>
                </Track>
                <DistanceMeters>54.15459442138672</DistanceMeters>
                <TotalTimeSeconds>122.960002196</TotalTimeSeconds>
                <Calories>9.090782165527344</Calories>
                <Intensity>Active</Intensity>
                <TriggerMethod>Manual</TriggerMethod>
            </Lap>
        </Activity>
        <Activity Sport="Walking">
            <Id>2021-08-26T09:29:10.568Z</Id>
            <Lap StartTime="2021-08-26T09:29:10.568Z">
                <Track>
                    <Trackpoint>
                        <DistanceMeters>0.0</DistanceMeters>
                        <Time>2021-08-26T09:29:10.568Z</Time>
                    </Trackpoint>
                    <Trackpoint>
                        <DistanceMeters>31.31831932067871</DistanceMeters>
                        <Time>2021-08-26T09:30:26.268Z</Time>
                    </Trackpoint>
                    <Trackpoint>
                        <DistanceMeters>31.31831932067871</DistanceMeters>
                        <Time>2021-08-26T09:30:46.568Z</Time>
                    </Trackpoint>
                    <Trackpoint>
                        <DistanceMeters>93.32170295715332</DistanceMeters>
                        <Time>2021-08-26T09:31:47.248Z</Time>
                    </Trackpoint>
                    <Trackpoint>
                        <DistanceMeters>133.12206840515137</DistanceMeters>
                        <Time>2021-08-26T09:32:48.448Z</Time>
                    </Trackpoint>
                    <Trackpoint>
                        <DistanceMeters>147.47629833221436</DistanceMeters>
                        <Time>2021-08-26T09:33:27.381Z</Time>
                    </Trackpoint>
                </Track>
                <DistanceMeters>147.47629833221436</DistanceMeters>
                <TotalTimeSeconds>256.812481379</TotalTimeSeconds>
                <Calories>18.161609649658203</Calories>
                <Intensity>Active</Intensity>
                <TriggerMethod>Manual</TriggerMethod>
            </Lap>
        </Activity>
        <Activity Sport="Walking">
            <Id>2021-08-26T09:33:27.381Z</Id>
            <Lap StartTime="2021-08-26T09:33:27.381Z">
                <Track>
                    <Trackpoint>
                        <DistanceMeters>0.0</DistanceMeters>
                        <Time>2021-08-26T09:33:27.381Z</Time>
                    </Trackpoint>
                    <Trackpoint>
                        <DistanceMeters>0.0</DistanceMeters>
                        <Time>2021-08-26T09:44:52.568Z</Time>
                    </Trackpoint>
                    <Trackpoint>
                        <DistanceMeters>43.715152740478516</DistanceMeters>
                        <Time>2021-08-26T09:47:06.568Z</Time>
                    </Trackpoint>
                    <Trackpoint>
                        <DistanceMeters>105.69932556152344</DistanceMeters>
                        <Time>2021-08-26T09:48:24.208Z</Time>
                    </Trackpoint>
                </Track>
                <DistanceMeters>105.69932556152344</DistanceMeters>
                <TotalTimeSeconds>896.827526367</TotalTimeSeconds>
                <Calories>22.781903743743896</Calories>
                <Intensity>Active</Intensity>
                <TriggerMethod>Manual</TriggerMethod>
            </Lap>
        </Activity>
        <Activity Sport="Walking">
            <Id>2021-08-26T09:47:06.568Z</Id>
            <Lap StartTime="2021-08-26T09:47:06.568Z">
                <Track>
                    <Trackpoint>
                        <DistanceMeters>0.0</DistanceMeters>
                        <Time>2021-08-26T09:47:06.568Z</Time>
                    </Trackpoint>
                    <Trackpoint>
                        <DistanceMeters>61.98417282104492</DistanceMeters>
                        <Time>2021-08-26T09:48:02.076Z</Time>
                    </Trackpoint>
                    <Trackpoint>
                        <DistanceMeters>61.98417282104492</DistanceMeters>
                        <Time>2021-08-26T09:48:24.208Z</Time>
                    </Trackpoint>
                    <Trackpoint>
                        <DistanceMeters>65.246497631073</DistanceMeters>
                        <Time>2021-08-26T09:49:02.615Z</Time>
                    </Trackpoint>
                </Track>
                <DistanceMeters>65.246497631073</DistanceMeters>
                <TotalTimeSeconds>116.046474088</TotalTimeSeconds>
                <Calories>6.07071590423584</Calories>
                <Intensity>Active</Intensity>
                <TriggerMethod>Manual</TriggerMethod>
            </Lap>
        </Activity>
    </Activities>
    <Author xsi:type="Application_t">
        <Name>Google Fit</Name>
        <Build>
            <Version>
                <VersionMajor>0</VersionMajor>
                <VersionMinor>0</VersionMinor>
                <BuildMajor>0</BuildMajor>
                <BuildMinor>0</BuildMinor>
            </Version>
        </Build>
        <LangID>en</LangID>
        <PartNumber>000-00000-00</PartNumber>
    </Author>
</TrainingCenterDatabase>
