<?xml version="1.0" encoding="UTF-8"?>
<TrainingCenterDatabase
    xmlns="http://www.garmin.com/xmlschemas/TrainingCenterDatabase/v2"
    xmlns:ns2="http://www.garmin.com/xmlschemas/UserProfile/v2"
    xmlns:ns3="http://www.garmin.com/xmlschemas/ActivityExtension/v2"
    xmlns:ns4="http://www.garmin.com/xmlschemas/ProfileExtension/v1"
    xmlns:ns5="http://www.garmin.com/xmlschemas/ActivityGoals/v1"
    xmlns:xsi="http://www.w3.org/2001/XMLSchema-instance" xsi:schemaLocation="http://www.garmin.com/xmlschemas/TrainingCenterDatabase/v2 http://www.garmin.com/xmlschemas/TrainingCenterDatabasev2.xsd">
    <Activities>
        <Activity Sport="Walking">
            <Id>2021-02-13T04:25:50.194Z</Id>
            <Lap StartTime="2021-02-13T04:25:50.194Z">
                <Track>
                    <Trackpoint>
                        <DistanceMeters>0.0</DistanceMeters>
                        <Time>2021-02-13T04:25:50.194Z</Time>
                    </Trackpoint>
                    <Trackpoint>
                        <DistanceMeters>16.493080139160156</DistanceMeters>
                        <Time>2021-02-13T04:26:10.896Z</Time>
                    </Trackpoint>
                    <Trackpoint>
                        <DistanceMeters>21.99077320098877</DistanceMeters>
                        <Time>2021-02-13T04:26:28.337Z</Time>
                    </Trackpoint>
                </Track>
                <DistanceMeters>21.99077320098877</DistanceMeters>
                <TotalTimeSeconds>38.143321592</TotalTimeSeconds>
                <Calories>3.407552719116211</Calories>
                <Intensity>Active</Intensity>
                <TriggerMethod>Manual</TriggerMethod>
            </Lap>
        </Activity>
        <Activity Sport="Walking">
            <Id>2021-02-13T04:38:07.952Z</Id>
            <Lap StartTime="2021-02-13T04:38:07.952Z">
                <Track>
                    <Trackpoint>
                        <DistanceMeters>0.0</DistanceMeters>
                        <Time>2021-02-13T04:38:07.952Z</Time>
                    </Trackpoint>
                    <Trackpoint>
                        <DistanceMeters>19.606115341186523</DistanceMeters>
                        <Time>2021-02-13T04:39:08.855Z</Time>
                        <Position>
                            <LatitudeDegrees>18.595354080200195</LatitudeDegrees>
                            <LongitudeDegrees>73.80306243896484</LongitudeDegrees>
                        </Position>
                        <AltitudeMeters>490.6600036621094</AltitudeMeters>
                    </Trackpoint>
                    <Trackpoint>
                        <DistanceMeters>111.05810356140137</DistanceMeters>
                        <Time>2021-02-13T04:41:09.898Z</Time>
                        <Position>
                            <LatitudeDegrees>18.594961166381836</LatitudeDegrees>
                            <LongitudeDegrees>73.80229949951172</LongitudeDegrees>
                        </Position>
                        <AltitudeMeters>491.260009765625</AltitudeMeters>
                    </Trackpoint>
                    <Trackpoint>
                        <DistanceMeters>263.59347343444824</DistanceMeters>
                        <Time>2021-02-13T04:43:10.984Z</Time>
                        <Position>
                            <LatitudeDegrees>18.59360694885254</LatitudeDegrees>
                            <LongitudeDegrees>73.80206298828125</LongitudeDegrees>
                        </Position>
                        <AltitudeMeters>492.6600036621094</AltitudeMeters>
                    </Trackpoint>
                    <Trackpoint>
                        <DistanceMeters>379.6443614959717</DistanceMeters>
                        <Time>2021-02-13T04:45:12.052Z</Time>
                        <Position>
                            <LatitudeDegrees>18.592605590820312</LatitudeDegrees>
                            <LongitudeDegrees>73.80175018310547</LongitudeDegrees>
                        </Position>
                        <AltitudeMeters>493.4599914550781</AltitudeMeters>
                    </Trackpoint>
                    <Trackpoint>
                        <DistanceMeters>567.9264507293701</DistanceMeters>
                        <Time>2021-02-13T04:47:13.228Z</Time>
                        <Position>
                            <LatitudeDegrees>18.59296417236328</LatitudeDegrees>
                            <LongitudeDegrees>73.80000305175781</LongitudeDegrees>
                        </Position>
                        <AltitudeMeters>494.6600036621094</AltitudeMeters>
                    </Trackpoint>
                    <Trackpoint>
                        <DistanceMeters>733.533842086792</DistanceMeters>
                        <Time>2021-02-13T04:49:18.722Z</Time>
                        <Position>
                            <LatitudeDegrees>18.593175888061523</LatitudeDegrees>
                            <LongitudeDegrees>73.79844665527344</LongitudeDegrees>
                        </Position>
                        <AltitudeMeters>493.55999755859375</AltitudeMeters>
                    </Trackpoint>
                    <Trackpoint>
                        <DistanceMeters>785.7655429840088</DistanceMeters>
                        <Time>2021-02-13T04:51:19.740Z</Time>
                        <Position>
                            <LatitudeDegrees>18.59331703186035</LatitudeDegrees>
                            <LongitudeDegrees>73.7979736328125</LongitudeDegrees>
                        </Position>
                        <AltitudeMeters>493.05999755859375</AltitudeMeters>
                    </Trackpoint>
                    <Trackpoint>
                        <DistanceMeters>1033.468255996704</DistanceMeters>
                        <Time>2021-02-13T04:53:19.741Z</Time>
                        <Position>
                            <LatitudeDegrees>18.592670440673828</LatitudeDegrees>
                            <LongitudeDegrees>73.79572296142578</LongitudeDegrees>
                        </Position>
                        <AltitudeMeters>494.05999755859375</AltitudeMeters>
                    </Trackpoint>
                    <Trackpoint>
                        <DistanceMeters>1097.0278301239014</DistanceMeters>
                        <Time>2021-02-13T04:54:20.442Z</Time>
                        <Position>
                            <LatitudeDegrees>18.5921688079834</LatitudeDegrees>
                            <LongitudeDegrees>73.79601287841797</LongitudeDegrees>
                        </Position>
                        <AltitudeMeters>487.1600036621094</AltitudeMeters>
                    </Trackpoint>
                    <Trackpoint>
                        <DistanceMeters>1117.668312072754</DistanceMeters>
                        <Time>2021-02-13T04:54:45.418Z</Time>
                        <Position>
                            <LatitudeDegrees>18.59200096130371</LatitudeDegrees>
                            <LongitudeDegrees>73.79609680175781</LongitudeDegrees>
                        </Position>
                        <AltitudeMeters>493.59844970703125</AltitudeMeters>
                    </Trackpoint>
                    <Trackpoint>
                        <DistanceMeters>1172.715560913086</DistanceMeters>
                        <Time>2021-02-13T04:55:36.751Z</Time>
                        <Position>
                            <LatitudeDegrees>18.59165382385254</LatitudeDegrees>
                            <LongitudeDegrees>73.79620361328125</LongitudeDegrees>
                        </Position>
                        <AltitudeMeters>494.05999755859375</AltitudeMeters>
                    </Trackpoint>
                    <Trackpoint>
                        <DistanceMeters>1172.715560913086</DistanceMeters>
                        <Time>2021-02-13T04:55:44.429Z</Time>
                        <Position>
                            <LatitudeDegrees>18.591541290283203</LatitudeDegrees>
                            <LongitudeDegrees>73.79612731933594</LongitudeDegrees>
                        </Position>
                        <AltitudeMeters>494.3289794921875</AltitudeMeters>
                    </Trackpoint>
                    <Trackpoint>
                        <DistanceMeters>1194.4939098358154</DistanceMeters>
                        <Time>2021-02-13T04:56:08.127Z</Time>
                        <Position>
                            <LatitudeDegrees>18.59148597717285</LatitudeDegrees>
                            <LongitudeDegrees>73.79592895507812</LongitudeDegrees>
                        </Position>
                        <AltitudeMeters>494.87060546875</AltitudeMeters>
                    </Trackpoint>
                    <Trackpoint>
                        <DistanceMeters>1194.4939098358154</DistanceMeters>
                        <Time>2021-02-13T04:56:08.149Z</Time>
                    </Trackpoint>
                </Track>
                <DistanceMeters>1194.4939098358154</DistanceMeters>
                <TotalTimeSeconds>1080.197</TotalTimeSeconds>
                <Calories>101.47850036621094</Calories>
                <Intensity>Active</Intensity>
                <TriggerMethod>Manual</TriggerMethod>
            </Lap>
        </Activity>
    </Activities>
    <Author xsi:type="Application_t">
        <Name>Google Fit</Name>
        <Build>
            <Version>
                <VersionMajor>0</VersionMajor>
                <VersionMinor>0</VersionMinor>
                <BuildMajor>0</BuildMajor>
                <BuildMinor>0</BuildMinor>
            </Version>
        </Build>
        <LangID>en</LangID>
        <PartNumber>000-00000-00</PartNumber>
    </Author>
</TrainingCenterDatabase>
