<?xml version="1.0" encoding="UTF-8"?>
<TrainingCenterDatabase
    xmlns="http://www.garmin.com/xmlschemas/TrainingCenterDatabase/v2"
    xmlns:ns2="http://www.garmin.com/xmlschemas/UserProfile/v2"
    xmlns:ns3="http://www.garmin.com/xmlschemas/ActivityExtension/v2"
    xmlns:ns4="http://www.garmin.com/xmlschemas/ProfileExtension/v1"
    xmlns:ns5="http://www.garmin.com/xmlschemas/ActivityGoals/v1"
    xmlns:xsi="http://www.w3.org/2001/XMLSchema-instance" xsi:schemaLocation="http://www.garmin.com/xmlschemas/TrainingCenterDatabase/v2 http://www.garmin.com/xmlschemas/TrainingCenterDatabasev2.xsd">
    <Activities>
        <Activity Sport="Walking">
            <Id>2021-06-12T12:43:28.131Z</Id>
            <Lap StartTime="2021-06-12T12:43:28.131Z">
                <Track>
                    <Trackpoint>
                        <DistanceMeters>0.0</DistanceMeters>
                        <Time>2021-06-12T12:43:28.131Z</Time>
                    </Trackpoint>
                    <Trackpoint>
                        <DistanceMeters>63.392250061035156</DistanceMeters>
                        <Time>2021-06-12T12:45:24.790Z</Time>
                    </Trackpoint>
                    <Trackpoint>
                        <DistanceMeters>63.392250061035156</DistanceMeters>
                        <Time>2021-06-12T12:45:32.331Z</Time>
                    </Trackpoint>
                    <Trackpoint>
                        <DistanceMeters>138.66339111328125</DistanceMeters>
                        <Time>2021-06-12T12:46:32.811Z</Time>
                    </Trackpoint>
                    <Trackpoint>
                        <DistanceMeters>219.4710693359375</DistanceMeters>
                        <Time>2021-06-12T12:47:34.371Z</Time>
                    </Trackpoint>
                    <Trackpoint>
                        <DistanceMeters>294.16024017333984</DistanceMeters>
                        <Time>2021-06-12T12:48:34.091Z</Time>
                    </Trackpoint>
                    <Trackpoint>
                        <DistanceMeters>373.23253631591797</DistanceMeters>
                        <Time>2021-06-12T12:49:35.091Z</Time>
                    </Trackpoint>
                    <Trackpoint>
                        <DistanceMeters>444.58909606933594</DistanceMeters>
                        <Time>2021-06-12T12:50:33.531Z</Time>
                    </Trackpoint>
                    <Trackpoint>
                        <DistanceMeters>470.308069229126</DistanceMeters>
                        <Time>2021-06-12T12:50:54.371Z</Time>
                    </Trackpoint>
                    <Trackpoint>
                        <DistanceMeters>548.683671951294</DistanceMeters>
                        <Time>2021-06-12T12:51:54.811Z</Time>
                    </Trackpoint>
                    <Trackpoint>
                        <DistanceMeters>625.7427082061768</DistanceMeters>
                        <Time>2021-06-12T12:52:55.731Z</Time>
                    </Trackpoint>
                    <Trackpoint>
                        <DistanceMeters>663.6502475738525</DistanceMeters>
                        <Time>2021-06-12T12:53:27.291Z</Time>
                    </Trackpoint>
                    <Trackpoint>
                        <DistanceMeters>688.7265338897705</DistanceMeters>
                        <Time>2021-06-12T12:53:49.331Z</Time>
                    </Trackpoint>
                    <Trackpoint>
                        <DistanceMeters>753.8911533355713</DistanceMeters>
                        <Time>2021-06-12T12:54:40.811Z</Time>
                    </Trackpoint>
                    <Trackpoint>
                        <DistanceMeters>779.3374500274658</DistanceMeters>
                        <Time>2021-06-12T12:54:58.731Z</Time>
                    </Trackpoint>
                    <Trackpoint>
                        <DistanceMeters>848.3853168487549</DistanceMeters>
                        <Time>2021-06-12T12:55:59.651Z</Time>
                    </Trackpoint>
                    <Trackpoint>
                        <DistanceMeters>882.1966571807861</DistanceMeters>
                        <Time>2021-06-12T12:56:24.251Z</Time>
                    </Trackpoint>
                    <Trackpoint>
                        <DistanceMeters>915.7244625091553</DistanceMeters>
                        <Time>2021-06-12T12:56:49.291Z</Time>
                    </Trackpoint>
                    <Trackpoint>
                        <DistanceMeters>927.6189270019531</DistanceMeters>
                        <Time>2021-06-12T12:56:58.731Z</Time>
                    </Trackpoint>
                    <Trackpoint>
                        <DistanceMeters>984.5151786804199</DistanceMeters>
                        <Time>2021-06-12T12:57:43.331Z</Time>
                    </Trackpoint>
                    <Trackpoint>
                        <DistanceMeters>997.2497386932373</DistanceMeters>
                        <Time>2021-06-12T12:57:53.091Z</Time>
                    </Trackpoint>
                    <Trackpoint>
                        <DistanceMeters>1043.7893810272217</DistanceMeters>
                        <Time>2021-06-12T12:58:29.131Z</Time>
                    </Trackpoint>
                    <Trackpoint>
                        <DistanceMeters>1070.900203704834</DistanceMeters>
                        <Time>2021-06-12T12:58:49.371Z</Time>
                    </Trackpoint>
                    <Trackpoint>
                        <DistanceMeters>1124.146957397461</DistanceMeters>
                        <Time>2021-06-12T12:59:31.451Z</Time>
                    </Trackpoint>
                    <Trackpoint>
                        <DistanceMeters>1162.9985466003418</DistanceMeters>
                        <Time>2021-06-12T13:00:01.371Z</Time>
                    </Trackpoint>
                    <Trackpoint>
                        <DistanceMeters>1195.5315628051758</DistanceMeters>
                        <Time>2021-06-12T13:00:26.331Z</Time>
                    </Trackpoint>
                    <Trackpoint>
                        <DistanceMeters>1271.7928314208984</DistanceMeters>
                        <Time>2021-06-12T13:01:25.131Z</Time>
                    </Trackpoint>
                    <Trackpoint>
                        <DistanceMeters>1295.9837017059326</DistanceMeters>
                        <Time>2021-06-12T13:01:45.091Z</Time>
                    </Trackpoint>
                    <Trackpoint>
                        <DistanceMeters>1342.408124923706</DistanceMeters>
                        <Time>2021-06-12T13:02:23.091Z</Time>
                    </Trackpoint>
                    <Trackpoint>
                        <DistanceMeters>1371.0524005889893</DistanceMeters>
                        <Time>2021-06-12T13:02:45.931Z</Time>
                    </Trackpoint>
                    <Trackpoint>
                        <DistanceMeters>1407.2940616607666</DistanceMeters>
                        <Time>2021-06-12T13:03:15.051Z</Time>
                    </Trackpoint>
                    <Trackpoint>
                        <DistanceMeters>1460.470682144165</DistanceMeters>
                        <Time>2021-06-12T13:03:57.251Z</Time>
                    </Trackpoint>
                    <Trackpoint>
                        <DistanceMeters>1483.2021255493164</DistanceMeters>
                        <Time>2021-06-12T13:04:37.277Z</Time>
                    </Trackpoint>
                </Track>
                <DistanceMeters>1483.2021255493164</DistanceMeters>
                <TotalTimeSeconds>1269.145189609</TotalTimeSeconds>
                <Calories>88.8055191040039</Calories>
                <Intensity>Active</Intensity>
                <TriggerMethod>Manual</TriggerMethod>
            </Lap>
        </Activity>
    </Activities>
    <Author xsi:type="Application_t">
        <Name>Google Fit</Name>
        <Build>
            <Version>
                <VersionMajor>0</VersionMajor>
                <VersionMinor>0</VersionMinor>
                <BuildMajor>0</BuildMajor>
                <BuildMinor>0</BuildMinor>
            </Version>
        </Build>
        <LangID>en</LangID>
        <PartNumber>000-00000-00</PartNumber>
    </Author>
</TrainingCenterDatabase>
