<?xml version="1.0" encoding="UTF-8"?>
<TrainingCenterDatabase
    xmlns="http://www.garmin.com/xmlschemas/TrainingCenterDatabase/v2"
    xmlns:ns2="http://www.garmin.com/xmlschemas/UserProfile/v2"
    xmlns:ns3="http://www.garmin.com/xmlschemas/ActivityExtension/v2"
    xmlns:ns4="http://www.garmin.com/xmlschemas/ProfileExtension/v1"
    xmlns:ns5="http://www.garmin.com/xmlschemas/ActivityGoals/v1"
    xmlns:xsi="http://www.w3.org/2001/XMLSchema-instance" xsi:schemaLocation="http://www.garmin.com/xmlschemas/TrainingCenterDatabase/v2 http://www.garmin.com/xmlschemas/TrainingCenterDatabasev2.xsd">
    <Activities>
        <Activity Sport="Walking">
            <Id>2021-02-07T13:10:05.745Z</Id>
            <Lap StartTime="2021-02-07T13:10:05.745Z">
                <Track>
                    <Trackpoint>
                        <DistanceMeters>0.0</DistanceMeters>
                        <Time>2021-02-07T13:10:05.745Z</Time>
                    </Trackpoint>
                    <Trackpoint>
                        <DistanceMeters>0.0</DistanceMeters>
                        <Time>2021-02-07T13:25:39.643Z</Time>
                    </Trackpoint>
                    <Trackpoint>
                        <DistanceMeters>13.057021141052246</DistanceMeters>
                        <Time>2021-02-07T13:26:16.028Z</Time>
                    </Trackpoint>
                    <Trackpoint>
                        <DistanceMeters>13.646121203899384</DistanceMeters>
                        <Time>2021-02-07T13:26:17.232Z</Time>
                        <Position>
                            <LatitudeDegrees>18.597200393676758</LatitudeDegrees>
                            <LongitudeDegrees>73.91014099121094</LongitudeDegrees>
                        </Position>
                        <AltitudeMeters>521.9599609375</AltitudeMeters>
                    </Trackpoint>
                    <Trackpoint>
                        <DistanceMeters>87.96506041288376</DistanceMeters>
                        <Time>2021-02-07T13:27:17.367Z</Time>
                    </Trackpoint>
                </Track>
                <DistanceMeters>87.96506041288376</DistanceMeters>
                <TotalTimeSeconds>1031.622</TotalTimeSeconds>
                <Calories>25.971042156219482</Calories>
                <Intensity>Active</Intensity>
                <TriggerMethod>Manual</TriggerMethod>
            </Lap>
        </Activity>
        <Activity Sport="Walking">
            <Id>2021-02-07T13:27:17.367Z</Id>
            <Lap StartTime="2021-02-07T13:27:17.367Z">
                <Track>
                    <Trackpoint>
                        <DistanceMeters>0.0</DistanceMeters>
                        <Time>2021-02-07T13:27:17.367Z</Time>
                    </Trackpoint>
                    <Trackpoint>
                        <DistanceMeters>75.20753479003906</DistanceMeters>
                        <Time>2021-02-07T13:28:18.221Z</Time>
                        <Position>
                            <LatitudeDegrees>18.59734535217285</LatitudeDegrees>
                            <LongitudeDegrees>73.90872955322266</LongitudeDegrees>
                        </Position>
                        <AltitudeMeters>519.6599731445312</AltitudeMeters>
                    </Trackpoint>
                    <Trackpoint>
                        <DistanceMeters>155.63863372802734</DistanceMeters>
                        <Time>2021-02-07T13:30:19.206Z</Time>
                        <Position>
                            <LatitudeDegrees>18.598068237304688</LatitudeDegrees>
                            <LongitudeDegrees>73.90876770019531</LongitudeDegrees>
                        </Position>
                        <AltitudeMeters>517.3599853515625</AltitudeMeters>
                    </Trackpoint>
                    <Trackpoint>
                        <DistanceMeters>323.91724395751953</DistanceMeters>
                        <Time>2021-02-07T13:32:20.491Z</Time>
                        <Position>
                            <LatitudeDegrees>18.599576950073242</LatitudeDegrees>
                            <LongitudeDegrees>73.90890502929688</LongitudeDegrees>
                        </Position>
                        <AltitudeMeters>520.1599731445312</AltitudeMeters>
                    </Trackpoint>
                    <Trackpoint>
                        <DistanceMeters>443.1512680053711</DistanceMeters>
                        <Time>2021-02-07T13:34:21.528Z</Time>
                        <Position>
                            <LatitudeDegrees>18.600236892700195</LatitudeDegrees>
                            <LongitudeDegrees>73.90979766845703</LongitudeDegrees>
                        </Position>
                        <AltitudeMeters>520.4599609375</AltitudeMeters>
                    </Trackpoint>
                    <Trackpoint>
                        <DistanceMeters>445.75735664367676</DistanceMeters>
                        <Time>2021-02-07T13:34:23.319Z</Time>
                    </Trackpoint>
                    <Trackpoint>
                        <DistanceMeters>519.9762134552002</DistanceMeters>
                        <Time>2021-02-07T13:35:43.273Z</Time>
                    </Trackpoint>
                </Track>
                <DistanceMeters>519.9762134552002</DistanceMeters>
                <TotalTimeSeconds>505.9066948</TotalTimeSeconds>
                <Calories>45.6151008605957</Calories>
                <Intensity>Active</Intensity>
                <TriggerMethod>Manual</TriggerMethod>
            </Lap>
        </Activity>
        <Activity Sport="Walking">
            <Id>2021-02-07T13:34:23.319Z</Id>
            <Lap StartTime="2021-02-07T13:34:23.319Z">
                <Track>
                    <Trackpoint>
                        <DistanceMeters>0.0</DistanceMeters>
                        <Time>2021-02-07T13:34:23.319Z</Time>
                    </Trackpoint>
                    <Trackpoint>
                        <DistanceMeters>74.21885681152344</DistanceMeters>
                        <Time>2021-02-07T13:35:22.921Z</Time>
                    </Trackpoint>
                    <Trackpoint>
                        <DistanceMeters>74.21885681152344</DistanceMeters>
                        <Time>2021-02-07T13:35:43.273Z</Time>
                    </Trackpoint>
                    <Trackpoint>
                        <DistanceMeters>109.18482208251953</DistanceMeters>
                        <Time>2021-02-07T13:36:09.130Z</Time>
                    </Trackpoint>
                </Track>
                <DistanceMeters>109.18482208251953</DistanceMeters>
                <TotalTimeSeconds>105.81059693</TotalTimeSeconds>
                <Calories>4.341106414794922</Calories>
                <Intensity>Active</Intensity>
                <TriggerMethod>Manual</TriggerMethod>
            </Lap>
        </Activity>
    </Activities>
    <Author xsi:type="Application_t">
        <Name>Google Fit</Name>
        <Build>
            <Version>
                <VersionMajor>0</VersionMajor>
                <VersionMinor>0</VersionMinor>
                <BuildMajor>0</BuildMajor>
                <BuildMinor>0</BuildMinor>
            </Version>
        </Build>
        <LangID>en</LangID>
        <PartNumber>000-00000-00</PartNumber>
    </Author>
</TrainingCenterDatabase>
