<?xml version="1.0" encoding="UTF-8"?>
<TrainingCenterDatabase
    xmlns="http://www.garmin.com/xmlschemas/TrainingCenterDatabase/v2"
    xmlns:ns2="http://www.garmin.com/xmlschemas/UserProfile/v2"
    xmlns:ns3="http://www.garmin.com/xmlschemas/ActivityExtension/v2"
    xmlns:ns4="http://www.garmin.com/xmlschemas/ProfileExtension/v1"
    xmlns:ns5="http://www.garmin.com/xmlschemas/ActivityGoals/v1"
    xmlns:xsi="http://www.w3.org/2001/XMLSchema-instance" xsi:schemaLocation="http://www.garmin.com/xmlschemas/TrainingCenterDatabase/v2 http://www.garmin.com/xmlschemas/TrainingCenterDatabasev2.xsd">
    <Activities>
        <Activity Sport="Walking">
            <Id>2021-09-19T04:21:00.000Z</Id>
            <Lap StartTime="2021-09-19T04:21:00.000Z">
                <Track>
                    <Trackpoint>
                        <DistanceMeters>0.0</DistanceMeters>
                        <Time>2021-09-19T04:21:00.000Z</Time>
                    </Trackpoint>
                    <Trackpoint>
                        <DistanceMeters>39.0</DistanceMeters>
                        <Time>2021-09-19T04:21:51.823Z</Time>
                    </Trackpoint>
                    <Trackpoint>
                        <DistanceMeters>39.0</DistanceMeters>
                        <Time>2021-09-19T04:22:00.000Z</Time>
                    </Trackpoint>
                    <Trackpoint>
                        <DistanceMeters>63.0</DistanceMeters>
                        <Time>2021-09-19T04:23:00.000Z</Time>
                    </Trackpoint>
                    <Trackpoint>
                        <DistanceMeters>113.0</DistanceMeters>
                        <Time>2021-09-19T04:24:00.000Z</Time>
                    </Trackpoint>
                    <Trackpoint>
                        <DistanceMeters>171.0</DistanceMeters>
                        <Time>2021-09-19T04:27:00.000Z</Time>
                    </Trackpoint>
                    <Trackpoint>
                        <DistanceMeters>215.0</DistanceMeters>
                        <Time>2021-09-19T04:28:00.000Z</Time>
                    </Trackpoint>
                    <Trackpoint>
                        <DistanceMeters>277.0</DistanceMeters>
                        <Time>2021-09-19T04:29:37.791Z</Time>
                    </Trackpoint>
                </Track>
                <DistanceMeters>277.0</DistanceMeters>
                <TotalTimeSeconds>517.791</TotalTimeSeconds>
                <Calories>46.726234436035156</Calories>
                <Intensity>Active</Intensity>
                <TriggerMethod>Manual</TriggerMethod>
            </Lap>
        </Activity>
        <Activity Sport="Walking">
            <Id>2021-09-19T04:29:37.791Z</Id>
            <Lap StartTime="2021-09-19T04:29:37.791Z">
                <Track>
                    <Trackpoint>
                        <DistanceMeters>0.0</DistanceMeters>
                        <Time>2021-09-19T04:29:37.791Z</Time>
                    </Trackpoint>
                    <Trackpoint>
                        <DistanceMeters>0.0</DistanceMeters>
                        <Time>2021-09-19T04:30:00.000Z</Time>
                    </Trackpoint>
                    <Trackpoint>
                        <DistanceMeters>38.0</DistanceMeters>
                        <Time>2021-09-19T04:30:33.034Z</Time>
                    </Trackpoint>
                    <Trackpoint>
                        <DistanceMeters>38.0</DistanceMeters>
                        <Time>2021-09-19T04:31:00.000Z</Time>
                    </Trackpoint>
                    <Trackpoint>
                        <DistanceMeters>114.0</DistanceMeters>
                        <Time>2021-09-19T04:32:00.000Z</Time>
                    </Trackpoint>
                </Track>
                <DistanceMeters>114.0</DistanceMeters>
                <TotalTimeSeconds>142.209</TotalTimeSeconds>
                <Calories>7.7689372301101685</Calories>
                <Intensity>Active</Intensity>
                <TriggerMethod>Manual</TriggerMethod>
            </Lap>
        </Activity>
        <Activity Sport="Walking">
            <Id>2021-09-19T04:31:00.000Z</Id>
            <Lap StartTime="2021-09-19T04:31:00.000Z">
                <Track>
                    <Trackpoint>
                        <DistanceMeters>0.0</DistanceMeters>
                        <Time>2021-09-19T04:31:00.000Z</Time>
                    </Trackpoint>
                    <Trackpoint>
                        <DistanceMeters>76.0</DistanceMeters>
                        <Time>2021-09-19T04:31:38.931Z</Time>
                    </Trackpoint>
                    <Trackpoint>
                        <DistanceMeters>76.0</DistanceMeters>
                        <Time>2021-09-19T04:32:00.000Z</Time>
                    </Trackpoint>
                    <Trackpoint>
                        <DistanceMeters>138.0</DistanceMeters>
                        <Time>2021-09-19T04:33:00.000Z</Time>
                    </Trackpoint>
                    <Trackpoint>
                        <DistanceMeters>171.0</DistanceMeters>
                        <Time>2021-09-19T04:34:00.000Z</Time>
                    </Trackpoint>
                    <Trackpoint>
                        <DistanceMeters>217.0</DistanceMeters>
                        <Time>2021-09-19T04:35:00.000Z</Time>
                    </Trackpoint>
                    <Trackpoint>
                        <DistanceMeters>239.0</DistanceMeters>
                        <Time>2021-09-19T04:36:00.000Z</Time>
                    </Trackpoint>
                    <Trackpoint>
                        <DistanceMeters>289.0</DistanceMeters>
                        <Time>2021-09-19T04:37:00.000Z</Time>
                    </Trackpoint>
                    <Trackpoint>
                        <DistanceMeters>331.0</DistanceMeters>
                        <Time>2021-09-19T04:38:00.000Z</Time>
                    </Trackpoint>
                    <Trackpoint>
                        <DistanceMeters>360.0</DistanceMeters>
                        <Time>2021-09-19T04:39:00.000Z</Time>
                    </Trackpoint>
                    <Trackpoint>
                        <DistanceMeters>403.0</DistanceMeters>
                        <Time>2021-09-19T04:40:00.000Z</Time>
                    </Trackpoint>
                </Track>
                <DistanceMeters>403.0</DistanceMeters>
                <TotalTimeSeconds>540.0</TotalTimeSeconds>
                <Calories>47.29500961303711</Calories>
                <Intensity>Active</Intensity>
                <TriggerMethod>Manual</TriggerMethod>
            </Lap>
        </Activity>
        <Activity Sport="Walking">
            <Id>2021-09-19T04:43:00.000Z</Id>
            <Lap StartTime="2021-09-19T04:43:00.000Z">
                <Track>
                    <Trackpoint>
                        <DistanceMeters>0.0</DistanceMeters>
                        <Time>2021-09-19T04:43:00.000Z</Time>
                    </Trackpoint>
                    <Trackpoint>
                        <DistanceMeters>11.0</DistanceMeters>
                        <Time>2021-09-19T04:43:42.095Z</Time>
                    </Trackpoint>
                    <Trackpoint>
                        <DistanceMeters>11.0</DistanceMeters>
                        <Time>2021-09-19T04:44:00.000Z</Time>
                    </Trackpoint>
                    <Trackpoint>
                        <DistanceMeters>35.0</DistanceMeters>
                        <Time>2021-09-19T04:45:00.000Z</Time>
                    </Trackpoint>
                    <Trackpoint>
                        <DistanceMeters>71.0</DistanceMeters>
                        <Time>2021-09-19T04:46:00.000Z</Time>
                    </Trackpoint>
                    <Trackpoint>
                        <DistanceMeters>74.0</DistanceMeters>
                        <Time>2021-09-19T04:47:00.000Z</Time>
                    </Trackpoint>
                </Track>
                <DistanceMeters>74.0</DistanceMeters>
                <TotalTimeSeconds>240.0</TotalTimeSeconds>
                <Calories>18.279232025146484</Calories>
                <Intensity>Active</Intensity>
                <TriggerMethod>Manual</TriggerMethod>
            </Lap>
        </Activity>
        <Activity Sport="Walking">
            <Id>2021-09-19T04:52:00.000Z</Id>
            <Lap StartTime="2021-09-19T04:52:00.000Z">
                <Track>
                    <Trackpoint>
                        <DistanceMeters>0.0</DistanceMeters>
                        <Time>2021-09-19T04:52:00.000Z</Time>
                    </Trackpoint>
                    <Trackpoint>
                        <DistanceMeters>19.0</DistanceMeters>
                        <Time>2021-09-19T04:52:15.960Z</Time>
                    </Trackpoint>
                    <Trackpoint>
                        <DistanceMeters>19.0</DistanceMeters>
                        <Time>2021-09-19T04:53:00.000Z</Time>
                    </Trackpoint>
                    <Trackpoint>
                        <DistanceMeters>60.0</DistanceMeters>
                        <Time>2021-09-19T04:54:00.000Z</Time>
                    </Trackpoint>
                    <Trackpoint>
                        <DistanceMeters>90.0</DistanceMeters>
                        <Time>2021-09-19T04:55:00.000Z</Time>
                    </Trackpoint>
                </Track>
                <DistanceMeters>90.0</DistanceMeters>
                <TotalTimeSeconds>180.0</TotalTimeSeconds>
                <Calories>14.130742073059082</Calories>
                <Intensity>Active</Intensity>
                <TriggerMethod>Manual</TriggerMethod>
            </Lap>
        </Activity>
    </Activities>
    <Author xsi:type="Application_t">
        <Name>Google Fit</Name>
        <Build>
            <Version>
                <VersionMajor>0</VersionMajor>
                <VersionMinor>0</VersionMinor>
                <BuildMajor>0</BuildMajor>
                <BuildMinor>0</BuildMinor>
            </Version>
        </Build>
        <LangID>en</LangID>
        <PartNumber>000-00000-00</PartNumber>
    </Author>
</TrainingCenterDatabase>
