<?xml version="1.0" encoding="UTF-8"?>
<TrainingCenterDatabase
    xmlns="http://www.garmin.com/xmlschemas/TrainingCenterDatabase/v2"
    xmlns:ns2="http://www.garmin.com/xmlschemas/UserProfile/v2"
    xmlns:ns3="http://www.garmin.com/xmlschemas/ActivityExtension/v2"
    xmlns:ns4="http://www.garmin.com/xmlschemas/ProfileExtension/v1"
    xmlns:ns5="http://www.garmin.com/xmlschemas/ActivityGoals/v1"
    xmlns:xsi="http://www.w3.org/2001/XMLSchema-instance" xsi:schemaLocation="http://www.garmin.com/xmlschemas/TrainingCenterDatabase/v2 http://www.garmin.com/xmlschemas/TrainingCenterDatabasev2.xsd">
    <Activities>
        <Activity Sport="Walking">
            <Id>2021-11-08T09:34:20.863Z</Id>
            <Lap StartTime="2021-11-08T09:34:20.863Z">
                <Track>
                    <Trackpoint>
                        <DistanceMeters>0.0</DistanceMeters>
                        <Time>2021-11-08T09:34:20.863Z</Time>
                    </Trackpoint>
                    <Trackpoint>
                        <DistanceMeters>56.76445388793945</DistanceMeters>
                        <Time>2021-11-08T09:36:33.201Z</Time>
                    </Trackpoint>
                    <Trackpoint>
                        <DistanceMeters>56.76445388793945</DistanceMeters>
                        <Time>2021-11-08T09:37:14.863Z</Time>
                    </Trackpoint>
                    <Trackpoint>
                        <DistanceMeters>95.14362716674805</DistanceMeters>
                        <Time>2021-11-08T09:37:52.543Z</Time>
                    </Trackpoint>
                    <Trackpoint>
                        <DistanceMeters>145.30010986328125</DistanceMeters>
                        <Time>2021-11-08T09:38:45.303Z</Time>
                    </Trackpoint>
                    <Trackpoint>
                        <DistanceMeters>176.61842918395996</DistanceMeters>
                        <Time>2021-11-08T09:39:22.383Z</Time>
                    </Trackpoint>
                    <Trackpoint>
                        <DistanceMeters>204.71620559692383</DistanceMeters>
                        <Time>2021-11-08T09:39:50.583Z</Time>
                    </Trackpoint>
                    <Trackpoint>
                        <DistanceMeters>222.98522567749023</DistanceMeters>
                        <Time>2021-11-08T09:40:11.423Z</Time>
                    </Trackpoint>
                    <Trackpoint>
                        <DistanceMeters>242.559175491333</DistanceMeters>
                        <Time>2021-11-08T09:40:55.743Z</Time>
                    </Trackpoint>
                    <Trackpoint>
                        <DistanceMeters>268.6577739715576</DistanceMeters>
                        <Time>2021-11-08T09:41:28.103Z</Time>
                    </Trackpoint>
                    <Trackpoint>
                        <DistanceMeters>280.40214347839355</DistanceMeters>
                        <Time>2021-11-08T09:41:45.843Z</Time>
                    </Trackpoint>
                    <Trackpoint>
                        <DistanceMeters>288.8841886520386</DistanceMeters>
                        <Time>2021-11-08T09:42:10.423Z</Time>
                    </Trackpoint>
                    <Trackpoint>
                        <DistanceMeters>301.9334878921509</DistanceMeters>
                        <Time>2021-11-08T09:42:48.123Z</Time>
                    </Trackpoint>
                    <Trackpoint>
                        <DistanceMeters>318.8975782394409</DistanceMeters>
                        <Time>2021-11-08T09:43:48.123Z</Time>
                    </Trackpoint>
                    <Trackpoint>
                        <DistanceMeters>343.69124698638916</DistanceMeters>
                        <Time>2021-11-08T09:44:24.363Z</Time>
                    </Trackpoint>
                    <Trackpoint>
                        <DistanceMeters>357.39301204681396</DistanceMeters>
                        <Time>2021-11-08T09:44:40.663Z</Time>
                    </Trackpoint>
                    <Trackpoint>
                        <DistanceMeters>388.0588655471802</DistanceMeters>
                        <Time>2021-11-08T09:45:58.583Z</Time>
                    </Trackpoint>
                    <Trackpoint>
                        <DistanceMeters>414.1574640274048</DistanceMeters>
                        <Time>2021-11-08T09:46:46.403Z</Time>
                    </Trackpoint>
                    <Trackpoint>
                        <DistanceMeters>433.41491985321045</DistanceMeters>
                        <Time>2021-11-08T09:47:02.023Z</Time>
                    </Trackpoint>
                    <Trackpoint>
                        <DistanceMeters>447.11668491363525</DistanceMeters>
                        <Time>2021-11-08T09:48:15.723Z</Time>
                    </Trackpoint>
                </Track>
                <DistanceMeters>447.11668491363525</DistanceMeters>
                <TotalTimeSeconds>834.859755235</TotalTimeSeconds>
                <Calories>68.22268676757812</Calories>
                <Intensity>Active</Intensity>
                <TriggerMethod>Manual</TriggerMethod>
            </Lap>
        </Activity>
    </Activities>
    <Author xsi:type="Application_t">
        <Name>Google Fit</Name>
        <Build>
            <Version>
                <VersionMajor>0</VersionMajor>
                <VersionMinor>0</VersionMinor>
                <BuildMajor>0</BuildMajor>
                <BuildMinor>0</BuildMinor>
            </Version>
        </Build>
        <LangID>en</LangID>
        <PartNumber>000-00000-00</PartNumber>
    </Author>
</TrainingCenterDatabase>
