<?xml version="1.0" encoding="UTF-8"?>
<TrainingCenterDatabase
    xmlns="http://www.garmin.com/xmlschemas/TrainingCenterDatabase/v2"
    xmlns:ns2="http://www.garmin.com/xmlschemas/UserProfile/v2"
    xmlns:ns3="http://www.garmin.com/xmlschemas/ActivityExtension/v2"
    xmlns:ns4="http://www.garmin.com/xmlschemas/ProfileExtension/v1"
    xmlns:ns5="http://www.garmin.com/xmlschemas/ActivityGoals/v1"
    xmlns:xsi="http://www.w3.org/2001/XMLSchema-instance" xsi:schemaLocation="http://www.garmin.com/xmlschemas/TrainingCenterDatabase/v2 http://www.garmin.com/xmlschemas/TrainingCenterDatabasev2.xsd">
    <Activities>
        <Activity Sport="Walking">
            <Id>2021-12-12T14:49:10.801Z</Id>
            <Lap StartTime="2021-12-12T14:49:10.801Z">
                <Track>
                    <Trackpoint>
                        <DistanceMeters>0.0</DistanceMeters>
                        <Time>2021-12-12T14:49:10.801Z</Time>
                    </Trackpoint>
                    <Trackpoint>
                        <DistanceMeters>9.134510040283203</DistanceMeters>
                        <Time>2021-12-12T14:49:38.043Z</Time>
                    </Trackpoint>
                    <Trackpoint>
                        <DistanceMeters>36.53804016113281</DistanceMeters>
                        <Time>2021-12-12T14:49:41.417Z</Time>
                        <Position>
                            <LatitudeDegrees>19.8499813079834</LatitudeDegrees>
                            <LongitudeDegrees>75.29973602294922</LongitudeDegrees>
                        </Position>
                        <AltitudeMeters>477.8999938964844</AltitudeMeters>
                    </Trackpoint>
                    <Trackpoint>
                        <DistanceMeters>36.53804016113281</DistanceMeters>
                        <Time>2021-12-12T14:51:46.417Z</Time>
                        <Position>
                            <LatitudeDegrees>19.849884033203125</LatitudeDegrees>
                            <LongitudeDegrees>75.29975891113281</LongitudeDegrees>
                        </Position>
                        <AltitudeMeters>477.8999938964844</AltitudeMeters>
                    </Trackpoint>
                    <Trackpoint>
                        <DistanceMeters>36.53804016113281</DistanceMeters>
                        <Time>2021-12-12T14:51:58.463Z</Time>
                    </Trackpoint>
                    <Trackpoint>
                        <DistanceMeters>107.00425720214844</DistanceMeters>
                        <Time>2021-12-12T14:53:35.003Z</Time>
                    </Trackpoint>
                    <Trackpoint>
                        <DistanceMeters>115.48837566375732</DistanceMeters>
                        <Time>2021-12-12T14:56:24.164Z</Time>
                    </Trackpoint>
                </Track>
                <DistanceMeters>115.48837566375732</DistanceMeters>
                <TotalTimeSeconds>433.363</TotalTimeSeconds>
                <Calories>42.08435821533203</Calories>
                <Intensity>Active</Intensity>
                <TriggerMethod>Manual</TriggerMethod>
            </Lap>
        </Activity>
        <Activity Sport="Walking">
            <Id>2021-12-12T14:56:24.164Z</Id>
            <Lap StartTime="2021-12-12T14:56:24.164Z">
                <Track>
                    <Trackpoint>
                        <DistanceMeters>0.0</DistanceMeters>
                        <Time>2021-12-12T14:56:24.164Z</Time>
                    </Trackpoint>
                    <Trackpoint>
                        <DistanceMeters>0.0</DistanceMeters>
                        <Time>2021-12-12T15:06:17.903Z</Time>
                    </Trackpoint>
                    <Trackpoint>
                        <DistanceMeters>39.80036544799805</DistanceMeters>
                        <Time>2021-12-12T15:06:44.328Z</Time>
                        <Position>
                            <LatitudeDegrees>19.84966468811035</LatitudeDegrees>
                            <LongitudeDegrees>75.30010986328125</LongitudeDegrees>
                        </Position>
                        <AltitudeMeters>478.0</AltitudeMeters>
                    </Trackpoint>
                    <Trackpoint>
                        <DistanceMeters>39.80036544799805</DistanceMeters>
                        <Time>2021-12-12T15:07:17.163Z</Time>
                    </Trackpoint>
                    <Trackpoint>
                        <DistanceMeters>73.19002532958984</DistanceMeters>
                        <Time>2021-12-12T15:07:48.643Z</Time>
                    </Trackpoint>
                </Track>
                <DistanceMeters>73.19002532958984</DistanceMeters>
                <TotalTimeSeconds>684.479693592</TotalTimeSeconds>
                <Calories>19.69456148147583</Calories>
                <Intensity>Active</Intensity>
                <TriggerMethod>Manual</TriggerMethod>
            </Lap>
        </Activity>
        <Activity Sport="Walking">
            <Id>2021-12-12T15:07:17.163Z</Id>
            <Lap StartTime="2021-12-12T15:07:17.163Z">
                <Track>
                    <Trackpoint>
                        <DistanceMeters>0.0</DistanceMeters>
                        <Time>2021-12-12T15:07:17.163Z</Time>
                    </Trackpoint>
                    <Trackpoint>
                        <DistanceMeters>33.3896598815918</DistanceMeters>
                        <Time>2021-12-12T15:07:34.341Z</Time>
                    </Trackpoint>
                    <Trackpoint>
                        <DistanceMeters>33.3896598815918</DistanceMeters>
                        <Time>2021-12-12T15:07:57.208Z</Time>
                        <Position>
                            <LatitudeDegrees>19.84967041015625</LatitudeDegrees>
                            <LongitudeDegrees>75.30024719238281</LongitudeDegrees>
                        </Position>
                        <AltitudeMeters>478.0</AltitudeMeters>
                    </Trackpoint>
                    <Trackpoint>
                        <DistanceMeters>33.3896598815918</DistanceMeters>
                        <Time>2021-12-12T15:08:36.203Z</Time>
                    </Trackpoint>
                    <Trackpoint>
                        <DistanceMeters>93.41643905639648</DistanceMeters>
                        <Time>2021-12-12T15:09:56.003Z</Time>
                    </Trackpoint>
                    <Trackpoint>
                        <DistanceMeters>133.21680450439453</DistanceMeters>
                        <Time>2021-12-12T15:09:59.408Z</Time>
                        <Position>
                            <LatitudeDegrees>19.849721908569336</LatitudeDegrees>
                            <LongitudeDegrees>75.30023956298828</LongitudeDegrees>
                        </Position>
                        <AltitudeMeters>478.0</AltitudeMeters>
                    </Trackpoint>
                    <Trackpoint>
                        <DistanceMeters>133.21680450439453</DistanceMeters>
                        <Time>2021-12-12T15:10:58.523Z</Time>
                    </Trackpoint>
                    <Trackpoint>
                        <DistanceMeters>140.39391946792603</DistanceMeters>
                        <Time>2021-12-12T15:11:09.643Z</Time>
                    </Trackpoint>
                    <Trackpoint>
                        <DistanceMeters>177.58442544937134</DistanceMeters>
                        <Time>2021-12-12T15:12:02.404Z</Time>
                        <Position>
                            <LatitudeDegrees>19.849815368652344</LatitudeDegrees>
                            <LongitudeDegrees>75.30001068115234</LongitudeDegrees>
                        </Position>
                        <AltitudeMeters>478.0</AltitudeMeters>
                    </Trackpoint>
                    <Trackpoint>
                        <DistanceMeters>177.58442544937134</DistanceMeters>
                        <Time>2021-12-12T15:12:54.543Z</Time>
                    </Trackpoint>
                    <Trackpoint>
                        <DistanceMeters>182.15168046951294</DistanceMeters>
                        <Time>2021-12-12T15:13:00.403Z</Time>
                    </Trackpoint>
                    <Trackpoint>
                        <DistanceMeters>222.465416431427</DistanceMeters>
                        <Time>2021-12-12T15:14:05.354Z</Time>
                        <Position>
                            <LatitudeDegrees>19.849802017211914</LatitudeDegrees>
                            <LongitudeDegrees>75.2997817993164</LongitudeDegrees>
                        </Position>
                        <AltitudeMeters>477.8999938964844</AltitudeMeters>
                    </Trackpoint>
                    <Trackpoint>
                        <DistanceMeters>222.465416431427</DistanceMeters>
                        <Time>2021-12-12T15:15:38.092Z</Time>
                    </Trackpoint>
                </Track>
                <DistanceMeters>222.465416431427</DistanceMeters>
                <TotalTimeSeconds>500.92830779</TotalTimeSeconds>
                <Calories>46.97759246826172</Calories>
                <Intensity>Active</Intensity>
                <TriggerMethod>Manual</TriggerMethod>
            </Lap>
        </Activity>
    </Activities>
    <Author xsi:type="Application_t">
        <Name>Google Fit</Name>
        <Build>
            <Version>
                <VersionMajor>0</VersionMajor>
                <VersionMinor>0</VersionMinor>
                <BuildMajor>0</BuildMajor>
                <BuildMinor>0</BuildMinor>
            </Version>
        </Build>
        <LangID>en</LangID>
        <PartNumber>000-00000-00</PartNumber>
    </Author>
</TrainingCenterDatabase>
