<?xml version="1.0" encoding="UTF-8"?>
<TrainingCenterDatabase
    xmlns="http://www.garmin.com/xmlschemas/TrainingCenterDatabase/v2"
    xmlns:ns2="http://www.garmin.com/xmlschemas/UserProfile/v2"
    xmlns:ns3="http://www.garmin.com/xmlschemas/ActivityExtension/v2"
    xmlns:ns4="http://www.garmin.com/xmlschemas/ProfileExtension/v1"
    xmlns:ns5="http://www.garmin.com/xmlschemas/ActivityGoals/v1"
    xmlns:xsi="http://www.w3.org/2001/XMLSchema-instance" xsi:schemaLocation="http://www.garmin.com/xmlschemas/TrainingCenterDatabase/v2 http://www.garmin.com/xmlschemas/TrainingCenterDatabasev2.xsd">
    <Activities>
        <Activity Sport="Walking">
            <Id>2021-10-26T11:38:05.807Z</Id>
            <Lap StartTime="2021-10-26T11:38:05.807Z">
                <Track>
                    <Trackpoint>
                        <DistanceMeters>0.0</DistanceMeters>
                        <Time>2021-10-26T11:38:05.807Z</Time>
                    </Trackpoint>
                    <Trackpoint>
                        <DistanceMeters>15.006694793701172</DistanceMeters>
                        <Time>2021-10-26T11:38:53.884Z</Time>
                    </Trackpoint>
                    <Trackpoint>
                        <DistanceMeters>15.006694793701172</DistanceMeters>
                        <Time>2021-10-26T11:38:55.567Z</Time>
                    </Trackpoint>
                    <Trackpoint>
                        <DistanceMeters>26.75106430053711</DistanceMeters>
                        <Time>2021-10-26T11:39:06.437Z</Time>
                        <Position>
                            <LatitudeDegrees>19.84787940979004</LatitudeDegrees>
                            <LongitudeDegrees>75.30400848388672</LongitudeDegrees>
                        </Position>
                        <AltitudeMeters>475.0242614746094</AltitudeMeters>
                    </Trackpoint>
                    <Trackpoint>
                        <DistanceMeters>26.75106430053711</DistanceMeters>
                        <Time>2021-10-26T11:39:20.687Z</Time>
                    </Trackpoint>
                    <Trackpoint>
                        <DistanceMeters>75.03347396850586</DistanceMeters>
                        <Time>2021-10-26T11:41:36.647Z</Time>
                    </Trackpoint>
                    <Trackpoint>
                        <DistanceMeters>94.60742378234863</DistanceMeters>
                        <Time>2021-10-26T11:42:29.476Z</Time>
                    </Trackpoint>
                </Track>
                <DistanceMeters>94.60742378234863</DistanceMeters>
                <TotalTimeSeconds>263.66847203</TotalTimeSeconds>
                <Calories>20.936376571655273</Calories>
                <Intensity>Active</Intensity>
                <TriggerMethod>Manual</TriggerMethod>
            </Lap>
        </Activity>
        <Activity Sport="Walking">
            <Id>2021-10-26T11:54:38.865Z</Id>
            <Lap StartTime="2021-10-26T11:54:38.865Z">
                <Track>
                    <Trackpoint>
                        <DistanceMeters>0.0</DistanceMeters>
                        <Time>2021-10-26T11:54:38.865Z</Time>
                    </Trackpoint>
                    <Trackpoint>
                        <DistanceMeters>0.0</DistanceMeters>
                        <Time>2021-10-26T11:55:51.370Z</Time>
                        <Position>
                            <LatitudeDegrees>19.847925186157227</LatitudeDegrees>
                            <LongitudeDegrees>75.3041763305664</LongitudeDegrees>
                        </Position>
                        <AltitudeMeters>475.6578369140625</AltitudeMeters>
                    </Trackpoint>
                    <Trackpoint>
                        <DistanceMeters>0.0</DistanceMeters>
                        <Time>2021-10-26T11:57:52.326Z</Time>
                        <Position>
                            <LatitudeDegrees>19.84787940979004</LatitudeDegrees>
                            <LongitudeDegrees>75.30400848388672</LongitudeDegrees>
                        </Position>
                        <AltitudeMeters>474.9051208496094</AltitudeMeters>
                    </Trackpoint>
                    <Trackpoint>
                        <DistanceMeters>0.0</DistanceMeters>
                        <Time>2021-10-26T11:58:45.727Z</Time>
                    </Trackpoint>
                    <Trackpoint>
                        <DistanceMeters>34.58064270019531</DistanceMeters>
                        <Time>2021-10-26T11:59:26.847Z</Time>
                    </Trackpoint>
                    <Trackpoint>
                        <DistanceMeters>52.84966278076172</DistanceMeters>
                        <Time>2021-10-26T11:59:58.867Z</Time>
                    </Trackpoint>
                </Track>
                <DistanceMeters>52.84966278076172</DistanceMeters>
                <TotalTimeSeconds>320.002526484</TotalTimeSeconds>
                <Calories>30.219907760620117</Calories>
                <Intensity>Active</Intensity>
                <TriggerMethod>Manual</TriggerMethod>
            </Lap>
        </Activity>
        <Activity Sport="Walking">
            <Id>2021-10-26T11:59:50.054Z</Id>
            <Lap StartTime="2021-10-26T11:59:50.054Z">
                <Track>
                    <Trackpoint>
                        <DistanceMeters>0.0</DistanceMeters>
                        <Time>2021-10-26T11:59:50.054Z</Time>
                    </Trackpoint>
                    <Trackpoint>
                        <DistanceMeters>0.0</DistanceMeters>
                        <Time>2021-10-26T12:09:50.887Z</Time>
                    </Trackpoint>
                    <Trackpoint>
                        <DistanceMeters>14.172384262084961</DistanceMeters>
                        <Time>2021-10-26T12:11:02.730Z</Time>
                    </Trackpoint>
                </Track>
                <DistanceMeters>14.172384262084961</DistanceMeters>
                <TotalTimeSeconds>672.676</TotalTimeSeconds>
                <Calories>19.394970893859863</Calories>
                <Intensity>Active</Intensity>
                <TriggerMethod>Manual</TriggerMethod>
            </Lap>
        </Activity>
        <Activity Sport="Walking">
            <Id>2021-10-26T12:11:02.730Z</Id>
            <Lap StartTime="2021-10-26T12:11:02.730Z">
                <Track>
                    <Trackpoint>
                        <DistanceMeters>0.0</DistanceMeters>
                        <Time>2021-10-26T12:11:02.730Z</Time>
                    </Trackpoint>
                    <Trackpoint>
                        <DistanceMeters>4.36560583114624</DistanceMeters>
                        <Time>2021-10-26T12:11:08.887Z</Time>
                    </Trackpoint>
                    <Trackpoint>
                        <DistanceMeters>17.414905071258545</DistanceMeters>
                        <Time>2021-10-26T12:11:36.287Z</Time>
                    </Trackpoint>
                    <Trackpoint>
                        <DistanceMeters>46.12336492538452</DistanceMeters>
                        <Time>2021-10-26T12:12:31.276Z</Time>
                        <Position>
                            <LatitudeDegrees>19.847885131835938</LatitudeDegrees>
                            <LongitudeDegrees>75.30399322509766</LongitudeDegrees>
                        </Position>
                        <AltitudeMeters>477.3204345703125</AltitudeMeters>
                    </Trackpoint>
                    <Trackpoint>
                        <DistanceMeters>46.12336492538452</DistanceMeters>
                        <Time>2021-10-26T12:12:37.487Z</Time>
                    </Trackpoint>
                    <Trackpoint>
                        <DistanceMeters>74.8213324546814</DistanceMeters>
                        <Time>2021-10-26T12:13:00.327Z</Time>
                    </Trackpoint>
                    <Trackpoint>
                        <DistanceMeters>106.13965177536011</DistanceMeters>
                        <Time>2021-10-26T12:14:32.244Z</Time>
                        <Position>
                            <LatitudeDegrees>19.84787940979004</LatitudeDegrees>
                            <LongitudeDegrees>75.30400848388672</LongitudeDegrees>
                        </Position>
                        <AltitudeMeters>477.460205078125</AltitudeMeters>
                    </Trackpoint>
                    <Trackpoint>
                        <DistanceMeters>106.13965177536011</DistanceMeters>
                        <Time>2021-10-26T12:15:29.847Z</Time>
                    </Trackpoint>
                    <Trackpoint>
                        <DistanceMeters>110.70690679550171</DistanceMeters>
                        <Time>2021-10-26T12:16:36.338Z</Time>
                    </Trackpoint>
                </Track>
                <DistanceMeters>110.70690679550171</DistanceMeters>
                <TotalTimeSeconds>333.608</TotalTimeSeconds>
                <Calories>32.39704132080078</Calories>
                <Intensity>Active</Intensity>
                <TriggerMethod>Manual</TriggerMethod>
            </Lap>
        </Activity>
    </Activities>
    <Author xsi:type="Application_t">
        <Name>Google Fit</Name>
        <Build>
            <Version>
                <VersionMajor>0</VersionMajor>
                <VersionMinor>0</VersionMinor>
                <BuildMajor>0</BuildMajor>
                <BuildMinor>0</BuildMinor>
            </Version>
        </Build>
        <LangID>en</LangID>
        <PartNumber>000-00000-00</PartNumber>
    </Author>
</TrainingCenterDatabase>
