<?xml version="1.0" encoding="UTF-8"?>
<TrainingCenterDatabase
    xmlns="http://www.garmin.com/xmlschemas/TrainingCenterDatabase/v2"
    xmlns:ns2="http://www.garmin.com/xmlschemas/UserProfile/v2"
    xmlns:ns3="http://www.garmin.com/xmlschemas/ActivityExtension/v2"
    xmlns:ns4="http://www.garmin.com/xmlschemas/ProfileExtension/v1"
    xmlns:ns5="http://www.garmin.com/xmlschemas/ActivityGoals/v1"
    xmlns:xsi="http://www.w3.org/2001/XMLSchema-instance" xsi:schemaLocation="http://www.garmin.com/xmlschemas/TrainingCenterDatabase/v2 http://www.garmin.com/xmlschemas/TrainingCenterDatabasev2.xsd">
    <Activities>
        <Activity Sport="Walking">
            <Id>2021-02-16T02:42:00.000Z</Id>
            <Lap StartTime="2021-02-16T02:42:00.000Z">
                <Track>
                    <Trackpoint>
                        <DistanceMeters>0.0</DistanceMeters>
                        <Time>2021-02-16T02:42:00.000Z</Time>
                    </Trackpoint>
                    <Trackpoint>
                        <DistanceMeters>32.0</DistanceMeters>
                        <Time>2021-02-16T02:43:00.000Z</Time>
                    </Trackpoint>
                </Track>
                <DistanceMeters>32.0</DistanceMeters>
                <TotalTimeSeconds>60.0</TotalTimeSeconds>
                <Calories>5.636666774749756</Calories>
                <Intensity>Active</Intensity>
                <TriggerMethod>Manual</TriggerMethod>
            </Lap>
        </Activity>
        <Activity Sport="Walking">
            <Id>2021-02-16T02:43:00.000Z</Id>
            <Lap StartTime="2021-02-16T02:43:00.000Z">
                <Track>
                    <Trackpoint>
                        <DistanceMeters>0.0</DistanceMeters>
                        <Time>2021-02-16T02:43:00.000Z</Time>
                    </Trackpoint>
                    <Trackpoint>
                        <DistanceMeters>0.0</DistanceMeters>
                        <Time>2021-02-16T02:44:00.000Z</Time>
                    </Trackpoint>
                </Track>
                <DistanceMeters>0.0</DistanceMeters>
                <TotalTimeSeconds>60.0</TotalTimeSeconds>
                <Calories>5.636666774749756</Calories>
                <Intensity>Active</Intensity>
                <TriggerMethod>Manual</TriggerMethod>
            </Lap>
        </Activity>
        <Activity Sport="Walking">
            <Id>2021-02-16T02:45:00.000Z</Id>
            <Lap StartTime="2021-02-16T02:45:00.000Z">
                <Track>
                    <Trackpoint>
                        <DistanceMeters>0.0</DistanceMeters>
                        <Time>2021-02-16T02:45:00.000Z</Time>
                    </Trackpoint>
                    <Trackpoint>
                        <DistanceMeters>3.4360580444335938</DistanceMeters>
                        <Time>2021-02-16T02:46:00.000Z</Time>
                    </Trackpoint>
                </Track>
                <DistanceMeters>3.4360580444335938</DistanceMeters>
                <TotalTimeSeconds>60.0</TotalTimeSeconds>
                <Calories>5.636666774749756</Calories>
                <Intensity>Active</Intensity>
                <TriggerMethod>Manual</TriggerMethod>
            </Lap>
        </Activity>
        <Activity Sport="Walking">
            <Id>2021-02-16T02:46:00.000Z</Id>
            <Lap StartTime="2021-02-16T02:46:00.000Z">
                <Track>
                    <Trackpoint>
                        <DistanceMeters>0.0</DistanceMeters>
                        <Time>2021-02-16T02:46:00.000Z</Time>
                    </Trackpoint>
                    <Trackpoint>
                        <DistanceMeters>35.0</DistanceMeters>
                        <Time>2021-02-16T02:46:30.798Z</Time>
                    </Trackpoint>
                    <Trackpoint>
                        <DistanceMeters>35.0</DistanceMeters>
                        <Time>2021-02-16T02:47:00.000Z</Time>
                    </Trackpoint>
                </Track>
                <DistanceMeters>35.0</DistanceMeters>
                <TotalTimeSeconds>60.0</TotalTimeSeconds>
                <Calories>2.743365526199341</Calories>
                <Intensity>Active</Intensity>
                <TriggerMethod>Manual</TriggerMethod>
            </Lap>
        </Activity>
        <Activity Sport="Walking">
            <Id>2021-02-16T02:47:00.000Z</Id>
            <Lap StartTime="2021-02-16T02:47:00.000Z">
                <Track>
                    <Trackpoint>
                        <DistanceMeters>0.0</DistanceMeters>
                        <Time>2021-02-16T02:47:00.000Z</Time>
                    </Trackpoint>
                    <Trackpoint>
                        <DistanceMeters>5.0</DistanceMeters>
                        <Time>2021-02-16T02:48:00.000Z</Time>
                    </Trackpoint>
                </Track>
                <DistanceMeters>5.0</DistanceMeters>
                <TotalTimeSeconds>60.0</TotalTimeSeconds>
                <Calories>5.636666774749756</Calories>
                <Intensity>Active</Intensity>
                <TriggerMethod>Manual</TriggerMethod>
            </Lap>
        </Activity>
        <Activity Sport="Walking">
            <Id>2021-02-16T02:48:00.000Z</Id>
            <Lap StartTime="2021-02-16T02:48:00.000Z">
                <Track>
                    <Trackpoint>
                        <DistanceMeters>0.0</DistanceMeters>
                        <Time>2021-02-16T02:48:00.000Z</Time>
                    </Trackpoint>
                    <Trackpoint>
                        <DistanceMeters>0.0</DistanceMeters>
                        <Time>2021-02-16T02:49:00.000Z</Time>
                    </Trackpoint>
                </Track>
                <DistanceMeters>0.0</DistanceMeters>
                <TotalTimeSeconds>60.0</TotalTimeSeconds>
                <Calories>5.636666774749756</Calories>
                <Intensity>Active</Intensity>
                <TriggerMethod>Manual</TriggerMethod>
            </Lap>
        </Activity>
        <Activity Sport="Walking">
            <Id>2021-02-16T02:56:00.000Z</Id>
            <Lap StartTime="2021-02-16T02:56:00.000Z">
                <Track>
                    <Trackpoint>
                        <DistanceMeters>0.0</DistanceMeters>
                        <Time>2021-02-16T02:56:00.000Z</Time>
                    </Trackpoint>
                    <Trackpoint>
                        <DistanceMeters>9.0</DistanceMeters>
                        <Time>2021-02-16T02:57:00.000Z</Time>
                    </Trackpoint>
                </Track>
                <DistanceMeters>9.0</DistanceMeters>
                <TotalTimeSeconds>60.0</TotalTimeSeconds>
                <Calories>5.636666774749756</Calories>
                <Intensity>Active</Intensity>
                <TriggerMethod>Manual</TriggerMethod>
            </Lap>
        </Activity>
        <Activity Sport="Walking">
            <Id>2021-02-16T02:57:00.000Z</Id>
            <Lap StartTime="2021-02-16T02:57:00.000Z">
                <Track>
                    <Trackpoint>
                        <DistanceMeters>0.0</DistanceMeters>
                        <Time>2021-02-16T02:57:00.000Z</Time>
                    </Trackpoint>
                    <Trackpoint>
                        <DistanceMeters>81.0</DistanceMeters>
                        <Time>2021-02-16T02:58:00.000Z</Time>
                    </Trackpoint>
                </Track>
                <DistanceMeters>81.0</DistanceMeters>
                <TotalTimeSeconds>60.0</TotalTimeSeconds>
                <Calories>5.636666774749756</Calories>
                <Intensity>Active</Intensity>
                <TriggerMethod>Manual</TriggerMethod>
            </Lap>
        </Activity>
        <Activity Sport="Walking">
            <Id>2021-02-16T02:58:00.000Z</Id>
            <Lap StartTime="2021-02-16T02:58:00.000Z">
                <Track>
                    <Trackpoint>
                        <DistanceMeters>0.0</DistanceMeters>
                        <Time>2021-02-16T02:58:00.000Z</Time>
                    </Trackpoint>
                    <Trackpoint>
                        <DistanceMeters>88.0</DistanceMeters>
                        <Time>2021-02-16T02:58:42.039Z</Time>
                        <Position>
                            <LatitudeDegrees>18.592193603515625</LatitudeDegrees>
                            <LongitudeDegrees>73.79596710205078</LongitudeDegrees>
                        </Position>
                        <AltitudeMeters>491.9599914550781</AltitudeMeters>
                    </Trackpoint>
                    <Trackpoint>
                        <DistanceMeters>88.0</DistanceMeters>
                        <Time>2021-02-16T02:59:00.000Z</Time>
                    </Trackpoint>
                </Track>
                <DistanceMeters>88.0</DistanceMeters>
                <TotalTimeSeconds>60.0</TotalTimeSeconds>
                <Calories>5.636666774749756</Calories>
                <Intensity>Active</Intensity>
                <TriggerMethod>Manual</TriggerMethod>
            </Lap>
        </Activity>
        <Activity Sport="Walking">
            <Id>2021-02-16T02:59:00.000Z</Id>
            <Lap StartTime="2021-02-16T02:59:00.000Z">
                <Track>
                    <Trackpoint>
                        <DistanceMeters>0.0</DistanceMeters>
                        <Time>2021-02-16T02:59:00.000Z</Time>
                    </Trackpoint>
                    <Trackpoint>
                        <DistanceMeters>88.0</DistanceMeters>
                        <Time>2021-02-16T02:59:08.076Z</Time>
                        <Position>
                            <LatitudeDegrees>18.592294692993164</LatitudeDegrees>
                            <LongitudeDegrees>73.7959976196289</LongitudeDegrees>
                        </Position>
                        <AltitudeMeters>494.07244873046875</AltitudeMeters>
                    </Trackpoint>
                    <Trackpoint>
                        <DistanceMeters>88.0</DistanceMeters>
                        <Time>2021-02-16T03:00:00.000Z</Time>
                    </Trackpoint>
                </Track>
                <DistanceMeters>88.0</DistanceMeters>
                <TotalTimeSeconds>60.0</TotalTimeSeconds>
                <Calories>5.636666774749756</Calories>
                <Intensity>Active</Intensity>
                <TriggerMethod>Manual</TriggerMethod>
            </Lap>
        </Activity>
        <Activity Sport="Walking">
            <Id>2021-02-16T03:00:00.000Z</Id>
            <Lap StartTime="2021-02-16T03:00:00.000Z">
                <Track>
                    <Trackpoint>
                        <DistanceMeters>0.0</DistanceMeters>
                        <Time>2021-02-16T03:00:00.000Z</Time>
                    </Trackpoint>
                    <Trackpoint>
                        <DistanceMeters>83.0</DistanceMeters>
                        <Time>2021-02-16T03:01:00.000Z</Time>
                    </Trackpoint>
                </Track>
                <DistanceMeters>83.0</DistanceMeters>
                <TotalTimeSeconds>60.0</TotalTimeSeconds>
                <Calories>5.636666774749756</Calories>
                <Intensity>Active</Intensity>
                <TriggerMethod>Manual</TriggerMethod>
            </Lap>
        </Activity>
        <Activity Sport="Walking">
            <Id>2021-02-16T03:01:00.000Z</Id>
            <Lap StartTime="2021-02-16T03:01:00.000Z">
                <Track>
                    <Trackpoint>
                        <DistanceMeters>0.0</DistanceMeters>
                        <Time>2021-02-16T03:01:00.000Z</Time>
                    </Trackpoint>
                    <Trackpoint>
                        <DistanceMeters>87.0</DistanceMeters>
                        <Time>2021-02-16T03:01:09.074Z</Time>
                        <Position>
                            <LatitudeDegrees>18.593353271484375</LatitudeDegrees>
                            <LongitudeDegrees>73.7961196899414</LongitudeDegrees>
                        </Position>
                        <AltitudeMeters>493.260009765625</AltitudeMeters>
                    </Trackpoint>
                    <Trackpoint>
                        <DistanceMeters>87.0</DistanceMeters>
                        <Time>2021-02-16T03:02:00.000Z</Time>
                    </Trackpoint>
                </Track>
                <DistanceMeters>87.0</DistanceMeters>
                <TotalTimeSeconds>60.0</TotalTimeSeconds>
                <Calories>5.636666774749756</Calories>
                <Intensity>Active</Intensity>
                <TriggerMethod>Manual</TriggerMethod>
            </Lap>
        </Activity>
        <Activity Sport="Walking">
            <Id>2021-02-16T03:02:00.000Z</Id>
            <Lap StartTime="2021-02-16T03:02:00.000Z">
                <Track>
                    <Trackpoint>
                        <DistanceMeters>0.0</DistanceMeters>
                        <Time>2021-02-16T03:02:00.000Z</Time>
                    </Trackpoint>
                    <Trackpoint>
                        <DistanceMeters>93.0</DistanceMeters>
                        <Time>2021-02-16T03:03:00.000Z</Time>
                    </Trackpoint>
                </Track>
                <DistanceMeters>93.0</DistanceMeters>
                <TotalTimeSeconds>60.0</TotalTimeSeconds>
                <Calories>5.707392692565918</Calories>
                <Intensity>Active</Intensity>
                <TriggerMethod>Manual</TriggerMethod>
            </Lap>
        </Activity>
        <Activity Sport="Walking">
            <Id>2021-02-16T03:03:00.000Z</Id>
            <Lap StartTime="2021-02-16T03:03:00.000Z">
                <Track>
                    <Trackpoint>
                        <DistanceMeters>0.0</DistanceMeters>
                        <Time>2021-02-16T03:03:00.000Z</Time>
                    </Trackpoint>
                    <Trackpoint>
                        <DistanceMeters>87.0</DistanceMeters>
                        <Time>2021-02-16T03:03:10.206Z</Time>
                        <Position>
                            <LatitudeDegrees>18.593135833740234</LatitudeDegrees>
                            <LongitudeDegrees>73.79753112792969</LongitudeDegrees>
                        </Position>
                        <AltitudeMeters>493.3600158691406</AltitudeMeters>
                    </Trackpoint>
                    <Trackpoint>
                        <DistanceMeters>87.0</DistanceMeters>
                        <Time>2021-02-16T03:04:00.000Z</Time>
                    </Trackpoint>
                </Track>
                <DistanceMeters>87.0</DistanceMeters>
                <TotalTimeSeconds>60.0</TotalTimeSeconds>
                <Calories>5.636666774749756</Calories>
                <Intensity>Active</Intensity>
                <TriggerMethod>Manual</TriggerMethod>
            </Lap>
        </Activity>
        <Activity Sport="Walking">
            <Id>2021-02-16T03:04:00.000Z</Id>
            <Lap StartTime="2021-02-16T03:04:00.000Z">
                <Track>
                    <Trackpoint>
                        <DistanceMeters>0.0</DistanceMeters>
                        <Time>2021-02-16T03:04:00.000Z</Time>
                    </Trackpoint>
                    <Trackpoint>
                        <DistanceMeters>84.0</DistanceMeters>
                        <Time>2021-02-16T03:05:00.000Z</Time>
                    </Trackpoint>
                </Track>
                <DistanceMeters>84.0</DistanceMeters>
                <TotalTimeSeconds>60.0</TotalTimeSeconds>
                <Calories>5.636666774749756</Calories>
                <Intensity>Active</Intensity>
                <TriggerMethod>Manual</TriggerMethod>
            </Lap>
        </Activity>
        <Activity Sport="Walking">
            <Id>2021-02-16T03:05:00.000Z</Id>
            <Lap StartTime="2021-02-16T03:05:00.000Z">
                <Track>
                    <Trackpoint>
                        <DistanceMeters>0.0</DistanceMeters>
                        <Time>2021-02-16T03:05:00.000Z</Time>
                    </Trackpoint>
                    <Trackpoint>
                        <DistanceMeters>89.0</DistanceMeters>
                        <Time>2021-02-16T03:05:10.271Z</Time>
                        <Position>
                            <LatitudeDegrees>18.593196868896484</LatitudeDegrees>
                            <LongitudeDegrees>73.79879760742188</LongitudeDegrees>
                        </Position>
                        <AltitudeMeters>493.55999755859375</AltitudeMeters>
                    </Trackpoint>
                    <Trackpoint>
                        <DistanceMeters>89.0</DistanceMeters>
                        <Time>2021-02-16T03:05:55.135Z</Time>
                        <Position>
                            <LatitudeDegrees>18.592931747436523</LatitudeDegrees>
                            <LongitudeDegrees>73.79924774169922</LongitudeDegrees>
                        </Position>
                        <AltitudeMeters>493.3600158691406</AltitudeMeters>
                    </Trackpoint>
                    <Trackpoint>
                        <DistanceMeters>89.0</DistanceMeters>
                        <Time>2021-02-16T03:06:00.000Z</Time>
                    </Trackpoint>
                </Track>
                <DistanceMeters>89.0</DistanceMeters>
                <TotalTimeSeconds>60.0</TotalTimeSeconds>
                <Calories>5.636666774749756</Calories>
                <Intensity>Active</Intensity>
                <TriggerMethod>Manual</TriggerMethod>
            </Lap>
        </Activity>
        <Activity Sport="Walking">
            <Id>2021-02-16T03:06:00.000Z</Id>
            <Lap StartTime="2021-02-16T03:06:00.000Z">
                <Track>
                    <Trackpoint>
                        <DistanceMeters>0.0</DistanceMeters>
                        <Time>2021-02-16T03:06:00.000Z</Time>
                    </Trackpoint>
                    <Trackpoint>
                        <DistanceMeters>90.0</DistanceMeters>
                        <Time>2021-02-16T03:06:16.155Z</Time>
                        <Position>
                            <LatitudeDegrees>18.59300422668457</LatitudeDegrees>
                            <LongitudeDegrees>73.79951477050781</LongitudeDegrees>
                        </Position>
                        <AltitudeMeters>493.47845458984375</AltitudeMeters>
                    </Trackpoint>
                    <Trackpoint>
                        <DistanceMeters>90.0</DistanceMeters>
                        <Time>2021-02-16T03:06:46.015Z</Time>
                        <Position>
                            <LatitudeDegrees>18.59303092956543</LatitudeDegrees>
                            <LongitudeDegrees>73.79846954345703</LongitudeDegrees>
                        </Position>
                        <AltitudeMeters>493.70477294921875</AltitudeMeters>
                    </Trackpoint>
                    <Trackpoint>
                        <DistanceMeters>90.0</DistanceMeters>
                        <Time>2021-02-16T03:07:00.000Z</Time>
                    </Trackpoint>
                </Track>
                <DistanceMeters>90.0</DistanceMeters>
                <TotalTimeSeconds>60.0</TotalTimeSeconds>
                <Calories>5.636666774749756</Calories>
                <Intensity>Active</Intensity>
                <TriggerMethod>Manual</TriggerMethod>
            </Lap>
        </Activity>
        <Activity Sport="Walking">
            <Id>2021-02-16T03:07:00.000Z</Id>
            <Lap StartTime="2021-02-16T03:07:00.000Z">
                <Track>
                    <Trackpoint>
                        <DistanceMeters>0.0</DistanceMeters>
                        <Time>2021-02-16T03:07:00.000Z</Time>
                    </Trackpoint>
                    <Trackpoint>
                        <DistanceMeters>100.0</DistanceMeters>
                        <Time>2021-02-16T03:07:07.090Z</Time>
                        <Position>
                            <LatitudeDegrees>18.59298324584961</LatitudeDegrees>
                            <LongitudeDegrees>73.80033111572266</LongitudeDegrees>
                        </Position>
                        <AltitudeMeters>493.7334899902344</AltitudeMeters>
                    </Trackpoint>
                    <Trackpoint>
                        <DistanceMeters>100.0</DistanceMeters>
                        <Time>2021-02-16T03:08:00.000Z</Time>
                    </Trackpoint>
                </Track>
                <DistanceMeters>100.0</DistanceMeters>
                <TotalTimeSeconds>60.0</TotalTimeSeconds>
                <Calories>6.019515037536621</Calories>
                <Intensity>Active</Intensity>
                <TriggerMethod>Manual</TriggerMethod>
            </Lap>
        </Activity>
        <Activity Sport="Walking">
            <Id>2021-02-16T03:08:00.000Z</Id>
            <Lap StartTime="2021-02-16T03:08:00.000Z">
                <Track>
                    <Trackpoint>
                        <DistanceMeters>0.0</DistanceMeters>
                        <Time>2021-02-16T03:08:00.000Z</Time>
                    </Trackpoint>
                    <Trackpoint>
                        <DistanceMeters>96.0</DistanceMeters>
                        <Time>2021-02-16T03:09:00.000Z</Time>
                    </Trackpoint>
                </Track>
                <DistanceMeters>96.0</DistanceMeters>
                <TotalTimeSeconds>60.0</TotalTimeSeconds>
                <Calories>5.841159343719482</Calories>
                <Intensity>Active</Intensity>
                <TriggerMethod>Manual</TriggerMethod>
            </Lap>
        </Activity>
        <Activity Sport="Walking">
            <Id>2021-02-16T03:09:00.000Z</Id>
            <Lap StartTime="2021-02-16T03:09:00.000Z">
                <Track>
                    <Trackpoint>
                        <DistanceMeters>0.0</DistanceMeters>
                        <Time>2021-02-16T03:09:00.000Z</Time>
                    </Trackpoint>
                    <Trackpoint>
                        <DistanceMeters>99.0</DistanceMeters>
                        <Time>2021-02-16T03:09:08.163Z</Time>
                        <Position>
                            <LatitudeDegrees>18.592893600463867</LatitudeDegrees>
                            <LongitudeDegrees>73.80197143554688</LongitudeDegrees>
                        </Position>
                        <AltitudeMeters>493.260009765625</AltitudeMeters>
                    </Trackpoint>
                    <Trackpoint>
                        <DistanceMeters>99.0</DistanceMeters>
                        <Time>2021-02-16T03:10:00.000Z</Time>
                    </Trackpoint>
                </Track>
                <DistanceMeters>99.0</DistanceMeters>
                <TotalTimeSeconds>60.0</TotalTimeSeconds>
                <Calories>5.974926948547363</Calories>
                <Intensity>Active</Intensity>
                <TriggerMethod>Manual</TriggerMethod>
            </Lap>
        </Activity>
        <Activity Sport="Walking">
            <Id>2021-02-16T03:10:00.000Z</Id>
            <Lap StartTime="2021-02-16T03:10:00.000Z">
                <Track>
                    <Trackpoint>
                        <DistanceMeters>0.0</DistanceMeters>
                        <Time>2021-02-16T03:10:00.000Z</Time>
                    </Trackpoint>
                    <Trackpoint>
                        <DistanceMeters>98.0</DistanceMeters>
                        <Time>2021-02-16T03:11:00.000Z</Time>
                    </Trackpoint>
                </Track>
                <DistanceMeters>98.0</DistanceMeters>
                <TotalTimeSeconds>60.0</TotalTimeSeconds>
                <Calories>5.930337429046631</Calories>
                <Intensity>Active</Intensity>
                <TriggerMethod>Manual</TriggerMethod>
            </Lap>
        </Activity>
        <Activity Sport="Walking">
            <Id>2021-02-16T03:11:00.000Z</Id>
            <Lap StartTime="2021-02-16T03:11:00.000Z">
                <Track>
                    <Trackpoint>
                        <DistanceMeters>0.0</DistanceMeters>
                        <Time>2021-02-16T03:11:00.000Z</Time>
                    </Trackpoint>
                    <Trackpoint>
                        <DistanceMeters>90.0</DistanceMeters>
                        <Time>2021-02-16T03:11:04.869Z</Time>
                        <Position>
                            <LatitudeDegrees>18.594694137573242</LatitudeDegrees>
                            <LongitudeDegrees>73.80193328857422</LongitudeDegrees>
                        </Position>
                        <AltitudeMeters>492.4599914550781</AltitudeMeters>
                    </Trackpoint>
                    <Trackpoint>
                        <DistanceMeters>90.0</DistanceMeters>
                        <Time>2021-02-16T03:12:00.000Z</Time>
                    </Trackpoint>
                </Track>
                <DistanceMeters>90.0</DistanceMeters>
                <TotalTimeSeconds>60.0</TotalTimeSeconds>
                <Calories>5.636666774749756</Calories>
                <Intensity>Active</Intensity>
                <TriggerMethod>Manual</TriggerMethod>
            </Lap>
        </Activity>
        <Activity Sport="Walking">
            <Id>2021-02-16T03:12:00.000Z</Id>
            <Lap StartTime="2021-02-16T03:12:00.000Z">
                <Track>
                    <Trackpoint>
                        <DistanceMeters>0.0</DistanceMeters>
                        <Time>2021-02-16T03:12:00.000Z</Time>
                    </Trackpoint>
                    <Trackpoint>
                        <DistanceMeters>92.0</DistanceMeters>
                        <Time>2021-02-16T03:13:00.000Z</Time>
                    </Trackpoint>
                </Track>
                <DistanceMeters>92.0</DistanceMeters>
                <TotalTimeSeconds>60.0</TotalTimeSeconds>
                <Calories>5.662802696228027</Calories>
                <Intensity>Active</Intensity>
                <TriggerMethod>Manual</TriggerMethod>
            </Lap>
        </Activity>
        <Activity Sport="Walking">
            <Id>2021-02-16T03:13:00.000Z</Id>
            <Lap StartTime="2021-02-16T03:13:00.000Z">
                <Track>
                    <Trackpoint>
                        <DistanceMeters>0.0</DistanceMeters>
                        <Time>2021-02-16T03:13:00.000Z</Time>
                    </Trackpoint>
                    <Trackpoint>
                        <DistanceMeters>48.0</DistanceMeters>
                        <Time>2021-02-16T03:13:10.865Z</Time>
                        <Position>
                            <LatitudeDegrees>18.595272064208984</LatitudeDegrees>
                            <LongitudeDegrees>73.80319213867188</LongitudeDegrees>
                        </Position>
                        <AltitudeMeters>490.55999755859375</AltitudeMeters>
                    </Trackpoint>
                    <Trackpoint>
                        <DistanceMeters>48.0</DistanceMeters>
                        <Time>2021-02-16T03:14:00.000Z</Time>
                    </Trackpoint>
                </Track>
                <DistanceMeters>48.0</DistanceMeters>
                <TotalTimeSeconds>60.0</TotalTimeSeconds>
                <Calories>5.636666774749756</Calories>
                <Intensity>Active</Intensity>
                <TriggerMethod>Manual</TriggerMethod>
            </Lap>
        </Activity>
        <Activity Sport="Walking">
            <Id>2021-02-16T03:14:00.000Z</Id>
            <Lap StartTime="2021-02-16T03:14:00.000Z">
                <Track>
                    <Trackpoint>
                        <DistanceMeters>0.0</DistanceMeters>
                        <Time>2021-02-16T03:14:00.000Z</Time>
                    </Trackpoint>
                    <Trackpoint>
                        <DistanceMeters>20.0</DistanceMeters>
                        <Time>2021-02-16T03:15:00.000Z</Time>
                    </Trackpoint>
                </Track>
                <DistanceMeters>20.0</DistanceMeters>
                <TotalTimeSeconds>60.0</TotalTimeSeconds>
                <Calories>5.636666774749756</Calories>
                <Intensity>Active</Intensity>
                <TriggerMethod>Manual</TriggerMethod>
            </Lap>
        </Activity>
        <Activity Sport="Walking">
            <Id>2021-02-16T03:15:00.000Z</Id>
            <Lap StartTime="2021-02-16T03:15:00.000Z">
                <Track>
                    <Trackpoint>
                        <DistanceMeters>0.0</DistanceMeters>
                        <Time>2021-02-16T03:15:00.000Z</Time>
                    </Trackpoint>
                    <Trackpoint>
                        <DistanceMeters>22.0</DistanceMeters>
                        <Time>2021-02-16T03:15:11.868Z</Time>
                        <Position>
                            <LatitudeDegrees>18.59528923034668</LatitudeDegrees>
                            <LongitudeDegrees>73.80338287353516</LongitudeDegrees>
                        </Position>
                        <AltitudeMeters>490.55999755859375</AltitudeMeters>
                    </Trackpoint>
                    <Trackpoint>
                        <DistanceMeters>22.0</DistanceMeters>
                        <Time>2021-02-16T03:15:53.821Z</Time>
                        <Position>
                            <LatitudeDegrees>18.59528923034668</LatitudeDegrees>
                            <LongitudeDegrees>73.8033447265625</LongitudeDegrees>
                        </Position>
                        <AltitudeMeters>490.55999755859375</AltitudeMeters>
                    </Trackpoint>
                    <Trackpoint>
                        <DistanceMeters>22.0</DistanceMeters>
                        <Time>2021-02-16T03:16:00.000Z</Time>
                    </Trackpoint>
                </Track>
                <DistanceMeters>22.0</DistanceMeters>
                <TotalTimeSeconds>60.0</TotalTimeSeconds>
                <Calories>5.636666774749756</Calories>
                <Intensity>Active</Intensity>
                <TriggerMethod>Manual</TriggerMethod>
            </Lap>
        </Activity>
        <Activity Sport="Walking">
            <Id>2021-02-16T03:16:00.000Z</Id>
            <Lap StartTime="2021-02-16T03:16:00.000Z">
                <Track>
                    <Trackpoint>
                        <DistanceMeters>0.0</DistanceMeters>
                        <Time>2021-02-16T03:16:00.000Z</Time>
                    </Trackpoint>
                    <Trackpoint>
                        <DistanceMeters>32.0</DistanceMeters>
                        <Time>2021-02-16T03:16:14.836Z</Time>
                        <Position>
                            <LatitudeDegrees>18.59532356262207</LatitudeDegrees>
                            <LongitudeDegrees>73.80326843261719</LongitudeDegrees>
                        </Position>
                        <AltitudeMeters>490.5799865722656</AltitudeMeters>
                    </Trackpoint>
                    <Trackpoint>
                        <DistanceMeters>32.0</DistanceMeters>
                        <Time>2021-02-16T03:17:00.000Z</Time>
                    </Trackpoint>
                </Track>
                <DistanceMeters>32.0</DistanceMeters>
                <TotalTimeSeconds>60.0</TotalTimeSeconds>
                <Calories>5.636666774749756</Calories>
                <Intensity>Active</Intensity>
                <TriggerMethod>Manual</TriggerMethod>
            </Lap>
        </Activity>
        <Activity Sport="Walking">
            <Id>2021-02-16T03:17:00.000Z</Id>
            <Lap StartTime="2021-02-16T03:17:00.000Z">
                <Track>
                    <Trackpoint>
                        <DistanceMeters>0.0</DistanceMeters>
                        <Time>2021-02-16T03:17:00.000Z</Time>
                    </Trackpoint>
                    <Trackpoint>
                        <DistanceMeters>17.0</DistanceMeters>
                        <Time>2021-02-16T03:18:00.000Z</Time>
                    </Trackpoint>
                </Track>
                <DistanceMeters>17.0</DistanceMeters>
                <TotalTimeSeconds>60.0</TotalTimeSeconds>
                <Calories>5.636666774749756</Calories>
                <Intensity>Active</Intensity>
                <TriggerMethod>Manual</TriggerMethod>
            </Lap>
        </Activity>
        <Activity Sport="Walking">
            <Id>2021-02-16T03:18:00.000Z</Id>
            <Lap StartTime="2021-02-16T03:18:00.000Z">
                <Track>
                    <Trackpoint>
                        <DistanceMeters>0.0</DistanceMeters>
                        <Time>2021-02-16T03:18:00.000Z</Time>
                    </Trackpoint>
                    <Trackpoint>
                        <DistanceMeters>0.0</DistanceMeters>
                        <Time>2021-02-16T03:19:00.000Z</Time>
                    </Trackpoint>
                </Track>
                <DistanceMeters>0.0</DistanceMeters>
                <TotalTimeSeconds>60.0</TotalTimeSeconds>
                <Calories>5.636666774749756</Calories>
                <Intensity>Active</Intensity>
                <TriggerMethod>Manual</TriggerMethod>
            </Lap>
        </Activity>
        <Activity Sport="Walking">
            <Id>2021-02-16T03:21:00.000Z</Id>
            <Lap StartTime="2021-02-16T03:21:00.000Z">
                <Track>
                    <Trackpoint>
                        <DistanceMeters>0.0</DistanceMeters>
                        <Time>2021-02-16T03:21:00.000Z</Time>
                    </Trackpoint>
                    <Trackpoint>
                        <DistanceMeters>0.0</DistanceMeters>
                        <Time>2021-02-16T03:22:00.000Z</Time>
                    </Trackpoint>
                </Track>
                <DistanceMeters>0.0</DistanceMeters>
                <TotalTimeSeconds>60.0</TotalTimeSeconds>
                <Calories>5.636666774749756</Calories>
                <Intensity>Active</Intensity>
                <TriggerMethod>Manual</TriggerMethod>
            </Lap>
        </Activity>
        <Activity Sport="Walking">
            <Id>2021-02-16T03:24:00.000Z</Id>
            <Lap StartTime="2021-02-16T03:24:00.000Z">
                <Track>
                    <Trackpoint>
                        <DistanceMeters>0.0</DistanceMeters>
                        <Time>2021-02-16T03:24:00.000Z</Time>
                    </Trackpoint>
                    <Trackpoint>
                        <DistanceMeters>0.0</DistanceMeters>
                        <Time>2021-02-16T03:24:07.400Z</Time>
                    </Trackpoint>
                    <Trackpoint>
                        <DistanceMeters>13.057021141052246</DistanceMeters>
                        <Time>2021-02-16T03:25:00.000Z</Time>
                    </Trackpoint>
                </Track>
                <DistanceMeters>13.057021141052246</DistanceMeters>
                <TotalTimeSeconds>60.0</TotalTimeSeconds>
                <Calories>5.636666774749756</Calories>
                <Intensity>Active</Intensity>
                <TriggerMethod>Manual</TriggerMethod>
            </Lap>
        </Activity>
        <Activity Sport="Walking">
            <Id>2021-02-16T03:26:00.000Z</Id>
            <Lap StartTime="2021-02-16T03:26:00.000Z">
                <Track>
                    <Trackpoint>
                        <DistanceMeters>0.0</DistanceMeters>
                        <Time>2021-02-16T03:26:00.000Z</Time>
                    </Trackpoint>
                    <Trackpoint>
                        <DistanceMeters>31.0</DistanceMeters>
                        <Time>2021-02-16T03:27:00.000Z</Time>
                    </Trackpoint>
                </Track>
                <DistanceMeters>31.0</DistanceMeters>
                <TotalTimeSeconds>60.0</TotalTimeSeconds>
                <Calories>5.636666774749756</Calories>
                <Intensity>Active</Intensity>
                <TriggerMethod>Manual</TriggerMethod>
            </Lap>
        </Activity>
        <Activity Sport="Walking">
            <Id>2021-02-16T03:27:00.000Z</Id>
            <Lap StartTime="2021-02-16T03:27:00.000Z">
                <Track>
                    <Trackpoint>
                        <DistanceMeters>0.0</DistanceMeters>
                        <Time>2021-02-16T03:27:00.000Z</Time>
                    </Trackpoint>
                    <Trackpoint>
                        <DistanceMeters>2.0</DistanceMeters>
                        <Time>2021-02-16T03:28:00.000Z</Time>
                    </Trackpoint>
                </Track>
                <DistanceMeters>2.0</DistanceMeters>
                <TotalTimeSeconds>60.0</TotalTimeSeconds>
                <Calories>5.636666774749756</Calories>
                <Intensity>Active</Intensity>
                <TriggerMethod>Manual</TriggerMethod>
            </Lap>
        </Activity>
        <Activity Sport="Walking">
            <Id>2021-02-16T03:28:00.000Z</Id>
            <Lap StartTime="2021-02-16T03:28:00.000Z">
                <Track>
                    <Trackpoint>
                        <DistanceMeters>0.0</DistanceMeters>
                        <Time>2021-02-16T03:28:00.000Z</Time>
                    </Trackpoint>
                    <Trackpoint>
                        <DistanceMeters>0.0</DistanceMeters>
                        <Time>2021-02-16T03:29:00.000Z</Time>
                    </Trackpoint>
                </Track>
                <DistanceMeters>0.0</DistanceMeters>
                <TotalTimeSeconds>60.0</TotalTimeSeconds>
                <Calories>5.636666774749756</Calories>
                <Intensity>Active</Intensity>
                <TriggerMethod>Manual</TriggerMethod>
            </Lap>
        </Activity>
    </Activities>
    <Author xsi:type="Application_t">
        <Name>Google Fit</Name>
        <Build>
            <Version>
                <VersionMajor>0</VersionMajor>
                <VersionMinor>0</VersionMinor>
                <BuildMajor>0</BuildMajor>
                <BuildMinor>0</BuildMinor>
            </Version>
        </Build>
        <LangID>en</LangID>
        <PartNumber>000-00000-00</PartNumber>
    </Author>
</TrainingCenterDatabase>
