<?xml version="1.0" encoding="UTF-8"?>
<TrainingCenterDatabase
    xmlns="http://www.garmin.com/xmlschemas/TrainingCenterDatabase/v2"
    xmlns:ns2="http://www.garmin.com/xmlschemas/UserProfile/v2"
    xmlns:ns3="http://www.garmin.com/xmlschemas/ActivityExtension/v2"
    xmlns:ns4="http://www.garmin.com/xmlschemas/ProfileExtension/v1"
    xmlns:ns5="http://www.garmin.com/xmlschemas/ActivityGoals/v1"
    xmlns:xsi="http://www.w3.org/2001/XMLSchema-instance" xsi:schemaLocation="http://www.garmin.com/xmlschemas/TrainingCenterDatabase/v2 http://www.garmin.com/xmlschemas/TrainingCenterDatabasev2.xsd">
    <Activities>
        <Activity Sport="Walking">
            <Id>2021-07-04T04:33:05.496Z</Id>
            <Lap StartTime="2021-07-04T04:33:05.496Z">
                <Track>
                    <Trackpoint>
                        <DistanceMeters>0.0</DistanceMeters>
                        <Time>2021-07-04T04:33:05.496Z</Time>
                    </Trackpoint>
                    <Trackpoint>
                        <DistanceMeters>0.0</DistanceMeters>
                        <Time>2021-07-04T04:34:22.747Z</Time>
                    </Trackpoint>
                </Track>
                <DistanceMeters>0.0</DistanceMeters>
                <TotalTimeSeconds>77.251</TotalTimeSeconds>
                <Calories>8.154272079467773</Calories>
                <Intensity>Active</Intensity>
                <TriggerMethod>Manual</TriggerMethod>
            </Lap>
        </Activity>
        <Activity Sport="Walking">
            <Id>2021-07-04T04:39:46.600Z</Id>
            <Lap StartTime="2021-07-04T04:39:46.600Z">
                <Track>
                    <Trackpoint>
                        <DistanceMeters>0.0</DistanceMeters>
                        <Time>2021-07-04T04:39:46.600Z</Time>
                    </Trackpoint>
                    <Trackpoint>
                        <DistanceMeters>58.72184753417969</DistanceMeters>
                        <Time>2021-07-04T04:41:07.173Z</Time>
                    </Trackpoint>
                    <Trackpoint>
                        <DistanceMeters>58.72184753417969</DistanceMeters>
                        <Time>2021-07-04T04:41:40.420Z</Time>
                    </Trackpoint>
                    <Trackpoint>
                        <DistanceMeters>108.96165084838867</DistanceMeters>
                        <Time>2021-07-04T04:42:41.500Z</Time>
                    </Trackpoint>
                </Track>
                <DistanceMeters>108.96165084838867</DistanceMeters>
                <TotalTimeSeconds>174.900000076</TotalTimeSeconds>
                <Calories>9.569032669067383</Calories>
                <Intensity>Active</Intensity>
                <TriggerMethod>Manual</TriggerMethod>
            </Lap>
        </Activity>
        <Activity Sport="Walking">
            <Id>2021-07-04T04:41:40.420Z</Id>
            <Lap StartTime="2021-07-04T04:41:40.420Z">
                <Track>
                    <Trackpoint>
                        <DistanceMeters>0.0</DistanceMeters>
                        <Time>2021-07-04T04:41:40.420Z</Time>
                    </Trackpoint>
                    <Trackpoint>
                        <DistanceMeters>50.239803314208984</DistanceMeters>
                        <Time>2021-07-04T04:42:37.827Z</Time>
                    </Trackpoint>
                    <Trackpoint>
                        <DistanceMeters>50.239803314208984</DistanceMeters>
                        <Time>2021-07-04T04:42:41.500Z</Time>
                    </Trackpoint>
                    <Trackpoint>
                        <DistanceMeters>89.38770294189453</DistanceMeters>
                        <Time>2021-07-04T04:43:09.253Z</Time>
                        <Position>
                            <LatitudeDegrees>19.847909927368164</LatitudeDegrees>
                            <LongitudeDegrees>75.3040542602539</LongitudeDegrees>
                        </Position>
                        <AltitudeMeters>478.3498229980469</AltitudeMeters>
                    </Trackpoint>
                    <Trackpoint>
                        <DistanceMeters>89.38770294189453</DistanceMeters>
                        <Time>2021-07-04T04:43:41.860Z</Time>
                    </Trackpoint>
                    <Trackpoint>
                        <DistanceMeters>116.79123306274414</DistanceMeters>
                        <Time>2021-07-04T04:44:23.460Z</Time>
                    </Trackpoint>
                </Track>
                <DistanceMeters>116.79123306274414</DistanceMeters>
                <TotalTimeSeconds>163.040000406</TotalTimeSeconds>
                <Calories>11.150188446044922</Calories>
                <Intensity>Active</Intensity>
                <TriggerMethod>Manual</TriggerMethod>
            </Lap>
        </Activity>
        <Activity Sport="Walking">
            <Id>2021-07-04T04:49:45.260Z</Id>
            <Lap StartTime="2021-07-04T04:49:45.260Z">
                <Track>
                    <Trackpoint>
                        <DistanceMeters>0.0</DistanceMeters>
                        <Time>2021-07-04T04:49:45.260Z</Time>
                    </Trackpoint>
                    <Trackpoint>
                        <DistanceMeters>8.983262062072754</DistanceMeters>
                        <Time>2021-07-04T04:50:06.040Z</Time>
                    </Trackpoint>
                    <Trackpoint>
                        <DistanceMeters>18.117772102355957</DistanceMeters>
                        <Time>2021-07-04T04:50:45.819Z</Time>
                    </Trackpoint>
                </Track>
                <DistanceMeters>18.117772102355957</DistanceMeters>
                <TotalTimeSeconds>60.559</TotalTimeSeconds>
                <Calories>6.392338275909424</Calories>
                <Intensity>Active</Intensity>
                <TriggerMethod>Manual</TriggerMethod>
            </Lap>
        </Activity>
        <Activity Sport="Walking">
            <Id>2021-07-04T04:55:54.899Z</Id>
            <Lap StartTime="2021-07-04T04:55:54.899Z">
                <Track>
                    <Trackpoint>
                        <DistanceMeters>0.0</DistanceMeters>
                        <Time>2021-07-04T04:55:54.899Z</Time>
                    </Trackpoint>
                    <Trackpoint>
                        <DistanceMeters>0.0</DistanceMeters>
                        <Time>2021-07-04T04:56:19.620Z</Time>
                    </Trackpoint>
                    <Trackpoint>
                        <DistanceMeters>25.446134567260742</DistanceMeters>
                        <Time>2021-07-04T04:57:19.260Z</Time>
                    </Trackpoint>
                    <Trackpoint>
                        <DistanceMeters>57.41691970825195</DistanceMeters>
                        <Time>2021-07-04T04:58:20.860Z</Time>
                    </Trackpoint>
                </Track>
                <DistanceMeters>57.41691970825195</DistanceMeters>
                <TotalTimeSeconds>145.961363377</TotalTimeSeconds>
                <Calories>9.60925006866455</Calories>
                <Intensity>Active</Intensity>
                <TriggerMethod>Manual</TriggerMethod>
            </Lap>
        </Activity>
        <Activity Sport="Walking">
            <Id>2021-07-04T04:57:25.934Z</Id>
            <Lap StartTime="2021-07-04T04:57:25.934Z">
                <Track>
                    <Trackpoint>
                        <DistanceMeters>0.0</DistanceMeters>
                        <Time>2021-07-04T04:57:25.934Z</Time>
                    </Trackpoint>
                    <Trackpoint>
                        <DistanceMeters>0.0</DistanceMeters>
                        <Time>2021-07-04T04:59:34.380Z</Time>
                    </Trackpoint>
                    <Trackpoint>
                        <DistanceMeters>44.367618560791016</DistanceMeters>
                        <Time>2021-07-04T05:01:24.900Z</Time>
                    </Trackpoint>
                    <Trackpoint>
                        <DistanceMeters>110.95693588256836</DistanceMeters>
                        <Time>2021-07-04T05:02:26.140Z</Time>
                    </Trackpoint>
                    <Trackpoint>
                        <DistanceMeters>175.00618362426758</DistanceMeters>
                        <Time>2021-07-04T05:03:26.540Z</Time>
                    </Trackpoint>
                    <Trackpoint>
                        <DistanceMeters>235.6973648071289</DistanceMeters>
                        <Time>2021-07-04T05:03:29.594Z</Time>
                        <Position>
                            <LatitudeDegrees>19.848007202148438</LatitudeDegrees>
                            <LongitudeDegrees>75.30459594726562</LongitudeDegrees>
                        </Position>
                        <AltitudeMeters>478.2400207519531</AltitudeMeters>
                    </Trackpoint>
                    <Trackpoint>
                        <DistanceMeters>235.6973648071289</DistanceMeters>
                        <Time>2021-07-04T05:04:28.100Z</Time>
                    </Trackpoint>
                    <Trackpoint>
                        <DistanceMeters>296.30229568481445</DistanceMeters>
                        <Time>2021-07-04T05:05:27.580Z</Time>
                    </Trackpoint>
                    <Trackpoint>
                        <DistanceMeters>359.056209564209</DistanceMeters>
                        <Time>2021-07-04T05:05:31.320Z</Time>
                        <Position>
                            <LatitudeDegrees>19.847909927368164</LatitudeDegrees>
                            <LongitudeDegrees>75.3040542602539</LongitudeDegrees>
                        </Position>
                        <AltitudeMeters>478.0818786621094</AltitudeMeters>
                    </Trackpoint>
                    <Trackpoint>
                        <DistanceMeters>359.056209564209</DistanceMeters>
                        <Time>2021-07-04T05:06:28.740Z</Time>
                    </Trackpoint>
                    <Trackpoint>
                        <DistanceMeters>427.8700828552246</DistanceMeters>
                        <Time>2021-07-04T05:07:29.460Z</Time>
                    </Trackpoint>
                    <Trackpoint>
                        <DistanceMeters>475.50002670288086</DistanceMeters>
                        <Time>2021-07-04T05:07:32.032Z</Time>
                        <Position>
                            <LatitudeDegrees>19.8478946685791</LatitudeDegrees>
                            <LongitudeDegrees>75.30412292480469</LongitudeDegrees>
                        </Position>
                        <AltitudeMeters>478.53228759765625</AltitudeMeters>
                    </Trackpoint>
                    <Trackpoint>
                        <DistanceMeters>475.50002670288086</DistanceMeters>
                        <Time>2021-07-04T05:08:29.940Z</Time>
                    </Trackpoint>
                    <Trackpoint>
                        <DistanceMeters>530.3070869445801</DistanceMeters>
                        <Time>2021-07-04T05:09:31.140Z</Time>
                    </Trackpoint>
                    <Trackpoint>
                        <DistanceMeters>591.2431716918945</DistanceMeters>
                        <Time>2021-07-04T05:09:33.738Z</Time>
                        <Position>
                            <LatitudeDegrees>19.84790802001953</LatitudeDegrees>
                            <LongitudeDegrees>75.3040542602539</LongitudeDegrees>
                        </Position>
                        <AltitudeMeters>478.1582946777344</AltitudeMeters>
                    </Trackpoint>
                    <Trackpoint>
                        <DistanceMeters>591.2431716918945</DistanceMeters>
                        <Time>2021-07-04T05:10:32.100Z</Time>
                    </Trackpoint>
                    <Trackpoint>
                        <DistanceMeters>653.4868927001953</DistanceMeters>
                        <Time>2021-07-04T05:11:32.220Z</Time>
                    </Trackpoint>
                    <Trackpoint>
                        <DistanceMeters>714.2104530334473</DistanceMeters>
                        <Time>2021-07-04T05:12:33.700Z</Time>
                    </Trackpoint>
                    <Trackpoint>
                        <DistanceMeters>744.1179370880127</DistanceMeters>
                        <Time>2021-07-04T05:13:04.460Z</Time>
                    </Trackpoint>
                </Track>
                <DistanceMeters>744.1179370880127</DistanceMeters>
                <TotalTimeSeconds>938.526</TotalTimeSeconds>
                <Calories>79.0027174949646</Calories>
                <Intensity>Active</Intensity>
                <TriggerMethod>Manual</TriggerMethod>
            </Lap>
        </Activity>
        <Activity Sport="Walking">
            <Id>2021-07-04T05:13:04.460Z</Id>
            <Lap StartTime="2021-07-04T05:13:04.460Z">
                <Track>
                    <Trackpoint>
                        <DistanceMeters>0.0</DistanceMeters>
                        <Time>2021-07-04T05:13:04.460Z</Time>
                    </Trackpoint>
                    <Trackpoint>
                        <DistanceMeters>4.464934825897217</DistanceMeters>
                        <Time>2021-07-04T05:13:30.556Z</Time>
                        <Position>
                            <LatitudeDegrees>19.847843170166016</LatitudeDegrees>
                            <LongitudeDegrees>75.30443572998047</LongitudeDegrees>
                        </Position>
                        <AltitudeMeters>478.2600402832031</AltitudeMeters>
                    </Trackpoint>
                    <Trackpoint>
                        <DistanceMeters>28.62474775314331</DistanceMeters>
                        <Time>2021-07-04T05:14:05.056Z</Time>
                    </Trackpoint>
                </Track>
                <DistanceMeters>28.62474775314331</DistanceMeters>
                <TotalTimeSeconds>60.596</TotalTimeSeconds>
                <Calories>6.396243572235107</Calories>
                <Intensity>Active</Intensity>
                <TriggerMethod>Manual</TriggerMethod>
            </Lap>
        </Activity>
        <Activity Sport="Walking">
            <Id>2021-07-04T05:14:05.056Z</Id>
            <Lap StartTime="2021-07-04T05:14:05.056Z">
                <Track>
                    <Trackpoint>
                        <DistanceMeters>0.0</DistanceMeters>
                        <Time>2021-07-04T05:14:05.056Z</Time>
                    </Trackpoint>
                    <Trackpoint>
                        <DistanceMeters>15.605390548706055</DistanceMeters>
                        <Time>2021-07-04T05:14:27.340Z</Time>
                    </Trackpoint>
                </Track>
                <DistanceMeters>15.605390548706055</DistanceMeters>
                <TotalTimeSeconds>22.284362632</TotalTimeSeconds>
                <Calories>2.352238178253174</Calories>
                <Intensity>Active</Intensity>
                <TriggerMethod>Manual</TriggerMethod>
            </Lap>
        </Activity>
        <Activity Sport="Walking">
            <Id>2021-07-04T05:14:27.340Z</Id>
            <Lap StartTime="2021-07-04T05:14:27.340Z">
                <Track>
                    <Trackpoint>
                        <DistanceMeters>0.0</DistanceMeters>
                        <Time>2021-07-04T05:14:27.340Z</Time>
                    </Trackpoint>
                    <Trackpoint>
                        <DistanceMeters>41.10529327392578</DistanceMeters>
                        <Time>2021-07-04T05:15:34.940Z</Time>
                    </Trackpoint>
                    <Trackpoint>
                        <DistanceMeters>92.65002822875977</DistanceMeters>
                        <Time>2021-07-04T05:15:36.071Z</Time>
                        <Position>
                            <LatitudeDegrees>19.847909927368164</LatitudeDegrees>
                            <LongitudeDegrees>75.3040542602539</LongitudeDegrees>
                        </Position>
                        <AltitudeMeters>478.2120056152344</AltitudeMeters>
                    </Trackpoint>
                    <Trackpoint>
                        <DistanceMeters>92.65002822875977</DistanceMeters>
                        <Time>2021-07-04T05:16:35.700Z</Time>
                    </Trackpoint>
                    <Trackpoint>
                        <DistanceMeters>153.38980865478516</DistanceMeters>
                        <Time>2021-07-04T05:17:37.140Z</Time>
                    </Trackpoint>
                    <Trackpoint>
                        <DistanceMeters>204.28207778930664</DistanceMeters>
                        <Time>2021-07-04T05:18:36.100Z</Time>
                    </Trackpoint>
                </Track>
                <DistanceMeters>204.28207778930664</DistanceMeters>
                <TotalTimeSeconds>248.759998145</TotalTimeSeconds>
                <Calories>14.453626275062561</Calories>
                <Intensity>Active</Intensity>
                <TriggerMethod>Manual</TriggerMethod>
            </Lap>
        </Activity>
        <Activity Sport="Walking">
            <Id>2021-07-04T05:17:37.140Z</Id>
            <Lap StartTime="2021-07-04T05:17:37.140Z">
                <Track>
                    <Trackpoint>
                        <DistanceMeters>0.0</DistanceMeters>
                        <Time>2021-07-04T05:17:37.140Z</Time>
                    </Trackpoint>
                    <Trackpoint>
                        <DistanceMeters>50.892269134521484</DistanceMeters>
                        <Time>2021-07-04T05:17:38.040Z</Time>
                    </Trackpoint>
                    <Trackpoint>
                        <DistanceMeters>50.892269134521484</DistanceMeters>
                        <Time>2021-07-04T05:18:36.100Z</Time>
                    </Trackpoint>
                    <Trackpoint>
                        <DistanceMeters>96.5648193359375</DistanceMeters>
                        <Time>2021-07-04T05:19:36.780Z</Time>
                    </Trackpoint>
                    <Trackpoint>
                        <DistanceMeters>113.9683780670166</DistanceMeters>
                        <Time>2021-07-04T05:19:52.060Z</Time>
                    </Trackpoint>
                    <Trackpoint>
                        <DistanceMeters>154.79430198669434</DistanceMeters>
                        <Time>2021-07-04T05:20:35.340Z</Time>
                    </Trackpoint>
                    <Trackpoint>
                        <DistanceMeters>162.623881816864</DistanceMeters>
                        <Time>2021-07-04T05:20:45.900Z</Time>
                    </Trackpoint>
                    <Trackpoint>
                        <DistanceMeters>178.93550634384155</DistanceMeters>
                        <Time>2021-07-04T05:21:46.019Z</Time>
                    </Trackpoint>
                </Track>
                <DistanceMeters>178.93550634384155</DistanceMeters>
                <TotalTimeSeconds>248.878637275</TotalTimeSeconds>
                <Calories>26.175559997558594</Calories>
                <Intensity>Active</Intensity>
                <TriggerMethod>Manual</TriggerMethod>
            </Lap>
        </Activity>
        <Activity Sport="Walking">
            <Id>2021-07-04T05:24:58.300Z</Id>
            <Lap StartTime="2021-07-04T05:24:58.300Z">
                <Track>
                    <Trackpoint>
                        <DistanceMeters>0.0</DistanceMeters>
                        <Time>2021-07-04T05:24:58.300Z</Time>
                    </Trackpoint>
                    <Trackpoint>
                        <DistanceMeters>39.80036544799805</DistanceMeters>
                        <Time>2021-07-04T05:26:18.294Z</Time>
                    </Trackpoint>
                    <Trackpoint>
                        <DistanceMeters>39.80036544799805</DistanceMeters>
                        <Time>2021-07-04T05:26:41.140Z</Time>
                    </Trackpoint>
                    <Trackpoint>
                        <DistanceMeters>84.51925659179688</DistanceMeters>
                        <Time>2021-07-04T05:27:26.380Z</Time>
                    </Trackpoint>
                </Track>
                <DistanceMeters>84.51925659179688</DistanceMeters>
                <TotalTimeSeconds>148.079998423</TotalTimeSeconds>
                <Calories>6.989677429199219</Calories>
                <Intensity>Active</Intensity>
                <TriggerMethod>Manual</TriggerMethod>
            </Lap>
        </Activity>
        <Activity Sport="Walking">
            <Id>2021-07-04T05:26:41.140Z</Id>
            <Lap StartTime="2021-07-04T05:26:41.140Z">
                <Track>
                    <Trackpoint>
                        <DistanceMeters>0.0</DistanceMeters>
                        <Time>2021-07-04T05:26:41.140Z</Time>
                    </Trackpoint>
                    <Trackpoint>
                        <DistanceMeters>44.71889114379883</DistanceMeters>
                        <Time>2021-07-04T05:27:24.512Z</Time>
                    </Trackpoint>
                    <Trackpoint>
                        <DistanceMeters>44.71889114379883</DistanceMeters>
                        <Time>2021-07-04T05:27:26.380Z</Time>
                    </Trackpoint>
                </Track>
                <DistanceMeters>44.71889114379883</DistanceMeters>
                <TotalTimeSeconds>45.239997792</TotalTimeSeconds>
                <Calories>0.19721584022045135</Calories>
                <Intensity>Active</Intensity>
                <TriggerMethod>Manual</TriggerMethod>
            </Lap>
        </Activity>
    </Activities>
    <Author xsi:type="Application_t">
        <Name>Google Fit</Name>
        <Build>
            <Version>
                <VersionMajor>0</VersionMajor>
                <VersionMinor>0</VersionMinor>
                <BuildMajor>0</BuildMajor>
                <BuildMinor>0</BuildMinor>
            </Version>
        </Build>
        <LangID>en</LangID>
        <PartNumber>000-00000-00</PartNumber>
    </Author>
</TrainingCenterDatabase>
