<?xml version="1.0" encoding="UTF-8"?>
<TrainingCenterDatabase
    xmlns="http://www.garmin.com/xmlschemas/TrainingCenterDatabase/v2"
    xmlns:ns2="http://www.garmin.com/xmlschemas/UserProfile/v2"
    xmlns:ns3="http://www.garmin.com/xmlschemas/ActivityExtension/v2"
    xmlns:ns4="http://www.garmin.com/xmlschemas/ProfileExtension/v1"
    xmlns:ns5="http://www.garmin.com/xmlschemas/ActivityGoals/v1"
    xmlns:xsi="http://www.w3.org/2001/XMLSchema-instance" xsi:schemaLocation="http://www.garmin.com/xmlschemas/TrainingCenterDatabase/v2 http://www.garmin.com/xmlschemas/TrainingCenterDatabasev2.xsd">
    <Activities>
        <Activity Sport="Walking">
            <Id>2022-03-26T12:31:48.664Z</Id>
            <Lap StartTime="2022-03-26T12:31:48.664Z">
                <Track>
                    <Trackpoint>
                        <DistanceMeters>0.0</DistanceMeters>
                        <Time>2022-03-26T12:31:48.664Z</Time>
                    </Trackpoint>
                    <Trackpoint>
                        <DistanceMeters>21.53134536743164</DistanceMeters>
                        <Time>2022-03-26T12:32:54.593Z</Time>
                    </Trackpoint>
                    <Trackpoint>
                        <DistanceMeters>30.01339054107666</DistanceMeters>
                        <Time>2022-03-26T12:33:49.200Z</Time>
                    </Trackpoint>
                </Track>
                <DistanceMeters>30.01339054107666</DistanceMeters>
                <TotalTimeSeconds>120.536</TotalTimeSeconds>
                <Calories>12.341547012329102</Calories>
                <Intensity>Active</Intensity>
                <TriggerMethod>Manual</TriggerMethod>
            </Lap>
        </Activity>
        <Activity Sport="Walking">
            <Id>2022-03-26T12:33:49.200Z</Id>
            <Lap StartTime="2022-03-26T12:33:49.200Z">
                <Track>
                    <Trackpoint>
                        <DistanceMeters>0.0</DistanceMeters>
                        <Time>2022-03-26T12:33:49.200Z</Time>
                    </Trackpoint>
                    <Trackpoint>
                        <DistanceMeters>0.0</DistanceMeters>
                        <Time>2022-03-26T12:40:47.533Z</Time>
                    </Trackpoint>
                    <Trackpoint>
                        <DistanceMeters>35.88557434082031</DistanceMeters>
                        <Time>2022-03-26T12:41:30.853Z</Time>
                    </Trackpoint>
                    <Trackpoint>
                        <DistanceMeters>60.21328926086426</DistanceMeters>
                        <Time>2022-03-26T12:41:48.613Z</Time>
                    </Trackpoint>
                    <Trackpoint>
                        <DistanceMeters>118.12201881408691</DistanceMeters>
                        <Time>2022-03-26T12:42:31.653Z</Time>
                    </Trackpoint>
                </Track>
                <DistanceMeters>118.12201881408691</DistanceMeters>
                <TotalTimeSeconds>522.453330182</TotalTimeSeconds>
                <Calories>16.640610218048096</Calories>
                <Intensity>Active</Intensity>
                <TriggerMethod>Manual</TriggerMethod>
            </Lap>
        </Activity>
        <Activity Sport="Walking">
            <Id>2022-03-26T12:41:48.613Z</Id>
            <Lap StartTime="2022-03-26T12:41:48.613Z">
                <Track>
                    <Trackpoint>
                        <DistanceMeters>0.0</DistanceMeters>
                        <Time>2022-03-26T12:41:48.613Z</Time>
                    </Trackpoint>
                    <Trackpoint>
                        <DistanceMeters>57.908729553222656</DistanceMeters>
                        <Time>2022-03-26T12:42:03.247Z</Time>
                    </Trackpoint>
                    <Trackpoint>
                        <DistanceMeters>57.908729553222656</DistanceMeters>
                        <Time>2022-03-26T12:42:31.653Z</Time>
                    </Trackpoint>
                    <Trackpoint>
                        <DistanceMeters>81.5905647277832</DistanceMeters>
                        <Time>2022-03-26T12:42:48.733Z</Time>
                    </Trackpoint>
                    <Trackpoint>
                        <DistanceMeters>141.60926055908203</DistanceMeters>
                        <Time>2022-03-26T12:43:31.853Z</Time>
                    </Trackpoint>
                    <Trackpoint>
                        <DistanceMeters>166.89422225952148</DistanceMeters>
                        <Time>2022-03-26T12:43:49.813Z</Time>
                    </Trackpoint>
                    <Trackpoint>
                        <DistanceMeters>225.98242950439453</DistanceMeters>
                        <Time>2022-03-26T12:44:32.693Z</Time>
                    </Trackpoint>
                    <Trackpoint>
                        <DistanceMeters>249.74273300170898</DistanceMeters>
                        <Time>2022-03-26T12:44:49.653Z</Time>
                    </Trackpoint>
                    <Trackpoint>
                        <DistanceMeters>308.7027702331543</DistanceMeters>
                        <Time>2022-03-26T12:45:32.733Z</Time>
                    </Trackpoint>
                    <Trackpoint>
                        <DistanceMeters>333.93493270874023</DistanceMeters>
                        <Time>2022-03-26T12:45:50.773Z</Time>
                    </Trackpoint>
                    <Trackpoint>
                        <DistanceMeters>390.84852600097656</DistanceMeters>
                        <Time>2022-03-26T12:46:33.693Z</Time>
                    </Trackpoint>
                    <Trackpoint>
                        <DistanceMeters>413.47900772094727</DistanceMeters>
                        <Time>2022-03-26T12:46:50.733Z</Time>
                    </Trackpoint>
                    <Trackpoint>
                        <DistanceMeters>475.0743980407715</DistanceMeters>
                        <Time>2022-03-26T12:47:34.773Z</Time>
                    </Trackpoint>
                    <Trackpoint>
                        <DistanceMeters>497.7048797607422</DistanceMeters>
                        <Time>2022-03-26T12:47:51.813Z</Time>
                    </Trackpoint>
                    <Trackpoint>
                        <DistanceMeters>556.1639099121094</DistanceMeters>
                        <Time>2022-03-26T12:48:35.693Z</Time>
                    </Trackpoint>
                    <Trackpoint>
                        <DistanceMeters>558.3011770248413</DistanceMeters>
                        <Time>2022-03-26T12:48:37.433Z</Time>
                    </Trackpoint>
                    <Trackpoint>
                        <DistanceMeters>630.7247915267944</DistanceMeters>
                        <Time>2022-03-26T12:51:40.413Z</Time>
                    </Trackpoint>
                    <Trackpoint>
                        <DistanceMeters>710.9437398910522</DistanceMeters>
                        <Time>2022-03-26T12:52:41.013Z</Time>
                    </Trackpoint>
                    <Trackpoint>
                        <DistanceMeters>791.0411977767944</DistanceMeters>
                        <Time>2022-03-26T12:53:41.813Z</Time>
                    </Trackpoint>
                    <Trackpoint>
                        <DistanceMeters>871.1628866195679</DistanceMeters>
                        <Time>2022-03-26T12:54:42.573Z</Time>
                    </Trackpoint>
                    <Trackpoint>
                        <DistanceMeters>952.3015584945679</DistanceMeters>
                        <Time>2022-03-26T12:55:43.413Z</Time>
                    </Trackpoint>
                    <Trackpoint>
                        <DistanceMeters>1031.8211889266968</DistanceMeters>
                        <Time>2022-03-26T12:56:43.413Z</Time>
                    </Trackpoint>
                    <Trackpoint>
                        <DistanceMeters>1112.162428855896</DistanceMeters>
                        <Time>2022-03-26T12:57:43.813Z</Time>
                    </Trackpoint>
                    <Trackpoint>
                        <DistanceMeters>1191.463599205017</DistanceMeters>
                        <Time>2022-03-26T12:58:44.173Z</Time>
                    </Trackpoint>
                    <Trackpoint>
                        <DistanceMeters>1272.9001607894897</DistanceMeters>
                        <Time>2022-03-26T12:59:44.533Z</Time>
                    </Trackpoint>
                    <Trackpoint>
                        <DistanceMeters>1356.1114873886108</DistanceMeters>
                        <Time>2022-03-26T13:00:45.493Z</Time>
                    </Trackpoint>
                    <Trackpoint>
                        <DistanceMeters>1440.1735982894897</DistanceMeters>
                        <Time>2022-03-26T13:01:46.813Z</Time>
                    </Trackpoint>
                    <Trackpoint>
                        <DistanceMeters>1523.1772451400757</DistanceMeters>
                        <Time>2022-03-26T13:02:46.413Z</Time>
                    </Trackpoint>
                    <Trackpoint>
                        <DistanceMeters>1524.6493376493454</DistanceMeters>
                        <Time>2022-03-26T13:02:47.493Z</Time>
                    </Trackpoint>
                    <Trackpoint>
                        <DistanceMeters>1606.7738035917282</DistanceMeters>
                        <Time>2022-03-26T13:03:46.773Z</Time>
                    </Trackpoint>
                    <Trackpoint>
                        <DistanceMeters>1608.994787812233</DistanceMeters>
                        <Time>2022-03-26T13:03:48.373Z</Time>
                    </Trackpoint>
                    <Trackpoint>
                        <DistanceMeters>1689.9345232248306</DistanceMeters>
                        <Time>2022-03-26T13:04:47.813Z</Time>
                    </Trackpoint>
                    <Trackpoint>
                        <DistanceMeters>1691.4066157341003</DistanceMeters>
                        <Time>2022-03-26T13:04:48.893Z</Time>
                    </Trackpoint>
                    <Trackpoint>
                        <DistanceMeters>1776.5730357170105</DistanceMeters>
                        <Time>2022-03-26T13:05:48.533Z</Time>
                    </Trackpoint>
                    <Trackpoint>
                        <DistanceMeters>1778.071478009224</DistanceMeters>
                        <Time>2022-03-26T13:05:49.573Z</Time>
                    </Trackpoint>
                    <Trackpoint>
                        <DistanceMeters>1861.7980481386185</DistanceMeters>
                        <Time>2022-03-26T13:06:49.733Z</Time>
                    </Trackpoint>
                    <Trackpoint>
                        <DistanceMeters>1863.2701406478882</DistanceMeters>
                        <Time>2022-03-26T13:06:50.813Z</Time>
                    </Trackpoint>
                    <Trackpoint>
                        <DistanceMeters>1946.1435766220093</DistanceMeters>
                        <Time>2022-03-26T13:07:50.613Z</Time>
                    </Trackpoint>
                    <Trackpoint>
                        <DistanceMeters>2030.4113454818726</DistanceMeters>
                        <Time>2022-03-26T13:08:51.613Z</Time>
                    </Trackpoint>
                    <Trackpoint>
                        <DistanceMeters>2112.9502935409546</DistanceMeters>
                        <Time>2022-03-26T13:09:51.933Z</Time>
                    </Trackpoint>
                    <Trackpoint>
                        <DistanceMeters>2196.3147649765015</DistanceMeters>
                        <Time>2022-03-26T13:10:52.653Z</Time>
                    </Trackpoint>
                    <Trackpoint>
                        <DistanceMeters>2278.524931907654</DistanceMeters>
                        <Time>2022-03-26T13:11:53.493Z</Time>
                    </Trackpoint>
                    <Trackpoint>
                        <DistanceMeters>2325.5024099349976</DistanceMeters>
                        <Time>2022-03-26T13:12:53.573Z</Time>
                    </Trackpoint>
                    <Trackpoint>
                        <DistanceMeters>2356.2288274765015</DistanceMeters>
                        <Time>2022-03-26T13:13:20.273Z</Time>
                    </Trackpoint>
                    <Trackpoint>
                        <DistanceMeters>2415.6031408309937</DistanceMeters>
                        <Time>2022-03-26T13:15:44.833Z</Time>
                    </Trackpoint>
                </Track>
                <DistanceMeters>2415.6031408309937</DistanceMeters>
                <TotalTimeSeconds>2036.219999055</TotalTimeSeconds>
                <Calories>197.83499145507812</Calories>
                <Intensity>Active</Intensity>
                <TriggerMethod>Manual</TriggerMethod>
            </Lap>
        </Activity>
        <Activity Sport="Walking">
            <Id>2022-03-26T13:16:48.580Z</Id>
            <Lap StartTime="2022-03-26T13:16:48.580Z">
                <Track>
                    <Trackpoint>
                        <DistanceMeters>0.0</DistanceMeters>
                        <Time>2022-03-26T13:16:48.580Z</Time>
                    </Trackpoint>
                    <Trackpoint>
                        <DistanceMeters>0.0</DistanceMeters>
                        <Time>2022-03-26T13:17:15.373Z</Time>
                    </Trackpoint>
                    <Trackpoint>
                        <DistanceMeters>15.659159660339355</DistanceMeters>
                        <Time>2022-03-26T13:19:19.233Z</Time>
                    </Trackpoint>
                    <Trackpoint>
                        <DistanceMeters>35.23310947418213</DistanceMeters>
                        <Time>2022-03-26T13:20:50.142Z</Time>
                    </Trackpoint>
                </Track>
                <DistanceMeters>35.23310947418213</DistanceMeters>
                <TotalTimeSeconds>241.562</TotalTimeSeconds>
                <Calories>24.73326301574707</Calories>
                <Intensity>Active</Intensity>
                <TriggerMethod>Manual</TriggerMethod>
            </Lap>
        </Activity>
    </Activities>
    <Author xsi:type="Application_t">
        <Name>Google Fit</Name>
        <Build>
            <Version>
                <VersionMajor>0</VersionMajor>
                <VersionMinor>0</VersionMinor>
                <BuildMajor>0</BuildMajor>
                <BuildMinor>0</BuildMinor>
            </Version>
        </Build>
        <LangID>en</LangID>
        <PartNumber>000-00000-00</PartNumber>
    </Author>
</TrainingCenterDatabase>
