<?xml version="1.0" encoding="UTF-8"?>
<TrainingCenterDatabase
    xmlns="http://www.garmin.com/xmlschemas/TrainingCenterDatabase/v2"
    xmlns:ns2="http://www.garmin.com/xmlschemas/UserProfile/v2"
    xmlns:ns3="http://www.garmin.com/xmlschemas/ActivityExtension/v2"
    xmlns:ns4="http://www.garmin.com/xmlschemas/ProfileExtension/v1"
    xmlns:ns5="http://www.garmin.com/xmlschemas/ActivityGoals/v1"
    xmlns:xsi="http://www.w3.org/2001/XMLSchema-instance" xsi:schemaLocation="http://www.garmin.com/xmlschemas/TrainingCenterDatabase/v2 http://www.garmin.com/xmlschemas/TrainingCenterDatabasev2.xsd">
    <Activities>
        <Activity Sport="Walking">
            <Id>2022-03-02T02:38:06.188Z</Id>
            <Lap StartTime="2022-03-02T02:38:06.188Z">
                <Track>
                    <Trackpoint>
                        <DistanceMeters>0.0</DistanceMeters>
                        <Time>2022-03-02T02:38:06.188Z</Time>
                    </Trackpoint>
                    <Trackpoint>
                        <DistanceMeters>0.0</DistanceMeters>
                        <Time>2022-03-02T03:17:00.000Z</Time>
                    </Trackpoint>
                    <Trackpoint>
                        <DistanceMeters>26.0</DistanceMeters>
                        <Time>2022-03-02T03:17:16.288Z</Time>
                    </Trackpoint>
                    <Trackpoint>
                        <DistanceMeters>26.0</DistanceMeters>
                        <Time>2022-03-02T03:18:00.000Z</Time>
                    </Trackpoint>
                </Track>
                <DistanceMeters>26.0</DistanceMeters>
                <TotalTimeSeconds>2393.811613752</TotalTimeSeconds>
                <Calories>49.02735057473183</Calories>
                <Intensity>Active</Intensity>
                <TriggerMethod>Manual</TriggerMethod>
            </Lap>
        </Activity>
        <Activity Sport="Walking">
            <Id>2022-03-02T03:17:00.000Z</Id>
            <Lap StartTime="2022-03-02T03:17:00.000Z">
                <Track>
                    <Trackpoint>
                        <DistanceMeters>0.0</DistanceMeters>
                        <Time>2022-03-02T03:17:00.000Z</Time>
                    </Trackpoint>
                    <Trackpoint>
                        <DistanceMeters>26.0</DistanceMeters>
                        <Time>2022-03-02T03:17:20.969Z</Time>
                    </Trackpoint>
                    <Trackpoint>
                        <DistanceMeters>26.0</DistanceMeters>
                        <Time>2022-03-02T03:18:00.000Z</Time>
                    </Trackpoint>
                    <Trackpoint>
                        <DistanceMeters>101.0</DistanceMeters>
                        <Time>2022-03-02T03:19:00.000Z</Time>
                    </Trackpoint>
                    <Trackpoint>
                        <DistanceMeters>130.0</DistanceMeters>
                        <Time>2022-03-02T03:20:00.000Z</Time>
                    </Trackpoint>
                    <Trackpoint>
                        <DistanceMeters>164.0</DistanceMeters>
                        <Time>2022-03-02T03:21:00.000Z</Time>
                    </Trackpoint>
                </Track>
                <DistanceMeters>164.0</DistanceMeters>
                <TotalTimeSeconds>240.0</TotalTimeSeconds>
                <Calories>20.74603843688965</Calories>
                <Intensity>Active</Intensity>
                <TriggerMethod>Manual</TriggerMethod>
            </Lap>
        </Activity>
        <Activity Sport="Walking">
            <Id>2022-03-02T03:20:54.601Z</Id>
            <Lap StartTime="2022-03-02T03:20:54.601Z">
                <Track>
                    <Trackpoint>
                        <DistanceMeters>0.0</DistanceMeters>
                        <Time>2022-03-02T03:20:54.601Z</Time>
                    </Trackpoint>
                    <Trackpoint>
                        <DistanceMeters>0.0</DistanceMeters>
                        <Time>2022-03-02T03:21:00.000Z</Time>
                    </Trackpoint>
                    <Trackpoint>
                        <DistanceMeters>39.0</DistanceMeters>
                        <Time>2022-03-02T03:21:42.228Z</Time>
                    </Trackpoint>
                    <Trackpoint>
                        <DistanceMeters>39.0</DistanceMeters>
                        <Time>2022-03-02T03:22:00.000Z</Time>
                    </Trackpoint>
                    <Trackpoint>
                        <DistanceMeters>96.0</DistanceMeters>
                        <Time>2022-03-02T03:23:00.000Z</Time>
                    </Trackpoint>
                </Track>
                <DistanceMeters>96.0</DistanceMeters>
                <TotalTimeSeconds>125.399</TotalTimeSeconds>
                <Calories>3.283644378185272</Calories>
                <Intensity>Active</Intensity>
                <TriggerMethod>Manual</TriggerMethod>
            </Lap>
        </Activity>
        <Activity Sport="Walking">
            <Id>2022-03-02T03:22:00.000Z</Id>
            <Lap StartTime="2022-03-02T03:22:00.000Z">
                <Track>
                    <Trackpoint>
                        <DistanceMeters>0.0</DistanceMeters>
                        <Time>2022-03-02T03:22:00.000Z</Time>
                    </Trackpoint>
                    <Trackpoint>
                        <DistanceMeters>57.0</DistanceMeters>
                        <Time>2022-03-02T03:22:05.905Z</Time>
                    </Trackpoint>
                    <Trackpoint>
                        <DistanceMeters>57.0</DistanceMeters>
                        <Time>2022-03-02T03:23:00.000Z</Time>
                    </Trackpoint>
                    <Trackpoint>
                        <DistanceMeters>87.0</DistanceMeters>
                        <Time>2022-03-02T03:24:00.000Z</Time>
                    </Trackpoint>
                    <Trackpoint>
                        <DistanceMeters>139.0</DistanceMeters>
                        <Time>2022-03-02T03:25:00.000Z</Time>
                    </Trackpoint>
                    <Trackpoint>
                        <DistanceMeters>211.0</DistanceMeters>
                        <Time>2022-03-02T03:26:00.000Z</Time>
                    </Trackpoint>
                    <Trackpoint>
                        <DistanceMeters>270.0</DistanceMeters>
                        <Time>2022-03-02T03:27:00.000Z</Time>
                    </Trackpoint>
                    <Trackpoint>
                        <DistanceMeters>344.0</DistanceMeters>
                        <Time>2022-03-02T03:28:00.000Z</Time>
                    </Trackpoint>
                    <Trackpoint>
                        <DistanceMeters>416.0</DistanceMeters>
                        <Time>2022-03-02T03:29:00.000Z</Time>
                    </Trackpoint>
                    <Trackpoint>
                        <DistanceMeters>458.0</DistanceMeters>
                        <Time>2022-03-02T03:30:00.000Z</Time>
                    </Trackpoint>
                </Track>
                <DistanceMeters>458.0</DistanceMeters>
                <TotalTimeSeconds>480.0</TotalTimeSeconds>
                <Calories>43.56744384765625</Calories>
                <Intensity>Active</Intensity>
                <TriggerMethod>Manual</TriggerMethod>
            </Lap>
        </Activity>
        <Activity Sport="Walking">
            <Id>2022-03-02T03:29:00.000Z</Id>
            <Lap StartTime="2022-03-02T03:29:00.000Z">
                <Track>
                    <Trackpoint>
                        <DistanceMeters>0.0</DistanceMeters>
                        <Time>2022-03-02T03:29:00.000Z</Time>
                    </Trackpoint>
                    <Trackpoint>
                        <DistanceMeters>42.0</DistanceMeters>
                        <Time>2022-03-02T03:29:34.540Z</Time>
                    </Trackpoint>
                    <Trackpoint>
                        <DistanceMeters>42.0</DistanceMeters>
                        <Time>2022-03-02T03:30:00.000Z</Time>
                    </Trackpoint>
                </Track>
                <DistanceMeters>42.0</DistanceMeters>
                <TotalTimeSeconds>60.0</TotalTimeSeconds>
                <Calories>0.018294230103492737</Calories>
                <Intensity>Active</Intensity>
                <TriggerMethod>Manual</TriggerMethod>
            </Lap>
        </Activity>
        <Activity Sport="Walking">
            <Id>2022-03-02T03:33:46.983Z</Id>
            <Lap StartTime="2022-03-02T03:33:46.983Z">
                <Track>
                    <Trackpoint>
                        <DistanceMeters>0.0</DistanceMeters>
                        <Time>2022-03-02T03:33:46.983Z</Time>
                    </Trackpoint>
                    <Trackpoint>
                        <DistanceMeters>0.0</DistanceMeters>
                        <Time>2022-03-02T03:33:56.808Z</Time>
                    </Trackpoint>
                    <Trackpoint>
                        <DistanceMeters>2.2704079151153564</DistanceMeters>
                        <Time>2022-03-02T03:34:00.000Z</Time>
                    </Trackpoint>
                    <Trackpoint>
                        <DistanceMeters>84.27040791511536</DistanceMeters>
                        <Time>2022-03-02T03:35:00.000Z</Time>
                    </Trackpoint>
                    <Trackpoint>
                        <DistanceMeters>108.27040791511536</DistanceMeters>
                        <Time>2022-03-02T03:36:00.000Z</Time>
                    </Trackpoint>
                </Track>
                <DistanceMeters>108.27040791511536</DistanceMeters>
                <TotalTimeSeconds>133.017</TotalTimeSeconds>
                <Calories>11.804146766662598</Calories>
                <Intensity>Active</Intensity>
                <TriggerMethod>Manual</TriggerMethod>
            </Lap>
        </Activity>
        <Activity Sport="Walking">
            <Id>2022-03-02T03:35:48.536Z</Id>
            <Lap StartTime="2022-03-02T03:35:48.536Z">
                <Track>
                    <Trackpoint>
                        <DistanceMeters>0.0</DistanceMeters>
                        <Time>2022-03-02T03:35:48.536Z</Time>
                    </Trackpoint>
                    <Trackpoint>
                        <DistanceMeters>0.0</DistanceMeters>
                        <Time>2022-03-02T03:44:00.000Z</Time>
                    </Trackpoint>
                    <Trackpoint>
                        <DistanceMeters>15.766288757324219</DistanceMeters>
                        <Time>2022-03-02T03:44:48.328Z</Time>
                    </Trackpoint>
                    <Trackpoint>
                        <DistanceMeters>31.61154270172119</DistanceMeters>
                        <Time>2022-03-02T03:45:00.000Z</Time>
                    </Trackpoint>
                </Track>
                <DistanceMeters>31.61154270172119</DistanceMeters>
                <TotalTimeSeconds>551.464</TotalTimeSeconds>
                <Calories>11.787636518478394</Calories>
                <Intensity>Active</Intensity>
                <TriggerMethod>Manual</TriggerMethod>
            </Lap>
        </Activity>
        <Activity Sport="Walking">
            <Id>2022-03-02T03:44:48.328Z</Id>
            <Lap StartTime="2022-03-02T03:44:48.328Z">
                <Track>
                    <Trackpoint>
                        <DistanceMeters>0.0</DistanceMeters>
                        <Time>2022-03-02T03:44:48.328Z</Time>
                    </Trackpoint>
                    <Trackpoint>
                        <DistanceMeters>15.845253944396973</DistanceMeters>
                        <Time>2022-03-02T03:44:54.826Z</Time>
                    </Trackpoint>
                    <Trackpoint>
                        <DistanceMeters>15.845253944396973</DistanceMeters>
                        <Time>2022-03-02T03:45:00.000Z</Time>
                    </Trackpoint>
                    <Trackpoint>
                        <DistanceMeters>94.84525394439697</DistanceMeters>
                        <Time>2022-03-02T03:46:00.000Z</Time>
                    </Trackpoint>
                </Track>
                <DistanceMeters>94.84525394439697</DistanceMeters>
                <TotalTimeSeconds>71.671616363</TotalTimeSeconds>
                <Calories>5.921252250671387</Calories>
                <Intensity>Active</Intensity>
                <TriggerMethod>Manual</TriggerMethod>
            </Lap>
        </Activity>
    </Activities>
    <Author xsi:type="Application_t">
        <Name>Google Fit</Name>
        <Build>
            <Version>
                <VersionMajor>0</VersionMajor>
                <VersionMinor>0</VersionMinor>
                <BuildMajor>0</BuildMajor>
                <BuildMinor>0</BuildMinor>
            </Version>
        </Build>
        <LangID>en</LangID>
        <PartNumber>000-00000-00</PartNumber>
    </Author>
</TrainingCenterDatabase>
