<?xml version="1.0" encoding="UTF-8"?>
<TrainingCenterDatabase
    xmlns="http://www.garmin.com/xmlschemas/TrainingCenterDatabase/v2"
    xmlns:ns2="http://www.garmin.com/xmlschemas/UserProfile/v2"
    xmlns:ns3="http://www.garmin.com/xmlschemas/ActivityExtension/v2"
    xmlns:ns4="http://www.garmin.com/xmlschemas/ProfileExtension/v1"
    xmlns:ns5="http://www.garmin.com/xmlschemas/ActivityGoals/v1"
    xmlns:xsi="http://www.w3.org/2001/XMLSchema-instance" xsi:schemaLocation="http://www.garmin.com/xmlschemas/TrainingCenterDatabase/v2 http://www.garmin.com/xmlschemas/TrainingCenterDatabasev2.xsd">
    <Activities>
        <Activity Sport="Walking">
            <Id>2022-08-20T09:57:22.099Z</Id>
            <Lap StartTime="2022-08-20T09:57:22.099Z">
                <Track>
                    <Trackpoint>
                        <DistanceMeters>0.0</DistanceMeters>
                        <Time>2022-08-20T09:57:22.099Z</Time>
                    </Trackpoint>
                    <Trackpoint>
                        <DistanceMeters>6.984368324279785</DistanceMeters>
                        <Time>2022-08-20T10:00:13.268Z</Time>
                    </Trackpoint>
                    <Trackpoint>
                        <DistanceMeters>45.47980213165283</DistanceMeters>
                        <Time>2022-08-20T10:02:11.268Z</Time>
                    </Trackpoint>
                    <Trackpoint>
                        <DistanceMeters>98.98193073272705</DistanceMeters>
                        <Time>2022-08-20T10:03:31.988Z</Time>
                    </Trackpoint>
                    <Trackpoint>
                        <DistanceMeters>118.4546422958374</DistanceMeters>
                        <Time>2022-08-20T10:03:47.228Z</Time>
                    </Trackpoint>
                    <Trackpoint>
                        <DistanceMeters>192.11916255950928</DistanceMeters>
                        <Time>2022-08-20T10:04:44.628Z</Time>
                    </Trackpoint>
                    <Trackpoint>
                        <DistanceMeters>219.3669729232788</DistanceMeters>
                        <Time>2022-08-20T10:05:08.268Z</Time>
                    </Trackpoint>
                    <Trackpoint>
                        <DistanceMeters>268.98444271087646</DistanceMeters>
                        <Time>2022-08-20T10:05:47.468Z</Time>
                    </Trackpoint>
                    <Trackpoint>
                        <DistanceMeters>324.2547216415405</DistanceMeters>
                        <Time>2022-08-20T10:06:31.388Z</Time>
                    </Trackpoint>
                    <Trackpoint>
                        <DistanceMeters>364.0880308151245</DistanceMeters>
                        <Time>2022-08-20T10:07:02.148Z</Time>
                    </Trackpoint>
                    <Trackpoint>
                        <DistanceMeters>416.30931758880615</DistanceMeters>
                        <Time>2022-08-20T10:07:40.548Z</Time>
                    </Trackpoint>
                    <Trackpoint>
                        <DistanceMeters>490.9104986190796</DistanceMeters>
                        <Time>2022-08-20T10:08:36.388Z</Time>
                    </Trackpoint>
                    <Trackpoint>
                        <DistanceMeters>511.1945104598999</DistanceMeters>
                        <Time>2022-08-20T10:08:50.348Z</Time>
                    </Trackpoint>
                    <Trackpoint>
                        <DistanceMeters>540.5356130599976</DistanceMeters>
                        <Time>2022-08-20T10:09:12.108Z</Time>
                    </Trackpoint>
                    <Trackpoint>
                        <DistanceMeters>588.789553642273</DistanceMeters>
                        <Time>2022-08-20T10:09:48.268Z</Time>
                    </Trackpoint>
                    <Trackpoint>
                        <DistanceMeters>608.7154397964478</DistanceMeters>
                        <Time>2022-08-20T10:10:04.548Z</Time>
                    </Trackpoint>
                    <Trackpoint>
                        <DistanceMeters>656.3928956985474</DistanceMeters>
                        <Time>2022-08-20T10:10:43.508Z</Time>
                    </Trackpoint>
                    <Trackpoint>
                        <DistanceMeters>728.4471025466919</DistanceMeters>
                        <Time>2022-08-20T10:11:40.068Z</Time>
                    </Trackpoint>
                    <Trackpoint>
                        <DistanceMeters>786.4757356643677</DistanceMeters>
                        <Time>2022-08-20T10:12:28.348Z</Time>
                    </Trackpoint>
                    <Trackpoint>
                        <DistanceMeters>830.5801591873169</DistanceMeters>
                        <Time>2022-08-20T10:13:04.428Z</Time>
                    </Trackpoint>
                    <Trackpoint>
                        <DistanceMeters>862.8512010574341</DistanceMeters>
                        <Time>2022-08-20T10:13:30.148Z</Time>
                    </Trackpoint>
                    <Trackpoint>
                        <DistanceMeters>933.9598970413208</DistanceMeters>
                        <Time>2022-08-20T10:14:30.308Z</Time>
                    </Trackpoint>
                    <Trackpoint>
                        <DistanceMeters>964.6244993209839</DistanceMeters>
                        <Time>2022-08-20T10:14:53.388Z</Time>
                    </Trackpoint>
                    <Trackpoint>
                        <DistanceMeters>1003.8850507736206</DistanceMeters>
                        <Time>2022-08-20T10:15:25.148Z</Time>
                    </Trackpoint>
                    <Trackpoint>
                        <DistanceMeters>1046.9937314987183</DistanceMeters>
                        <Time>2022-08-20T10:16:03.148Z</Time>
                    </Trackpoint>
                    <Trackpoint>
                        <DistanceMeters>1096.4955472946167</DistanceMeters>
                        <Time>2022-08-20T10:17:37.348Z</Time>
                    </Trackpoint>
                    <Trackpoint>
                        <DistanceMeters>1112.8071718215942</DistanceMeters>
                        <Time>2022-08-20T10:18:37.348Z</Time>
                    </Trackpoint>
                    <Trackpoint>
                        <DistanceMeters>1120.636751651764</DistanceMeters>
                        <Time>2022-08-20T10:19:10.886Z</Time>
                    </Trackpoint>
                </Track>
                <DistanceMeters>1120.636751651764</DistanceMeters>
                <TotalTimeSeconds>1308.787</TotalTimeSeconds>
                <Calories>134.00523376464844</Calories>
                <Intensity>Active</Intensity>
                <TriggerMethod>Manual</TriggerMethod>
            </Lap>
        </Activity>
    </Activities>
    <Author xsi:type="Application_t">
        <Name>Google Fit</Name>
        <Build>
            <Version>
                <VersionMajor>0</VersionMajor>
                <VersionMinor>0</VersionMinor>
                <BuildMajor>0</BuildMajor>
                <BuildMinor>0</BuildMinor>
            </Version>
        </Build>
        <LangID>en</LangID>
        <PartNumber>000-00000-00</PartNumber>
    </Author>
</TrainingCenterDatabase>
