<?xml version="1.0" encoding="UTF-8"?>
<TrainingCenterDatabase
    xmlns="http://www.garmin.com/xmlschemas/TrainingCenterDatabase/v2"
    xmlns:ns2="http://www.garmin.com/xmlschemas/UserProfile/v2"
    xmlns:ns3="http://www.garmin.com/xmlschemas/ActivityExtension/v2"
    xmlns:ns4="http://www.garmin.com/xmlschemas/ProfileExtension/v1"
    xmlns:ns5="http://www.garmin.com/xmlschemas/ActivityGoals/v1"
    xmlns:xsi="http://www.w3.org/2001/XMLSchema-instance" xsi:schemaLocation="http://www.garmin.com/xmlschemas/TrainingCenterDatabase/v2 http://www.garmin.com/xmlschemas/TrainingCenterDatabasev2.xsd">
    <Activities>
        <Activity Sport="Walking">
            <Id>2022-01-19T14:25:30.067Z</Id>
            <Lap StartTime="2022-01-19T14:25:30.067Z">
                <Track>
                    <Trackpoint>
                        <DistanceMeters>0.0</DistanceMeters>
                        <Time>2022-01-19T14:25:30.067Z</Time>
                    </Trackpoint>
                    <Trackpoint>
                        <DistanceMeters>0.0</DistanceMeters>
                        <Time>2022-01-19T15:15:27.801Z</Time>
                    </Trackpoint>
                    <Trackpoint>
                        <DistanceMeters>34.58064270019531</DistanceMeters>
                        <Time>2022-01-19T15:17:13.801Z</Time>
                    </Trackpoint>
                    <Trackpoint>
                        <DistanceMeters>80.25319290161133</DistanceMeters>
                        <Time>2022-01-19T15:18:14.961Z</Time>
                    </Trackpoint>
                </Track>
                <DistanceMeters>80.25319290161133</DistanceMeters>
                <TotalTimeSeconds>3164.894538895</TotalTimeSeconds>
                <Calories>64.77730083465576</Calories>
                <Intensity>Active</Intensity>
                <TriggerMethod>Manual</TriggerMethod>
            </Lap>
        </Activity>
        <Activity Sport="Walking">
            <Id>2022-01-19T15:17:13.801Z</Id>
            <Lap StartTime="2022-01-19T15:17:13.801Z">
                <Track>
                    <Trackpoint>
                        <DistanceMeters>0.0</DistanceMeters>
                        <Time>2022-01-19T15:17:13.801Z</Time>
                    </Trackpoint>
                    <Trackpoint>
                        <DistanceMeters>45.672550201416016</DistanceMeters>
                        <Time>2022-01-19T15:17:20.269Z</Time>
                    </Trackpoint>
                    <Trackpoint>
                        <DistanceMeters>45.672550201416016</DistanceMeters>
                        <Time>2022-01-19T15:18:14.961Z</Time>
                    </Trackpoint>
                    <Trackpoint>
                        <DistanceMeters>84.82044982910156</DistanceMeters>
                        <Time>2022-01-19T15:19:02.541Z</Time>
                    </Trackpoint>
                    <Trackpoint>
                        <DistanceMeters>112.22397994995117</DistanceMeters>
                        <Time>2022-01-19T15:20:20.481Z</Time>
                    </Trackpoint>
                    <Trackpoint>
                        <DistanceMeters>141.58490371704102</DistanceMeters>
                        <Time>2022-01-19T15:22:23.521Z</Time>
                    </Trackpoint>
                    <Trackpoint>
                        <DistanceMeters>174.8606185913086</DistanceMeters>
                        <Time>2022-01-19T15:23:24.161Z</Time>
                    </Trackpoint>
                    <Trackpoint>
                        <DistanceMeters>231.62507247924805</DistanceMeters>
                        <Time>2022-01-19T15:24:34.441Z</Time>
                    </Trackpoint>
                    <Trackpoint>
                        <DistanceMeters>272.0778999328613</DistanceMeters>
                        <Time>2022-01-19T15:25:53.398Z</Time>
                    </Trackpoint>
                </Track>
                <DistanceMeters>272.0778999328613</DistanceMeters>
                <TotalTimeSeconds>519.596460127</TotalTimeSeconds>
                <Calories>49.83052444458008</Calories>
                <Intensity>Active</Intensity>
                <TriggerMethod>Manual</TriggerMethod>
            </Lap>
        </Activity>
        <Activity Sport="Walking">
            <Id>2022-01-19T15:29:14.081Z</Id>
            <Lap StartTime="2022-01-19T15:29:14.081Z">
                <Track>
                    <Trackpoint>
                        <DistanceMeters>0.0</DistanceMeters>
                        <Time>2022-01-19T15:29:14.081Z</Time>
                    </Trackpoint>
                    <Trackpoint>
                        <DistanceMeters>39.80036544799805</DistanceMeters>
                        <Time>2022-01-19T15:29:54.915Z</Time>
                    </Trackpoint>
                    <Trackpoint>
                        <DistanceMeters>39.80036544799805</DistanceMeters>
                        <Time>2022-01-19T15:30:48.681Z</Time>
                    </Trackpoint>
                </Track>
                <DistanceMeters>39.80036544799805</DistanceMeters>
                <TotalTimeSeconds>94.600001001</TotalTimeSeconds>
                <Calories>3.64224910736084</Calories>
                <Intensity>Active</Intensity>
                <TriggerMethod>Manual</TriggerMethod>
            </Lap>
        </Activity>
    </Activities>
    <Author xsi:type="Application_t">
        <Name>Google Fit</Name>
        <Build>
            <Version>
                <VersionMajor>0</VersionMajor>
                <VersionMinor>0</VersionMinor>
                <BuildMajor>0</BuildMajor>
                <BuildMinor>0</BuildMinor>
            </Version>
        </Build>
        <LangID>en</LangID>
        <PartNumber>000-00000-00</PartNumber>
    </Author>
</TrainingCenterDatabase>
