<?xml version="1.0" encoding="UTF-8"?>
<TrainingCenterDatabase
    xmlns="http://www.garmin.com/xmlschemas/TrainingCenterDatabase/v2"
    xmlns:ns2="http://www.garmin.com/xmlschemas/UserProfile/v2"
    xmlns:ns3="http://www.garmin.com/xmlschemas/ActivityExtension/v2"
    xmlns:ns4="http://www.garmin.com/xmlschemas/ProfileExtension/v1"
    xmlns:ns5="http://www.garmin.com/xmlschemas/ActivityGoals/v1"
    xmlns:xsi="http://www.w3.org/2001/XMLSchema-instance" xsi:schemaLocation="http://www.garmin.com/xmlschemas/TrainingCenterDatabase/v2 http://www.garmin.com/xmlschemas/TrainingCenterDatabasev2.xsd">
    <Activities>
        <Activity Sport="Walking">
            <Id>2022-03-02T14:14:00.908Z</Id>
            <Lap StartTime="2022-03-02T14:14:00.908Z">
                <Track>
                    <Trackpoint>
                        <DistanceMeters>0.0</DistanceMeters>
                        <Time>2022-03-02T14:14:00.908Z</Time>
                    </Trackpoint>
                    <Trackpoint>
                        <DistanceMeters>38.851558685302734</DistanceMeters>
                        <Time>2022-03-02T14:14:54.412Z</Time>
                    </Trackpoint>
                    <Trackpoint>
                        <DistanceMeters>38.851558685302734</DistanceMeters>
                        <Time>2022-03-02T14:16:00.000Z</Time>
                    </Trackpoint>
                    <Trackpoint>
                        <DistanceMeters>101.85155868530273</DistanceMeters>
                        <Time>2022-03-02T14:17:00.000Z</Time>
                    </Trackpoint>
                    <Trackpoint>
                        <DistanceMeters>158.85155868530273</DistanceMeters>
                        <Time>2022-03-02T14:18:00.000Z</Time>
                    </Trackpoint>
                    <Trackpoint>
                        <DistanceMeters>214.85155868530273</DistanceMeters>
                        <Time>2022-03-02T14:19:00.000Z</Time>
                    </Trackpoint>
                    <Trackpoint>
                        <DistanceMeters>260.85155868530273</DistanceMeters>
                        <Time>2022-03-02T14:20:00.000Z</Time>
                    </Trackpoint>
                    <Trackpoint>
                        <DistanceMeters>316.85155868530273</DistanceMeters>
                        <Time>2022-03-02T14:21:00.000Z</Time>
                    </Trackpoint>
                    <Trackpoint>
                        <DistanceMeters>374.85155868530273</DistanceMeters>
                        <Time>2022-03-02T14:22:00.000Z</Time>
                    </Trackpoint>
                    <Trackpoint>
                        <DistanceMeters>431.85155868530273</DistanceMeters>
                        <Time>2022-03-02T14:23:00.000Z</Time>
                    </Trackpoint>
                    <Trackpoint>
                        <DistanceMeters>484.85155868530273</DistanceMeters>
                        <Time>2022-03-02T14:24:00.000Z</Time>
                    </Trackpoint>
                    <Trackpoint>
                        <DistanceMeters>538.8515586853027</DistanceMeters>
                        <Time>2022-03-02T14:25:00.000Z</Time>
                    </Trackpoint>
                    <Trackpoint>
                        <DistanceMeters>589.8515586853027</DistanceMeters>
                        <Time>2022-03-02T14:26:00.000Z</Time>
                    </Trackpoint>
                    <Trackpoint>
                        <DistanceMeters>592.8515586853027</DistanceMeters>
                        <Time>2022-03-02T14:27:00.000Z</Time>
                    </Trackpoint>
                </Track>
                <DistanceMeters>592.8515586853027</DistanceMeters>
                <TotalTimeSeconds>779.091637302</TotalTimeSeconds>
                <Calories>64.93819427490234</Calories>
                <Intensity>Active</Intensity>
                <TriggerMethod>Manual</TriggerMethod>
            </Lap>
        </Activity>
        <Activity Sport="Walking">
            <Id>2022-03-02T14:26:03.112Z</Id>
            <Lap StartTime="2022-03-02T14:26:03.112Z">
                <Track>
                    <Trackpoint>
                        <DistanceMeters>0.0</DistanceMeters>
                        <Time>2022-03-02T14:26:03.112Z</Time>
                    </Trackpoint>
                    <Trackpoint>
                        <DistanceMeters>0.0</DistanceMeters>
                        <Time>2022-03-02T14:32:00.000Z</Time>
                    </Trackpoint>
                    <Trackpoint>
                        <DistanceMeters>36.0</DistanceMeters>
                        <Time>2022-03-02T14:32:55.668Z</Time>
                    </Trackpoint>
                    <Trackpoint>
                        <DistanceMeters>36.0</DistanceMeters>
                        <Time>2022-03-02T14:33:00.000Z</Time>
                    </Trackpoint>
                    <Trackpoint>
                        <DistanceMeters>93.0</DistanceMeters>
                        <Time>2022-03-02T14:34:00.000Z</Time>
                    </Trackpoint>
                </Track>
                <DistanceMeters>93.0</DistanceMeters>
                <TotalTimeSeconds>476.888</TotalTimeSeconds>
                <Calories>10.61094617843628</Calories>
                <Intensity>Active</Intensity>
                <TriggerMethod>Manual</TriggerMethod>
            </Lap>
        </Activity>
        <Activity Sport="Walking">
            <Id>2022-03-02T14:33:00.000Z</Id>
            <Lap StartTime="2022-03-02T14:33:00.000Z">
                <Track>
                    <Trackpoint>
                        <DistanceMeters>0.0</DistanceMeters>
                        <Time>2022-03-02T14:33:00.000Z</Time>
                    </Trackpoint>
                    <Trackpoint>
                        <DistanceMeters>57.0</DistanceMeters>
                        <Time>2022-03-02T14:33:17.129Z</Time>
                    </Trackpoint>
                    <Trackpoint>
                        <DistanceMeters>57.0</DistanceMeters>
                        <Time>2022-03-02T14:34:00.000Z</Time>
                    </Trackpoint>
                    <Trackpoint>
                        <DistanceMeters>90.0</DistanceMeters>
                        <Time>2022-03-02T14:35:19.105Z</Time>
                    </Trackpoint>
                </Track>
                <DistanceMeters>90.0</DistanceMeters>
                <TotalTimeSeconds>139.105</TotalTimeSeconds>
                <Calories>11.845224380493164</Calories>
                <Intensity>Active</Intensity>
                <TriggerMethod>Manual</TriggerMethod>
            </Lap>
        </Activity>
        <Activity Sport="Walking">
            <Id>2022-03-02T14:35:19.105Z</Id>
            <Lap StartTime="2022-03-02T14:35:19.105Z">
                <Track>
                    <Trackpoint>
                        <DistanceMeters>0.0</DistanceMeters>
                        <Time>2022-03-02T14:35:19.105Z</Time>
                    </Trackpoint>
                    <Trackpoint>
                        <DistanceMeters>0.0</DistanceMeters>
                        <Time>2022-03-02T14:40:00.000Z</Time>
                    </Trackpoint>
                    <Trackpoint>
                        <DistanceMeters>50.0</DistanceMeters>
                        <Time>2022-03-02T14:40:13.848Z</Time>
                    </Trackpoint>
                    <Trackpoint>
                        <DistanceMeters>50.0</DistanceMeters>
                        <Time>2022-03-02T14:41:00.000Z</Time>
                    </Trackpoint>
                </Track>
                <DistanceMeters>50.0</DistanceMeters>
                <TotalTimeSeconds>340.895</TotalTimeSeconds>
                <Calories>7.776425361633301</Calories>
                <Intensity>Active</Intensity>
                <TriggerMethod>Manual</TriggerMethod>
            </Lap>
        </Activity>
        <Activity Sport="Walking">
            <Id>2022-03-02T14:40:00.000Z</Id>
            <Lap StartTime="2022-03-02T14:40:00.000Z">
                <Track>
                    <Trackpoint>
                        <DistanceMeters>0.0</DistanceMeters>
                        <Time>2022-03-02T14:40:00.000Z</Time>
                    </Trackpoint>
                    <Trackpoint>
                        <DistanceMeters>50.0</DistanceMeters>
                        <Time>2022-03-02T14:40:31.195Z</Time>
                    </Trackpoint>
                    <Trackpoint>
                        <DistanceMeters>50.0</DistanceMeters>
                        <Time>2022-03-02T14:41:00.000Z</Time>
                    </Trackpoint>
                    <Trackpoint>
                        <DistanceMeters>81.0</DistanceMeters>
                        <Time>2022-03-02T14:42:00.000Z</Time>
                    </Trackpoint>
                    <Trackpoint>
                        <DistanceMeters>128.0</DistanceMeters>
                        <Time>2022-03-02T14:43:02.385Z</Time>
                    </Trackpoint>
                </Track>
                <DistanceMeters>128.0</DistanceMeters>
                <TotalTimeSeconds>182.385</TotalTimeSeconds>
                <Calories>14.68222713470459</Calories>
                <Intensity>Active</Intensity>
                <TriggerMethod>Manual</TriggerMethod>
            </Lap>
        </Activity>
        <Activity Sport="Walking">
            <Id>2022-03-02T14:43:02.385Z</Id>
            <Lap StartTime="2022-03-02T14:43:02.385Z">
                <Track>
                    <Trackpoint>
                        <DistanceMeters>0.0</DistanceMeters>
                        <Time>2022-03-02T14:43:02.385Z</Time>
                    </Trackpoint>
                    <Trackpoint>
                        <DistanceMeters>0.0</DistanceMeters>
                        <Time>2022-03-02T14:47:00.000Z</Time>
                    </Trackpoint>
                    <Trackpoint>
                        <DistanceMeters>32.0</DistanceMeters>
                        <Time>2022-03-02T14:47:07.028Z</Time>
                    </Trackpoint>
                    <Trackpoint>
                        <DistanceMeters>32.0</DistanceMeters>
                        <Time>2022-03-02T14:48:00.000Z</Time>
                    </Trackpoint>
                    <Trackpoint>
                        <DistanceMeters>78.0</DistanceMeters>
                        <Time>2022-03-02T14:49:00.000Z</Time>
                    </Trackpoint>
                </Track>
                <DistanceMeters>78.0</DistanceMeters>
                <TotalTimeSeconds>357.615</TotalTimeSeconds>
                <Calories>13.350999355316162</Calories>
                <Intensity>Active</Intensity>
                <TriggerMethod>Manual</TriggerMethod>
            </Lap>
        </Activity>
        <Activity Sport="Walking">
            <Id>2022-03-02T14:48:00.000Z</Id>
            <Lap StartTime="2022-03-02T14:48:00.000Z">
                <Track>
                    <Trackpoint>
                        <DistanceMeters>0.0</DistanceMeters>
                        <Time>2022-03-02T14:48:00.000Z</Time>
                    </Trackpoint>
                    <Trackpoint>
                        <DistanceMeters>46.0</DistanceMeters>
                        <Time>2022-03-02T14:48:32.442Z</Time>
                    </Trackpoint>
                    <Trackpoint>
                        <DistanceMeters>46.0</DistanceMeters>
                        <Time>2022-03-02T14:49:00.000Z</Time>
                    </Trackpoint>
                    <Trackpoint>
                        <DistanceMeters>99.0</DistanceMeters>
                        <Time>2022-03-02T14:50:00.000Z</Time>
                    </Trackpoint>
                </Track>
                <DistanceMeters>99.0</DistanceMeters>
                <TotalTimeSeconds>120.0</TotalTimeSeconds>
                <Calories>8.22181510925293</Calories>
                <Intensity>Active</Intensity>
                <TriggerMethod>Manual</TriggerMethod>
            </Lap>
        </Activity>
        <Activity Sport="Walking">
            <Id>2022-03-02T14:52:00.000Z</Id>
            <Lap StartTime="2022-03-02T14:52:00.000Z">
                <Track>
                    <Trackpoint>
                        <DistanceMeters>0.0</DistanceMeters>
                        <Time>2022-03-02T14:52:00.000Z</Time>
                    </Trackpoint>
                    <Trackpoint>
                        <DistanceMeters>48.0</DistanceMeters>
                        <Time>2022-03-02T14:52:59.731Z</Time>
                    </Trackpoint>
                    <Trackpoint>
                        <DistanceMeters>48.0</DistanceMeters>
                        <Time>2022-03-02T14:53:00.000Z</Time>
                    </Trackpoint>
                    <Trackpoint>
                        <DistanceMeters>87.0</DistanceMeters>
                        <Time>2022-03-02T14:54:00.000Z</Time>
                    </Trackpoint>
                    <Trackpoint>
                        <DistanceMeters>116.0</DistanceMeters>
                        <Time>2022-03-02T14:55:00.000Z</Time>
                    </Trackpoint>
                    <Trackpoint>
                        <DistanceMeters>197.0</DistanceMeters>
                        <Time>2022-03-02T14:56:00.000Z</Time>
                    </Trackpoint>
                    <Trackpoint>
                        <DistanceMeters>220.0</DistanceMeters>
                        <Time>2022-03-02T14:57:00.000Z</Time>
                    </Trackpoint>
                    <Trackpoint>
                        <DistanceMeters>274.0</DistanceMeters>
                        <Time>2022-03-02T14:58:00.000Z</Time>
                    </Trackpoint>
                    <Trackpoint>
                        <DistanceMeters>315.0</DistanceMeters>
                        <Time>2022-03-02T14:59:00.000Z</Time>
                    </Trackpoint>
                </Track>
                <DistanceMeters>315.0</DistanceMeters>
                <TotalTimeSeconds>420.0</TotalTimeSeconds>
                <Calories>29.57732391357422</Calories>
                <Intensity>Active</Intensity>
                <TriggerMethod>Manual</TriggerMethod>
            </Lap>
        </Activity>
        <Activity Sport="Walking">
            <Id>2022-03-02T14:58:04.303Z</Id>
            <Lap StartTime="2022-03-02T14:58:04.303Z">
                <Track>
                    <Trackpoint>
                        <DistanceMeters>0.0</DistanceMeters>
                        <Time>2022-03-02T14:58:04.303Z</Time>
                    </Trackpoint>
                    <Trackpoint>
                        <DistanceMeters>0.0</DistanceMeters>
                        <Time>2022-03-02T15:03:00.000Z</Time>
                    </Trackpoint>
                    <Trackpoint>
                        <DistanceMeters>55.0</DistanceMeters>
                        <Time>2022-03-02T15:03:12.028Z</Time>
                    </Trackpoint>
                    <Trackpoint>
                        <DistanceMeters>55.0</DistanceMeters>
                        <Time>2022-03-02T15:04:00.000Z</Time>
                    </Trackpoint>
                </Track>
                <DistanceMeters>55.0</DistanceMeters>
                <TotalTimeSeconds>355.697</TotalTimeSeconds>
                <Calories>9.383321285247803</Calories>
                <Intensity>Active</Intensity>
                <TriggerMethod>Manual</TriggerMethod>
            </Lap>
        </Activity>
        <Activity Sport="Walking">
            <Id>2022-03-02T15:03:00.000Z</Id>
            <Lap StartTime="2022-03-02T15:03:00.000Z">
                <Track>
                    <Trackpoint>
                        <DistanceMeters>0.0</DistanceMeters>
                        <Time>2022-03-02T15:03:00.000Z</Time>
                    </Trackpoint>
                    <Trackpoint>
                        <DistanceMeters>55.0</DistanceMeters>
                        <Time>2022-03-02T15:03:43.159Z</Time>
                    </Trackpoint>
                    <Trackpoint>
                        <DistanceMeters>55.0</DistanceMeters>
                        <Time>2022-03-02T15:04:00.000Z</Time>
                    </Trackpoint>
                    <Trackpoint>
                        <DistanceMeters>108.0</DistanceMeters>
                        <Time>2022-03-02T15:05:00.000Z</Time>
                    </Trackpoint>
                    <Trackpoint>
                        <DistanceMeters>171.0</DistanceMeters>
                        <Time>2022-03-02T15:06:00.000Z</Time>
                    </Trackpoint>
                    <Trackpoint>
                        <DistanceMeters>194.0</DistanceMeters>
                        <Time>2022-03-02T15:07:00.000Z</Time>
                    </Trackpoint>
                </Track>
                <DistanceMeters>194.0</DistanceMeters>
                <TotalTimeSeconds>240.0</TotalTimeSeconds>
                <Calories>19.076313018798828</Calories>
                <Intensity>Active</Intensity>
                <TriggerMethod>Manual</TriggerMethod>
            </Lap>
        </Activity>
        <Activity Sport="Walking">
            <Id>2022-03-02T15:06:59.597Z</Id>
            <Lap StartTime="2022-03-02T15:06:59.597Z">
                <Track>
                    <Trackpoint>
                        <DistanceMeters>0.0</DistanceMeters>
                        <Time>2022-03-02T15:06:59.597Z</Time>
                    </Trackpoint>
                    <Trackpoint>
                        <DistanceMeters>0.0</DistanceMeters>
                        <Time>2022-03-02T15:10:00.000Z</Time>
                    </Trackpoint>
                    <Trackpoint>
                        <DistanceMeters>52.0</DistanceMeters>
                        <Time>2022-03-02T15:10:58.388Z</Time>
                    </Trackpoint>
                    <Trackpoint>
                        <DistanceMeters>52.0</DistanceMeters>
                        <Time>2022-03-02T15:11:00.000Z</Time>
                    </Trackpoint>
                    <Trackpoint>
                        <DistanceMeters>129.0</DistanceMeters>
                        <Time>2022-03-02T15:12:00.000Z</Time>
                    </Trackpoint>
                </Track>
                <DistanceMeters>129.0</DistanceMeters>
                <TotalTimeSeconds>300.403</TotalTimeSeconds>
                <Calories>5.287525057792664</Calories>
                <Intensity>Active</Intensity>
                <TriggerMethod>Manual</TriggerMethod>
            </Lap>
        </Activity>
        <Activity Sport="Walking">
            <Id>2022-03-02T15:11:00.000Z</Id>
            <Lap StartTime="2022-03-02T15:11:00.000Z">
                <Track>
                    <Trackpoint>
                        <DistanceMeters>0.0</DistanceMeters>
                        <Time>2022-03-02T15:11:00.000Z</Time>
                    </Trackpoint>
                    <Trackpoint>
                        <DistanceMeters>77.0</DistanceMeters>
                        <Time>2022-03-02T15:11:02.014Z</Time>
                    </Trackpoint>
                    <Trackpoint>
                        <DistanceMeters>77.0</DistanceMeters>
                        <Time>2022-03-02T15:12:00.000Z</Time>
                    </Trackpoint>
                    <Trackpoint>
                        <DistanceMeters>152.0</DistanceMeters>
                        <Time>2022-03-02T15:13:00.000Z</Time>
                    </Trackpoint>
                    <Trackpoint>
                        <DistanceMeters>224.0</DistanceMeters>
                        <Time>2022-03-02T15:14:00.000Z</Time>
                    </Trackpoint>
                    <Trackpoint>
                        <DistanceMeters>252.0</DistanceMeters>
                        <Time>2022-03-02T15:15:00.000Z</Time>
                    </Trackpoint>
                </Track>
                <DistanceMeters>252.0</DistanceMeters>
                <TotalTimeSeconds>240.0</TotalTimeSeconds>
                <Calories>17.609060287475586</Calories>
                <Intensity>Active</Intensity>
                <TriggerMethod>Manual</TriggerMethod>
            </Lap>
        </Activity>
        <Activity Sport="Walking">
            <Id>2022-03-02T15:18:00.000Z</Id>
            <Lap StartTime="2022-03-02T15:18:00.000Z">
                <Track>
                    <Trackpoint>
                        <DistanceMeters>0.0</DistanceMeters>
                        <Time>2022-03-02T15:18:00.000Z</Time>
                    </Trackpoint>
                    <Trackpoint>
                        <DistanceMeters>50.0</DistanceMeters>
                        <Time>2022-03-02T15:18:28.118Z</Time>
                    </Trackpoint>
                    <Trackpoint>
                        <DistanceMeters>50.0</DistanceMeters>
                        <Time>2022-03-02T15:19:00.000Z</Time>
                    </Trackpoint>
                    <Trackpoint>
                        <DistanceMeters>116.0</DistanceMeters>
                        <Time>2022-03-02T15:20:00.000Z</Time>
                    </Trackpoint>
                    <Trackpoint>
                        <DistanceMeters>188.0</DistanceMeters>
                        <Time>2022-03-02T15:21:00.000Z</Time>
                    </Trackpoint>
                    <Trackpoint>
                        <DistanceMeters>248.0</DistanceMeters>
                        <Time>2022-03-02T15:22:00.000Z</Time>
                    </Trackpoint>
                    <Trackpoint>
                        <DistanceMeters>274.0</DistanceMeters>
                        <Time>2022-03-02T15:23:00.000Z</Time>
                    </Trackpoint>
                    <Trackpoint>
                        <DistanceMeters>332.0</DistanceMeters>
                        <Time>2022-03-02T15:24:00.000Z</Time>
                    </Trackpoint>
                    <Trackpoint>
                        <DistanceMeters>371.0</DistanceMeters>
                        <Time>2022-03-02T15:25:00.000Z</Time>
                    </Trackpoint>
                    <Trackpoint>
                        <DistanceMeters>416.0</DistanceMeters>
                        <Time>2022-03-02T15:26:00.000Z</Time>
                    </Trackpoint>
                    <Trackpoint>
                        <DistanceMeters>456.0</DistanceMeters>
                        <Time>2022-03-02T15:27:00.000Z</Time>
                    </Trackpoint>
                </Track>
                <DistanceMeters>456.0</DistanceMeters>
                <TotalTimeSeconds>540.0</TotalTimeSeconds>
                <Calories>46.662078857421875</Calories>
                <Intensity>Active</Intensity>
                <TriggerMethod>Manual</TriggerMethod>
            </Lap>
        </Activity>
        <Activity Sport="Walking">
            <Id>2022-03-02T15:26:00.000Z</Id>
            <Lap StartTime="2022-03-02T15:26:00.000Z">
                <Track>
                    <Trackpoint>
                        <DistanceMeters>0.0</DistanceMeters>
                        <Time>2022-03-02T15:26:00.000Z</Time>
                    </Trackpoint>
                    <Trackpoint>
                        <DistanceMeters>40.0</DistanceMeters>
                        <Time>2022-03-02T15:26:28.620Z</Time>
                    </Trackpoint>
                    <Trackpoint>
                        <DistanceMeters>40.0</DistanceMeters>
                        <Time>2022-03-02T15:27:00.000Z</Time>
                    </Trackpoint>
                </Track>
                <DistanceMeters>40.0</DistanceMeters>
                <TotalTimeSeconds>60.0</TotalTimeSeconds>
                <Calories>0.7699323892593384</Calories>
                <Intensity>Active</Intensity>
                <TriggerMethod>Manual</TriggerMethod>
            </Lap>
        </Activity>
        <Activity Sport="Walking">
            <Id>2022-03-02T15:26:36.548Z</Id>
            <Lap StartTime="2022-03-02T15:26:36.548Z">
                <Track>
                    <Trackpoint>
                        <DistanceMeters>0.0</DistanceMeters>
                        <Time>2022-03-02T15:26:36.548Z</Time>
                    </Trackpoint>
                    <Trackpoint>
                        <DistanceMeters>0.0</DistanceMeters>
                        <Time>2022-03-02T15:30:00.000Z</Time>
                    </Trackpoint>
                    <Trackpoint>
                        <DistanceMeters>52.0</DistanceMeters>
                        <Time>2022-03-02T15:30:09.348Z</Time>
                    </Trackpoint>
                    <Trackpoint>
                        <DistanceMeters>52.0</DistanceMeters>
                        <Time>2022-03-02T15:31:00.000Z</Time>
                    </Trackpoint>
                </Track>
                <DistanceMeters>52.0</DistanceMeters>
                <TotalTimeSeconds>263.451634517</TotalTimeSeconds>
                <Calories>6.641272306442261</Calories>
                <Intensity>Active</Intensity>
                <TriggerMethod>Manual</TriggerMethod>
            </Lap>
        </Activity>
        <Activity Sport="Walking">
            <Id>2022-03-02T15:30:00.000Z</Id>
            <Lap StartTime="2022-03-02T15:30:00.000Z">
                <Track>
                    <Trackpoint>
                        <DistanceMeters>0.0</DistanceMeters>
                        <Time>2022-03-02T15:30:00.000Z</Time>
                    </Trackpoint>
                    <Trackpoint>
                        <DistanceMeters>52.0</DistanceMeters>
                        <Time>2022-03-02T15:30:32.446Z</Time>
                    </Trackpoint>
                    <Trackpoint>
                        <DistanceMeters>52.0</DistanceMeters>
                        <Time>2022-03-02T15:31:00.000Z</Time>
                    </Trackpoint>
                    <Trackpoint>
                        <DistanceMeters>90.0</DistanceMeters>
                        <Time>2022-03-02T15:32:00.000Z</Time>
                    </Trackpoint>
                    <Trackpoint>
                        <DistanceMeters>151.0</DistanceMeters>
                        <Time>2022-03-02T15:33:00.000Z</Time>
                    </Trackpoint>
                    <Trackpoint>
                        <DistanceMeters>199.0</DistanceMeters>
                        <Time>2022-03-02T15:34:00.000Z</Time>
                    </Trackpoint>
                    <Trackpoint>
                        <DistanceMeters>260.0</DistanceMeters>
                        <Time>2022-03-02T15:35:00.000Z</Time>
                    </Trackpoint>
                    <Trackpoint>
                        <DistanceMeters>321.0</DistanceMeters>
                        <Time>2022-03-02T15:36:00.000Z</Time>
                    </Trackpoint>
                    <Trackpoint>
                        <DistanceMeters>391.0</DistanceMeters>
                        <Time>2022-03-02T15:37:00.000Z</Time>
                    </Trackpoint>
                    <Trackpoint>
                        <DistanceMeters>454.0</DistanceMeters>
                        <Time>2022-03-02T15:38:00.000Z</Time>
                    </Trackpoint>
                    <Trackpoint>
                        <DistanceMeters>525.0</DistanceMeters>
                        <Time>2022-03-02T15:39:00.000Z</Time>
                    </Trackpoint>
                    <Trackpoint>
                        <DistanceMeters>599.0</DistanceMeters>
                        <Time>2022-03-02T15:40:00.000Z</Time>
                    </Trackpoint>
                    <Trackpoint>
                        <DistanceMeters>673.0</DistanceMeters>
                        <Time>2022-03-02T15:41:00.000Z</Time>
                    </Trackpoint>
                    <Trackpoint>
                        <DistanceMeters>740.0</DistanceMeters>
                        <Time>2022-03-02T15:42:00.000Z</Time>
                    </Trackpoint>
                    <Trackpoint>
                        <DistanceMeters>809.0</DistanceMeters>
                        <Time>2022-03-02T15:43:00.000Z</Time>
                    </Trackpoint>
                    <Trackpoint>
                        <DistanceMeters>880.0</DistanceMeters>
                        <Time>2022-03-02T15:44:00.000Z</Time>
                    </Trackpoint>
                    <Trackpoint>
                        <DistanceMeters>944.0</DistanceMeters>
                        <Time>2022-03-02T15:45:00.000Z</Time>
                    </Trackpoint>
                    <Trackpoint>
                        <DistanceMeters>990.0</DistanceMeters>
                        <Time>2022-03-02T15:46:00.000Z</Time>
                    </Trackpoint>
                    <Trackpoint>
                        <DistanceMeters>1007.0</DistanceMeters>
                        <Time>2022-03-02T15:47:00.000Z</Time>
                    </Trackpoint>
                    <Trackpoint>
                        <DistanceMeters>1066.0</DistanceMeters>
                        <Time>2022-03-02T15:48:00.000Z</Time>
                    </Trackpoint>
                    <Trackpoint>
                        <DistanceMeters>1086.0</DistanceMeters>
                        <Time>2022-03-02T15:49:00.000Z</Time>
                    </Trackpoint>
                </Track>
                <DistanceMeters>1086.0</DistanceMeters>
                <TotalTimeSeconds>1140.0</TotalTimeSeconds>
                <Calories>106.89387512207031</Calories>
                <Intensity>Active</Intensity>
                <TriggerMethod>Manual</TriggerMethod>
            </Lap>
        </Activity>
    </Activities>
    <Author xsi:type="Application_t">
        <Name>Google Fit</Name>
        <Build>
            <Version>
                <VersionMajor>0</VersionMajor>
                <VersionMinor>0</VersionMinor>
                <BuildMajor>0</BuildMajor>
                <BuildMinor>0</BuildMinor>
            </Version>
        </Build>
        <LangID>en</LangID>
        <PartNumber>000-00000-00</PartNumber>
    </Author>
</TrainingCenterDatabase>
