<?xml version="1.0" encoding="UTF-8"?>
<TrainingCenterDatabase
    xmlns="http://www.garmin.com/xmlschemas/TrainingCenterDatabase/v2"
    xmlns:ns2="http://www.garmin.com/xmlschemas/UserProfile/v2"
    xmlns:ns3="http://www.garmin.com/xmlschemas/ActivityExtension/v2"
    xmlns:ns4="http://www.garmin.com/xmlschemas/ProfileExtension/v1"
    xmlns:ns5="http://www.garmin.com/xmlschemas/ActivityGoals/v1"
    xmlns:xsi="http://www.w3.org/2001/XMLSchema-instance" xsi:schemaLocation="http://www.garmin.com/xmlschemas/TrainingCenterDatabase/v2 http://www.garmin.com/xmlschemas/TrainingCenterDatabasev2.xsd">
    <Activities>
        <Activity Sport="Walking">
            <Id>2022-03-03T13:35:00.000Z</Id>
            <Lap StartTime="2022-03-03T13:35:00.000Z">
                <Track>
                    <Trackpoint>
                        <DistanceMeters>0.0</DistanceMeters>
                        <Time>2022-03-03T13:35:00.000Z</Time>
                    </Trackpoint>
                    <Trackpoint>
                        <DistanceMeters>22.0</DistanceMeters>
                        <Time>2022-03-03T13:35:18.932Z</Time>
                    </Trackpoint>
                    <Trackpoint>
                        <DistanceMeters>22.0</DistanceMeters>
                        <Time>2022-03-03T13:36:00.000Z</Time>
                    </Trackpoint>
                </Track>
                <DistanceMeters>22.0</DistanceMeters>
                <TotalTimeSeconds>60.0</TotalTimeSeconds>
                <Calories>1.2009730339050293</Calories>
                <Intensity>Active</Intensity>
                <TriggerMethod>Manual</TriggerMethod>
            </Lap>
        </Activity>
        <Activity Sport="Walking">
            <Id>2022-03-03T13:36:00.000Z</Id>
            <Lap StartTime="2022-03-03T13:36:00.000Z">
                <Track>
                    <Trackpoint>
                        <DistanceMeters>0.0</DistanceMeters>
                        <Time>2022-03-03T13:36:00.000Z</Time>
                    </Trackpoint>
                    <Trackpoint>
                        <DistanceMeters>38.0</DistanceMeters>
                        <Time>2022-03-03T13:36:19.890Z</Time>
                    </Trackpoint>
                    <Trackpoint>
                        <DistanceMeters>38.0</DistanceMeters>
                        <Time>2022-03-03T13:37:04.228Z</Time>
                    </Trackpoint>
                    <Trackpoint>
                        <DistanceMeters>56.194528579711914</DistanceMeters>
                        <Time>2022-03-03T13:38:00.000Z</Time>
                    </Trackpoint>
                    <Trackpoint>
                        <DistanceMeters>117.19452857971191</DistanceMeters>
                        <Time>2022-03-03T13:39:00.000Z</Time>
                    </Trackpoint>
                    <Trackpoint>
                        <DistanceMeters>150.1945285797119</DistanceMeters>
                        <Time>2022-03-03T13:40:00.000Z</Time>
                    </Trackpoint>
                    <Trackpoint>
                        <DistanceMeters>173.8271083831787</DistanceMeters>
                        <Time>2022-03-03T13:40:32.428Z</Time>
                    </Trackpoint>
                    <Trackpoint>
                        <DistanceMeters>250.9941692352295</DistanceMeters>
                        <Time>2022-03-03T13:41:32.828Z</Time>
                    </Trackpoint>
                    <Trackpoint>
                        <DistanceMeters>325.63436698913574</DistanceMeters>
                        <Time>2022-03-03T13:42:34.028Z</Time>
                    </Trackpoint>
                    <Trackpoint>
                        <DistanceMeters>399.14288902282715</DistanceMeters>
                        <Time>2022-03-03T13:43:35.428Z</Time>
                    </Trackpoint>
                    <Trackpoint>
                        <DistanceMeters>470.6742916107178</DistanceMeters>
                        <Time>2022-03-03T13:44:34.788Z</Time>
                    </Trackpoint>
                    <Trackpoint>
                        <DistanceMeters>544.4611263275146</DistanceMeters>
                        <Time>2022-03-03T13:45:35.668Z</Time>
                    </Trackpoint>
                    <Trackpoint>
                        <DistanceMeters>610.4798259735107</DistanceMeters>
                        <Time>2022-03-03T13:46:36.028Z</Time>
                    </Trackpoint>
                    <Trackpoint>
                        <DistanceMeters>681.3607845306396</DistanceMeters>
                        <Time>2022-03-03T13:47:36.628Z</Time>
                    </Trackpoint>
                    <Trackpoint>
                        <DistanceMeters>749.1233196258545</DistanceMeters>
                        <Time>2022-03-03T13:49:40.488Z</Time>
                    </Trackpoint>
                    <Trackpoint>
                        <DistanceMeters>770.0021991729736</DistanceMeters>
                        <Time>2022-03-03T13:50:03.948Z</Time>
                    </Trackpoint>
                    <Trackpoint>
                        <DistanceMeters>798.0581932067871</DistanceMeters>
                        <Time>2022-03-03T13:53:34.008Z</Time>
                    </Trackpoint>
                </Track>
                <DistanceMeters>798.0581932067871</DistanceMeters>
                <TotalTimeSeconds>1054.008</TotalTimeSeconds>
                <Calories>100.4243392944336</Calories>
                <Intensity>Active</Intensity>
                <TriggerMethod>Manual</TriggerMethod>
            </Lap>
        </Activity>
        <Activity Sport="Walking">
            <Id>2022-03-03T13:54:11.848Z</Id>
            <Lap StartTime="2022-03-03T13:54:11.848Z">
                <Track>
                    <Trackpoint>
                        <DistanceMeters>0.0</DistanceMeters>
                        <Time>2022-03-03T13:54:11.848Z</Time>
                    </Trackpoint>
                    <Trackpoint>
                        <DistanceMeters>34.58064270019531</DistanceMeters>
                        <Time>2022-03-03T13:54:26.457Z</Time>
                    </Trackpoint>
                    <Trackpoint>
                        <DistanceMeters>34.58064270019531</DistanceMeters>
                        <Time>2022-03-03T13:55:57.848Z</Time>
                    </Trackpoint>
                </Track>
                <DistanceMeters>34.58064270019531</DistanceMeters>
                <TotalTimeSeconds>105.999998976</TotalTimeSeconds>
                <Calories>1.1003659963607788</Calories>
                <Intensity>Active</Intensity>
                <TriggerMethod>Manual</TriggerMethod>
            </Lap>
        </Activity>
        <Activity Sport="Walking">
            <Id>2022-03-03T14:04:57.003Z</Id>
            <Lap StartTime="2022-03-03T14:04:57.003Z">
                <Track>
                    <Trackpoint>
                        <DistanceMeters>0.0</DistanceMeters>
                        <Time>2022-03-03T14:04:57.003Z</Time>
                    </Trackpoint>
                    <Trackpoint>
                        <DistanceMeters>0.0</DistanceMeters>
                        <Time>2022-03-03T14:05:27.728Z</Time>
                    </Trackpoint>
                    <Trackpoint>
                        <DistanceMeters>12.396834373474121</DistanceMeters>
                        <Time>2022-03-03T14:05:41.788Z</Time>
                    </Trackpoint>
                    <Trackpoint>
                        <DistanceMeters>65.24649715423584</DistanceMeters>
                        <Time>2022-03-03T14:06:43.588Z</Time>
                    </Trackpoint>
                    <Trackpoint>
                        <DistanceMeters>81.55812168121338</DistanceMeters>
                        <Time>2022-03-03T14:07:06.028Z</Time>
                    </Trackpoint>
                    <Trackpoint>
                        <DistanceMeters>104.39439678192139</DistanceMeters>
                        <Time>2022-03-03T14:08:16.028Z</Time>
                    </Trackpoint>
                </Track>
                <DistanceMeters>104.39439678192139</DistanceMeters>
                <TotalTimeSeconds>199.025333734</TotalTimeSeconds>
                <Calories>12.559379577636719</Calories>
                <Intensity>Active</Intensity>
                <TriggerMethod>Manual</TriggerMethod>
            </Lap>
        </Activity>
    </Activities>
    <Author xsi:type="Application_t">
        <Name>Google Fit</Name>
        <Build>
            <Version>
                <VersionMajor>0</VersionMajor>
                <VersionMinor>0</VersionMinor>
                <BuildMajor>0</BuildMajor>
                <BuildMinor>0</BuildMinor>
            </Version>
        </Build>
        <LangID>en</LangID>
        <PartNumber>000-00000-00</PartNumber>
    </Author>
</TrainingCenterDatabase>
