<?xml version="1.0" encoding="UTF-8"?>
<TrainingCenterDatabase
    xmlns="http://www.garmin.com/xmlschemas/TrainingCenterDatabase/v2"
    xmlns:ns2="http://www.garmin.com/xmlschemas/UserProfile/v2"
    xmlns:ns3="http://www.garmin.com/xmlschemas/ActivityExtension/v2"
    xmlns:ns4="http://www.garmin.com/xmlschemas/ProfileExtension/v1"
    xmlns:ns5="http://www.garmin.com/xmlschemas/ActivityGoals/v1"
    xmlns:xsi="http://www.w3.org/2001/XMLSchema-instance" xsi:schemaLocation="http://www.garmin.com/xmlschemas/TrainingCenterDatabase/v2 http://www.garmin.com/xmlschemas/TrainingCenterDatabasev2.xsd">
    <Activities>
        <Activity Sport="Walking">
            <Id>2022-03-02T10:37:00.000Z</Id>
            <Lap StartTime="2022-03-02T10:37:00.000Z">
                <Track>
                    <Trackpoint>
                        <DistanceMeters>0.0</DistanceMeters>
                        <Time>2022-03-02T10:37:00.000Z</Time>
                    </Trackpoint>
                    <Trackpoint>
                        <DistanceMeters>66.0</DistanceMeters>
                        <Time>2022-03-02T10:37:01.109Z</Time>
                    </Trackpoint>
                    <Trackpoint>
                        <DistanceMeters>66.0</DistanceMeters>
                        <Time>2022-03-02T10:38:00.000Z</Time>
                    </Trackpoint>
                    <Trackpoint>
                        <DistanceMeters>102.0</DistanceMeters>
                        <Time>2022-03-02T10:39:48.628Z</Time>
                    </Trackpoint>
                    <Trackpoint>
                        <DistanceMeters>115.52958583831787</DistanceMeters>
                        <Time>2022-03-02T10:40:00.000Z</Time>
                    </Trackpoint>
                    <Trackpoint>
                        <DistanceMeters>182.52958583831787</DistanceMeters>
                        <Time>2022-03-02T10:41:00.000Z</Time>
                    </Trackpoint>
                </Track>
                <DistanceMeters>182.52958583831787</DistanceMeters>
                <TotalTimeSeconds>240.0</TotalTimeSeconds>
                <Calories>19.415132522583008</Calories>
                <Intensity>Active</Intensity>
                <TriggerMethod>Manual</TriggerMethod>
            </Lap>
        </Activity>
        <Activity Sport="Walking">
            <Id>2022-03-02T10:40:00.000Z</Id>
            <Lap StartTime="2022-03-02T10:40:00.000Z">
                <Track>
                    <Trackpoint>
                        <DistanceMeters>0.0</DistanceMeters>
                        <Time>2022-03-02T10:40:00.000Z</Time>
                    </Trackpoint>
                    <Trackpoint>
                        <DistanceMeters>67.0</DistanceMeters>
                        <Time>2022-03-02T10:40:21.036Z</Time>
                    </Trackpoint>
                    <Trackpoint>
                        <DistanceMeters>67.0</DistanceMeters>
                        <Time>2022-03-02T10:41:00.000Z</Time>
                    </Trackpoint>
                    <Trackpoint>
                        <DistanceMeters>132.0</DistanceMeters>
                        <Time>2022-03-02T10:42:00.000Z</Time>
                    </Trackpoint>
                </Track>
                <DistanceMeters>132.0</DistanceMeters>
                <TotalTimeSeconds>120.0</TotalTimeSeconds>
                <Calories>6.3286333084106445</Calories>
                <Intensity>Active</Intensity>
                <TriggerMethod>Manual</TriggerMethod>
            </Lap>
        </Activity>
        <Activity Sport="Walking">
            <Id>2022-03-02T10:41:00.000Z</Id>
            <Lap StartTime="2022-03-02T10:41:00.000Z">
                <Track>
                    <Trackpoint>
                        <DistanceMeters>0.0</DistanceMeters>
                        <Time>2022-03-02T10:41:00.000Z</Time>
                    </Trackpoint>
                    <Trackpoint>
                        <DistanceMeters>65.0</DistanceMeters>
                        <Time>2022-03-02T10:41:26.205Z</Time>
                    </Trackpoint>
                    <Trackpoint>
                        <DistanceMeters>65.0</DistanceMeters>
                        <Time>2022-03-02T10:42:00.000Z</Time>
                    </Trackpoint>
                    <Trackpoint>
                        <DistanceMeters>131.0</DistanceMeters>
                        <Time>2022-03-02T10:43:00.000Z</Time>
                    </Trackpoint>
                    <Trackpoint>
                        <DistanceMeters>198.0</DistanceMeters>
                        <Time>2022-03-02T10:44:00.000Z</Time>
                    </Trackpoint>
                    <Trackpoint>
                        <DistanceMeters>268.0</DistanceMeters>
                        <Time>2022-03-02T10:45:00.000Z</Time>
                    </Trackpoint>
                    <Trackpoint>
                        <DistanceMeters>343.0</DistanceMeters>
                        <Time>2022-03-02T10:46:00.000Z</Time>
                    </Trackpoint>
                    <Trackpoint>
                        <DistanceMeters>421.0</DistanceMeters>
                        <Time>2022-03-02T10:47:00.000Z</Time>
                    </Trackpoint>
                    <Trackpoint>
                        <DistanceMeters>490.0</DistanceMeters>
                        <Time>2022-03-02T10:48:00.000Z</Time>
                    </Trackpoint>
                    <Trackpoint>
                        <DistanceMeters>559.0</DistanceMeters>
                        <Time>2022-03-02T10:49:00.000Z</Time>
                    </Trackpoint>
                    <Trackpoint>
                        <DistanceMeters>561.0</DistanceMeters>
                        <Time>2022-03-02T10:50:00.000Z</Time>
                    </Trackpoint>
                    <Trackpoint>
                        <DistanceMeters>641.0</DistanceMeters>
                        <Time>2022-03-02T10:51:00.000Z</Time>
                    </Trackpoint>
                    <Trackpoint>
                        <DistanceMeters>691.0</DistanceMeters>
                        <Time>2022-03-02T10:52:00.000Z</Time>
                    </Trackpoint>
                    <Trackpoint>
                        <DistanceMeters>739.0</DistanceMeters>
                        <Time>2022-03-02T10:53:00.000Z</Time>
                    </Trackpoint>
                    <Trackpoint>
                        <DistanceMeters>766.0</DistanceMeters>
                        <Time>2022-03-02T10:54:00.000Z</Time>
                    </Trackpoint>
                    <Trackpoint>
                        <DistanceMeters>813.0</DistanceMeters>
                        <Time>2022-03-02T10:55:00.000Z</Time>
                    </Trackpoint>
                    <Trackpoint>
                        <DistanceMeters>884.0</DistanceMeters>
                        <Time>2022-03-02T10:56:00.000Z</Time>
                    </Trackpoint>
                    <Trackpoint>
                        <DistanceMeters>942.0</DistanceMeters>
                        <Time>2022-03-02T10:57:00.000Z</Time>
                    </Trackpoint>
                    <Trackpoint>
                        <DistanceMeters>998.0</DistanceMeters>
                        <Time>2022-03-02T10:58:00.000Z</Time>
                    </Trackpoint>
                    <Trackpoint>
                        <DistanceMeters>1059.0</DistanceMeters>
                        <Time>2022-03-02T10:59:00.000Z</Time>
                    </Trackpoint>
                    <Trackpoint>
                        <DistanceMeters>1117.0</DistanceMeters>
                        <Time>2022-03-02T11:00:00.000Z</Time>
                    </Trackpoint>
                    <Trackpoint>
                        <DistanceMeters>1173.0</DistanceMeters>
                        <Time>2022-03-02T11:01:00.000Z</Time>
                    </Trackpoint>
                    <Trackpoint>
                        <DistanceMeters>1226.0</DistanceMeters>
                        <Time>2022-03-02T11:02:00.000Z</Time>
                    </Trackpoint>
                    <Trackpoint>
                        <DistanceMeters>1284.0</DistanceMeters>
                        <Time>2022-03-02T11:03:00.000Z</Time>
                    </Trackpoint>
                    <Trackpoint>
                        <DistanceMeters>1345.0</DistanceMeters>
                        <Time>2022-03-02T11:04:00.000Z</Time>
                    </Trackpoint>
                    <Trackpoint>
                        <DistanceMeters>1359.0</DistanceMeters>
                        <Time>2022-03-02T11:05:00.000Z</Time>
                    </Trackpoint>
                    <Trackpoint>
                        <DistanceMeters>1437.0</DistanceMeters>
                        <Time>2022-03-02T11:06:00.000Z</Time>
                    </Trackpoint>
                    <Trackpoint>
                        <DistanceMeters>1504.0</DistanceMeters>
                        <Time>2022-03-02T11:07:00.000Z</Time>
                    </Trackpoint>
                    <Trackpoint>
                        <DistanceMeters>1562.0</DistanceMeters>
                        <Time>2022-03-02T11:08:00.000Z</Time>
                    </Trackpoint>
                    <Trackpoint>
                        <DistanceMeters>1592.0</DistanceMeters>
                        <Time>2022-03-02T11:09:00.000Z</Time>
                    </Trackpoint>
                    <Trackpoint>
                        <DistanceMeters>1670.0</DistanceMeters>
                        <Time>2022-03-02T11:10:00.000Z</Time>
                    </Trackpoint>
                    <Trackpoint>
                        <DistanceMeters>1713.0</DistanceMeters>
                        <Time>2022-03-02T11:11:00.000Z</Time>
                    </Trackpoint>
                    <Trackpoint>
                        <DistanceMeters>1763.0</DistanceMeters>
                        <Time>2022-03-02T11:12:00.000Z</Time>
                    </Trackpoint>
                    <Trackpoint>
                        <DistanceMeters>1807.0</DistanceMeters>
                        <Time>2022-03-02T11:13:00.000Z</Time>
                    </Trackpoint>
                    <Trackpoint>
                        <DistanceMeters>1834.0</DistanceMeters>
                        <Time>2022-03-02T11:14:00.000Z</Time>
                    </Trackpoint>
                    <Trackpoint>
                        <DistanceMeters>1869.0</DistanceMeters>
                        <Time>2022-03-02T11:15:00.000Z</Time>
                    </Trackpoint>
                    <Trackpoint>
                        <DistanceMeters>1909.0</DistanceMeters>
                        <Time>2022-03-02T11:16:00.000Z</Time>
                    </Trackpoint>
                    <Trackpoint>
                        <DistanceMeters>1937.0</DistanceMeters>
                        <Time>2022-03-02T11:17:00.000Z</Time>
                    </Trackpoint>
                    <Trackpoint>
                        <DistanceMeters>1989.0</DistanceMeters>
                        <Time>2022-03-02T11:18:00.000Z</Time>
                    </Trackpoint>
                    <Trackpoint>
                        <DistanceMeters>2055.0</DistanceMeters>
                        <Time>2022-03-02T11:19:00.000Z</Time>
                    </Trackpoint>
                    <Trackpoint>
                        <DistanceMeters>2104.0</DistanceMeters>
                        <Time>2022-03-02T11:20:00.000Z</Time>
                    </Trackpoint>
                    <Trackpoint>
                        <DistanceMeters>2132.0</DistanceMeters>
                        <Time>2022-03-02T11:21:00.000Z</Time>
                    </Trackpoint>
                    <Trackpoint>
                        <DistanceMeters>2205.0</DistanceMeters>
                        <Time>2022-03-02T11:22:00.000Z</Time>
                    </Trackpoint>
                    <Trackpoint>
                        <DistanceMeters>2272.0</DistanceMeters>
                        <Time>2022-03-02T11:23:00.000Z</Time>
                    </Trackpoint>
                    <Trackpoint>
                        <DistanceMeters>2342.0</DistanceMeters>
                        <Time>2022-03-02T11:24:00.000Z</Time>
                    </Trackpoint>
                    <Trackpoint>
                        <DistanceMeters>2376.0</DistanceMeters>
                        <Time>2022-03-02T11:25:25.708Z</Time>
                    </Trackpoint>
                    <Trackpoint>
                        <DistanceMeters>2387.1870431900024</DistanceMeters>
                        <Time>2022-03-02T11:26:00.000Z</Time>
                    </Trackpoint>
                    <Trackpoint>
                        <DistanceMeters>2418.1870431900024</DistanceMeters>
                        <Time>2022-03-02T11:27:00.000Z</Time>
                    </Trackpoint>
                    <Trackpoint>
                        <DistanceMeters>2468.1870431900024</DistanceMeters>
                        <Time>2022-03-02T11:28:00.000Z</Time>
                    </Trackpoint>
                    <Trackpoint>
                        <DistanceMeters>2501.1870431900024</DistanceMeters>
                        <Time>2022-03-02T11:29:00.000Z</Time>
                    </Trackpoint>
                    <Trackpoint>
                        <DistanceMeters>2526.1870431900024</DistanceMeters>
                        <Time>2022-03-02T11:30:00.000Z</Time>
                    </Trackpoint>
                    <Trackpoint>
                        <DistanceMeters>2565.1870431900024</DistanceMeters>
                        <Time>2022-03-02T11:31:00.000Z</Time>
                    </Trackpoint>
                    <Trackpoint>
                        <DistanceMeters>2611.1870431900024</DistanceMeters>
                        <Time>2022-03-02T11:32:00.000Z</Time>
                    </Trackpoint>
                    <Trackpoint>
                        <DistanceMeters>2663.1870431900024</DistanceMeters>
                        <Time>2022-03-02T11:33:00.000Z</Time>
                    </Trackpoint>
                    <Trackpoint>
                        <DistanceMeters>2694.1870431900024</DistanceMeters>
                        <Time>2022-03-02T11:34:00.000Z</Time>
                    </Trackpoint>
                    <Trackpoint>
                        <DistanceMeters>2727.1870431900024</DistanceMeters>
                        <Time>2022-03-02T11:35:00.000Z</Time>
                    </Trackpoint>
                    <Trackpoint>
                        <DistanceMeters>2745.1870431900024</DistanceMeters>
                        <Time>2022-03-02T11:36:00.000Z</Time>
                    </Trackpoint>
                    <Trackpoint>
                        <DistanceMeters>2786.1870431900024</DistanceMeters>
                        <Time>2022-03-02T11:37:00.000Z</Time>
                    </Trackpoint>
                    <Trackpoint>
                        <DistanceMeters>2841.1870431900024</DistanceMeters>
                        <Time>2022-03-02T11:38:00.000Z</Time>
                    </Trackpoint>
                    <Trackpoint>
                        <DistanceMeters>2883.1870431900024</DistanceMeters>
                        <Time>2022-03-02T11:39:00.000Z</Time>
                    </Trackpoint>
                    <Trackpoint>
                        <DistanceMeters>2914.1870431900024</DistanceMeters>
                        <Time>2022-03-02T11:40:00.000Z</Time>
                    </Trackpoint>
                    <Trackpoint>
                        <DistanceMeters>2963.1870431900024</DistanceMeters>
                        <Time>2022-03-02T11:41:00.000Z</Time>
                    </Trackpoint>
                    <Trackpoint>
                        <DistanceMeters>3004.1870431900024</DistanceMeters>
                        <Time>2022-03-02T11:42:00.000Z</Time>
                    </Trackpoint>
                    <Trackpoint>
                        <DistanceMeters>3075.1870431900024</DistanceMeters>
                        <Time>2022-03-02T11:43:00.000Z</Time>
                    </Trackpoint>
                    <Trackpoint>
                        <DistanceMeters>3141.1870431900024</DistanceMeters>
                        <Time>2022-03-02T11:44:00.000Z</Time>
                    </Trackpoint>
                    <Trackpoint>
                        <DistanceMeters>3159.1870431900024</DistanceMeters>
                        <Time>2022-03-02T11:45:00.000Z</Time>
                    </Trackpoint>
                </Track>
                <DistanceMeters>3159.1870431900024</DistanceMeters>
                <TotalTimeSeconds>3840.0</TotalTimeSeconds>
                <Calories>367.4689025878906</Calories>
                <Intensity>Active</Intensity>
                <TriggerMethod>Manual</TriggerMethod>
            </Lap>
        </Activity>
        <Activity Sport="Walking">
            <Id>2022-03-02T11:46:00.000Z</Id>
            <Lap StartTime="2022-03-02T11:46:00.000Z">
                <Track>
                    <Trackpoint>
                        <DistanceMeters>0.0</DistanceMeters>
                        <Time>2022-03-02T11:46:00.000Z</Time>
                    </Trackpoint>
                    <Trackpoint>
                        <DistanceMeters>55.0</DistanceMeters>
                        <Time>2022-03-02T11:46:31.692Z</Time>
                    </Trackpoint>
                    <Trackpoint>
                        <DistanceMeters>55.0</DistanceMeters>
                        <Time>2022-03-02T11:47:00.000Z</Time>
                    </Trackpoint>
                    <Trackpoint>
                        <DistanceMeters>108.0</DistanceMeters>
                        <Time>2022-03-02T11:48:00.000Z</Time>
                    </Trackpoint>
                    <Trackpoint>
                        <DistanceMeters>170.0</DistanceMeters>
                        <Time>2022-03-02T11:49:00.000Z</Time>
                    </Trackpoint>
                    <Trackpoint>
                        <DistanceMeters>204.0</DistanceMeters>
                        <Time>2022-03-02T11:50:00.000Z</Time>
                    </Trackpoint>
                    <Trackpoint>
                        <DistanceMeters>265.0</DistanceMeters>
                        <Time>2022-03-02T11:51:00.000Z</Time>
                    </Trackpoint>
                    <Trackpoint>
                        <DistanceMeters>310.0</DistanceMeters>
                        <Time>2022-03-02T11:52:00.000Z</Time>
                    </Trackpoint>
                    <Trackpoint>
                        <DistanceMeters>375.0</DistanceMeters>
                        <Time>2022-03-02T11:53:00.000Z</Time>
                    </Trackpoint>
                    <Trackpoint>
                        <DistanceMeters>436.0</DistanceMeters>
                        <Time>2022-03-02T11:54:00.000Z</Time>
                    </Trackpoint>
                    <Trackpoint>
                        <DistanceMeters>497.0</DistanceMeters>
                        <Time>2022-03-02T11:55:00.000Z</Time>
                    </Trackpoint>
                    <Trackpoint>
                        <DistanceMeters>556.0</DistanceMeters>
                        <Time>2022-03-02T11:56:00.000Z</Time>
                    </Trackpoint>
                    <Trackpoint>
                        <DistanceMeters>604.0</DistanceMeters>
                        <Time>2022-03-02T11:57:00.000Z</Time>
                    </Trackpoint>
                    <Trackpoint>
                        <DistanceMeters>613.0</DistanceMeters>
                        <Time>2022-03-02T11:58:00.000Z</Time>
                    </Trackpoint>
                    <Trackpoint>
                        <DistanceMeters>675.0</DistanceMeters>
                        <Time>2022-03-02T11:59:00.000Z</Time>
                    </Trackpoint>
                    <Trackpoint>
                        <DistanceMeters>743.0</DistanceMeters>
                        <Time>2022-03-02T12:00:00.000Z</Time>
                    </Trackpoint>
                    <Trackpoint>
                        <DistanceMeters>797.0</DistanceMeters>
                        <Time>2022-03-02T12:01:00.000Z</Time>
                    </Trackpoint>
                    <Trackpoint>
                        <DistanceMeters>863.0</DistanceMeters>
                        <Time>2022-03-02T12:02:00.000Z</Time>
                    </Trackpoint>
                    <Trackpoint>
                        <DistanceMeters>913.0</DistanceMeters>
                        <Time>2022-03-02T12:03:00.000Z</Time>
                    </Trackpoint>
                </Track>
                <DistanceMeters>913.0</DistanceMeters>
                <TotalTimeSeconds>1020.0</TotalTimeSeconds>
                <Calories>95.31814575195312</Calories>
                <Intensity>Active</Intensity>
                <TriggerMethod>Manual</TriggerMethod>
            </Lap>
        </Activity>
        <Activity Sport="Walking">
            <Id>2022-03-02T12:03:00.000Z</Id>
            <Lap StartTime="2022-03-02T12:03:00.000Z">
                <Track>
                    <Trackpoint>
                        <DistanceMeters>0.0</DistanceMeters>
                        <Time>2022-03-02T12:03:00.000Z</Time>
                    </Trackpoint>
                    <Trackpoint>
                        <DistanceMeters>0.0</DistanceMeters>
                        <Time>2022-03-02T12:06:00.000Z</Time>
                    </Trackpoint>
                    <Trackpoint>
                        <DistanceMeters>33.0</DistanceMeters>
                        <Time>2022-03-02T12:06:21.588Z</Time>
                    </Trackpoint>
                    <Trackpoint>
                        <DistanceMeters>33.0</DistanceMeters>
                        <Time>2022-03-02T12:07:00.000Z</Time>
                    </Trackpoint>
                    <Trackpoint>
                        <DistanceMeters>113.0</DistanceMeters>
                        <Time>2022-03-02T12:08:00.000Z</Time>
                    </Trackpoint>
                </Track>
                <DistanceMeters>113.0</DistanceMeters>
                <TotalTimeSeconds>300.0</TotalTimeSeconds>
                <Calories>10.633296489715576</Calories>
                <Intensity>Active</Intensity>
                <TriggerMethod>Manual</TriggerMethod>
            </Lap>
        </Activity>
        <Activity Sport="Walking">
            <Id>2022-03-02T12:07:00.000Z</Id>
            <Lap StartTime="2022-03-02T12:07:00.000Z">
                <Track>
                    <Trackpoint>
                        <DistanceMeters>0.0</DistanceMeters>
                        <Time>2022-03-02T12:07:00.000Z</Time>
                    </Trackpoint>
                    <Trackpoint>
                        <DistanceMeters>80.0</DistanceMeters>
                        <Time>2022-03-02T12:07:28.180Z</Time>
                    </Trackpoint>
                    <Trackpoint>
                        <DistanceMeters>80.0</DistanceMeters>
                        <Time>2022-03-02T12:08:00.000Z</Time>
                    </Trackpoint>
                    <Trackpoint>
                        <DistanceMeters>140.0</DistanceMeters>
                        <Time>2022-03-02T12:09:00.000Z</Time>
                    </Trackpoint>
                    <Trackpoint>
                        <DistanceMeters>207.0</DistanceMeters>
                        <Time>2022-03-02T12:10:00.000Z</Time>
                    </Trackpoint>
                    <Trackpoint>
                        <DistanceMeters>275.0</DistanceMeters>
                        <Time>2022-03-02T12:11:00.000Z</Time>
                    </Trackpoint>
                    <Trackpoint>
                        <DistanceMeters>339.0</DistanceMeters>
                        <Time>2022-03-02T12:12:00.000Z</Time>
                    </Trackpoint>
                    <Trackpoint>
                        <DistanceMeters>407.0</DistanceMeters>
                        <Time>2022-03-02T12:13:00.000Z</Time>
                    </Trackpoint>
                    <Trackpoint>
                        <DistanceMeters>447.0</DistanceMeters>
                        <Time>2022-03-02T12:14:00.000Z</Time>
                    </Trackpoint>
                    <Trackpoint>
                        <DistanceMeters>466.0</DistanceMeters>
                        <Time>2022-03-02T12:15:00.000Z</Time>
                    </Trackpoint>
                    <Trackpoint>
                        <DistanceMeters>503.0</DistanceMeters>
                        <Time>2022-03-02T12:16:00.000Z</Time>
                    </Trackpoint>
                </Track>
                <DistanceMeters>503.0</DistanceMeters>
                <TotalTimeSeconds>540.0</TotalTimeSeconds>
                <Calories>47.293304443359375</Calories>
                <Intensity>Active</Intensity>
                <TriggerMethod>Manual</TriggerMethod>
            </Lap>
        </Activity>
    </Activities>
    <Author xsi:type="Application_t">
        <Name>Google Fit</Name>
        <Build>
            <Version>
                <VersionMajor>0</VersionMajor>
                <VersionMinor>0</VersionMinor>
                <BuildMajor>0</BuildMajor>
                <BuildMinor>0</BuildMinor>
            </Version>
        </Build>
        <LangID>en</LangID>
        <PartNumber>000-00000-00</PartNumber>
    </Author>
</TrainingCenterDatabase>
