<?xml version="1.0" encoding="UTF-8"?>
<TrainingCenterDatabase
    xmlns="http://www.garmin.com/xmlschemas/TrainingCenterDatabase/v2"
    xmlns:ns2="http://www.garmin.com/xmlschemas/UserProfile/v2"
    xmlns:ns3="http://www.garmin.com/xmlschemas/ActivityExtension/v2"
    xmlns:ns4="http://www.garmin.com/xmlschemas/ProfileExtension/v1"
    xmlns:ns5="http://www.garmin.com/xmlschemas/ActivityGoals/v1"
    xmlns:xsi="http://www.w3.org/2001/XMLSchema-instance" xsi:schemaLocation="http://www.garmin.com/xmlschemas/TrainingCenterDatabase/v2 http://www.garmin.com/xmlschemas/TrainingCenterDatabasev2.xsd">
    <Activities>
        <Activity Sport="Walking">
            <Id>2022-05-26T08:44:25.282Z</Id>
            <Lap StartTime="2022-05-26T08:44:25.282Z">
                <Track>
                    <Trackpoint>
                        <DistanceMeters>0.0</DistanceMeters>
                        <Time>2022-05-26T08:44:25.282Z</Time>
                    </Trackpoint>
                    <Trackpoint>
                        <DistanceMeters>0.0</DistanceMeters>
                        <Time>2022-05-26T08:48:13.262Z</Time>
                    </Trackpoint>
                    <Trackpoint>
                        <DistanceMeters>20.87887954711914</DistanceMeters>
                        <Time>2022-05-26T08:48:48.382Z</Time>
                    </Trackpoint>
                    <Trackpoint>
                        <DistanceMeters>39.800363540649414</DistanceMeters>
                        <Time>2022-05-26T08:49:14.262Z</Time>
                    </Trackpoint>
                </Track>
                <DistanceMeters>39.800363540649414</DistanceMeters>
                <TotalTimeSeconds>288.979998574</TotalTimeSeconds>
                <Calories>6.730176568031311</Calories>
                <Intensity>Active</Intensity>
                <TriggerMethod>Manual</TriggerMethod>
            </Lap>
        </Activity>
        <Activity Sport="Walking">
            <Id>2022-05-26T08:48:48.382Z</Id>
            <Lap StartTime="2022-05-26T08:48:48.382Z">
                <Track>
                    <Trackpoint>
                        <DistanceMeters>0.0</DistanceMeters>
                        <Time>2022-05-26T08:48:48.382Z</Time>
                    </Trackpoint>
                    <Trackpoint>
                        <DistanceMeters>18.921483993530273</DistanceMeters>
                        <Time>2022-05-26T08:48:59.517Z</Time>
                    </Trackpoint>
                    <Trackpoint>
                        <DistanceMeters>18.921483993530273</DistanceMeters>
                        <Time>2022-05-26T08:50:28.382Z</Time>
                    </Trackpoint>
                    <Trackpoint>
                        <DistanceMeters>41.10529327392578</DistanceMeters>
                        <Time>2022-05-26T08:51:36.382Z</Time>
                    </Trackpoint>
                    <Trackpoint>
                        <DistanceMeters>54.449628829956055</DistanceMeters>
                        <Time>2022-05-26T08:51:47.762Z</Time>
                    </Trackpoint>
                    <Trackpoint>
                        <DistanceMeters>71.4137191772461</DistanceMeters>
                        <Time>2022-05-26T08:52:36.862Z</Time>
                    </Trackpoint>
                    <Trackpoint>
                        <DistanceMeters>87.07287883758545</DistanceMeters>
                        <Time>2022-05-26T08:53:09.462Z</Time>
                    </Trackpoint>
                    <Trackpoint>
                        <DistanceMeters>95.55492401123047</DistanceMeters>
                        <Time>2022-05-26T09:00:46.922Z</Time>
                    </Trackpoint>
                    <Trackpoint>
                        <DistanceMeters>132.74542999267578</DistanceMeters>
                        <Time>2022-05-26T09:02:40.922Z</Time>
                    </Trackpoint>
                    <Trackpoint>
                        <DistanceMeters>181.68030548095703</DistanceMeters>
                        <Time>2022-05-26T09:04:41.702Z</Time>
                    </Trackpoint>
                </Track>
                <DistanceMeters>181.68030548095703</DistanceMeters>
                <TotalTimeSeconds>953.319999653</TotalTimeSeconds>
                <Calories>88.67123413085938</Calories>
                <Intensity>Active</Intensity>
                <TriggerMethod>Manual</TriggerMethod>
            </Lap>
        </Activity>
        <Activity Sport="Walking">
            <Id>2022-05-26T09:05:13.982Z</Id>
            <Lap StartTime="2022-05-26T09:05:13.982Z">
                <Track>
                    <Trackpoint>
                        <DistanceMeters>0.0</DistanceMeters>
                        <Time>2022-05-26T09:05:13.982Z</Time>
                    </Trackpoint>
                    <Trackpoint>
                        <DistanceMeters>76.9908676147461</DistanceMeters>
                        <Time>2022-05-26T09:07:00.157Z</Time>
                    </Trackpoint>
                    <Trackpoint>
                        <DistanceMeters>76.9908676147461</DistanceMeters>
                        <Time>2022-05-26T09:07:15.902Z</Time>
                    </Trackpoint>
                    <Trackpoint>
                        <DistanceMeters>112.8764419555664</DistanceMeters>
                        <Time>2022-05-26T09:08:14.782Z</Time>
                    </Trackpoint>
                    <Trackpoint>
                        <DistanceMeters>173.5556869506836</DistanceMeters>
                        <Time>2022-05-26T09:09:25.502Z</Time>
                    </Trackpoint>
                    <Trackpoint>
                        <DistanceMeters>232.05774307250977</DistanceMeters>
                        <Time>2022-05-26T09:10:27.902Z</Time>
                    </Trackpoint>
                    <Trackpoint>
                        <DistanceMeters>255.54648208618164</DistanceMeters>
                        <Time>2022-05-26T09:11:06.322Z</Time>
                    </Trackpoint>
                    <Trackpoint>
                        <DistanceMeters>272.5105724334717</DistanceMeters>
                        <Time>2022-05-26T09:12:06.322Z</Time>
                    </Trackpoint>
                </Track>
                <DistanceMeters>272.5105724334717</DistanceMeters>
                <TotalTimeSeconds>412.340000458</TotalTimeSeconds>
                <Calories>27.136842727661133</Calories>
                <Intensity>Active</Intensity>
                <TriggerMethod>Manual</TriggerMethod>
            </Lap>
        </Activity>
        <Activity Sport="Walking">
            <Id>2022-05-26T09:11:25.194Z</Id>
            <Lap StartTime="2022-05-26T09:11:25.194Z">
                <Track>
                    <Trackpoint>
                        <DistanceMeters>0.0</DistanceMeters>
                        <Time>2022-05-26T09:11:25.194Z</Time>
                    </Trackpoint>
                    <Trackpoint>
                        <DistanceMeters>0.0</DistanceMeters>
                        <Time>2022-05-26T09:18:07.462Z</Time>
                    </Trackpoint>
                    <Trackpoint>
                        <DistanceMeters>40.45282745361328</DistanceMeters>
                        <Time>2022-05-26T09:20:11.462Z</Time>
                    </Trackpoint>
                    <Trackpoint>
                        <DistanceMeters>98.24457931518555</DistanceMeters>
                        <Time>2022-05-26T09:21:13.302Z</Time>
                    </Trackpoint>
                </Track>
                <DistanceMeters>98.24457931518555</DistanceMeters>
                <TotalTimeSeconds>588.108361443</TotalTimeSeconds>
                <Calories>14.677711009979248</Calories>
                <Intensity>Active</Intensity>
                <TriggerMethod>Manual</TriggerMethod>
            </Lap>
        </Activity>
        <Activity Sport="Walking">
            <Id>2022-05-26T09:20:11.462Z</Id>
            <Lap StartTime="2022-05-26T09:20:11.462Z">
                <Track>
                    <Trackpoint>
                        <DistanceMeters>0.0</DistanceMeters>
                        <Time>2022-05-26T09:20:11.462Z</Time>
                    </Trackpoint>
                    <Trackpoint>
                        <DistanceMeters>57.791751861572266</DistanceMeters>
                        <Time>2022-05-26T09:20:45.607Z</Time>
                    </Trackpoint>
                    <Trackpoint>
                        <DistanceMeters>57.791751861572266</DistanceMeters>
                        <Time>2022-05-26T09:21:13.302Z</Time>
                    </Trackpoint>
                    <Trackpoint>
                        <DistanceMeters>108.68402099609375</DistanceMeters>
                        <Time>2022-05-26T09:22:15.102Z</Time>
                    </Trackpoint>
                    <Trackpoint>
                        <DistanceMeters>153.05163955688477</DistanceMeters>
                        <Time>2022-05-26T09:23:16.182Z</Time>
                    </Trackpoint>
                    <Trackpoint>
                        <DistanceMeters>171.97312355041504</DistanceMeters>
                        <Time>2022-05-26T09:25:30.447Z</Time>
                    </Trackpoint>
                </Track>
                <DistanceMeters>171.97312355041504</DistanceMeters>
                <TotalTimeSeconds>318.984635671</TotalTimeSeconds>
                <Calories>29.16444969177246</Calories>
                <Intensity>Active</Intensity>
                <TriggerMethod>Manual</TriggerMethod>
            </Lap>
        </Activity>
    </Activities>
    <Author xsi:type="Application_t">
        <Name>Google Fit</Name>
        <Build>
            <Version>
                <VersionMajor>0</VersionMajor>
                <VersionMinor>0</VersionMinor>
                <BuildMajor>0</BuildMajor>
                <BuildMinor>0</BuildMinor>
            </Version>
        </Build>
        <LangID>en</LangID>
        <PartNumber>000-00000-00</PartNumber>
    </Author>
</TrainingCenterDatabase>
