<?xml version="1.0" encoding="UTF-8"?>
<TrainingCenterDatabase
    xmlns="http://www.garmin.com/xmlschemas/TrainingCenterDatabase/v2"
    xmlns:ns2="http://www.garmin.com/xmlschemas/UserProfile/v2"
    xmlns:ns3="http://www.garmin.com/xmlschemas/ActivityExtension/v2"
    xmlns:ns4="http://www.garmin.com/xmlschemas/ProfileExtension/v1"
    xmlns:ns5="http://www.garmin.com/xmlschemas/ActivityGoals/v1"
    xmlns:xsi="http://www.w3.org/2001/XMLSchema-instance" xsi:schemaLocation="http://www.garmin.com/xmlschemas/TrainingCenterDatabase/v2 http://www.garmin.com/xmlschemas/TrainingCenterDatabasev2.xsd">
    <Activities>
        <Activity Sport="Walking">
            <Id>2022-05-06T05:39:10.010Z</Id>
            <Lap StartTime="2022-05-06T05:39:10.010Z">
                <Track>
                    <Trackpoint>
                        <DistanceMeters>0.0</DistanceMeters>
                        <Time>2022-05-06T05:39:10.010Z</Time>
                    </Trackpoint>
                    <Trackpoint>
                        <DistanceMeters>0.0</DistanceMeters>
                        <Time>2022-05-06T07:16:14.970Z</Time>
                    </Trackpoint>
                    <Trackpoint>
                        <DistanceMeters>52.84966278076172</DistanceMeters>
                        <Time>2022-05-06T07:17:38.530Z</Time>
                    </Trackpoint>
                    <Trackpoint>
                        <DistanceMeters>106.35179138183594</DistanceMeters>
                        <Time>2022-05-06T07:18:39.250Z</Time>
                    </Trackpoint>
                </Track>
                <DistanceMeters>106.35179138183594</DistanceMeters>
                <TotalTimeSeconds>5969.239999499</TotalTimeSeconds>
                <Calories>126.30586433410645</Calories>
                <Intensity>Active</Intensity>
                <TriggerMethod>Manual</TriggerMethod>
            </Lap>
        </Activity>
        <Activity Sport="Walking">
            <Id>2022-05-06T07:17:38.530Z</Id>
            <Lap StartTime="2022-05-06T07:17:38.530Z">
                <Track>
                    <Trackpoint>
                        <DistanceMeters>0.0</DistanceMeters>
                        <Time>2022-05-06T07:17:38.530Z</Time>
                    </Trackpoint>
                    <Trackpoint>
                        <DistanceMeters>53.50212860107422</DistanceMeters>
                        <Time>2022-05-06T07:17:46.021Z</Time>
                    </Trackpoint>
                    <Trackpoint>
                        <DistanceMeters>53.50212860107422</DistanceMeters>
                        <Time>2022-05-06T07:18:39.250Z</Time>
                    </Trackpoint>
                    <Trackpoint>
                        <DistanceMeters>103.0894660949707</DistanceMeters>
                        <Time>2022-05-06T07:19:40.450Z</Time>
                    </Trackpoint>
                    <Trackpoint>
                        <DistanceMeters>156.59159469604492</DistanceMeters>
                        <Time>2022-05-06T07:20:40.290Z</Time>
                    </Trackpoint>
                    <Trackpoint>
                        <DistanceMeters>209.44125747680664</DistanceMeters>
                        <Time>2022-05-06T07:21:41.770Z</Time>
                    </Trackpoint>
                    <Trackpoint>
                        <DistanceMeters>257.0712013244629</DistanceMeters>
                        <Time>2022-05-06T07:22:42.490Z</Time>
                    </Trackpoint>
                    <Trackpoint>
                        <DistanceMeters>303.39621353149414</DistanceMeters>
                        <Time>2022-05-06T07:23:43.490Z</Time>
                    </Trackpoint>
                    <Trackpoint>
                        <DistanceMeters>349.7212257385254</DistanceMeters>
                        <Time>2022-05-06T07:24:44.570Z</Time>
                    </Trackpoint>
                    <Trackpoint>
                        <DistanceMeters>400.6134948730469</DistanceMeters>
                        <Time>2022-05-06T07:25:45.570Z</Time>
                    </Trackpoint>
                    <Trackpoint>
                        <DistanceMeters>454.1156234741211</DistanceMeters>
                        <Time>2022-05-06T07:26:46.210Z</Time>
                    </Trackpoint>
                    <Trackpoint>
                        <DistanceMeters>503.05049896240234</DistanceMeters>
                        <Time>2022-05-06T07:27:47.650Z</Time>
                    </Trackpoint>
                    <Trackpoint>
                        <DistanceMeters>553.2903022766113</DistanceMeters>
                        <Time>2022-05-06T07:28:48.570Z</Time>
                    </Trackpoint>
                    <Trackpoint>
                        <DistanceMeters>602.8776397705078</DistanceMeters>
                        <Time>2022-05-06T07:29:49.610Z</Time>
                    </Trackpoint>
                    <Trackpoint>
                        <DistanceMeters>651.1600494384766</DistanceMeters>
                        <Time>2022-05-06T07:30:48.530Z</Time>
                    </Trackpoint>
                    <Trackpoint>
                        <DistanceMeters>713.796688079834</DistanceMeters>
                        <Time>2022-05-06T07:31:57.450Z</Time>
                    </Trackpoint>
                    <Trackpoint>
                        <DistanceMeters>738.7807178497314</DistanceMeters>
                        <Time>2022-05-06T07:33:10.394Z</Time>
                    </Trackpoint>
                </Track>
                <DistanceMeters>738.7807178497314</DistanceMeters>
                <TotalTimeSeconds>931.863155007</TotalTimeSeconds>
                <Calories>94.64552307128906</Calories>
                <Intensity>Active</Intensity>
                <TriggerMethod>Manual</TriggerMethod>
            </Lap>
        </Activity>
    </Activities>
    <Author xsi:type="Application_t">
        <Name>Google Fit</Name>
        <Build>
            <Version>
                <VersionMajor>0</VersionMajor>
                <VersionMinor>0</VersionMinor>
                <BuildMajor>0</BuildMajor>
                <BuildMinor>0</BuildMinor>
            </Version>
        </Build>
        <LangID>en</LangID>
        <PartNumber>000-00000-00</PartNumber>
    </Author>
</TrainingCenterDatabase>
