<?xml version="1.0" encoding="UTF-8"?>
<TrainingCenterDatabase
    xmlns="http://www.garmin.com/xmlschemas/TrainingCenterDatabase/v2"
    xmlns:ns2="http://www.garmin.com/xmlschemas/UserProfile/v2"
    xmlns:ns3="http://www.garmin.com/xmlschemas/ActivityExtension/v2"
    xmlns:ns4="http://www.garmin.com/xmlschemas/ProfileExtension/v1"
    xmlns:ns5="http://www.garmin.com/xmlschemas/ActivityGoals/v1"
    xmlns:xsi="http://www.w3.org/2001/XMLSchema-instance" xsi:schemaLocation="http://www.garmin.com/xmlschemas/TrainingCenterDatabase/v2 http://www.garmin.com/xmlschemas/TrainingCenterDatabasev2.xsd">
    <Activities>
        <Activity Sport="Walking">
            <Id>2022-05-13T09:15:35.436Z</Id>
            <Lap StartTime="2022-05-13T09:15:35.436Z">
                <Track>
                    <Trackpoint>
                        <DistanceMeters>0.0</DistanceMeters>
                        <Time>2022-05-13T09:15:35.436Z</Time>
                    </Trackpoint>
                    <Trackpoint>
                        <DistanceMeters>0.0</DistanceMeters>
                        <Time>2022-05-13T09:59:06.171Z</Time>
                    </Trackpoint>
                    <Trackpoint>
                        <DistanceMeters>45.020084381103516</DistanceMeters>
                        <Time>2022-05-13T10:00:29.011Z</Time>
                    </Trackpoint>
                    <Trackpoint>
                        <DistanceMeters>105.14315032958984</DistanceMeters>
                        <Time>2022-05-13T10:01:29.651Z</Time>
                    </Trackpoint>
                    <Trackpoint>
                        <DistanceMeters>159.29774475097656</DistanceMeters>
                        <Time>2022-05-13T10:02:30.651Z</Time>
                    </Trackpoint>
                </Track>
                <DistanceMeters>159.29774475097656</DistanceMeters>
                <TotalTimeSeconds>2815.215384489</TotalTimeSeconds>
                <Calories>64.92905139923096</Calories>
                <Intensity>Active</Intensity>
                <TriggerMethod>Manual</TriggerMethod>
            </Lap>
        </Activity>
        <Activity Sport="Walking">
            <Id>2022-05-13T10:01:29.651Z</Id>
            <Lap StartTime="2022-05-13T10:01:29.651Z">
                <Track>
                    <Trackpoint>
                        <DistanceMeters>0.0</DistanceMeters>
                        <Time>2022-05-13T10:01:29.651Z</Time>
                    </Trackpoint>
                    <Trackpoint>
                        <DistanceMeters>54.15459442138672</DistanceMeters>
                        <Time>2022-05-13T10:01:44.199Z</Time>
                    </Trackpoint>
                    <Trackpoint>
                        <DistanceMeters>54.15459442138672</DistanceMeters>
                        <Time>2022-05-13T10:02:30.651Z</Time>
                    </Trackpoint>
                    <Trackpoint>
                        <DistanceMeters>112.05500793457031</DistanceMeters>
                        <Time>2022-05-13T10:03:29.811Z</Time>
                    </Trackpoint>
                    <Trackpoint>
                        <DistanceMeters>179.38520050048828</DistanceMeters>
                        <Time>2022-05-13T10:04:38.211Z</Time>
                    </Trackpoint>
                    <Trackpoint>
                        <DistanceMeters>232.8873291015625</DistanceMeters>
                        <Time>2022-05-13T10:05:37.691Z</Time>
                    </Trackpoint>
                    <Trackpoint>
                        <DistanceMeters>287.6943893432617</DistanceMeters>
                        <Time>2022-05-13T10:06:40.291Z</Time>
                    </Trackpoint>
                    <Trackpoint>
                        <DistanceMeters>304.65847969055176</DistanceMeters>
                        <Time>2022-05-13T10:07:01.411Z</Time>
                    </Trackpoint>
                    <Trackpoint>
                        <DistanceMeters>324.23242950439453</DistanceMeters>
                        <Time>2022-05-13T10:07:26.531Z</Time>
                    </Trackpoint>
                    <Trackpoint>
                        <DistanceMeters>336.62926387786865</DistanceMeters>
                        <Time>2022-05-13T10:07:44.731Z</Time>
                    </Trackpoint>
                    <Trackpoint>
                        <DistanceMeters>351.6463346481323</DistanceMeters>
                        <Time>2022-05-13T10:08:01.131Z</Time>
                    </Trackpoint>
                    <Trackpoint>
                        <DistanceMeters>377.09246921539307</DistanceMeters>
                        <Time>2022-05-13T10:08:29.211Z</Time>
                    </Trackpoint>
                    <Trackpoint>
                        <DistanceMeters>399.2762784957886</DistanceMeters>
                        <Time>2022-05-13T10:08:55.891Z</Time>
                    </Trackpoint>
                    <Trackpoint>
                        <DistanceMeters>411.6731128692627</DistanceMeters>
                        <Time>2022-05-13T10:09:15.251Z</Time>
                    </Trackpoint>
                    <Trackpoint>
                        <DistanceMeters>436.0629997253418</DistanceMeters>
                        <Time>2022-05-13T10:09:41.011Z</Time>
                    </Trackpoint>
                    <Trackpoint>
                        <DistanceMeters>458.8992748260498</DistanceMeters>
                        <Time>2022-05-13T10:10:06.731Z</Time>
                    </Trackpoint>
                    <Trackpoint>
                        <DistanceMeters>468.24885749816895</DistanceMeters>
                        <Time>2022-05-13T10:10:16.171Z</Time>
                    </Trackpoint>
                    <Trackpoint>
                        <DistanceMeters>493.0689220428467</DistanceMeters>
                        <Time>2022-05-13T10:10:40.851Z</Time>
                    </Trackpoint>
                    <Trackpoint>
                        <DistanceMeters>519.6898021697998</DistanceMeters>
                        <Time>2022-05-13T10:11:08.051Z</Time>
                    </Trackpoint>
                    <Trackpoint>
                        <DistanceMeters>526.8731455802917</DistanceMeters>
                        <Time>2022-05-13T10:11:15.891Z</Time>
                    </Trackpoint>
                    <Trackpoint>
                        <DistanceMeters>552.1310782432556</DistanceMeters>
                        <Time>2022-05-13T10:11:41.811Z</Time>
                    </Trackpoint>
                    <Trackpoint>
                        <DistanceMeters>573.2983450889587</DistanceMeters>
                        <Time>2022-05-13T10:12:26.994Z</Time>
                    </Trackpoint>
                </Track>
                <DistanceMeters>573.2983450889587</DistanceMeters>
                <TotalTimeSeconds>657.342500665</TotalTimeSeconds>
                <Calories>65.81505584716797</Calories>
                <Intensity>Active</Intensity>
                <TriggerMethod>Manual</TriggerMethod>
            </Lap>
        </Activity>
    </Activities>
    <Author xsi:type="Application_t">
        <Name>Google Fit</Name>
        <Build>
            <Version>
                <VersionMajor>0</VersionMajor>
                <VersionMinor>0</VersionMinor>
                <BuildMajor>0</BuildMajor>
                <BuildMinor>0</BuildMinor>
            </Version>
        </Build>
        <LangID>en</LangID>
        <PartNumber>000-00000-00</PartNumber>
    </Author>
</TrainingCenterDatabase>
