<?xml version="1.0" encoding="UTF-8"?>
<TrainingCenterDatabase
    xmlns="http://www.garmin.com/xmlschemas/TrainingCenterDatabase/v2"
    xmlns:ns2="http://www.garmin.com/xmlschemas/UserProfile/v2"
    xmlns:ns3="http://www.garmin.com/xmlschemas/ActivityExtension/v2"
    xmlns:ns4="http://www.garmin.com/xmlschemas/ProfileExtension/v1"
    xmlns:ns5="http://www.garmin.com/xmlschemas/ActivityGoals/v1"
    xmlns:xsi="http://www.w3.org/2001/XMLSchema-instance" xsi:schemaLocation="http://www.garmin.com/xmlschemas/TrainingCenterDatabase/v2 http://www.garmin.com/xmlschemas/TrainingCenterDatabasev2.xsd">
    <Activities>
        <Activity Sport="Walking">
            <Id>2022-05-06T13:11:57.699Z</Id>
            <Lap StartTime="2022-05-06T13:11:57.699Z">
                <Track>
                    <Trackpoint>
                        <DistanceMeters>0.0</DistanceMeters>
                        <Time>2022-05-06T13:11:57.699Z</Time>
                    </Trackpoint>
                    <Trackpoint>
                        <DistanceMeters>10.43943977355957</DistanceMeters>
                        <Time>2022-05-06T13:12:29.210Z</Time>
                    </Trackpoint>
                    <Trackpoint>
                        <DistanceMeters>60.41146659851074</DistanceMeters>
                        <Time>2022-05-06T13:13:11.530Z</Time>
                    </Trackpoint>
                    <Trackpoint>
                        <DistanceMeters>81.40396690368652</DistanceMeters>
                        <Time>2022-05-06T13:13:29.650Z</Time>
                    </Trackpoint>
                    <Trackpoint>
                        <DistanceMeters>117.94200706481934</DistanceMeters>
                        <Time>2022-05-06T13:14:12.290Z</Time>
                    </Trackpoint>
                    <Trackpoint>
                        <DistanceMeters>141.03369522094727</DistanceMeters>
                        <Time>2022-05-06T13:14:30.330Z</Time>
                    </Trackpoint>
                    <Trackpoint>
                        <DistanceMeters>166.479829788208</DistanceMeters>
                        <Time>2022-05-06T13:15:13.490Z</Time>
                    </Trackpoint>
                    <Trackpoint>
                        <DistanceMeters>187.04215049743652</DistanceMeters>
                        <Time>2022-05-06T13:15:30.490Z</Time>
                    </Trackpoint>
                    <Trackpoint>
                        <DistanceMeters>216.40307426452637</DistanceMeters>
                        <Time>2022-05-06T13:16:14.690Z</Time>
                    </Trackpoint>
                    <Trackpoint>
                        <DistanceMeters>238.09391021728516</DistanceMeters>
                        <Time>2022-05-06T13:16:31.530Z</Time>
                    </Trackpoint>
                    <Trackpoint>
                        <DistanceMeters>286.8833923339844</DistanceMeters>
                        <Time>2022-05-06T13:17:36.909Z</Time>
                    </Trackpoint>
                </Track>
                <DistanceMeters>286.8833923339844</DistanceMeters>
                <TotalTimeSeconds>339.21</TotalTimeSeconds>
                <Calories>34.7313346862793</Calories>
                <Intensity>Active</Intensity>
                <TriggerMethod>Manual</TriggerMethod>
            </Lap>
        </Activity>
        <Activity Sport="Walking">
            <Id>2022-05-06T13:19:05.050Z</Id>
            <Lap StartTime="2022-05-06T13:19:05.050Z">
                <Track>
                    <Trackpoint>
                        <DistanceMeters>0.0</DistanceMeters>
                        <Time>2022-05-06T13:19:05.050Z</Time>
                    </Trackpoint>
                    <Trackpoint>
                        <DistanceMeters>27.40353012084961</DistanceMeters>
                        <Time>2022-05-06T13:19:15.882Z</Time>
                    </Trackpoint>
                    <Trackpoint>
                        <DistanceMeters>27.40353012084961</DistanceMeters>
                        <Time>2022-05-06T13:19:59.530Z</Time>
                    </Trackpoint>
                    <Trackpoint>
                        <DistanceMeters>108.76517868041992</DistanceMeters>
                        <Time>2022-05-06T13:21:00.010Z</Time>
                    </Trackpoint>
                    <Trackpoint>
                        <DistanceMeters>139.6342430114746</DistanceMeters>
                        <Time>2022-05-06T13:21:24.530Z</Time>
                    </Trackpoint>
                    <Trackpoint>
                        <DistanceMeters>167.51848602294922</DistanceMeters>
                        <Time>2022-05-06T13:21:46.970Z</Time>
                    </Trackpoint>
                    <Trackpoint>
                        <DistanceMeters>226.8927993774414</DistanceMeters>
                        <Time>2022-05-06T13:23:22.170Z</Time>
                    </Trackpoint>
                </Track>
                <DistanceMeters>226.8927993774414</DistanceMeters>
                <TotalTimeSeconds>257.120000604</TotalTimeSeconds>
                <Calories>15.483552932739258</Calories>
                <Intensity>Active</Intensity>
                <TriggerMethod>Manual</TriggerMethod>
            </Lap>
        </Activity>
        <Activity Sport="Walking">
            <Id>2022-05-06T13:21:46.970Z</Id>
            <Lap StartTime="2022-05-06T13:21:46.970Z">
                <Track>
                    <Trackpoint>
                        <DistanceMeters>0.0</DistanceMeters>
                        <Time>2022-05-06T13:21:46.970Z</Time>
                    </Trackpoint>
                    <Trackpoint>
                        <DistanceMeters>59.37431335449219</DistanceMeters>
                        <Time>2022-05-06T13:23:19.447Z</Time>
                    </Trackpoint>
                    <Trackpoint>
                        <DistanceMeters>59.37431335449219</DistanceMeters>
                        <Time>2022-05-06T13:23:22.170Z</Time>
                    </Trackpoint>
                    <Trackpoint>
                        <DistanceMeters>134.88777923583984</DistanceMeters>
                        <Time>2022-05-06T13:25:20.532Z</Time>
                    </Trackpoint>
                </Track>
                <DistanceMeters>134.88777923583984</DistanceMeters>
                <TotalTimeSeconds>213.561165866</TotalTimeSeconds>
                <Calories>12.397758483886719</Calories>
                <Intensity>Active</Intensity>
                <TriggerMethod>Manual</TriggerMethod>
            </Lap>
        </Activity>
        <Activity Sport="Walking">
            <Id>2022-05-06T13:28:22.436Z</Id>
            <Lap StartTime="2022-05-06T13:28:22.436Z">
                <Track>
                    <Trackpoint>
                        <DistanceMeters>0.0</DistanceMeters>
                        <Time>2022-05-06T13:28:22.436Z</Time>
                    </Trackpoint>
                    <Trackpoint>
                        <DistanceMeters>0.0</DistanceMeters>
                        <Time>2022-05-06T13:29:23.885Z</Time>
                    </Trackpoint>
                </Track>
                <DistanceMeters>0.0</DistanceMeters>
                <TotalTimeSeconds>61.449</TotalTimeSeconds>
                <Calories>6.291694641113281</Calories>
                <Intensity>Active</Intensity>
                <TriggerMethod>Manual</TriggerMethod>
            </Lap>
        </Activity>
    </Activities>
    <Author xsi:type="Application_t">
        <Name>Google Fit</Name>
        <Build>
            <Version>
                <VersionMajor>0</VersionMajor>
                <VersionMinor>0</VersionMinor>
                <BuildMajor>0</BuildMajor>
                <BuildMinor>0</BuildMinor>
            </Version>
        </Build>
        <LangID>en</LangID>
        <PartNumber>000-00000-00</PartNumber>
    </Author>
</TrainingCenterDatabase>
