<?xml version="1.0" encoding="UTF-8"?>
<TrainingCenterDatabase
    xmlns="http://www.garmin.com/xmlschemas/TrainingCenterDatabase/v2"
    xmlns:ns2="http://www.garmin.com/xmlschemas/UserProfile/v2"
    xmlns:ns3="http://www.garmin.com/xmlschemas/ActivityExtension/v2"
    xmlns:ns4="http://www.garmin.com/xmlschemas/ProfileExtension/v1"
    xmlns:ns5="http://www.garmin.com/xmlschemas/ActivityGoals/v1"
    xmlns:xsi="http://www.w3.org/2001/XMLSchema-instance" xsi:schemaLocation="http://www.garmin.com/xmlschemas/TrainingCenterDatabase/v2 http://www.garmin.com/xmlschemas/TrainingCenterDatabasev2.xsd">
    <Activities>
        <Activity Sport="Walking">
            <Id>2022-11-07T16:36:20.944Z</Id>
            <Lap StartTime="2022-11-07T16:36:20.944Z">
                <Track>
                    <Trackpoint>
                        <DistanceMeters>0.0</DistanceMeters>
                        <Time>2022-11-07T16:36:20.944Z</Time>
                    </Trackpoint>
                    <Trackpoint>
                        <DistanceMeters>18.2690199600625</DistanceMeters>
                        <Time>2022-11-07T16:36:45.228Z</Time>
                    </Trackpoint>
                    <Trackpoint>
                        <DistanceMeters>54.88645909726122</DistanceMeters>
                        <Time>2022-11-07T16:37:16.188Z</Time>
                    </Trackpoint>
                    <Trackpoint>
                        <DistanceMeters>57.6734098960432</DistanceMeters>
                        <Time>2022-11-07T16:37:31.661Z</Time>
                    </Trackpoint>
                </Track>
                <DistanceMeters>57.6734098960432</DistanceMeters>
                <TotalTimeSeconds>70.717</TotalTimeSeconds>
                <Calories>7.240635055555556</Calories>
                <Intensity>Active</Intensity>
                <TriggerMethod>Manual</TriggerMethod>
            </Lap>
        </Activity>
        <Activity Sport="Walking">
            <Id>2022-11-07T16:37:31.661Z</Id>
            <Lap StartTime="2022-11-07T16:37:31.661Z">
                <Track>
                    <Trackpoint>
                        <DistanceMeters>0.0</DistanceMeters>
                        <Time>2022-11-07T16:37:31.661Z</Time>
                    </Trackpoint>
                    <Trackpoint>
                        <DistanceMeters>35.281401814923164</DistanceMeters>
                        <Time>2022-11-07T16:38:02.308Z</Time>
                    </Trackpoint>
                    <Trackpoint>
                        <DistanceMeters>64.03434098460824</DistanceMeters>
                        <Time>2022-11-07T16:38:26.948Z</Time>
                    </Trackpoint>
                    <Trackpoint>
                        <DistanceMeters>100.589404139183</DistanceMeters>
                        <Time>2022-11-07T16:38:58.028Z</Time>
                    </Trackpoint>
                    <Trackpoint>
                        <DistanceMeters>131.33918723622514</DistanceMeters>
                        <Time>2022-11-07T16:39:26.748Z</Time>
                    </Trackpoint>
                    <Trackpoint>
                        <DistanceMeters>168.7845592200755</DistanceMeters>
                        <Time>2022-11-07T16:39:58.068Z</Time>
                    </Trackpoint>
                    <Trackpoint>
                        <DistanceMeters>202.0511836242084</DistanceMeters>
                        <Time>2022-11-07T16:40:27.708Z</Time>
                    </Trackpoint>
                    <Trackpoint>
                        <DistanceMeters>238.62698488098607</DistanceMeters>
                        <Time>2022-11-07T16:40:58.748Z</Time>
                    </Trackpoint>
                    <Trackpoint>
                        <DistanceMeters>266.59673729039696</DistanceMeters>
                        <Time>2022-11-07T16:41:22.948Z</Time>
                    </Trackpoint>
                    <Trackpoint>
                        <DistanceMeters>273.65631504052806</DistanceMeters>
                        <Time>2022-11-07T16:41:28.868Z</Time>
                    </Trackpoint>
                    <Trackpoint>
                        <DistanceMeters>311.1016870243784</DistanceMeters>
                        <Time>2022-11-07T16:42:00.188Z</Time>
                    </Trackpoint>
                    <Trackpoint>
                        <DistanceMeters>314.8208442244051</DistanceMeters>
                        <Time>2022-11-07T16:42:02.828Z</Time>
                    </Trackpoint>
                    <Trackpoint>
                        <DistanceMeters>355.90252585073233</DistanceMeters>
                        <Time>2022-11-07T16:42:36.908Z</Time>
                    </Trackpoint>
                    <Trackpoint>
                        <DistanceMeters>364.3867293730064</DistanceMeters>
                        <Time>2022-11-07T16:42:43.988Z</Time>
                    </Trackpoint>
                    <Trackpoint>
                        <DistanceMeters>399.85599752823305</DistanceMeters>
                        <Time>2022-11-07T16:43:15.228Z</Time>
                    </Trackpoint>
                    <Trackpoint>
                        <DistanceMeters>430.00135594915264</DistanceMeters>
                        <Time>2022-11-07T16:43:39.188Z</Time>
                    </Trackpoint>
                    <Trackpoint>
                        <DistanceMeters>438.0111019044919</DistanceMeters>
                        <Time>2022-11-07T16:43:45.268Z</Time>
                    </Trackpoint>
                    <Trackpoint>
                        <DistanceMeters>477.40580401890645</DistanceMeters>
                        <Time>2022-11-07T16:44:16.788Z</Time>
                    </Trackpoint>
                    <Trackpoint>
                        <DistanceMeters>512.7885991384196</DistanceMeters>
                        <Time>2022-11-07T16:44:46.228Z</Time>
                    </Trackpoint>
                    <Trackpoint>
                        <DistanceMeters>548.1598977144488</DistanceMeters>
                        <Time>2022-11-07T16:45:17.668Z</Time>
                    </Trackpoint>
                    <Trackpoint>
                        <DistanceMeters>581.4654344395127</DistanceMeters>
                        <Time>2022-11-07T16:45:47.228Z</Time>
                    </Trackpoint>
                    <Trackpoint>
                        <DistanceMeters>621.2987459204791</DistanceMeters>
                        <Time>2022-11-07T16:46:17.988Z</Time>
                    </Trackpoint>
                    <Trackpoint>
                        <DistanceMeters>656.5335541233118</DistanceMeters>
                        <Time>2022-11-07T16:46:47.708Z</Time>
                    </Trackpoint>
                    <Trackpoint>
                        <DistanceMeters>687.7250929686725</DistanceMeters>
                        <Time>2022-11-07T16:47:17.608Z</Time>
                    </Trackpoint>
                    <Trackpoint>
                        <DistanceMeters>708.6039729230296</DistanceMeters>
                        <Time>2022-11-07T16:47:47.588Z</Time>
                    </Trackpoint>
                    <Trackpoint>
                        <DistanceMeters>752.3686359715202</DistanceMeters>
                        <Time>2022-11-07T16:48:20.628Z</Time>
                    </Trackpoint>
                    <Trackpoint>
                        <DistanceMeters>787.6951138736101</DistanceMeters>
                        <Time>2022-11-07T16:48:48.308Z</Time>
                    </Trackpoint>
                    <Trackpoint>
                        <DistanceMeters>829.420177925617</DistanceMeters>
                        <Time>2022-11-07T16:49:21.228Z</Time>
                    </Trackpoint>
                    <Trackpoint>
                        <DistanceMeters>863.2298872296781</DistanceMeters>
                        <Time>2022-11-07T16:49:47.908Z</Time>
                    </Trackpoint>
                    <Trackpoint>
                        <DistanceMeters>905.3401067752822</DistanceMeters>
                        <Time>2022-11-07T16:50:21.988Z</Time>
                    </Trackpoint>
                    <Trackpoint>
                        <DistanceMeters>936.3643525647582</DistanceMeters>
                        <Time>2022-11-07T16:50:48.108Z</Time>
                    </Trackpoint>
                    <Trackpoint>
                        <DistanceMeters>938.9742125590528</DistanceMeters>
                        <Time>2022-11-07T16:51:13.542Z</Time>
                    </Trackpoint>
                </Track>
                <DistanceMeters>938.9742125590528</DistanceMeters>
                <TotalTimeSeconds>821.881</TotalTimeSeconds>
                <Calories>84.1514823888889</Calories>
                <Intensity>Active</Intensity>
                <TriggerMethod>Manual</TriggerMethod>
            </Lap>
        </Activity>
        <Activity Sport="Walking">
            <Id>2022-11-07T16:51:13.542Z</Id>
            <Lap StartTime="2022-11-07T16:51:13.542Z">
                <Track>
                    <Trackpoint>
                        <DistanceMeters>0.0</DistanceMeters>
                        <Time>2022-11-07T16:51:13.542Z</Time>
                    </Trackpoint>
                    <Trackpoint>
                        <DistanceMeters>0.0</DistanceMeters>
                        <Time>2022-11-07T16:51:45.868Z</Time>
                    </Trackpoint>
                    <Trackpoint>
                        <DistanceMeters>4.85259595723875</DistanceMeters>
                        <Time>2022-11-07T16:51:50.188Z</Time>
                    </Trackpoint>
                    <Trackpoint>
                        <DistanceMeters>45.582454978672104</DistanceMeters>
                        <Time>2022-11-07T16:52:23.028Z</Time>
                    </Trackpoint>
                    <Trackpoint>
                        <DistanceMeters>78.98972055301485</DistanceMeters>
                        <Time>2022-11-07T16:52:50.428Z</Time>
                    </Trackpoint>
                    <Trackpoint>
                        <DistanceMeters>119.41274581849466</DistanceMeters>
                        <Time>2022-11-07T16:53:23.828Z</Time>
                    </Trackpoint>
                </Track>
                <DistanceMeters>119.41274581849466</DistanceMeters>
                <TotalTimeSeconds>130.286098778</TotalTimeSeconds>
                <Calories>7.35869076217184</Calories>
                <Intensity>Active</Intensity>
                <TriggerMethod>Manual</TriggerMethod>
            </Lap>
        </Activity>
        <Activity Sport="Walking">
            <Id>2022-11-07T16:52:50.428Z</Id>
            <Lap StartTime="2022-11-07T16:52:50.428Z">
                <Track>
                    <Trackpoint>
                        <DistanceMeters>0.0</DistanceMeters>
                        <Time>2022-11-07T16:52:50.428Z</Time>
                    </Trackpoint>
                    <Trackpoint>
                        <DistanceMeters>40.42302526547981</DistanceMeters>
                        <Time>2022-11-07T16:52:51.030Z</Time>
                    </Trackpoint>
                    <Trackpoint>
                        <DistanceMeters>40.42302526547981</DistanceMeters>
                        <Time>2022-11-07T16:53:23.828Z</Time>
                    </Trackpoint>
                    <Trackpoint>
                        <DistanceMeters>74.81984598605871</DistanceMeters>
                        <Time>2022-11-07T16:53:51.308Z</Time>
                    </Trackpoint>
                    <Trackpoint>
                        <DistanceMeters>116.63722541098093</DistanceMeters>
                        <Time>2022-11-07T16:54:24.068Z</Time>
                    </Trackpoint>
                    <Trackpoint>
                        <DistanceMeters>150.899770893339</DistanceMeters>
                        <Time>2022-11-07T16:54:51.788Z</Time>
                    </Trackpoint>
                    <Trackpoint>
                        <DistanceMeters>187.83184174950838</DistanceMeters>
                        <Time>2022-11-07T16:55:24.108Z</Time>
                    </Trackpoint>
                    <Trackpoint>
                        <DistanceMeters>222.53434860133405</DistanceMeters>
                        <Time>2022-11-07T16:55:52.908Z</Time>
                    </Trackpoint>
                    <Trackpoint>
                        <DistanceMeters>262.4741010981723</DistanceMeters>
                        <Time>2022-11-07T16:56:25.308Z</Time>
                    </Trackpoint>
                    <Trackpoint>
                        <DistanceMeters>297.37180966554297</DistanceMeters>
                        <Time>2022-11-07T16:56:53.748Z</Time>
                    </Trackpoint>
                    <Trackpoint>
                        <DistanceMeters>338.2590416328328</DistanceMeters>
                        <Time>2022-11-07T16:57:26.308Z</Time>
                    </Trackpoint>
                    <Trackpoint>
                        <DistanceMeters>373.33445884433473</DistanceMeters>
                        <Time>2022-11-07T16:57:54.428Z</Time>
                    </Trackpoint>
                    <Trackpoint>
                        <DistanceMeters>411.7613915232547</DistanceMeters>
                        <Time>2022-11-07T16:58:25.828Z</Time>
                    </Trackpoint>
                    <Trackpoint>
                        <DistanceMeters>447.3605473870643</DistanceMeters>
                        <Time>2022-11-07T16:58:54.868Z</Time>
                    </Trackpoint>
                    <Trackpoint>
                        <DistanceMeters>463.67217235140583</DistanceMeters>
                        <Time>2022-11-07T16:59:14.028Z</Time>
                    </Trackpoint>
                    <Trackpoint>
                        <DistanceMeters>485.20351730433663</DistanceMeters>
                        <Time>2022-11-07T16:59:41.988Z</Time>
                    </Trackpoint>
                    <Trackpoint>
                        <DistanceMeters>502.323713518518</DistanceMeters>
                        <Time>2022-11-07T16:59:55.868Z</Time>
                    </Trackpoint>
                    <Trackpoint>
                        <DistanceMeters>542.5326960073577</DistanceMeters>
                        <Time>2022-11-07T17:00:27.788Z</Time>
                    </Trackpoint>
                    <Trackpoint>
                        <DistanceMeters>578.0881043083845</DistanceMeters>
                        <Time>2022-11-07T17:00:56.908Z</Time>
                    </Trackpoint>
                    <Trackpoint>
                        <DistanceMeters>625.2738877786583</DistanceMeters>
                        <Time>2022-11-07T17:01:36.788Z</Time>
                    </Trackpoint>
                    <Trackpoint>
                        <DistanceMeters>654.6223957331645</DistanceMeters>
                        <Time>2022-11-07T17:02:04.308Z</Time>
                    </Trackpoint>
                    <Trackpoint>
                        <DistanceMeters>678.6716109789373</DistanceMeters>
                        <Time>2022-11-07T17:03:13.664Z</Time>
                    </Trackpoint>
                </Track>
                <DistanceMeters>678.6716109789373</DistanceMeters>
                <TotalTimeSeconds>623.235901222</TotalTimeSeconds>
                <Calories>63.75080344444445</Calories>
                <Intensity>Active</Intensity>
                <TriggerMethod>Manual</TriggerMethod>
            </Lap>
        </Activity>
    </Activities>
    <Author xsi:type="Application_t">
        <Name>Google Fit</Name>
        <Build>
            <Version>
                <VersionMajor>0</VersionMajor>
                <VersionMinor>0</VersionMinor>
                <BuildMajor>0</BuildMajor>
                <BuildMinor>0</BuildMinor>
            </Version>
        </Build>
        <LangID>en</LangID>
        <PartNumber>000-00000-00</PartNumber>
    </Author>
</TrainingCenterDatabase>
