<?xml version="1.0" encoding="UTF-8"?>
<TrainingCenterDatabase
    xmlns="http://www.garmin.com/xmlschemas/TrainingCenterDatabase/v2"
    xmlns:ns2="http://www.garmin.com/xmlschemas/UserProfile/v2"
    xmlns:ns3="http://www.garmin.com/xmlschemas/ActivityExtension/v2"
    xmlns:ns4="http://www.garmin.com/xmlschemas/ProfileExtension/v1"
    xmlns:ns5="http://www.garmin.com/xmlschemas/ActivityGoals/v1"
    xmlns:xsi="http://www.w3.org/2001/XMLSchema-instance" xsi:schemaLocation="http://www.garmin.com/xmlschemas/TrainingCenterDatabase/v2 http://www.garmin.com/xmlschemas/TrainingCenterDatabasev2.xsd">
    <Activities>
        <Activity Sport="Walking">
            <Id>2022-04-08T14:34:06.954Z</Id>
            <Lap StartTime="2022-04-08T14:34:06.954Z">
                <Track>
                    <Trackpoint>
                        <DistanceMeters>0.0</DistanceMeters>
                        <Time>2022-04-08T14:34:06.954Z</Time>
                    </Trackpoint>
                    <Trackpoint>
                        <DistanceMeters>17.98947525024414</DistanceMeters>
                        <Time>2022-04-08T14:35:02.097Z</Time>
                    </Trackpoint>
                    <Trackpoint>
                        <DistanceMeters>33.18644332885742</DistanceMeters>
                        <Time>2022-04-08T14:35:18.017Z</Time>
                    </Trackpoint>
                    <Trackpoint>
                        <DistanceMeters>95.82308197021484</DistanceMeters>
                        <Time>2022-04-08T14:37:42.137Z</Time>
                    </Trackpoint>
                    <Trackpoint>
                        <DistanceMeters>155.2318458557129</DistanceMeters>
                        <Time>2022-04-08T14:38:42.217Z</Time>
                    </Trackpoint>
                    <Trackpoint>
                        <DistanceMeters>217.4929084777832</DistanceMeters>
                        <Time>2022-04-08T14:39:42.297Z</Time>
                    </Trackpoint>
                    <Trackpoint>
                        <DistanceMeters>261.8605270385742</DistanceMeters>
                        <Time>2022-04-08T14:40:42.417Z</Time>
                    </Trackpoint>
                    <Trackpoint>
                        <DistanceMeters>333.0948486328125</DistanceMeters>
                        <Time>2022-04-08T14:41:42.337Z</Time>
                    </Trackpoint>
                    <Trackpoint>
                        <DistanceMeters>407.9984664916992</DistanceMeters>
                        <Time>2022-04-08T14:42:43.057Z</Time>
                    </Trackpoint>
                    <Trackpoint>
                        <DistanceMeters>483.60345458984375</DistanceMeters>
                        <Time>2022-04-08T14:43:44.377Z</Time>
                    </Trackpoint>
                    <Trackpoint>
                        <DistanceMeters>557.3256454467773</DistanceMeters>
                        <Time>2022-04-08T14:44:45.377Z</Time>
                    </Trackpoint>
                    <Trackpoint>
                        <DistanceMeters>630.7381820678711</DistanceMeters>
                        <Time>2022-04-08T14:45:45.057Z</Time>
                    </Trackpoint>
                    <Trackpoint>
                        <DistanceMeters>632.1630268096924</DistanceMeters>
                        <Time>2022-04-08T14:45:46.217Z</Time>
                    </Trackpoint>
                    <Trackpoint>
                        <DistanceMeters>707.60618019104</DistanceMeters>
                        <Time>2022-04-08T14:46:45.977Z</Time>
                    </Trackpoint>
                    <Trackpoint>
                        <DistanceMeters>709.1046224832535</DistanceMeters>
                        <Time>2022-04-08T14:46:47.017Z</Time>
                    </Trackpoint>
                    <Trackpoint>
                        <DistanceMeters>794.8855291604996</DistanceMeters>
                        <Time>2022-04-08T14:47:47.377Z</Time>
                    </Trackpoint>
                    <Trackpoint>
                        <DistanceMeters>878.0968481302261</DistanceMeters>
                        <Time>2022-04-08T14:48:48.337Z</Time>
                    </Trackpoint>
                    <Trackpoint>
                        <DistanceMeters>961.0743795633316</DistanceMeters>
                        <Time>2022-04-08T14:49:47.977Z</Time>
                    </Trackpoint>
                    <Trackpoint>
                        <DistanceMeters>1047.3375936746597</DistanceMeters>
                        <Time>2022-04-08T14:50:49.257Z</Time>
                    </Trackpoint>
                    <Trackpoint>
                        <DistanceMeters>1131.9968420267105</DistanceMeters>
                        <Time>2022-04-08T14:51:49.657Z</Time>
                    </Trackpoint>
                    <Trackpoint>
                        <DistanceMeters>1163.944525361061</DistanceMeters>
                        <Time>2022-04-08T14:52:12.417Z</Time>
                    </Trackpoint>
                    <Trackpoint>
                        <DistanceMeters>1217.5909448862076</DistanceMeters>
                        <Time>2022-04-08T14:52:50.297Z</Time>
                    </Trackpoint>
                    <Trackpoint>
                        <DistanceMeters>1249.5916353464127</DistanceMeters>
                        <Time>2022-04-08T14:53:12.977Z</Time>
                    </Trackpoint>
                    <Trackpoint>
                        <DistanceMeters>1304.1216303110123</DistanceMeters>
                        <Time>2022-04-08T14:53:51.177Z</Time>
                    </Trackpoint>
                    <Trackpoint>
                        <DistanceMeters>1334.3888994455338</DistanceMeters>
                        <Time>2022-04-08T14:54:13.177Z</Time>
                    </Trackpoint>
                    <Trackpoint>
                        <DistanceMeters>1389.480284333229</DistanceMeters>
                        <Time>2022-04-08T14:54:52.177Z</Time>
                    </Trackpoint>
                    <Trackpoint>
                        <DistanceMeters>1419.3675104379654</DistanceMeters>
                        <Time>2022-04-08T14:55:13.097Z</Time>
                    </Trackpoint>
                    <Trackpoint>
                        <DistanceMeters>1475.9040056467056</DistanceMeters>
                        <Time>2022-04-08T14:55:53.217Z</Time>
                    </Trackpoint>
                    <Trackpoint>
                        <DistanceMeters>1483.2268263101578</DistanceMeters>
                        <Time>2022-04-08T14:55:58.677Z</Time>
                    </Trackpoint>
                    <Trackpoint>
                        <DistanceMeters>1527.5944448709488</DistanceMeters>
                        <Time>2022-04-08T14:56:54.457Z</Time>
                    </Trackpoint>
                    <Trackpoint>
                        <DistanceMeters>1568.0896841287613</DistanceMeters>
                        <Time>2022-04-08T14:57:24.137Z</Time>
                    </Trackpoint>
                    <Trackpoint>
                        <DistanceMeters>1610.2624059915543</DistanceMeters>
                        <Time>2022-04-08T14:57:54.577Z</Time>
                    </Trackpoint>
                    <Trackpoint>
                        <DistanceMeters>1654.3305250406265</DistanceMeters>
                        <Time>2022-04-08T14:58:25.457Z</Time>
                    </Trackpoint>
                    <Trackpoint>
                        <DistanceMeters>1696.9272657632828</DistanceMeters>
                        <Time>2022-04-08T14:58:55.257Z</Time>
                    </Trackpoint>
                    <Trackpoint>
                        <DistanceMeters>1741.9905477762222</DistanceMeters>
                        <Time>2022-04-08T14:59:26.297Z</Time>
                    </Trackpoint>
                    <Trackpoint>
                        <DistanceMeters>1782.384701371193</DistanceMeters>
                        <Time>2022-04-08T14:59:56.137Z</Time>
                    </Trackpoint>
                    <Trackpoint>
                        <DistanceMeters>1811.2955785989761</DistanceMeters>
                        <Time>2022-04-08T15:00:27.017Z</Time>
                    </Trackpoint>
                    <Trackpoint>
                        <DistanceMeters>1853.6515966653824</DistanceMeters>
                        <Time>2022-04-08T15:00:57.177Z</Time>
                    </Trackpoint>
                    <Trackpoint>
                        <DistanceMeters>1883.8676573038101</DistanceMeters>
                        <Time>2022-04-08T15:02:47.257Z</Time>
                    </Trackpoint>
                    <Trackpoint>
                        <DistanceMeters>1906.7039324045181</DistanceMeters>
                        <Time>2022-04-08T15:03:57.257Z</Time>
                    </Trackpoint>
                    <Trackpoint>
                        <DistanceMeters>1963.4224382638931</DistanceMeters>
                        <Time>2022-04-08T15:04:57.057Z</Time>
                    </Trackpoint>
                    <Trackpoint>
                        <DistanceMeters>2010.567526459694</DistanceMeters>
                        <Time>2022-04-08T15:05:31.557Z</Time>
                    </Trackpoint>
                    <Trackpoint>
                        <DistanceMeters>2071.246771454811</DistanceMeters>
                        <Time>2022-04-08T15:06:59.297Z</Time>
                    </Trackpoint>
                    <Trackpoint>
                        <DistanceMeters>2154.9211946725845</DistanceMeters>
                        <Time>2022-04-08T15:07:59.537Z</Time>
                    </Trackpoint>
                    <Trackpoint>
                        <DistanceMeters>2241.4781633615494</DistanceMeters>
                        <Time>2022-04-08T15:09:00.377Z</Time>
                    </Trackpoint>
                    <Trackpoint>
                        <DistanceMeters>2328.035132050514</DistanceMeters>
                        <Time>2022-04-08T15:10:01.217Z</Time>
                    </Trackpoint>
                    <Trackpoint>
                        <DistanceMeters>2414.484793305397</DistanceMeters>
                        <Time>2022-04-08T15:11:02.217Z</Time>
                    </Trackpoint>
                    <Trackpoint>
                        <DistanceMeters>2500.9880434274673</DistanceMeters>
                        <Time>2022-04-08T15:12:03.137Z</Time>
                    </Trackpoint>
                    <Trackpoint>
                        <DistanceMeters>2571.5725923776627</DistanceMeters>
                        <Time>2022-04-08T15:12:53.417Z</Time>
                    </Trackpoint>
                    <Trackpoint>
                        <DistanceMeters>2584.872593522072</DistanceMeters>
                        <Time>2022-04-08T15:13:03.057Z</Time>
                    </Trackpoint>
                    <Trackpoint>
                        <DistanceMeters>2657.0614362955093</DistanceMeters>
                        <Time>2022-04-08T15:13:54.217Z</Time>
                    </Trackpoint>
                    <Trackpoint>
                        <DistanceMeters>2669.6644064188004</DistanceMeters>
                        <Time>2022-04-08T15:14:03.257Z</Time>
                    </Trackpoint>
                    <Trackpoint>
                        <DistanceMeters>2742.469879746437</DistanceMeters>
                        <Time>2022-04-08T15:14:55.137Z</Time>
                    </Trackpoint>
                    <Trackpoint>
                        <DistanceMeters>2755.072849869728</DistanceMeters>
                        <Time>2022-04-08T15:15:04.177Z</Time>
                    </Trackpoint>
                    <Trackpoint>
                        <DistanceMeters>2826.8413816690445</DistanceMeters>
                        <Time>2022-04-08T15:15:55.977Z</Time>
                    </Trackpoint>
                    <Trackpoint>
                        <DistanceMeters>2840.27309858799</DistanceMeters>
                        <Time>2022-04-08T15:16:05.417Z</Time>
                    </Trackpoint>
                    <Trackpoint>
                        <DistanceMeters>2912.145733475685</DistanceMeters>
                        <Time>2022-04-08T15:16:57.057Z</Time>
                    </Trackpoint>
                    <Trackpoint>
                        <DistanceMeters>2924.748703598976</DistanceMeters>
                        <Time>2022-04-08T15:17:06.097Z</Time>
                    </Trackpoint>
                    <Trackpoint>
                        <DistanceMeters>2996.234238266945</DistanceMeters>
                        <Time>2022-04-08T15:17:58.337Z</Time>
                    </Trackpoint>
                    <Trackpoint>
                        <DistanceMeters>3008.837208390236</DistanceMeters>
                        <Time>2022-04-08T15:18:07.377Z</Time>
                    </Trackpoint>
                    <Trackpoint>
                        <DistanceMeters>3067.462566971779</DistanceMeters>
                        <Time>2022-04-08T15:18:49.297Z</Time>
                    </Trackpoint>
                    <Trackpoint>
                        <DistanceMeters>3094.2458082437515</DistanceMeters>
                        <Time>2022-04-08T15:19:08.297Z</Time>
                    </Trackpoint>
                    <Trackpoint>
                        <DistanceMeters>3154.5546613931656</DistanceMeters>
                        <Time>2022-04-08T15:19:50.977Z</Time>
                    </Trackpoint>
                    <Trackpoint>
                        <DistanceMeters>3179.7344938516617</DistanceMeters>
                        <Time>2022-04-08T15:20:09.097Z</Time>
                    </Trackpoint>
                    <Trackpoint>
                        <DistanceMeters>3239.401157975197</DistanceMeters>
                        <Time>2022-04-08T15:20:51.097Z</Time>
                    </Trackpoint>
                    <Trackpoint>
                        <DistanceMeters>3266.1052099466324</DistanceMeters>
                        <Time>2022-04-08T15:21:10.217Z</Time>
                    </Trackpoint>
                    <Trackpoint>
                        <DistanceMeters>3325.2708975076675</DistanceMeters>
                        <Time>2022-04-08T15:21:52.977Z</Time>
                    </Trackpoint>
                    <Trackpoint>
                        <DistanceMeters>3350.3474394083023</DistanceMeters>
                        <Time>2022-04-08T15:22:11.257Z</Time>
                    </Trackpoint>
                    <Trackpoint>
                        <DistanceMeters>3406.8340612649918</DistanceMeters>
                        <Time>2022-04-08T15:22:53.137Z</Time>
                    </Trackpoint>
                    <Trackpoint>
                        <DistanceMeters>3433.6173025369644</DistanceMeters>
                        <Time>2022-04-08T15:23:12.137Z</Time>
                    </Trackpoint>
                    <Trackpoint>
                        <DistanceMeters>3493.123814225197</DistanceMeters>
                        <Time>2022-04-08T15:23:54.377Z</Time>
                    </Trackpoint>
                    <Trackpoint>
                        <DistanceMeters>3518.974903702736</DistanceMeters>
                        <Time>2022-04-08T15:24:13.137Z</Time>
                    </Trackpoint>
                    <Trackpoint>
                        <DistanceMeters>3562.1016660928726</DistanceMeters>
                        <Time>2022-04-08T15:24:45.477Z</Time>
                    </Trackpoint>
                    <Trackpoint>
                        <DistanceMeters>3603.2069593667984</DistanceMeters>
                        <Time>2022-04-08T15:26:22.417Z</Time>
                    </Trackpoint>
                    <Trackpoint>
                        <DistanceMeters>3615.6037937402725</DistanceMeters>
                        <Time>2022-04-08T15:27:30.696Z</Time>
                    </Trackpoint>
                </Track>
                <DistanceMeters>3615.6037937402725</DistanceMeters>
                <TotalTimeSeconds>3203.742</TotalTimeSeconds>
                <Calories>328.027587890625</Calories>
                <Intensity>Active</Intensity>
                <TriggerMethod>Manual</TriggerMethod>
            </Lap>
        </Activity>
    </Activities>
    <Author xsi:type="Application_t">
        <Name>Google Fit</Name>
        <Build>
            <Version>
                <VersionMajor>0</VersionMajor>
                <VersionMinor>0</VersionMinor>
                <BuildMajor>0</BuildMajor>
                <BuildMinor>0</BuildMinor>
            </Version>
        </Build>
        <LangID>en</LangID>
        <PartNumber>000-00000-00</PartNumber>
    </Author>
</TrainingCenterDatabase>
