<?xml version="1.0" encoding="UTF-8"?>
<TrainingCenterDatabase
    xmlns="http://www.garmin.com/xmlschemas/TrainingCenterDatabase/v2"
    xmlns:ns2="http://www.garmin.com/xmlschemas/UserProfile/v2"
    xmlns:ns3="http://www.garmin.com/xmlschemas/ActivityExtension/v2"
    xmlns:ns4="http://www.garmin.com/xmlschemas/ProfileExtension/v1"
    xmlns:ns5="http://www.garmin.com/xmlschemas/ActivityGoals/v1"
    xmlns:xsi="http://www.w3.org/2001/XMLSchema-instance" xsi:schemaLocation="http://www.garmin.com/xmlschemas/TrainingCenterDatabase/v2 http://www.garmin.com/xmlschemas/TrainingCenterDatabasev2.xsd">
    <Activities>
        <Activity Sport="Walking">
            <Id>2022-07-01T06:22:14.552Z</Id>
            <Lap StartTime="2022-07-01T06:22:14.552Z">
                <Track>
                    <Trackpoint>
                        <DistanceMeters>0.0</DistanceMeters>
                        <Time>2022-07-01T06:22:14.552Z</Time>
                    </Trackpoint>
                    <Trackpoint>
                        <DistanceMeters>28.055994033813477</DistanceMeters>
                        <Time>2022-07-01T06:22:47.170Z</Time>
                    </Trackpoint>
                    <Trackpoint>
                        <DistanceMeters>28.055994033813477</DistanceMeters>
                        <Time>2022-07-01T06:25:20.502Z</Time>
                    </Trackpoint>
                </Track>
                <DistanceMeters>28.055994033813477</DistanceMeters>
                <TotalTimeSeconds>185.949509536</TotalTimeSeconds>
                <Calories>15.699492454528809</Calories>
                <Intensity>Active</Intensity>
                <TriggerMethod>Manual</TriggerMethod>
            </Lap>
        </Activity>
        <Activity Sport="Walking">
            <Id>2022-07-01T06:25:20.502Z</Id>
            <Lap StartTime="2022-07-01T06:25:20.502Z">
                <Track>
                    <Trackpoint>
                        <DistanceMeters>0.0</DistanceMeters>
                        <Time>2022-07-01T06:25:20.502Z</Time>
                    </Trackpoint>
                    <Trackpoint>
                        <DistanceMeters>0.0</DistanceMeters>
                        <Time>2022-07-01T06:29:39.372Z</Time>
                    </Trackpoint>
                    <Trackpoint>
                        <DistanceMeters>18.269020080566406</DistanceMeters>
                        <Time>2022-07-01T06:30:39.372Z</Time>
                    </Trackpoint>
                    <Trackpoint>
                        <DistanceMeters>31.170650482177734</DistanceMeters>
                        <Time>2022-07-01T06:30:49.672Z</Time>
                    </Trackpoint>
                    <Trackpoint>
                        <DistanceMeters>93.80728912353516</DistanceMeters>
                        <Time>2022-07-01T06:32:04.472Z</Time>
                    </Trackpoint>
                </Track>
                <DistanceMeters>93.80728912353516</DistanceMeters>
                <TotalTimeSeconds>403.970489756</TotalTimeSeconds>
                <Calories>14.002758979797363</Calories>
                <Intensity>Active</Intensity>
                <TriggerMethod>Manual</TriggerMethod>
            </Lap>
        </Activity>
        <Activity Sport="Walking">
            <Id>2022-07-01T06:30:49.672Z</Id>
            <Lap StartTime="2022-07-01T06:30:49.672Z">
                <Track>
                    <Trackpoint>
                        <DistanceMeters>0.0</DistanceMeters>
                        <Time>2022-07-01T06:30:49.672Z</Time>
                    </Trackpoint>
                    <Trackpoint>
                        <DistanceMeters>62.63663864135742</DistanceMeters>
                        <Time>2022-07-01T06:31:49.963Z</Time>
                    </Trackpoint>
                    <Trackpoint>
                        <DistanceMeters>62.63663864135742</DistanceMeters>
                        <Time>2022-07-01T06:32:04.472Z</Time>
                    </Trackpoint>
                    <Trackpoint>
                        <DistanceMeters>78.29579830169678</DistanceMeters>
                        <Time>2022-07-01T06:33:31.792Z</Time>
                    </Trackpoint>
                    <Trackpoint>
                        <DistanceMeters>115.48630428314209</DistanceMeters>
                        <Time>2022-07-01T06:35:35.782Z</Time>
                    </Trackpoint>
                </Track>
                <DistanceMeters>115.48630428314209</DistanceMeters>
                <TotalTimeSeconds>286.109510293</TotalTimeSeconds>
                <Calories>23.121355056762695</Calories>
                <Intensity>Active</Intensity>
                <TriggerMethod>Manual</TriggerMethod>
            </Lap>
        </Activity>
        <Activity Sport="Walking">
            <Id>2022-07-01T06:42:39.072Z</Id>
            <Lap StartTime="2022-07-01T06:42:39.072Z">
                <Track>
                    <Trackpoint>
                        <DistanceMeters>0.0</DistanceMeters>
                        <Time>2022-07-01T06:42:39.072Z</Time>
                    </Trackpoint>
                    <Trackpoint>
                        <DistanceMeters>41.10529327392578</DistanceMeters>
                        <Time>2022-07-01T06:43:51.123Z</Time>
                    </Trackpoint>
                    <Trackpoint>
                        <DistanceMeters>41.10529327392578</DistanceMeters>
                        <Time>2022-07-01T06:43:58.092Z</Time>
                    </Trackpoint>
                    <Trackpoint>
                        <DistanceMeters>48.35572147369385</DistanceMeters>
                        <Time>2022-07-01T06:44:05.752Z</Time>
                    </Trackpoint>
                    <Trackpoint>
                        <DistanceMeters>69.23460102081299</DistanceMeters>
                        <Time>2022-07-01T06:45:04.872Z</Time>
                    </Trackpoint>
                    <Trackpoint>
                        <DistanceMeters>73.14939093589783</DistanceMeters>
                        <Time>2022-07-01T06:45:11.792Z</Time>
                    </Trackpoint>
                    <Trackpoint>
                        <DistanceMeters>86.19869017601013</DistanceMeters>
                        <Time>2022-07-01T06:45:38.232Z</Time>
                    </Trackpoint>
                    <Trackpoint>
                        <DistanceMeters>107.07756972312927</DistanceMeters>
                        <Time>2022-07-01T06:46:05.432Z</Time>
                    </Trackpoint>
                    <Trackpoint>
                        <DistanceMeters>114.90714955329895</DistanceMeters>
                        <Time>2022-07-01T06:46:25.866Z</Time>
                    </Trackpoint>
                </Track>
                <DistanceMeters>114.90714955329895</DistanceMeters>
                <TotalTimeSeconds>226.793509002</TotalTimeSeconds>
                <Calories>15.843963623046875</Calories>
                <Intensity>Active</Intensity>
                <TriggerMethod>Manual</TriggerMethod>
            </Lap>
        </Activity>
        <Activity Sport="Walking">
            <Id>2022-07-01T06:51:26.192Z</Id>
            <Lap StartTime="2022-07-01T06:51:26.192Z">
                <Track>
                    <Trackpoint>
                        <DistanceMeters>0.0</DistanceMeters>
                        <Time>2022-07-01T06:51:26.192Z</Time>
                    </Trackpoint>
                    <Trackpoint>
                        <DistanceMeters>34.58064270019531</DistanceMeters>
                        <Time>2022-07-01T06:53:00.754Z</Time>
                    </Trackpoint>
                    <Trackpoint>
                        <DistanceMeters>34.58064270019531</DistanceMeters>
                        <Time>2022-07-01T06:53:12.192Z</Time>
                    </Trackpoint>
                    <Trackpoint>
                        <DistanceMeters>61.33170700073242</DistanceMeters>
                        <Time>2022-07-01T06:53:49.352Z</Time>
                    </Trackpoint>
                </Track>
                <DistanceMeters>61.33170700073242</DistanceMeters>
                <TotalTimeSeconds>143.159999828</TotalTimeSeconds>
                <Calories>3.071359395980835</Calories>
                <Intensity>Active</Intensity>
                <TriggerMethod>Manual</TriggerMethod>
            </Lap>
        </Activity>
        <Activity Sport="Walking">
            <Id>2022-07-01T06:53:12.192Z</Id>
            <Lap StartTime="2022-07-01T06:53:12.192Z">
                <Track>
                    <Trackpoint>
                        <DistanceMeters>0.0</DistanceMeters>
                        <Time>2022-07-01T06:53:12.192Z</Time>
                    </Trackpoint>
                    <Trackpoint>
                        <DistanceMeters>26.75106430053711</DistanceMeters>
                        <Time>2022-07-01T06:53:30.751Z</Time>
                    </Trackpoint>
                    <Trackpoint>
                        <DistanceMeters>26.75106430053711</DistanceMeters>
                        <Time>2022-07-01T06:53:49.352Z</Time>
                    </Trackpoint>
                </Track>
                <DistanceMeters>26.75106430053711</DistanceMeters>
                <TotalTimeSeconds>37.160000852</TotalTimeSeconds>
                <Calories>1.904585838317871</Calories>
                <Intensity>Active</Intensity>
                <TriggerMethod>Manual</TriggerMethod>
            </Lap>
        </Activity>
    </Activities>
    <Author xsi:type="Application_t">
        <Name>Google Fit</Name>
        <Build>
            <Version>
                <VersionMajor>0</VersionMajor>
                <VersionMinor>0</VersionMinor>
                <BuildMajor>0</BuildMajor>
                <BuildMinor>0</BuildMinor>
            </Version>
        </Build>
        <LangID>en</LangID>
        <PartNumber>000-00000-00</PartNumber>
    </Author>
</TrainingCenterDatabase>
