<?xml version="1.0" encoding="UTF-8"?>
<TrainingCenterDatabase
    xmlns="http://www.garmin.com/xmlschemas/TrainingCenterDatabase/v2"
    xmlns:ns2="http://www.garmin.com/xmlschemas/UserProfile/v2"
    xmlns:ns3="http://www.garmin.com/xmlschemas/ActivityExtension/v2"
    xmlns:ns4="http://www.garmin.com/xmlschemas/ProfileExtension/v1"
    xmlns:ns5="http://www.garmin.com/xmlschemas/ActivityGoals/v1"
    xmlns:xsi="http://www.w3.org/2001/XMLSchema-instance" xsi:schemaLocation="http://www.garmin.com/xmlschemas/TrainingCenterDatabase/v2 http://www.garmin.com/xmlschemas/TrainingCenterDatabasev2.xsd">
    <Activities>
        <Activity Sport="Walking">
            <Id>2022-01-05T01:54:00.000Z</Id>
            <Lap StartTime="2022-01-05T01:54:00.000Z">
                <Track>
                    <Trackpoint>
                        <DistanceMeters>0.0</DistanceMeters>
                        <Time>2022-01-05T01:54:00.000Z</Time>
                    </Trackpoint>
                    <Trackpoint>
                        <DistanceMeters>5.0</DistanceMeters>
                        <Time>2022-01-05T01:55:00.000Z</Time>
                    </Trackpoint>
                </Track>
                <DistanceMeters>5.0</DistanceMeters>
                <TotalTimeSeconds>60.0</TotalTimeSeconds>
                <Calories>5.826666831970215</Calories>
                <Intensity>Active</Intensity>
                <TriggerMethod>Manual</TriggerMethod>
            </Lap>
        </Activity>
        <Activity Sport="Walking">
            <Id>2022-01-05T01:55:00.000Z</Id>
            <Lap StartTime="2022-01-05T01:55:00.000Z">
                <Track>
                    <Trackpoint>
                        <DistanceMeters>0.0</DistanceMeters>
                        <Time>2022-01-05T01:55:00.000Z</Time>
                    </Trackpoint>
                    <Trackpoint>
                        <DistanceMeters>13.0</DistanceMeters>
                        <Time>2022-01-05T01:56:00.000Z</Time>
                    </Trackpoint>
                </Track>
                <DistanceMeters>13.0</DistanceMeters>
                <TotalTimeSeconds>60.0</TotalTimeSeconds>
                <Calories>5.826666831970215</Calories>
                <Intensity>Active</Intensity>
                <TriggerMethod>Manual</TriggerMethod>
            </Lap>
        </Activity>
        <Activity Sport="Walking">
            <Id>2022-01-05T01:56:00.000Z</Id>
            <Lap StartTime="2022-01-05T01:56:00.000Z">
                <Track>
                    <Trackpoint>
                        <DistanceMeters>0.0</DistanceMeters>
                        <Time>2022-01-05T01:56:00.000Z</Time>
                    </Trackpoint>
                    <Trackpoint>
                        <DistanceMeters>20.0</DistanceMeters>
                        <Time>2022-01-05T01:57:00.000Z</Time>
                    </Trackpoint>
                </Track>
                <DistanceMeters>20.0</DistanceMeters>
                <TotalTimeSeconds>60.0</TotalTimeSeconds>
                <Calories>5.826666831970215</Calories>
                <Intensity>Active</Intensity>
                <TriggerMethod>Manual</TriggerMethod>
            </Lap>
        </Activity>
        <Activity Sport="Walking">
            <Id>2022-01-05T01:57:00.000Z</Id>
            <Lap StartTime="2022-01-05T01:57:00.000Z">
                <Track>
                    <Trackpoint>
                        <DistanceMeters>0.0</DistanceMeters>
                        <Time>2022-01-05T01:57:00.000Z</Time>
                    </Trackpoint>
                    <Trackpoint>
                        <DistanceMeters>21.0</DistanceMeters>
                        <Time>2022-01-05T01:58:00.000Z</Time>
                    </Trackpoint>
                </Track>
                <DistanceMeters>21.0</DistanceMeters>
                <TotalTimeSeconds>60.0</TotalTimeSeconds>
                <Calories>5.826666831970215</Calories>
                <Intensity>Active</Intensity>
                <TriggerMethod>Manual</TriggerMethod>
            </Lap>
        </Activity>
        <Activity Sport="Walking">
            <Id>2022-01-05T01:58:00.000Z</Id>
            <Lap StartTime="2022-01-05T01:58:00.000Z">
                <Track>
                    <Trackpoint>
                        <DistanceMeters>0.0</DistanceMeters>
                        <Time>2022-01-05T01:58:00.000Z</Time>
                    </Trackpoint>
                    <Trackpoint>
                        <DistanceMeters>63.0</DistanceMeters>
                        <Time>2022-01-05T01:59:00.000Z</Time>
                    </Trackpoint>
                </Track>
                <DistanceMeters>63.0</DistanceMeters>
                <TotalTimeSeconds>60.0</TotalTimeSeconds>
                <Calories>5.826666831970215</Calories>
                <Intensity>Active</Intensity>
                <TriggerMethod>Manual</TriggerMethod>
            </Lap>
        </Activity>
        <Activity Sport="Walking">
            <Id>2022-01-05T01:59:00.000Z</Id>
            <Lap StartTime="2022-01-05T01:59:00.000Z">
                <Track>
                    <Trackpoint>
                        <DistanceMeters>0.0</DistanceMeters>
                        <Time>2022-01-05T01:59:00.000Z</Time>
                    </Trackpoint>
                    <Trackpoint>
                        <DistanceMeters>69.0</DistanceMeters>
                        <Time>2022-01-05T02:00:00.000Z</Time>
                    </Trackpoint>
                </Track>
                <DistanceMeters>69.0</DistanceMeters>
                <TotalTimeSeconds>60.0</TotalTimeSeconds>
                <Calories>5.826666831970215</Calories>
                <Intensity>Active</Intensity>
                <TriggerMethod>Manual</TriggerMethod>
            </Lap>
        </Activity>
        <Activity Sport="Walking">
            <Id>2022-01-05T02:00:00.000Z</Id>
            <Lap StartTime="2022-01-05T02:00:00.000Z">
                <Track>
                    <Trackpoint>
                        <DistanceMeters>0.0</DistanceMeters>
                        <Time>2022-01-05T02:00:00.000Z</Time>
                    </Trackpoint>
                    <Trackpoint>
                        <DistanceMeters>31.0</DistanceMeters>
                        <Time>2022-01-05T02:01:00.000Z</Time>
                    </Trackpoint>
                </Track>
                <DistanceMeters>31.0</DistanceMeters>
                <TotalTimeSeconds>60.0</TotalTimeSeconds>
                <Calories>5.826666831970215</Calories>
                <Intensity>Active</Intensity>
                <TriggerMethod>Manual</TriggerMethod>
            </Lap>
        </Activity>
        <Activity Sport="Walking">
            <Id>2022-01-05T02:01:00.000Z</Id>
            <Lap StartTime="2022-01-05T02:01:00.000Z">
                <Track>
                    <Trackpoint>
                        <DistanceMeters>0.0</DistanceMeters>
                        <Time>2022-01-05T02:01:00.000Z</Time>
                    </Trackpoint>
                    <Trackpoint>
                        <DistanceMeters>0.0</DistanceMeters>
                        <Time>2022-01-05T02:02:00.000Z</Time>
                    </Trackpoint>
                </Track>
                <DistanceMeters>0.0</DistanceMeters>
                <TotalTimeSeconds>60.0</TotalTimeSeconds>
                <Calories>5.826666831970215</Calories>
                <Intensity>Active</Intensity>
                <TriggerMethod>Manual</TriggerMethod>
            </Lap>
        </Activity>
        <Activity Sport="Walking">
            <Id>2022-01-05T02:03:00.000Z</Id>
            <Lap StartTime="2022-01-05T02:03:00.000Z">
                <Track>
                    <Trackpoint>
                        <DistanceMeters>0.0</DistanceMeters>
                        <Time>2022-01-05T02:03:00.000Z</Time>
                    </Trackpoint>
                    <Trackpoint>
                        <DistanceMeters>12.0</DistanceMeters>
                        <Time>2022-01-05T02:04:00.000Z</Time>
                    </Trackpoint>
                </Track>
                <DistanceMeters>12.0</DistanceMeters>
                <TotalTimeSeconds>60.0</TotalTimeSeconds>
                <Calories>5.826666831970215</Calories>
                <Intensity>Active</Intensity>
                <TriggerMethod>Manual</TriggerMethod>
            </Lap>
        </Activity>
        <Activity Sport="Walking">
            <Id>2022-01-05T02:04:00.000Z</Id>
            <Lap StartTime="2022-01-05T02:04:00.000Z">
                <Track>
                    <Trackpoint>
                        <DistanceMeters>0.0</DistanceMeters>
                        <Time>2022-01-05T02:04:00.000Z</Time>
                    </Trackpoint>
                    <Trackpoint>
                        <DistanceMeters>0.0</DistanceMeters>
                        <Time>2022-01-05T02:05:00.000Z</Time>
                    </Trackpoint>
                </Track>
                <DistanceMeters>0.0</DistanceMeters>
                <TotalTimeSeconds>60.0</TotalTimeSeconds>
                <Calories>5.826666831970215</Calories>
                <Intensity>Active</Intensity>
                <TriggerMethod>Manual</TriggerMethod>
            </Lap>
        </Activity>
        <Activity Sport="Walking">
            <Id>2022-01-05T02:06:00.000Z</Id>
            <Lap StartTime="2022-01-05T02:06:00.000Z">
                <Track>
                    <Trackpoint>
                        <DistanceMeters>0.0</DistanceMeters>
                        <Time>2022-01-05T02:06:00.000Z</Time>
                    </Trackpoint>
                    <Trackpoint>
                        <DistanceMeters>40.0</DistanceMeters>
                        <Time>2022-01-05T02:07:00.000Z</Time>
                    </Trackpoint>
                </Track>
                <DistanceMeters>40.0</DistanceMeters>
                <TotalTimeSeconds>60.0</TotalTimeSeconds>
                <Calories>5.826666831970215</Calories>
                <Intensity>Active</Intensity>
                <TriggerMethod>Manual</TriggerMethod>
            </Lap>
        </Activity>
        <Activity Sport="Walking">
            <Id>2022-01-05T02:07:00.000Z</Id>
            <Lap StartTime="2022-01-05T02:07:00.000Z">
                <Track>
                    <Trackpoint>
                        <DistanceMeters>0.0</DistanceMeters>
                        <Time>2022-01-05T02:07:00.000Z</Time>
                    </Trackpoint>
                    <Trackpoint>
                        <DistanceMeters>27.0</DistanceMeters>
                        <Time>2022-01-05T02:08:00.000Z</Time>
                    </Trackpoint>
                </Track>
                <DistanceMeters>27.0</DistanceMeters>
                <TotalTimeSeconds>60.0</TotalTimeSeconds>
                <Calories>5.826666831970215</Calories>
                <Intensity>Active</Intensity>
                <TriggerMethod>Manual</TriggerMethod>
            </Lap>
        </Activity>
        <Activity Sport="Walking">
            <Id>2022-01-05T02:08:00.000Z</Id>
            <Lap StartTime="2022-01-05T02:08:00.000Z">
                <Track>
                    <Trackpoint>
                        <DistanceMeters>0.0</DistanceMeters>
                        <Time>2022-01-05T02:08:00.000Z</Time>
                    </Trackpoint>
                    <Trackpoint>
                        <DistanceMeters>49.0</DistanceMeters>
                        <Time>2022-01-05T02:09:00.000Z</Time>
                    </Trackpoint>
                </Track>
                <DistanceMeters>49.0</DistanceMeters>
                <TotalTimeSeconds>60.0</TotalTimeSeconds>
                <Calories>5.826666831970215</Calories>
                <Intensity>Active</Intensity>
                <TriggerMethod>Manual</TriggerMethod>
            </Lap>
        </Activity>
        <Activity Sport="Walking">
            <Id>2022-01-05T02:09:00.000Z</Id>
            <Lap StartTime="2022-01-05T02:09:00.000Z">
                <Track>
                    <Trackpoint>
                        <DistanceMeters>0.0</DistanceMeters>
                        <Time>2022-01-05T02:09:00.000Z</Time>
                    </Trackpoint>
                    <Trackpoint>
                        <DistanceMeters>61.0</DistanceMeters>
                        <Time>2022-01-05T02:10:00.000Z</Time>
                    </Trackpoint>
                </Track>
                <DistanceMeters>61.0</DistanceMeters>
                <TotalTimeSeconds>60.0</TotalTimeSeconds>
                <Calories>5.826666831970215</Calories>
                <Intensity>Active</Intensity>
                <TriggerMethod>Manual</TriggerMethod>
            </Lap>
        </Activity>
        <Activity Sport="Walking">
            <Id>2022-01-05T02:10:00.000Z</Id>
            <Lap StartTime="2022-01-05T02:10:00.000Z">
                <Track>
                    <Trackpoint>
                        <DistanceMeters>0.0</DistanceMeters>
                        <Time>2022-01-05T02:10:00.000Z</Time>
                    </Trackpoint>
                    <Trackpoint>
                        <DistanceMeters>32.0</DistanceMeters>
                        <Time>2022-01-05T02:11:00.000Z</Time>
                    </Trackpoint>
                </Track>
                <DistanceMeters>32.0</DistanceMeters>
                <TotalTimeSeconds>60.0</TotalTimeSeconds>
                <Calories>5.826666831970215</Calories>
                <Intensity>Active</Intensity>
                <TriggerMethod>Manual</TriggerMethod>
            </Lap>
        </Activity>
        <Activity Sport="Walking">
            <Id>2022-01-05T02:11:00.000Z</Id>
            <Lap StartTime="2022-01-05T02:11:00.000Z">
                <Track>
                    <Trackpoint>
                        <DistanceMeters>0.0</DistanceMeters>
                        <Time>2022-01-05T02:11:00.000Z</Time>
                    </Trackpoint>
                    <Trackpoint>
                        <DistanceMeters>50.0</DistanceMeters>
                        <Time>2022-01-05T02:12:00.000Z</Time>
                    </Trackpoint>
                </Track>
                <DistanceMeters>50.0</DistanceMeters>
                <TotalTimeSeconds>60.0</TotalTimeSeconds>
                <Calories>5.826666831970215</Calories>
                <Intensity>Active</Intensity>
                <TriggerMethod>Manual</TriggerMethod>
            </Lap>
        </Activity>
        <Activity Sport="Walking">
            <Id>2022-01-05T02:12:00.000Z</Id>
            <Lap StartTime="2022-01-05T02:12:00.000Z">
                <Track>
                    <Trackpoint>
                        <DistanceMeters>0.0</DistanceMeters>
                        <Time>2022-01-05T02:12:00.000Z</Time>
                    </Trackpoint>
                    <Trackpoint>
                        <DistanceMeters>33.0</DistanceMeters>
                        <Time>2022-01-05T02:13:00.000Z</Time>
                    </Trackpoint>
                </Track>
                <DistanceMeters>33.0</DistanceMeters>
                <TotalTimeSeconds>60.0</TotalTimeSeconds>
                <Calories>5.826666831970215</Calories>
                <Intensity>Active</Intensity>
                <TriggerMethod>Manual</TriggerMethod>
            </Lap>
        </Activity>
        <Activity Sport="Walking">
            <Id>2022-01-05T02:13:00.000Z</Id>
            <Lap StartTime="2022-01-05T02:13:00.000Z">
                <Track>
                    <Trackpoint>
                        <DistanceMeters>0.0</DistanceMeters>
                        <Time>2022-01-05T02:13:00.000Z</Time>
                    </Trackpoint>
                    <Trackpoint>
                        <DistanceMeters>32.0</DistanceMeters>
                        <Time>2022-01-05T02:14:00.000Z</Time>
                    </Trackpoint>
                </Track>
                <DistanceMeters>32.0</DistanceMeters>
                <TotalTimeSeconds>60.0</TotalTimeSeconds>
                <Calories>5.826666831970215</Calories>
                <Intensity>Active</Intensity>
                <TriggerMethod>Manual</TriggerMethod>
            </Lap>
        </Activity>
        <Activity Sport="Walking">
            <Id>2022-01-05T02:14:00.000Z</Id>
            <Lap StartTime="2022-01-05T02:14:00.000Z">
                <Track>
                    <Trackpoint>
                        <DistanceMeters>0.0</DistanceMeters>
                        <Time>2022-01-05T02:14:00.000Z</Time>
                    </Trackpoint>
                    <Trackpoint>
                        <DistanceMeters>38.0</DistanceMeters>
                        <Time>2022-01-05T02:15:00.000Z</Time>
                    </Trackpoint>
                </Track>
                <DistanceMeters>38.0</DistanceMeters>
                <TotalTimeSeconds>60.0</TotalTimeSeconds>
                <Calories>5.826666831970215</Calories>
                <Intensity>Active</Intensity>
                <TriggerMethod>Manual</TriggerMethod>
            </Lap>
        </Activity>
        <Activity Sport="Walking">
            <Id>2022-01-05T02:15:00.000Z</Id>
            <Lap StartTime="2022-01-05T02:15:00.000Z">
                <Track>
                    <Trackpoint>
                        <DistanceMeters>0.0</DistanceMeters>
                        <Time>2022-01-05T02:15:00.000Z</Time>
                    </Trackpoint>
                    <Trackpoint>
                        <DistanceMeters>38.0</DistanceMeters>
                        <Time>2022-01-05T02:16:00.000Z</Time>
                    </Trackpoint>
                </Track>
                <DistanceMeters>38.0</DistanceMeters>
                <TotalTimeSeconds>60.0</TotalTimeSeconds>
                <Calories>5.826666831970215</Calories>
                <Intensity>Active</Intensity>
                <TriggerMethod>Manual</TriggerMethod>
            </Lap>
        </Activity>
        <Activity Sport="Walking">
            <Id>2022-01-05T02:16:00.000Z</Id>
            <Lap StartTime="2022-01-05T02:16:00.000Z">
                <Track>
                    <Trackpoint>
                        <DistanceMeters>0.0</DistanceMeters>
                        <Time>2022-01-05T02:16:00.000Z</Time>
                    </Trackpoint>
                    <Trackpoint>
                        <DistanceMeters>36.0</DistanceMeters>
                        <Time>2022-01-05T02:17:00.000Z</Time>
                    </Trackpoint>
                </Track>
                <DistanceMeters>36.0</DistanceMeters>
                <TotalTimeSeconds>60.0</TotalTimeSeconds>
                <Calories>5.826666831970215</Calories>
                <Intensity>Active</Intensity>
                <TriggerMethod>Manual</TriggerMethod>
            </Lap>
        </Activity>
        <Activity Sport="Walking">
            <Id>2022-01-05T02:17:00.000Z</Id>
            <Lap StartTime="2022-01-05T02:17:00.000Z">
                <Track>
                    <Trackpoint>
                        <DistanceMeters>0.0</DistanceMeters>
                        <Time>2022-01-05T02:17:00.000Z</Time>
                    </Trackpoint>
                    <Trackpoint>
                        <DistanceMeters>21.0</DistanceMeters>
                        <Time>2022-01-05T02:18:00.000Z</Time>
                    </Trackpoint>
                </Track>
                <DistanceMeters>21.0</DistanceMeters>
                <TotalTimeSeconds>60.0</TotalTimeSeconds>
                <Calories>5.826666831970215</Calories>
                <Intensity>Active</Intensity>
                <TriggerMethod>Manual</TriggerMethod>
            </Lap>
        </Activity>
        <Activity Sport="Walking">
            <Id>2022-01-05T02:18:00.000Z</Id>
            <Lap StartTime="2022-01-05T02:18:00.000Z">
                <Track>
                    <Trackpoint>
                        <DistanceMeters>0.0</DistanceMeters>
                        <Time>2022-01-05T02:18:00.000Z</Time>
                    </Trackpoint>
                    <Trackpoint>
                        <DistanceMeters>35.0</DistanceMeters>
                        <Time>2022-01-05T02:19:00.000Z</Time>
                    </Trackpoint>
                </Track>
                <DistanceMeters>35.0</DistanceMeters>
                <TotalTimeSeconds>60.0</TotalTimeSeconds>
                <Calories>5.826666831970215</Calories>
                <Intensity>Active</Intensity>
                <TriggerMethod>Manual</TriggerMethod>
            </Lap>
        </Activity>
        <Activity Sport="Walking">
            <Id>2022-01-05T02:19:00.000Z</Id>
            <Lap StartTime="2022-01-05T02:19:00.000Z">
                <Track>
                    <Trackpoint>
                        <DistanceMeters>0.0</DistanceMeters>
                        <Time>2022-01-05T02:19:00.000Z</Time>
                    </Trackpoint>
                    <Trackpoint>
                        <DistanceMeters>16.0</DistanceMeters>
                        <Time>2022-01-05T02:20:00.000Z</Time>
                    </Trackpoint>
                </Track>
                <DistanceMeters>16.0</DistanceMeters>
                <TotalTimeSeconds>60.0</TotalTimeSeconds>
                <Calories>5.826666831970215</Calories>
                <Intensity>Active</Intensity>
                <TriggerMethod>Manual</TriggerMethod>
            </Lap>
        </Activity>
        <Activity Sport="Walking">
            <Id>2022-01-05T02:20:00.000Z</Id>
            <Lap StartTime="2022-01-05T02:20:00.000Z">
                <Track>
                    <Trackpoint>
                        <DistanceMeters>0.0</DistanceMeters>
                        <Time>2022-01-05T02:20:00.000Z</Time>
                    </Trackpoint>
                    <Trackpoint>
                        <DistanceMeters>39.0</DistanceMeters>
                        <Time>2022-01-05T02:21:00.000Z</Time>
                    </Trackpoint>
                </Track>
                <DistanceMeters>39.0</DistanceMeters>
                <TotalTimeSeconds>60.0</TotalTimeSeconds>
                <Calories>5.826666831970215</Calories>
                <Intensity>Active</Intensity>
                <TriggerMethod>Manual</TriggerMethod>
            </Lap>
        </Activity>
        <Activity Sport="Walking">
            <Id>2022-01-05T02:21:00.000Z</Id>
            <Lap StartTime="2022-01-05T02:21:00.000Z">
                <Track>
                    <Trackpoint>
                        <DistanceMeters>0.0</DistanceMeters>
                        <Time>2022-01-05T02:21:00.000Z</Time>
                    </Trackpoint>
                    <Trackpoint>
                        <DistanceMeters>26.0</DistanceMeters>
                        <Time>2022-01-05T02:22:00.000Z</Time>
                    </Trackpoint>
                </Track>
                <DistanceMeters>26.0</DistanceMeters>
                <TotalTimeSeconds>60.0</TotalTimeSeconds>
                <Calories>5.826666831970215</Calories>
                <Intensity>Active</Intensity>
                <TriggerMethod>Manual</TriggerMethod>
            </Lap>
        </Activity>
        <Activity Sport="Walking">
            <Id>2022-01-05T02:22:00.000Z</Id>
            <Lap StartTime="2022-01-05T02:22:00.000Z">
                <Track>
                    <Trackpoint>
                        <DistanceMeters>0.0</DistanceMeters>
                        <Time>2022-01-05T02:22:00.000Z</Time>
                    </Trackpoint>
                    <Trackpoint>
                        <DistanceMeters>30.0</DistanceMeters>
                        <Time>2022-01-05T02:23:00.000Z</Time>
                    </Trackpoint>
                </Track>
                <DistanceMeters>30.0</DistanceMeters>
                <TotalTimeSeconds>60.0</TotalTimeSeconds>
                <Calories>5.826666831970215</Calories>
                <Intensity>Active</Intensity>
                <TriggerMethod>Manual</TriggerMethod>
            </Lap>
        </Activity>
        <Activity Sport="Walking">
            <Id>2022-01-05T02:23:00.000Z</Id>
            <Lap StartTime="2022-01-05T02:23:00.000Z">
                <Track>
                    <Trackpoint>
                        <DistanceMeters>0.0</DistanceMeters>
                        <Time>2022-01-05T02:23:00.000Z</Time>
                    </Trackpoint>
                    <Trackpoint>
                        <DistanceMeters>13.0</DistanceMeters>
                        <Time>2022-01-05T02:24:00.000Z</Time>
                    </Trackpoint>
                </Track>
                <DistanceMeters>13.0</DistanceMeters>
                <TotalTimeSeconds>60.0</TotalTimeSeconds>
                <Calories>5.826666831970215</Calories>
                <Intensity>Active</Intensity>
                <TriggerMethod>Manual</TriggerMethod>
            </Lap>
        </Activity>
        <Activity Sport="Walking">
            <Id>2022-01-05T02:24:00.000Z</Id>
            <Lap StartTime="2022-01-05T02:24:00.000Z">
                <Track>
                    <Trackpoint>
                        <DistanceMeters>0.0</DistanceMeters>
                        <Time>2022-01-05T02:24:00.000Z</Time>
                    </Trackpoint>
                    <Trackpoint>
                        <DistanceMeters>14.0</DistanceMeters>
                        <Time>2022-01-05T02:25:00.000Z</Time>
                    </Trackpoint>
                </Track>
                <DistanceMeters>14.0</DistanceMeters>
                <TotalTimeSeconds>60.0</TotalTimeSeconds>
                <Calories>5.826666831970215</Calories>
                <Intensity>Active</Intensity>
                <TriggerMethod>Manual</TriggerMethod>
            </Lap>
        </Activity>
        <Activity Sport="Walking">
            <Id>2022-01-05T02:25:00.000Z</Id>
            <Lap StartTime="2022-01-05T02:25:00.000Z">
                <Track>
                    <Trackpoint>
                        <DistanceMeters>0.0</DistanceMeters>
                        <Time>2022-01-05T02:25:00.000Z</Time>
                    </Trackpoint>
                    <Trackpoint>
                        <DistanceMeters>0.0</DistanceMeters>
                        <Time>2022-01-05T02:26:00.000Z</Time>
                    </Trackpoint>
                </Track>
                <DistanceMeters>0.0</DistanceMeters>
                <TotalTimeSeconds>60.0</TotalTimeSeconds>
                <Calories>5.826666831970215</Calories>
                <Intensity>Active</Intensity>
                <TriggerMethod>Manual</TriggerMethod>
            </Lap>
        </Activity>
        <Activity Sport="Walking">
            <Id>2022-01-05T02:27:00.000Z</Id>
            <Lap StartTime="2022-01-05T02:27:00.000Z">
                <Track>
                    <Trackpoint>
                        <DistanceMeters>0.0</DistanceMeters>
                        <Time>2022-01-05T02:27:00.000Z</Time>
                    </Trackpoint>
                    <Trackpoint>
                        <DistanceMeters>0.0</DistanceMeters>
                        <Time>2022-01-05T02:28:00.000Z</Time>
                    </Trackpoint>
                </Track>
                <DistanceMeters>0.0</DistanceMeters>
                <TotalTimeSeconds>60.0</TotalTimeSeconds>
                <Calories>5.826666831970215</Calories>
                <Intensity>Active</Intensity>
                <TriggerMethod>Manual</TriggerMethod>
            </Lap>
        </Activity>
        <Activity Sport="Walking">
            <Id>2022-01-05T02:30:00.000Z</Id>
            <Lap StartTime="2022-01-05T02:30:00.000Z">
                <Track>
                    <Trackpoint>
                        <DistanceMeters>0.0</DistanceMeters>
                        <Time>2022-01-05T02:30:00.000Z</Time>
                    </Trackpoint>
                    <Trackpoint>
                        <DistanceMeters>36.0</DistanceMeters>
                        <Time>2022-01-05T02:31:00.000Z</Time>
                    </Trackpoint>
                </Track>
                <DistanceMeters>36.0</DistanceMeters>
                <TotalTimeSeconds>60.0</TotalTimeSeconds>
                <Calories>5.826666831970215</Calories>
                <Intensity>Active</Intensity>
                <TriggerMethod>Manual</TriggerMethod>
            </Lap>
        </Activity>
        <Activity Sport="Walking">
            <Id>2022-01-05T02:31:00.000Z</Id>
            <Lap StartTime="2022-01-05T02:31:00.000Z">
                <Track>
                    <Trackpoint>
                        <DistanceMeters>0.0</DistanceMeters>
                        <Time>2022-01-05T02:31:00.000Z</Time>
                    </Trackpoint>
                    <Trackpoint>
                        <DistanceMeters>31.0</DistanceMeters>
                        <Time>2022-01-05T02:32:00.000Z</Time>
                    </Trackpoint>
                </Track>
                <DistanceMeters>31.0</DistanceMeters>
                <TotalTimeSeconds>60.0</TotalTimeSeconds>
                <Calories>5.826666831970215</Calories>
                <Intensity>Active</Intensity>
                <TriggerMethod>Manual</TriggerMethod>
            </Lap>
        </Activity>
        <Activity Sport="Walking">
            <Id>2022-01-05T02:32:00.000Z</Id>
            <Lap StartTime="2022-01-05T02:32:00.000Z">
                <Track>
                    <Trackpoint>
                        <DistanceMeters>0.0</DistanceMeters>
                        <Time>2022-01-05T02:32:00.000Z</Time>
                    </Trackpoint>
                    <Trackpoint>
                        <DistanceMeters>23.0</DistanceMeters>
                        <Time>2022-01-05T02:33:00.000Z</Time>
                    </Trackpoint>
                </Track>
                <DistanceMeters>23.0</DistanceMeters>
                <TotalTimeSeconds>60.0</TotalTimeSeconds>
                <Calories>5.826666831970215</Calories>
                <Intensity>Active</Intensity>
                <TriggerMethod>Manual</TriggerMethod>
            </Lap>
        </Activity>
        <Activity Sport="Walking">
            <Id>2022-01-05T02:33:00.000Z</Id>
            <Lap StartTime="2022-01-05T02:33:00.000Z">
                <Track>
                    <Trackpoint>
                        <DistanceMeters>0.0</DistanceMeters>
                        <Time>2022-01-05T02:33:00.000Z</Time>
                    </Trackpoint>
                    <Trackpoint>
                        <DistanceMeters>34.0</DistanceMeters>
                        <Time>2022-01-05T02:34:00.000Z</Time>
                    </Trackpoint>
                </Track>
                <DistanceMeters>34.0</DistanceMeters>
                <TotalTimeSeconds>60.0</TotalTimeSeconds>
                <Calories>5.826666831970215</Calories>
                <Intensity>Active</Intensity>
                <TriggerMethod>Manual</TriggerMethod>
            </Lap>
        </Activity>
        <Activity Sport="Walking">
            <Id>2022-01-05T02:34:00.000Z</Id>
            <Lap StartTime="2022-01-05T02:34:00.000Z">
                <Track>
                    <Trackpoint>
                        <DistanceMeters>0.0</DistanceMeters>
                        <Time>2022-01-05T02:34:00.000Z</Time>
                    </Trackpoint>
                    <Trackpoint>
                        <DistanceMeters>22.0</DistanceMeters>
                        <Time>2022-01-05T02:35:00.000Z</Time>
                    </Trackpoint>
                </Track>
                <DistanceMeters>22.0</DistanceMeters>
                <TotalTimeSeconds>60.0</TotalTimeSeconds>
                <Calories>5.826666831970215</Calories>
                <Intensity>Active</Intensity>
                <TriggerMethod>Manual</TriggerMethod>
            </Lap>
        </Activity>
        <Activity Sport="Walking">
            <Id>2022-01-05T02:35:00.000Z</Id>
            <Lap StartTime="2022-01-05T02:35:00.000Z">
                <Track>
                    <Trackpoint>
                        <DistanceMeters>0.0</DistanceMeters>
                        <Time>2022-01-05T02:35:00.000Z</Time>
                    </Trackpoint>
                    <Trackpoint>
                        <DistanceMeters>17.0</DistanceMeters>
                        <Time>2022-01-05T02:36:00.000Z</Time>
                    </Trackpoint>
                </Track>
                <DistanceMeters>17.0</DistanceMeters>
                <TotalTimeSeconds>60.0</TotalTimeSeconds>
                <Calories>5.826666831970215</Calories>
                <Intensity>Active</Intensity>
                <TriggerMethod>Manual</TriggerMethod>
            </Lap>
        </Activity>
        <Activity Sport="Walking">
            <Id>2022-01-05T02:36:00.000Z</Id>
            <Lap StartTime="2022-01-05T02:36:00.000Z">
                <Track>
                    <Trackpoint>
                        <DistanceMeters>0.0</DistanceMeters>
                        <Time>2022-01-05T02:36:00.000Z</Time>
                    </Trackpoint>
                    <Trackpoint>
                        <DistanceMeters>33.0</DistanceMeters>
                        <Time>2022-01-05T02:37:00.000Z</Time>
                    </Trackpoint>
                </Track>
                <DistanceMeters>33.0</DistanceMeters>
                <TotalTimeSeconds>60.0</TotalTimeSeconds>
                <Calories>5.826666831970215</Calories>
                <Intensity>Active</Intensity>
                <TriggerMethod>Manual</TriggerMethod>
            </Lap>
        </Activity>
        <Activity Sport="Walking">
            <Id>2022-01-05T02:37:00.000Z</Id>
            <Lap StartTime="2022-01-05T02:37:00.000Z">
                <Track>
                    <Trackpoint>
                        <DistanceMeters>0.0</DistanceMeters>
                        <Time>2022-01-05T02:37:00.000Z</Time>
                    </Trackpoint>
                    <Trackpoint>
                        <DistanceMeters>18.0</DistanceMeters>
                        <Time>2022-01-05T02:38:00.000Z</Time>
                    </Trackpoint>
                </Track>
                <DistanceMeters>18.0</DistanceMeters>
                <TotalTimeSeconds>60.0</TotalTimeSeconds>
                <Calories>5.826666831970215</Calories>
                <Intensity>Active</Intensity>
                <TriggerMethod>Manual</TriggerMethod>
            </Lap>
        </Activity>
        <Activity Sport="Walking">
            <Id>2022-01-05T02:38:00.000Z</Id>
            <Lap StartTime="2022-01-05T02:38:00.000Z">
                <Track>
                    <Trackpoint>
                        <DistanceMeters>0.0</DistanceMeters>
                        <Time>2022-01-05T02:38:00.000Z</Time>
                    </Trackpoint>
                    <Trackpoint>
                        <DistanceMeters>27.0</DistanceMeters>
                        <Time>2022-01-05T02:39:00.000Z</Time>
                    </Trackpoint>
                </Track>
                <DistanceMeters>27.0</DistanceMeters>
                <TotalTimeSeconds>60.0</TotalTimeSeconds>
                <Calories>5.826666831970215</Calories>
                <Intensity>Active</Intensity>
                <TriggerMethod>Manual</TriggerMethod>
            </Lap>
        </Activity>
        <Activity Sport="Walking">
            <Id>2022-01-05T02:39:00.000Z</Id>
            <Lap StartTime="2022-01-05T02:39:00.000Z">
                <Track>
                    <Trackpoint>
                        <DistanceMeters>0.0</DistanceMeters>
                        <Time>2022-01-05T02:39:00.000Z</Time>
                    </Trackpoint>
                    <Trackpoint>
                        <DistanceMeters>27.0</DistanceMeters>
                        <Time>2022-01-05T02:40:00.000Z</Time>
                    </Trackpoint>
                </Track>
                <DistanceMeters>27.0</DistanceMeters>
                <TotalTimeSeconds>60.0</TotalTimeSeconds>
                <Calories>5.826666831970215</Calories>
                <Intensity>Active</Intensity>
                <TriggerMethod>Manual</TriggerMethod>
            </Lap>
        </Activity>
        <Activity Sport="Walking">
            <Id>2022-01-05T02:40:00.000Z</Id>
            <Lap StartTime="2022-01-05T02:40:00.000Z">
                <Track>
                    <Trackpoint>
                        <DistanceMeters>0.0</DistanceMeters>
                        <Time>2022-01-05T02:40:00.000Z</Time>
                    </Trackpoint>
                    <Trackpoint>
                        <DistanceMeters>41.0</DistanceMeters>
                        <Time>2022-01-05T02:41:00.000Z</Time>
                    </Trackpoint>
                </Track>
                <DistanceMeters>41.0</DistanceMeters>
                <TotalTimeSeconds>60.0</TotalTimeSeconds>
                <Calories>5.826666831970215</Calories>
                <Intensity>Active</Intensity>
                <TriggerMethod>Manual</TriggerMethod>
            </Lap>
        </Activity>
        <Activity Sport="Walking">
            <Id>2022-01-05T02:41:00.000Z</Id>
            <Lap StartTime="2022-01-05T02:41:00.000Z">
                <Track>
                    <Trackpoint>
                        <DistanceMeters>0.0</DistanceMeters>
                        <Time>2022-01-05T02:41:00.000Z</Time>
                    </Trackpoint>
                    <Trackpoint>
                        <DistanceMeters>19.0</DistanceMeters>
                        <Time>2022-01-05T02:42:00.000Z</Time>
                    </Trackpoint>
                </Track>
                <DistanceMeters>19.0</DistanceMeters>
                <TotalTimeSeconds>60.0</TotalTimeSeconds>
                <Calories>5.826666831970215</Calories>
                <Intensity>Active</Intensity>
                <TriggerMethod>Manual</TriggerMethod>
            </Lap>
        </Activity>
        <Activity Sport="Walking">
            <Id>2022-01-05T02:42:00.000Z</Id>
            <Lap StartTime="2022-01-05T02:42:00.000Z">
                <Track>
                    <Trackpoint>
                        <DistanceMeters>0.0</DistanceMeters>
                        <Time>2022-01-05T02:42:00.000Z</Time>
                    </Trackpoint>
                    <Trackpoint>
                        <DistanceMeters>25.0</DistanceMeters>
                        <Time>2022-01-05T02:43:00.000Z</Time>
                    </Trackpoint>
                </Track>
                <DistanceMeters>25.0</DistanceMeters>
                <TotalTimeSeconds>60.0</TotalTimeSeconds>
                <Calories>5.826666831970215</Calories>
                <Intensity>Active</Intensity>
                <TriggerMethod>Manual</TriggerMethod>
            </Lap>
        </Activity>
        <Activity Sport="Walking">
            <Id>2022-01-05T02:43:00.000Z</Id>
            <Lap StartTime="2022-01-05T02:43:00.000Z">
                <Track>
                    <Trackpoint>
                        <DistanceMeters>0.0</DistanceMeters>
                        <Time>2022-01-05T02:43:00.000Z</Time>
                    </Trackpoint>
                    <Trackpoint>
                        <DistanceMeters>21.0</DistanceMeters>
                        <Time>2022-01-05T02:44:00.000Z</Time>
                    </Trackpoint>
                </Track>
                <DistanceMeters>21.0</DistanceMeters>
                <TotalTimeSeconds>60.0</TotalTimeSeconds>
                <Calories>5.826666831970215</Calories>
                <Intensity>Active</Intensity>
                <TriggerMethod>Manual</TriggerMethod>
            </Lap>
        </Activity>
        <Activity Sport="Walking">
            <Id>2022-01-05T02:44:00.000Z</Id>
            <Lap StartTime="2022-01-05T02:44:00.000Z">
                <Track>
                    <Trackpoint>
                        <DistanceMeters>0.0</DistanceMeters>
                        <Time>2022-01-05T02:44:00.000Z</Time>
                    </Trackpoint>
                    <Trackpoint>
                        <DistanceMeters>27.0</DistanceMeters>
                        <Time>2022-01-05T02:45:00.000Z</Time>
                    </Trackpoint>
                </Track>
                <DistanceMeters>27.0</DistanceMeters>
                <TotalTimeSeconds>60.0</TotalTimeSeconds>
                <Calories>5.826666831970215</Calories>
                <Intensity>Active</Intensity>
                <TriggerMethod>Manual</TriggerMethod>
            </Lap>
        </Activity>
        <Activity Sport="Walking">
            <Id>2022-01-05T02:45:00.000Z</Id>
            <Lap StartTime="2022-01-05T02:45:00.000Z">
                <Track>
                    <Trackpoint>
                        <DistanceMeters>0.0</DistanceMeters>
                        <Time>2022-01-05T02:45:00.000Z</Time>
                    </Trackpoint>
                    <Trackpoint>
                        <DistanceMeters>27.0</DistanceMeters>
                        <Time>2022-01-05T02:46:00.000Z</Time>
                    </Trackpoint>
                </Track>
                <DistanceMeters>27.0</DistanceMeters>
                <TotalTimeSeconds>60.0</TotalTimeSeconds>
                <Calories>5.826666831970215</Calories>
                <Intensity>Active</Intensity>
                <TriggerMethod>Manual</TriggerMethod>
            </Lap>
        </Activity>
        <Activity Sport="Walking">
            <Id>2022-01-05T02:46:00.000Z</Id>
            <Lap StartTime="2022-01-05T02:46:00.000Z">
                <Track>
                    <Trackpoint>
                        <DistanceMeters>0.0</DistanceMeters>
                        <Time>2022-01-05T02:46:00.000Z</Time>
                    </Trackpoint>
                    <Trackpoint>
                        <DistanceMeters>24.0</DistanceMeters>
                        <Time>2022-01-05T02:47:00.000Z</Time>
                    </Trackpoint>
                </Track>
                <DistanceMeters>24.0</DistanceMeters>
                <TotalTimeSeconds>60.0</TotalTimeSeconds>
                <Calories>5.826666831970215</Calories>
                <Intensity>Active</Intensity>
                <TriggerMethod>Manual</TriggerMethod>
            </Lap>
        </Activity>
        <Activity Sport="Walking">
            <Id>2022-01-05T02:47:00.000Z</Id>
            <Lap StartTime="2022-01-05T02:47:00.000Z">
                <Track>
                    <Trackpoint>
                        <DistanceMeters>0.0</DistanceMeters>
                        <Time>2022-01-05T02:47:00.000Z</Time>
                    </Trackpoint>
                    <Trackpoint>
                        <DistanceMeters>21.0</DistanceMeters>
                        <Time>2022-01-05T02:48:00.000Z</Time>
                    </Trackpoint>
                </Track>
                <DistanceMeters>21.0</DistanceMeters>
                <TotalTimeSeconds>60.0</TotalTimeSeconds>
                <Calories>5.826666831970215</Calories>
                <Intensity>Active</Intensity>
                <TriggerMethod>Manual</TriggerMethod>
            </Lap>
        </Activity>
        <Activity Sport="Walking">
            <Id>2022-01-05T02:48:00.000Z</Id>
            <Lap StartTime="2022-01-05T02:48:00.000Z">
                <Track>
                    <Trackpoint>
                        <DistanceMeters>0.0</DistanceMeters>
                        <Time>2022-01-05T02:48:00.000Z</Time>
                    </Trackpoint>
                    <Trackpoint>
                        <DistanceMeters>28.0</DistanceMeters>
                        <Time>2022-01-05T02:49:00.000Z</Time>
                    </Trackpoint>
                </Track>
                <DistanceMeters>28.0</DistanceMeters>
                <TotalTimeSeconds>60.0</TotalTimeSeconds>
                <Calories>5.826666831970215</Calories>
                <Intensity>Active</Intensity>
                <TriggerMethod>Manual</TriggerMethod>
            </Lap>
        </Activity>
        <Activity Sport="Walking">
            <Id>2022-01-05T02:49:00.000Z</Id>
            <Lap StartTime="2022-01-05T02:49:00.000Z">
                <Track>
                    <Trackpoint>
                        <DistanceMeters>0.0</DistanceMeters>
                        <Time>2022-01-05T02:49:00.000Z</Time>
                    </Trackpoint>
                    <Trackpoint>
                        <DistanceMeters>29.0</DistanceMeters>
                        <Time>2022-01-05T02:50:00.000Z</Time>
                    </Trackpoint>
                </Track>
                <DistanceMeters>29.0</DistanceMeters>
                <TotalTimeSeconds>60.0</TotalTimeSeconds>
                <Calories>5.826666831970215</Calories>
                <Intensity>Active</Intensity>
                <TriggerMethod>Manual</TriggerMethod>
            </Lap>
        </Activity>
        <Activity Sport="Walking">
            <Id>2022-01-05T02:50:00.000Z</Id>
            <Lap StartTime="2022-01-05T02:50:00.000Z">
                <Track>
                    <Trackpoint>
                        <DistanceMeters>0.0</DistanceMeters>
                        <Time>2022-01-05T02:50:00.000Z</Time>
                    </Trackpoint>
                    <Trackpoint>
                        <DistanceMeters>39.0</DistanceMeters>
                        <Time>2022-01-05T02:51:00.000Z</Time>
                    </Trackpoint>
                </Track>
                <DistanceMeters>39.0</DistanceMeters>
                <TotalTimeSeconds>60.0</TotalTimeSeconds>
                <Calories>5.826666831970215</Calories>
                <Intensity>Active</Intensity>
                <TriggerMethod>Manual</TriggerMethod>
            </Lap>
        </Activity>
        <Activity Sport="Walking">
            <Id>2022-01-05T02:51:00.000Z</Id>
            <Lap StartTime="2022-01-05T02:51:00.000Z">
                <Track>
                    <Trackpoint>
                        <DistanceMeters>0.0</DistanceMeters>
                        <Time>2022-01-05T02:51:00.000Z</Time>
                    </Trackpoint>
                    <Trackpoint>
                        <DistanceMeters>24.0</DistanceMeters>
                        <Time>2022-01-05T02:52:00.000Z</Time>
                    </Trackpoint>
                </Track>
                <DistanceMeters>24.0</DistanceMeters>
                <TotalTimeSeconds>60.0</TotalTimeSeconds>
                <Calories>5.826666831970215</Calories>
                <Intensity>Active</Intensity>
                <TriggerMethod>Manual</TriggerMethod>
            </Lap>
        </Activity>
        <Activity Sport="Walking">
            <Id>2022-01-05T02:52:00.000Z</Id>
            <Lap StartTime="2022-01-05T02:52:00.000Z">
                <Track>
                    <Trackpoint>
                        <DistanceMeters>0.0</DistanceMeters>
                        <Time>2022-01-05T02:52:00.000Z</Time>
                    </Trackpoint>
                    <Trackpoint>
                        <DistanceMeters>37.0</DistanceMeters>
                        <Time>2022-01-05T02:53:00.000Z</Time>
                    </Trackpoint>
                </Track>
                <DistanceMeters>37.0</DistanceMeters>
                <TotalTimeSeconds>60.0</TotalTimeSeconds>
                <Calories>5.826666831970215</Calories>
                <Intensity>Active</Intensity>
                <TriggerMethod>Manual</TriggerMethod>
            </Lap>
        </Activity>
        <Activity Sport="Walking">
            <Id>2022-01-05T02:53:00.000Z</Id>
            <Lap StartTime="2022-01-05T02:53:00.000Z">
                <Track>
                    <Trackpoint>
                        <DistanceMeters>0.0</DistanceMeters>
                        <Time>2022-01-05T02:53:00.000Z</Time>
                    </Trackpoint>
                    <Trackpoint>
                        <DistanceMeters>22.0</DistanceMeters>
                        <Time>2022-01-05T02:54:00.000Z</Time>
                    </Trackpoint>
                </Track>
                <DistanceMeters>22.0</DistanceMeters>
                <TotalTimeSeconds>60.0</TotalTimeSeconds>
                <Calories>5.826666831970215</Calories>
                <Intensity>Active</Intensity>
                <TriggerMethod>Manual</TriggerMethod>
            </Lap>
        </Activity>
        <Activity Sport="Walking">
            <Id>2022-01-05T02:54:00.000Z</Id>
            <Lap StartTime="2022-01-05T02:54:00.000Z">
                <Track>
                    <Trackpoint>
                        <DistanceMeters>0.0</DistanceMeters>
                        <Time>2022-01-05T02:54:00.000Z</Time>
                    </Trackpoint>
                    <Trackpoint>
                        <DistanceMeters>20.0</DistanceMeters>
                        <Time>2022-01-05T02:55:00.000Z</Time>
                    </Trackpoint>
                </Track>
                <DistanceMeters>20.0</DistanceMeters>
                <TotalTimeSeconds>60.0</TotalTimeSeconds>
                <Calories>5.826666831970215</Calories>
                <Intensity>Active</Intensity>
                <TriggerMethod>Manual</TriggerMethod>
            </Lap>
        </Activity>
        <Activity Sport="Walking">
            <Id>2022-01-05T02:55:00.000Z</Id>
            <Lap StartTime="2022-01-05T02:55:00.000Z">
                <Track>
                    <Trackpoint>
                        <DistanceMeters>0.0</DistanceMeters>
                        <Time>2022-01-05T02:55:00.000Z</Time>
                    </Trackpoint>
                    <Trackpoint>
                        <DistanceMeters>39.0</DistanceMeters>
                        <Time>2022-01-05T02:56:00.000Z</Time>
                    </Trackpoint>
                </Track>
                <DistanceMeters>39.0</DistanceMeters>
                <TotalTimeSeconds>60.0</TotalTimeSeconds>
                <Calories>5.826666831970215</Calories>
                <Intensity>Active</Intensity>
                <TriggerMethod>Manual</TriggerMethod>
            </Lap>
        </Activity>
        <Activity Sport="Walking">
            <Id>2022-01-05T02:56:00.000Z</Id>
            <Lap StartTime="2022-01-05T02:56:00.000Z">
                <Track>
                    <Trackpoint>
                        <DistanceMeters>0.0</DistanceMeters>
                        <Time>2022-01-05T02:56:00.000Z</Time>
                    </Trackpoint>
                    <Trackpoint>
                        <DistanceMeters>11.0</DistanceMeters>
                        <Time>2022-01-05T02:57:00.000Z</Time>
                    </Trackpoint>
                </Track>
                <DistanceMeters>11.0</DistanceMeters>
                <TotalTimeSeconds>60.0</TotalTimeSeconds>
                <Calories>5.826666831970215</Calories>
                <Intensity>Active</Intensity>
                <TriggerMethod>Manual</TriggerMethod>
            </Lap>
        </Activity>
        <Activity Sport="Walking">
            <Id>2022-01-05T02:57:00.000Z</Id>
            <Lap StartTime="2022-01-05T02:57:00.000Z">
                <Track>
                    <Trackpoint>
                        <DistanceMeters>0.0</DistanceMeters>
                        <Time>2022-01-05T02:57:00.000Z</Time>
                    </Trackpoint>
                    <Trackpoint>
                        <DistanceMeters>35.0</DistanceMeters>
                        <Time>2022-01-05T02:58:00.000Z</Time>
                    </Trackpoint>
                </Track>
                <DistanceMeters>35.0</DistanceMeters>
                <TotalTimeSeconds>60.0</TotalTimeSeconds>
                <Calories>5.826666831970215</Calories>
                <Intensity>Active</Intensity>
                <TriggerMethod>Manual</TriggerMethod>
            </Lap>
        </Activity>
        <Activity Sport="Walking">
            <Id>2022-01-05T02:58:00.000Z</Id>
            <Lap StartTime="2022-01-05T02:58:00.000Z">
                <Track>
                    <Trackpoint>
                        <DistanceMeters>0.0</DistanceMeters>
                        <Time>2022-01-05T02:58:00.000Z</Time>
                    </Trackpoint>
                    <Trackpoint>
                        <DistanceMeters>33.0</DistanceMeters>
                        <Time>2022-01-05T02:59:00.000Z</Time>
                    </Trackpoint>
                </Track>
                <DistanceMeters>33.0</DistanceMeters>
                <TotalTimeSeconds>60.0</TotalTimeSeconds>
                <Calories>5.826666831970215</Calories>
                <Intensity>Active</Intensity>
                <TriggerMethod>Manual</TriggerMethod>
            </Lap>
        </Activity>
        <Activity Sport="Walking">
            <Id>2022-01-05T02:59:00.000Z</Id>
            <Lap StartTime="2022-01-05T02:59:00.000Z">
                <Track>
                    <Trackpoint>
                        <DistanceMeters>0.0</DistanceMeters>
                        <Time>2022-01-05T02:59:00.000Z</Time>
                    </Trackpoint>
                    <Trackpoint>
                        <DistanceMeters>0.0</DistanceMeters>
                        <Time>2022-01-05T03:00:00.000Z</Time>
                    </Trackpoint>
                </Track>
                <DistanceMeters>0.0</DistanceMeters>
                <TotalTimeSeconds>60.0</TotalTimeSeconds>
                <Calories>5.826666831970215</Calories>
                <Intensity>Active</Intensity>
                <TriggerMethod>Manual</TriggerMethod>
            </Lap>
        </Activity>
        <Activity Sport="Walking">
            <Id>2022-01-05T03:01:00.000Z</Id>
            <Lap StartTime="2022-01-05T03:01:00.000Z">
                <Track>
                    <Trackpoint>
                        <DistanceMeters>0.0</DistanceMeters>
                        <Time>2022-01-05T03:01:00.000Z</Time>
                    </Trackpoint>
                    <Trackpoint>
                        <DistanceMeters>23.0</DistanceMeters>
                        <Time>2022-01-05T03:02:00.000Z</Time>
                    </Trackpoint>
                </Track>
                <DistanceMeters>23.0</DistanceMeters>
                <TotalTimeSeconds>60.0</TotalTimeSeconds>
                <Calories>2.464582681655884</Calories>
                <Intensity>Active</Intensity>
                <TriggerMethod>Manual</TriggerMethod>
            </Lap>
        </Activity>
        <Activity Sport="Biking">
            <Id>2022-01-05T03:01:00.000Z</Id>
            <Lap StartTime="2022-01-05T03:01:00.000Z">
                <Track>
                    <Trackpoint>
                        <DistanceMeters>0.0</DistanceMeters>
                        <Time>2022-01-05T03:01:00.000Z</Time>
                    </Trackpoint>
                    <Trackpoint>
                        <DistanceMeters>23.0</DistanceMeters>
                        <Time>2022-01-05T03:01:25.379Z</Time>
                    </Trackpoint>
                    <Trackpoint>
                        <DistanceMeters>23.0</DistanceMeters>
                        <Time>2022-01-05T03:02:00.000Z</Time>
                    </Trackpoint>
                    <Trackpoint>
                        <DistanceMeters>46.0</DistanceMeters>
                        <Time>2022-01-05T03:09:00.000Z</Time>
                    </Trackpoint>
                    <Trackpoint>
                        <DistanceMeters>64.0</DistanceMeters>
                        <Time>2022-01-05T03:10:00.000Z</Time>
                    </Trackpoint>
                    <Trackpoint>
                        <DistanceMeters>81.0</DistanceMeters>
                        <Time>2022-01-05T03:11:00.000Z</Time>
                    </Trackpoint>
                    <Trackpoint>
                        <DistanceMeters>98.0</DistanceMeters>
                        <Time>2022-01-05T03:12:00.000Z</Time>
                    </Trackpoint>
                    <Trackpoint>
                        <DistanceMeters>127.0</DistanceMeters>
                        <Time>2022-01-05T03:13:00.000Z</Time>
                    </Trackpoint>
                    <Trackpoint>
                        <DistanceMeters>130.0</DistanceMeters>
                        <Time>2022-01-05T03:14:00.000Z</Time>
                    </Trackpoint>
                </Track>
                <DistanceMeters>130.0</DistanceMeters>
                <TotalTimeSeconds>780.0</TotalTimeSeconds>
                <Calories>74.88166046142578</Calories>
                <Intensity>Active</Intensity>
                <TriggerMethod>Manual</TriggerMethod>
            </Lap>
        </Activity>
        <Activity Sport="Walking">
            <Id>2022-01-05T03:13:00.000Z</Id>
            <Lap StartTime="2022-01-05T03:13:00.000Z">
                <Track>
                    <Trackpoint>
                        <DistanceMeters>0.0</DistanceMeters>
                        <Time>2022-01-05T03:13:00.000Z</Time>
                    </Trackpoint>
                    <Trackpoint>
                        <DistanceMeters>3.0</DistanceMeters>
                        <Time>2022-01-05T03:13:37.917Z</Time>
                    </Trackpoint>
                    <Trackpoint>
                        <DistanceMeters>3.0</DistanceMeters>
                        <Time>2022-01-05T03:14:00.000Z</Time>
                    </Trackpoint>
                </Track>
                <DistanceMeters>3.0</DistanceMeters>
                <TotalTimeSeconds>60.0</TotalTimeSeconds>
                <Calories>2.1445045471191406</Calories>
                <Intensity>Active</Intensity>
                <TriggerMethod>Manual</TriggerMethod>
            </Lap>
        </Activity>
        <Activity Sport="Walking">
            <Id>2022-01-05T03:14:00.000Z</Id>
            <Lap StartTime="2022-01-05T03:14:00.000Z">
                <Track>
                    <Trackpoint>
                        <DistanceMeters>0.0</DistanceMeters>
                        <Time>2022-01-05T03:14:00.000Z</Time>
                    </Trackpoint>
                    <Trackpoint>
                        <DistanceMeters>0.0</DistanceMeters>
                        <Time>2022-01-05T03:15:00.000Z</Time>
                    </Trackpoint>
                </Track>
                <DistanceMeters>0.0</DistanceMeters>
                <TotalTimeSeconds>60.0</TotalTimeSeconds>
                <Calories>5.826666831970215</Calories>
                <Intensity>Active</Intensity>
                <TriggerMethod>Manual</TriggerMethod>
            </Lap>
        </Activity>
        <Activity Sport="Walking">
            <Id>2022-01-05T03:16:00.000Z</Id>
            <Lap StartTime="2022-01-05T03:16:00.000Z">
                <Track>
                    <Trackpoint>
                        <DistanceMeters>0.0</DistanceMeters>
                        <Time>2022-01-05T03:16:00.000Z</Time>
                    </Trackpoint>
                    <Trackpoint>
                        <DistanceMeters>16.0</DistanceMeters>
                        <Time>2022-01-05T03:16:39.317Z</Time>
                    </Trackpoint>
                    <Trackpoint>
                        <DistanceMeters>16.0</DistanceMeters>
                        <Time>2022-01-05T03:17:00.000Z</Time>
                    </Trackpoint>
                </Track>
                <DistanceMeters>16.0</DistanceMeters>
                <TotalTimeSeconds>60.0</TotalTimeSeconds>
                <Calories>2.0085489749908447</Calories>
                <Intensity>Active</Intensity>
                <TriggerMethod>Manual</TriggerMethod>
            </Lap>
        </Activity>
        <Activity Sport="Walking">
            <Id>2022-01-05T03:17:00.000Z</Id>
            <Lap StartTime="2022-01-05T03:17:00.000Z">
                <Track>
                    <Trackpoint>
                        <DistanceMeters>0.0</DistanceMeters>
                        <Time>2022-01-05T03:17:00.000Z</Time>
                    </Trackpoint>
                    <Trackpoint>
                        <DistanceMeters>55.0</DistanceMeters>
                        <Time>2022-01-05T03:18:00.000Z</Time>
                    </Trackpoint>
                </Track>
                <DistanceMeters>55.0</DistanceMeters>
                <TotalTimeSeconds>60.0</TotalTimeSeconds>
                <Calories>5.826666831970215</Calories>
                <Intensity>Active</Intensity>
                <TriggerMethod>Manual</TriggerMethod>
            </Lap>
        </Activity>
        <Activity Sport="Walking">
            <Id>2022-01-05T03:18:00.000Z</Id>
            <Lap StartTime="2022-01-05T03:18:00.000Z">
                <Track>
                    <Trackpoint>
                        <DistanceMeters>0.0</DistanceMeters>
                        <Time>2022-01-05T03:18:00.000Z</Time>
                    </Trackpoint>
                    <Trackpoint>
                        <DistanceMeters>0.0</DistanceMeters>
                        <Time>2022-01-05T03:19:00.000Z</Time>
                    </Trackpoint>
                </Track>
                <DistanceMeters>0.0</DistanceMeters>
                <TotalTimeSeconds>60.0</TotalTimeSeconds>
                <Calories>5.826666831970215</Calories>
                <Intensity>Active</Intensity>
                <TriggerMethod>Manual</TriggerMethod>
            </Lap>
        </Activity>
    </Activities>
    <Author xsi:type="Application_t">
        <Name>Google Fit</Name>
        <Build>
            <Version>
                <VersionMajor>0</VersionMajor>
                <VersionMinor>0</VersionMinor>
                <BuildMajor>0</BuildMajor>
                <BuildMinor>0</BuildMinor>
            </Version>
        </Build>
        <LangID>en</LangID>
        <PartNumber>000-00000-00</PartNumber>
    </Author>
</TrainingCenterDatabase>
