<?xml version="1.0" encoding="UTF-8"?>
<TrainingCenterDatabase
    xmlns="http://www.garmin.com/xmlschemas/TrainingCenterDatabase/v2"
    xmlns:ns2="http://www.garmin.com/xmlschemas/UserProfile/v2"
    xmlns:ns3="http://www.garmin.com/xmlschemas/ActivityExtension/v2"
    xmlns:ns4="http://www.garmin.com/xmlschemas/ProfileExtension/v1"
    xmlns:ns5="http://www.garmin.com/xmlschemas/ActivityGoals/v1"
    xmlns:xsi="http://www.w3.org/2001/XMLSchema-instance" xsi:schemaLocation="http://www.garmin.com/xmlschemas/TrainingCenterDatabase/v2 http://www.garmin.com/xmlschemas/TrainingCenterDatabasev2.xsd">
    <Activities>
        <Activity Sport="Walking">
            <Id>2022-04-29T13:43:05.815Z</Id>
            <Lap StartTime="2022-04-29T13:43:05.815Z">
                <Track>
                    <Trackpoint>
                        <DistanceMeters>0.0</DistanceMeters>
                        <Time>2022-04-29T13:43:05.815Z</Time>
                    </Trackpoint>
                    <Trackpoint>
                        <DistanceMeters>1.9573949575424194</DistanceMeters>
                        <Time>2022-04-29T13:43:13.392Z</Time>
                    </Trackpoint>
                    <Trackpoint>
                        <DistanceMeters>32.49560296535492</DistanceMeters>
                        <Time>2022-04-29T13:43:40.472Z</Time>
                    </Trackpoint>
                    <Trackpoint>
                        <DistanceMeters>64.3611387014389</DistanceMeters>
                        <Time>2022-04-29T13:44:13.312Z</Time>
                    </Trackpoint>
                    <Trackpoint>
                        <DistanceMeters>83.85713517665863</DistanceMeters>
                        <Time>2022-04-29T13:44:28.512Z</Time>
                    </Trackpoint>
                    <Trackpoint>
                        <DistanceMeters>105.90934693813324</DistanceMeters>
                        <Time>2022-04-29T13:44:46.608Z</Time>
                    </Trackpoint>
                </Track>
                <DistanceMeters>105.90934693813324</DistanceMeters>
                <TotalTimeSeconds>100.793</TotalTimeSeconds>
                <Calories>10.320082664489746</Calories>
                <Intensity>Active</Intensity>
                <TriggerMethod>Manual</TriggerMethod>
            </Lap>
        </Activity>
        <Activity Sport="Walking">
            <Id>2022-04-29T13:44:46.608Z</Id>
            <Lap StartTime="2022-04-29T13:44:46.608Z">
                <Track>
                    <Trackpoint>
                        <DistanceMeters>0.0</DistanceMeters>
                        <Time>2022-04-29T13:44:46.608Z</Time>
                    </Trackpoint>
                    <Trackpoint>
                        <DistanceMeters>0.0</DistanceMeters>
                        <Time>2022-04-29T13:51:53.232Z</Time>
                    </Trackpoint>
                    <Trackpoint>
                        <DistanceMeters>65.89896392822266</DistanceMeters>
                        <Time>2022-04-29T13:55:15.232Z</Time>
                    </Trackpoint>
                    <Trackpoint>
                        <DistanceMeters>91.56710815429688</DistanceMeters>
                        <Time>2022-04-29T13:55:32.632Z</Time>
                    </Trackpoint>
                </Track>
                <DistanceMeters>91.56710815429688</DistanceMeters>
                <TotalTimeSeconds>646.024574135</TotalTimeSeconds>
                <Calories>13.763594776391983</Calories>
                <Intensity>Active</Intensity>
                <TriggerMethod>Manual</TriggerMethod>
            </Lap>
        </Activity>
        <Activity Sport="Walking">
            <Id>2022-04-29T13:55:15.232Z</Id>
            <Lap StartTime="2022-04-29T13:55:15.232Z">
                <Track>
                    <Trackpoint>
                        <DistanceMeters>0.0</DistanceMeters>
                        <Time>2022-04-29T13:55:15.232Z</Time>
                    </Trackpoint>
                    <Trackpoint>
                        <DistanceMeters>25.66814422607422</DistanceMeters>
                        <Time>2022-04-29T13:55:19.209Z</Time>
                    </Trackpoint>
                    <Trackpoint>
                        <DistanceMeters>25.66814422607422</DistanceMeters>
                        <Time>2022-04-29T13:55:32.632Z</Time>
                    </Trackpoint>
                    <Trackpoint>
                        <DistanceMeters>42.52143478393555</DistanceMeters>
                        <Time>2022-04-29T13:55:49.377Z</Time>
                    </Trackpoint>
                </Track>
                <DistanceMeters>42.52143478393555</DistanceMeters>
                <TotalTimeSeconds>34.144426047</TotalTimeSeconds>
                <Calories>3.088867664337158</Calories>
                <Intensity>Active</Intensity>
                <TriggerMethod>Manual</TriggerMethod>
            </Lap>
        </Activity>
    </Activities>
    <Author xsi:type="Application_t">
        <Name>Google Fit</Name>
        <Build>
            <Version>
                <VersionMajor>0</VersionMajor>
                <VersionMinor>0</VersionMinor>
                <BuildMajor>0</BuildMajor>
                <BuildMinor>0</BuildMinor>
            </Version>
        </Build>
        <LangID>en</LangID>
        <PartNumber>000-00000-00</PartNumber>
    </Author>
</TrainingCenterDatabase>
