<?xml version="1.0" encoding="UTF-8"?>
<TrainingCenterDatabase
    xmlns="http://www.garmin.com/xmlschemas/TrainingCenterDatabase/v2"
    xmlns:ns2="http://www.garmin.com/xmlschemas/UserProfile/v2"
    xmlns:ns3="http://www.garmin.com/xmlschemas/ActivityExtension/v2"
    xmlns:ns4="http://www.garmin.com/xmlschemas/ProfileExtension/v1"
    xmlns:ns5="http://www.garmin.com/xmlschemas/ActivityGoals/v1"
    xmlns:xsi="http://www.w3.org/2001/XMLSchema-instance" xsi:schemaLocation="http://www.garmin.com/xmlschemas/TrainingCenterDatabase/v2 http://www.garmin.com/xmlschemas/TrainingCenterDatabasev2.xsd">
    <Activities>
        <Activity Sport="Walking">
            <Id>2022-04-10T09:21:34.733Z</Id>
            <Lap StartTime="2022-04-10T09:21:34.733Z">
                <Track>
                    <Trackpoint>
                        <DistanceMeters>0.0</DistanceMeters>
                        <Time>2022-04-10T09:21:34.733Z</Time>
                    </Trackpoint>
                    <Trackpoint>
                        <DistanceMeters>13.049299240112305</DistanceMeters>
                        <Time>2022-04-10T09:21:59.521Z</Time>
                    </Trackpoint>
                    <Trackpoint>
                        <DistanceMeters>16.964089155197144</DistanceMeters>
                        <Time>2022-04-10T09:22:19.901Z</Time>
                    </Trackpoint>
                    <Trackpoint>
                        <DistanceMeters>41.757757902145386</DistanceMeters>
                        <Time>2022-04-10T09:23:36.601Z</Time>
                    </Trackpoint>
                    <Trackpoint>
                        <DistanceMeters>102.43700289726257</DistanceMeters>
                        <Time>2022-04-10T09:26:42.601Z</Time>
                    </Trackpoint>
                </Track>
                <DistanceMeters>102.43700289726257</DistanceMeters>
                <TotalTimeSeconds>307.868264087</TotalTimeSeconds>
                <Calories>14.744101524353027</Calories>
                <Intensity>Active</Intensity>
                <TriggerMethod>Manual</TriggerMethod>
            </Lap>
        </Activity>
        <Activity Sport="Walking">
            <Id>2022-04-10T09:23:36.601Z</Id>
            <Lap StartTime="2022-04-10T09:23:36.601Z">
                <Track>
                    <Trackpoint>
                        <DistanceMeters>0.0</DistanceMeters>
                        <Time>2022-04-10T09:23:36.601Z</Time>
                    </Trackpoint>
                    <Trackpoint>
                        <DistanceMeters>60.67924499511719</DistanceMeters>
                        <Time>2022-04-10T09:26:04.709Z</Time>
                    </Trackpoint>
                    <Trackpoint>
                        <DistanceMeters>60.67924499511719</DistanceMeters>
                        <Time>2022-04-10T09:26:42.601Z</Time>
                    </Trackpoint>
                    <Trackpoint>
                        <DistanceMeters>81.55812454223633</DistanceMeters>
                        <Time>2022-04-10T09:27:07.601Z</Time>
                    </Trackpoint>
                    <Trackpoint>
                        <DistanceMeters>110.91904830932617</DistanceMeters>
                        <Time>2022-04-10T09:27:43.721Z</Time>
                    </Trackpoint>
                    <Trackpoint>
                        <DistanceMeters>122.66341781616211</DistanceMeters>
                        <Time>2022-04-10T09:28:07.761Z</Time>
                    </Trackpoint>
                    <Trackpoint>
                        <DistanceMeters>144.19476318359375</DistanceMeters>
                        <Time>2022-04-10T09:28:44.321Z</Time>
                    </Trackpoint>
                    <Trackpoint>
                        <DistanceMeters>161.81131744384766</DistanceMeters>
                        <Time>2022-04-10T09:29:08.721Z</Time>
                    </Trackpoint>
                    <Trackpoint>
                        <DistanceMeters>196.63441848754883</DistanceMeters>
                        <Time>2022-04-10T09:29:45.921Z</Time>
                    </Trackpoint>
                    <Trackpoint>
                        <DistanceMeters>212.94604301452637</DistanceMeters>
                        <Time>2022-04-10T09:30:10.361Z</Time>
                    </Trackpoint>
                    <Trackpoint>
                        <DistanceMeters>242.3069667816162</DistanceMeters>
                        <Time>2022-04-10T09:30:46.481Z</Time>
                    </Trackpoint>
                    <Trackpoint>
                        <DistanceMeters>259.9235210418701</DistanceMeters>
                        <Time>2022-04-10T09:31:06.014Z</Time>
                        <Position>
                            <LatitudeDegrees>19.847766876220703</LatitudeDegrees>
                            <LongitudeDegrees>75.30396270751953</LongitudeDegrees>
                        </Position>
                        <AltitudeMeters>478.1000061035156</AltitudeMeters>
                    </Trackpoint>
                    <Trackpoint>
                        <DistanceMeters>259.9235210418701</DistanceMeters>
                        <Time>2022-04-10T09:31:11.321Z</Time>
                    </Trackpoint>
                    <Trackpoint>
                        <DistanceMeters>286.0221195220947</DistanceMeters>
                        <Time>2022-04-10T09:31:46.561Z</Time>
                    </Trackpoint>
                    <Trackpoint>
                        <DistanceMeters>296.4615592956543</DistanceMeters>
                        <Time>2022-04-10T09:32:03.881Z</Time>
                    </Trackpoint>
                    <Trackpoint>
                        <DistanceMeters>329.7372741699219</DistanceMeters>
                        <Time>2022-04-10T09:32:43.721Z</Time>
                    </Trackpoint>
                    <Trackpoint>
                        <DistanceMeters>331.0422041416168</DistanceMeters>
                        <Time>2022-04-10T09:33:12.382Z</Time>
                        <Position>
                            <LatitudeDegrees>19.847776412963867</LatitudeDegrees>
                            <LongitudeDegrees>75.303955078125</LongitudeDegrees>
                        </Position>
                        <AltitudeMeters>478.1000061035156</AltitudeMeters>
                    </Trackpoint>
                    <Trackpoint>
                        <DistanceMeters>331.0422041416168</DistanceMeters>
                        <Time>2022-04-10T09:33:46.564Z</Time>
                    </Trackpoint>
                </Track>
                <DistanceMeters>331.0422041416168</DistanceMeters>
                <TotalTimeSeconds>609.962734889</TotalTimeSeconds>
                <Calories>47.288818359375</Calories>
                <Intensity>Active</Intensity>
                <TriggerMethod>Manual</TriggerMethod>
            </Lap>
        </Activity>
        <Activity Sport="Walking">
            <Id>2022-04-10T09:47:40.240Z</Id>
            <Lap StartTime="2022-04-10T09:47:40.240Z">
                <Track>
                    <Trackpoint>
                        <DistanceMeters>0.0</DistanceMeters>
                        <Time>2022-04-10T09:47:40.240Z</Time>
                    </Trackpoint>
                    <Trackpoint>
                        <DistanceMeters>0.0</DistanceMeters>
                        <Time>2022-04-10T09:48:24.761Z</Time>
                    </Trackpoint>
                    <Trackpoint>
                        <DistanceMeters>17.616554260253906</DistanceMeters>
                        <Time>2022-04-10T09:49:24.761Z</Time>
                    </Trackpoint>
                </Track>
                <DistanceMeters>17.616554260253906</DistanceMeters>
                <TotalTimeSeconds>104.521264285</TotalTimeSeconds>
                <Calories>10.638307571411133</Calories>
                <Intensity>Active</Intensity>
                <TriggerMethod>Manual</TriggerMethod>
            </Lap>
        </Activity>
        <Activity Sport="Walking">
            <Id>2022-04-10T09:52:25.641Z</Id>
            <Lap StartTime="2022-04-10T09:52:25.641Z">
                <Track>
                    <Trackpoint>
                        <DistanceMeters>0.0</DistanceMeters>
                        <Time>2022-04-10T09:52:25.641Z</Time>
                    </Trackpoint>
                    <Trackpoint>
                        <DistanceMeters>30.013389587402344</DistanceMeters>
                        <Time>2022-04-10T09:53:32.363Z</Time>
                    </Trackpoint>
                    <Trackpoint>
                        <DistanceMeters>30.013389587402344</DistanceMeters>
                        <Time>2022-04-10T09:53:57.641Z</Time>
                    </Trackpoint>
                    <Trackpoint>
                        <DistanceMeters>77.6433334350586</DistanceMeters>
                        <Time>2022-04-10T09:54:56.281Z</Time>
                    </Trackpoint>
                    <Trackpoint>
                        <DistanceMeters>123.31588363647461</DistanceMeters>
                        <Time>2022-04-10T09:55:53.201Z</Time>
                    </Trackpoint>
                    <Trackpoint>
                        <DistanceMeters>165.0736427307129</DistanceMeters>
                        <Time>2022-04-10T09:56:59.001Z</Time>
                    </Trackpoint>
                    <Trackpoint>
                        <DistanceMeters>206.5466194152832</DistanceMeters>
                        <Time>2022-04-10T09:57:40.641Z</Time>
                    </Trackpoint>
                    <Trackpoint>
                        <DistanceMeters>249.60931015014648</DistanceMeters>
                        <Time>2022-04-10T09:58:58.281Z</Time>
                    </Trackpoint>
                    <Trackpoint>
                        <DistanceMeters>293.324462890625</DistanceMeters>
                        <Time>2022-04-10T09:59:58.521Z</Time>
                    </Trackpoint>
                    <Trackpoint>
                        <DistanceMeters>316.8132019042969</DistanceMeters>
                        <Time>2022-04-10T10:00:36.877Z</Time>
                    </Trackpoint>
                </Track>
                <DistanceMeters>316.8132019042969</DistanceMeters>
                <TotalTimeSeconds>491.235738086</TotalTimeSeconds>
                <Calories>43.46551513671875</Calories>
                <Intensity>Active</Intensity>
                <TriggerMethod>Manual</TriggerMethod>
            </Lap>
        </Activity>
    </Activities>
    <Author xsi:type="Application_t">
        <Name>Google Fit</Name>
        <Build>
            <Version>
                <VersionMajor>0</VersionMajor>
                <VersionMinor>0</VersionMinor>
                <BuildMajor>0</BuildMajor>
                <BuildMinor>0</BuildMinor>
            </Version>
        </Build>
        <LangID>en</LangID>
        <PartNumber>000-00000-00</PartNumber>
    </Author>
</TrainingCenterDatabase>
