<?xml version="1.0" encoding="UTF-8"?>
<TrainingCenterDatabase
    xmlns="http://www.garmin.com/xmlschemas/TrainingCenterDatabase/v2"
    xmlns:ns2="http://www.garmin.com/xmlschemas/UserProfile/v2"
    xmlns:ns3="http://www.garmin.com/xmlschemas/ActivityExtension/v2"
    xmlns:ns4="http://www.garmin.com/xmlschemas/ProfileExtension/v1"
    xmlns:ns5="http://www.garmin.com/xmlschemas/ActivityGoals/v1"
    xmlns:xsi="http://www.w3.org/2001/XMLSchema-instance" xsi:schemaLocation="http://www.garmin.com/xmlschemas/TrainingCenterDatabase/v2 http://www.garmin.com/xmlschemas/TrainingCenterDatabasev2.xsd">
    <Activities>
        <Activity Sport="Walking">
            <Id>2022-09-19T11:04:17.100Z</Id>
            <Lap StartTime="2022-09-19T11:04:17.100Z">
                <Track>
                    <Trackpoint>
                        <DistanceMeters>0.0</DistanceMeters>
                        <Time>2022-09-19T11:04:17.100Z</Time>
                    </Trackpoint>
                    <Trackpoint>
                        <DistanceMeters>48.93487548828125</DistanceMeters>
                        <Time>2022-09-19T11:05:50.661Z</Time>
                    </Trackpoint>
                    <Trackpoint>
                        <DistanceMeters>48.93487548828125</DistanceMeters>
                        <Time>2022-09-19T11:06:47.100Z</Time>
                    </Trackpoint>
                    <Trackpoint>
                        <DistanceMeters>86.41153717041016</DistanceMeters>
                        <Time>2022-09-19T11:07:47.860Z</Time>
                    </Trackpoint>
                    <Trackpoint>
                        <DistanceMeters>110.55274200439453</DistanceMeters>
                        <Time>2022-09-19T11:09:01.860Z</Time>
                    </Trackpoint>
                    <Trackpoint>
                        <DistanceMeters>118.86455345153809</DistanceMeters>
                        <Time>2022-09-19T11:09:28.980Z</Time>
                    </Trackpoint>
                    <Trackpoint>
                        <DistanceMeters>141.0483627319336</DistanceMeters>
                        <Time>2022-09-19T11:10:36.980Z</Time>
                    </Trackpoint>
                </Track>
                <DistanceMeters>141.0483627319336</DistanceMeters>
                <TotalTimeSeconds>379.880008451</TotalTimeSeconds>
                <Calories>28.394994735717773</Calories>
                <Intensity>Active</Intensity>
                <TriggerMethod>Manual</TriggerMethod>
            </Lap>
        </Activity>
        <Activity Sport="Walking">
            <Id>2022-09-19T11:14:20.060Z</Id>
            <Lap StartTime="2022-09-19T11:14:20.060Z">
                <Track>
                    <Trackpoint>
                        <DistanceMeters>0.0</DistanceMeters>
                        <Time>2022-09-19T11:14:20.060Z</Time>
                    </Trackpoint>
                    <Trackpoint>
                        <DistanceMeters>34.58064270019531</DistanceMeters>
                        <Time>2022-09-19T11:15:39.683Z</Time>
                    </Trackpoint>
                    <Trackpoint>
                        <DistanceMeters>34.58064270019531</DistanceMeters>
                        <Time>2022-09-19T11:15:55.380Z</Time>
                    </Trackpoint>
                    <Trackpoint>
                        <DistanceMeters>61.98417282104492</DistanceMeters>
                        <Time>2022-09-19T11:16:31.220Z</Time>
                    </Trackpoint>
                    <Trackpoint>
                        <DistanceMeters>99.17467880249023</DistanceMeters>
                        <Time>2022-09-19T11:17:42.200Z</Time>
                    </Trackpoint>
                    <Trackpoint>
                        <DistanceMeters>111.5426778793335</DistanceMeters>
                        <Time>2022-09-19T11:18:33.195Z</Time>
                    </Trackpoint>
                </Track>
                <DistanceMeters>111.5426778793335</DistanceMeters>
                <TotalTimeSeconds>253.13456391</TotalTimeSeconds>
                <Calories>17.76569938659668</Calories>
                <Intensity>Active</Intensity>
                <TriggerMethod>Manual</TriggerMethod>
            </Lap>
        </Activity>
    </Activities>
    <Author xsi:type="Application_t">
        <Name>Google Fit</Name>
        <Build>
            <Version>
                <VersionMajor>0</VersionMajor>
                <VersionMinor>0</VersionMinor>
                <BuildMajor>0</BuildMajor>
                <BuildMinor>0</BuildMinor>
            </Version>
        </Build>
        <LangID>en</LangID>
        <PartNumber>000-00000-00</PartNumber>
    </Author>
</TrainingCenterDatabase>
