<?xml version="1.0" encoding="UTF-8"?>
<TrainingCenterDatabase
    xmlns="http://www.garmin.com/xmlschemas/TrainingCenterDatabase/v2"
    xmlns:ns2="http://www.garmin.com/xmlschemas/UserProfile/v2"
    xmlns:ns3="http://www.garmin.com/xmlschemas/ActivityExtension/v2"
    xmlns:ns4="http://www.garmin.com/xmlschemas/ProfileExtension/v1"
    xmlns:ns5="http://www.garmin.com/xmlschemas/ActivityGoals/v1"
    xmlns:xsi="http://www.w3.org/2001/XMLSchema-instance" xsi:schemaLocation="http://www.garmin.com/xmlschemas/TrainingCenterDatabase/v2 http://www.garmin.com/xmlschemas/TrainingCenterDatabasev2.xsd">
    <Activities>
        <Activity Sport="Walking">
            <Id>2022-09-02T18:09:27.148Z</Id>
            <Lap StartTime="2022-09-02T18:09:27.148Z">
                <Track>
                    <Trackpoint>
                        <DistanceMeters>0.0</DistanceMeters>
                        <Time>2022-09-02T18:09:27.148Z</Time>
                    </Trackpoint>
                    <Trackpoint>
                        <DistanceMeters>15.006694793701172</DistanceMeters>
                        <Time>2022-09-02T18:09:39.770Z</Time>
                    </Trackpoint>
                    <Trackpoint>
                        <DistanceMeters>15.006694793701172</DistanceMeters>
                        <Time>2022-09-02T18:10:27.148Z</Time>
                    </Trackpoint>
                    <Trackpoint>
                        <DistanceMeters>43.71515464782715</DistanceMeters>
                        <Time>2022-09-02T18:12:07.748Z</Time>
                    </Trackpoint>
                    <Trackpoint>
                        <DistanceMeters>63.28910446166992</DistanceMeters>
                        <Time>2022-09-02T18:13:07.748Z</Time>
                    </Trackpoint>
                    <Trackpoint>
                        <DistanceMeters>95.88666534423828</DistanceMeters>
                        <Time>2022-09-02T18:13:34.748Z</Time>
                    </Trackpoint>
                    <Trackpoint>
                        <DistanceMeters>119.33304023742676</DistanceMeters>
                        <Time>2022-09-02T18:13:55.988Z</Time>
                    </Trackpoint>
                    <Trackpoint>
                        <DistanceMeters>133.30782508850098</DistanceMeters>
                        <Time>2022-09-02T18:14:08.108Z</Time>
                    </Trackpoint>
                    <Trackpoint>
                        <DistanceMeters>164.70590782165527</DistanceMeters>
                        <Time>2022-09-02T18:14:35.468Z</Time>
                    </Trackpoint>
                    <Trackpoint>
                        <DistanceMeters>192.07079887390137</DistanceMeters>
                        <Time>2022-09-02T18:14:56.988Z</Time>
                    </Trackpoint>
                    <Trackpoint>
                        <DistanceMeters>207.24734592437744</DistanceMeters>
                        <Time>2022-09-02T18:15:08.788Z</Time>
                    </Trackpoint>
                    <Trackpoint>
                        <DistanceMeters>276.1014337539673</DistanceMeters>
                        <Time>2022-09-02T18:16:05.508Z</Time>
                    </Trackpoint>
                    <Trackpoint>
                        <DistanceMeters>309.97310733795166</DistanceMeters>
                        <Time>2022-09-02T18:17:06.650Z</Time>
                    </Trackpoint>
                </Track>
                <DistanceMeters>309.97310733795166</DistanceMeters>
                <TotalTimeSeconds>459.50164006</TotalTimeSeconds>
                <Calories>45.75554275512695</Calories>
                <Intensity>Active</Intensity>
                <TriggerMethod>Manual</TriggerMethod>
            </Lap>
        </Activity>
        <Activity Sport="Walking">
            <Id>2022-09-02T18:17:06.650Z</Id>
            <Lap StartTime="2022-09-02T18:17:06.650Z">
                <Track>
                    <Trackpoint>
                        <DistanceMeters>0.0</DistanceMeters>
                        <Time>2022-09-02T18:17:06.650Z</Time>
                    </Trackpoint>
                    <Trackpoint>
                        <DistanceMeters>0.0</DistanceMeters>
                        <Time>2022-09-02T18:26:28.588Z</Time>
                    </Trackpoint>
                    <Trackpoint>
                        <DistanceMeters>12.396834373474121</DistanceMeters>
                        <Time>2022-09-02T18:27:12.668Z</Time>
                    </Trackpoint>
                    <Trackpoint>
                        <DistanceMeters>68.66528987884521</DistanceMeters>
                        <Time>2022-09-02T18:28:13.668Z</Time>
                    </Trackpoint>
                </Track>
                <DistanceMeters>68.66528987884521</DistanceMeters>
                <TotalTimeSeconds>667.018359563</TotalTimeSeconds>
                <Calories>16.497490406036377</Calories>
                <Intensity>Active</Intensity>
                <TriggerMethod>Manual</TriggerMethod>
            </Lap>
        </Activity>
        <Activity Sport="Walking">
            <Id>2022-09-02T18:27:12.668Z</Id>
            <Lap StartTime="2022-09-02T18:27:12.668Z">
                <Track>
                    <Trackpoint>
                        <DistanceMeters>0.0</DistanceMeters>
                        <Time>2022-09-02T18:27:12.668Z</Time>
                    </Trackpoint>
                    <Trackpoint>
                        <DistanceMeters>56.268455505371094</DistanceMeters>
                        <Time>2022-09-02T18:27:48.037Z</Time>
                    </Trackpoint>
                    <Trackpoint>
                        <DistanceMeters>56.268455505371094</DistanceMeters>
                        <Time>2022-09-02T18:28:13.668Z</Time>
                    </Trackpoint>
                    <Trackpoint>
                        <DistanceMeters>73.885009765625</DistanceMeters>
                        <Time>2022-09-02T18:28:34.908Z</Time>
                    </Trackpoint>
                    <Trackpoint>
                        <DistanceMeters>144.7415313720703</DistanceMeters>
                        <Time>2022-09-02T18:29:41.748Z</Time>
                    </Trackpoint>
                    <Trackpoint>
                        <DistanceMeters>152.11203575134277</DistanceMeters>
                        <Time>2022-09-02T18:29:49.106Z</Time>
                    </Trackpoint>
                </Track>
                <DistanceMeters>152.11203575134277</DistanceMeters>
                <TotalTimeSeconds>156.437640482</TotalTimeSeconds>
                <Calories>12.396120071411133</Calories>
                <Intensity>Active</Intensity>
                <TriggerMethod>Manual</TriggerMethod>
            </Lap>
        </Activity>
        <Activity Sport="Running">
            <Id>2022-09-02T18:29:49.106Z</Id>
            <Lap StartTime="2022-09-02T18:29:49.106Z">
                <Track>
                    <Trackpoint>
                        <DistanceMeters>0.0</DistanceMeters>
                        <Time>2022-09-02T18:29:49.106Z</Time>
                    </Trackpoint>
                    <Trackpoint>
                        <DistanceMeters>10.162750244140625</DistanceMeters>
                        <Time>2022-09-02T18:29:57.868Z</Time>
                    </Trackpoint>
                    <Trackpoint>
                        <DistanceMeters>71.13925170898438</DistanceMeters>
                        <Time>2022-09-02T18:30:42.828Z</Time>
                    </Trackpoint>
                    <Trackpoint>
                        <DistanceMeters>90.68300247192383</DistanceMeters>
                        <Time>2022-09-02T18:30:58.908Z</Time>
                    </Trackpoint>
                    <Trackpoint>
                        <DistanceMeters>142.27850341796875</DistanceMeters>
                        <Time>2022-09-02T18:31:48.288Z</Time>
                    </Trackpoint>
                    <Trackpoint>
                        <DistanceMeters>144.62375354766846</DistanceMeters>
                        <Time>2022-09-02T18:31:50.996Z</Time>
                    </Trackpoint>
                </Track>
                <DistanceMeters>144.62375354766846</DistanceMeters>
                <TotalTimeSeconds>121.89</TotalTimeSeconds>
                <Calories>24.631935119628906</Calories>
                <Intensity>Active</Intensity>
                <TriggerMethod>Manual</TriggerMethod>
            </Lap>
        </Activity>
        <Activity Sport="Walking">
            <Id>2022-09-02T18:38:38.268Z</Id>
            <Lap StartTime="2022-09-02T18:38:38.268Z">
                <Track>
                    <Trackpoint>
                        <DistanceMeters>0.0</DistanceMeters>
                        <Time>2022-09-02T18:38:38.268Z</Time>
                    </Trackpoint>
                    <Trackpoint>
                        <DistanceMeters>23.488739013671875</DistanceMeters>
                        <Time>2022-09-02T18:39:38.906Z</Time>
                    </Trackpoint>
                    <Trackpoint>
                        <DistanceMeters>23.488739013671875</DistanceMeters>
                        <Time>2022-09-02T18:40:42.868Z</Time>
                    </Trackpoint>
                </Track>
                <DistanceMeters>23.488739013671875</DistanceMeters>
                <TotalTimeSeconds>124.599644929</TotalTimeSeconds>
                <Calories>6.54899787902832</Calories>
                <Intensity>Active</Intensity>
                <TriggerMethod>Manual</TriggerMethod>
            </Lap>
        </Activity>
        <Activity Sport="Walking">
            <Id>2022-09-02T18:48:44.588Z</Id>
            <Lap StartTime="2022-09-02T18:48:44.588Z">
                <Track>
                    <Trackpoint>
                        <DistanceMeters>0.0</DistanceMeters>
                        <Time>2022-09-02T18:48:44.588Z</Time>
                    </Trackpoint>
                    <Trackpoint>
                        <DistanceMeters>28.055994033813477</DistanceMeters>
                        <Time>2022-09-02T18:48:52.806Z</Time>
                    </Trackpoint>
                    <Trackpoint>
                        <DistanceMeters>28.055994033813477</DistanceMeters>
                        <Time>2022-09-02T18:49:45.908Z</Time>
                    </Trackpoint>
                </Track>
                <DistanceMeters>28.055994033813477</DistanceMeters>
                <TotalTimeSeconds>61.319999197</TotalTimeSeconds>
                <Calories>3.295079231262207</Calories>
                <Intensity>Active</Intensity>
                <TriggerMethod>Manual</TriggerMethod>
            </Lap>
        </Activity>
    </Activities>
    <Author xsi:type="Application_t">
        <Name>Google Fit</Name>
        <Build>
            <Version>
                <VersionMajor>0</VersionMajor>
                <VersionMinor>0</VersionMinor>
                <BuildMajor>0</BuildMajor>
                <BuildMinor>0</BuildMinor>
            </Version>
        </Build>
        <LangID>en</LangID>
        <PartNumber>000-00000-00</PartNumber>
    </Author>
</TrainingCenterDatabase>
