<?xml version="1.0" encoding="UTF-8"?>
<TrainingCenterDatabase
    xmlns="http://www.garmin.com/xmlschemas/TrainingCenterDatabase/v2"
    xmlns:ns2="http://www.garmin.com/xmlschemas/UserProfile/v2"
    xmlns:ns3="http://www.garmin.com/xmlschemas/ActivityExtension/v2"
    xmlns:ns4="http://www.garmin.com/xmlschemas/ProfileExtension/v1"
    xmlns:ns5="http://www.garmin.com/xmlschemas/ActivityGoals/v1"
    xmlns:xsi="http://www.w3.org/2001/XMLSchema-instance" xsi:schemaLocation="http://www.garmin.com/xmlschemas/TrainingCenterDatabase/v2 http://www.garmin.com/xmlschemas/TrainingCenterDatabasev2.xsd">
    <Activities>
        <Activity Sport="Walking">
            <Id>2022-03-03T11:40:00.000Z</Id>
            <Lap StartTime="2022-03-03T11:40:00.000Z">
                <Track>
                    <Trackpoint>
                        <DistanceMeters>0.0</DistanceMeters>
                        <Time>2022-03-03T11:40:00.000Z</Time>
                    </Trackpoint>
                    <Trackpoint>
                        <DistanceMeters>27.0</DistanceMeters>
                        <Time>2022-03-03T11:40:39.271Z</Time>
                    </Trackpoint>
                    <Trackpoint>
                        <DistanceMeters>27.0</DistanceMeters>
                        <Time>2022-03-03T11:41:00.000Z</Time>
                    </Trackpoint>
                    <Trackpoint>
                        <DistanceMeters>51.0</DistanceMeters>
                        <Time>2022-03-03T11:42:00.000Z</Time>
                    </Trackpoint>
                </Track>
                <DistanceMeters>51.0</DistanceMeters>
                <TotalTimeSeconds>120.0</TotalTimeSeconds>
                <Calories>6.163253307342529</Calories>
                <Intensity>Active</Intensity>
                <TriggerMethod>Manual</TriggerMethod>
            </Lap>
        </Activity>
        <Activity Sport="Walking">
            <Id>2022-03-03T11:41:42.737Z</Id>
            <Lap StartTime="2022-03-03T11:41:42.737Z">
                <Track>
                    <Trackpoint>
                        <DistanceMeters>0.0</DistanceMeters>
                        <Time>2022-03-03T11:41:42.737Z</Time>
                    </Trackpoint>
                    <Trackpoint>
                        <DistanceMeters>0.0</DistanceMeters>
                        <Time>2022-03-03T11:45:00.000Z</Time>
                    </Trackpoint>
                    <Trackpoint>
                        <DistanceMeters>69.0</DistanceMeters>
                        <Time>2022-03-03T11:45:10.748Z</Time>
                    </Trackpoint>
                    <Trackpoint>
                        <DistanceMeters>69.0</DistanceMeters>
                        <Time>2022-03-03T11:46:00.000Z</Time>
                    </Trackpoint>
                    <Trackpoint>
                        <DistanceMeters>141.0</DistanceMeters>
                        <Time>2022-03-03T11:47:00.000Z</Time>
                    </Trackpoint>
                </Track>
                <DistanceMeters>141.0</DistanceMeters>
                <TotalTimeSeconds>317.263</TotalTimeSeconds>
                <Calories>13.893709182739258</Calories>
                <Intensity>Active</Intensity>
                <TriggerMethod>Manual</TriggerMethod>
            </Lap>
        </Activity>
        <Activity Sport="Walking">
            <Id>2022-03-03T11:46:00.000Z</Id>
            <Lap StartTime="2022-03-03T11:46:00.000Z">
                <Track>
                    <Trackpoint>
                        <DistanceMeters>0.0</DistanceMeters>
                        <Time>2022-03-03T11:46:00.000Z</Time>
                    </Trackpoint>
                    <Trackpoint>
                        <DistanceMeters>72.0</DistanceMeters>
                        <Time>2022-03-03T11:46:49.547Z</Time>
                    </Trackpoint>
                    <Trackpoint>
                        <DistanceMeters>72.0</DistanceMeters>
                        <Time>2022-03-03T11:47:00.000Z</Time>
                    </Trackpoint>
                    <Trackpoint>
                        <DistanceMeters>147.0</DistanceMeters>
                        <Time>2022-03-03T11:48:00.000Z</Time>
                    </Trackpoint>
                </Track>
                <DistanceMeters>147.0</DistanceMeters>
                <TotalTimeSeconds>120.0</TotalTimeSeconds>
                <Calories>6.047691345214844</Calories>
                <Intensity>Active</Intensity>
                <TriggerMethod>Manual</TriggerMethod>
            </Lap>
        </Activity>
        <Activity Sport="Walking">
            <Id>2022-03-03T11:47:00.000Z</Id>
            <Lap StartTime="2022-03-03T11:47:00.000Z">
                <Track>
                    <Trackpoint>
                        <DistanceMeters>0.0</DistanceMeters>
                        <Time>2022-03-03T11:47:00.000Z</Time>
                    </Trackpoint>
                    <Trackpoint>
                        <DistanceMeters>75.0</DistanceMeters>
                        <Time>2022-03-03T11:47:51.823Z</Time>
                    </Trackpoint>
                    <Trackpoint>
                        <DistanceMeters>75.0</DistanceMeters>
                        <Time>2022-03-03T11:48:00.000Z</Time>
                    </Trackpoint>
                </Track>
                <DistanceMeters>75.0</DistanceMeters>
                <TotalTimeSeconds>60.0</TotalTimeSeconds>
                <Calories>0.730793833732605</Calories>
                <Intensity>Active</Intensity>
                <TriggerMethod>Manual</TriggerMethod>
            </Lap>
        </Activity>
        <Activity Sport="Walking">
            <Id>2022-03-03T12:02:00.000Z</Id>
            <Lap StartTime="2022-03-03T12:02:00.000Z">
                <Track>
                    <Trackpoint>
                        <DistanceMeters>0.0</DistanceMeters>
                        <Time>2022-03-03T12:02:00.000Z</Time>
                    </Trackpoint>
                    <Trackpoint>
                        <DistanceMeters>66.0</DistanceMeters>
                        <Time>2022-03-03T12:02:21.213Z</Time>
                    </Trackpoint>
                    <Trackpoint>
                        <DistanceMeters>66.0</DistanceMeters>
                        <Time>2022-03-03T12:03:00.000Z</Time>
                    </Trackpoint>
                    <Trackpoint>
                        <DistanceMeters>87.0</DistanceMeters>
                        <Time>2022-03-03T12:04:00.000Z</Time>
                    </Trackpoint>
                    <Trackpoint>
                        <DistanceMeters>139.0</DistanceMeters>
                        <Time>2022-03-03T12:05:00.000Z</Time>
                    </Trackpoint>
                    <Trackpoint>
                        <DistanceMeters>190.0</DistanceMeters>
                        <Time>2022-03-03T12:06:00.000Z</Time>
                    </Trackpoint>
                    <Trackpoint>
                        <DistanceMeters>262.0</DistanceMeters>
                        <Time>2022-03-03T12:07:00.000Z</Time>
                    </Trackpoint>
                    <Trackpoint>
                        <DistanceMeters>335.0</DistanceMeters>
                        <Time>2022-03-03T12:08:00.000Z</Time>
                    </Trackpoint>
                    <Trackpoint>
                        <DistanceMeters>386.0</DistanceMeters>
                        <Time>2022-03-03T12:09:00.000Z</Time>
                    </Trackpoint>
                    <Trackpoint>
                        <DistanceMeters>466.0</DistanceMeters>
                        <Time>2022-03-03T12:10:00.000Z</Time>
                    </Trackpoint>
                    <Trackpoint>
                        <DistanceMeters>549.0</DistanceMeters>
                        <Time>2022-03-03T12:11:00.000Z</Time>
                    </Trackpoint>
                    <Trackpoint>
                        <DistanceMeters>607.0</DistanceMeters>
                        <Time>2022-03-03T12:12:00.000Z</Time>
                    </Trackpoint>
                </Track>
                <DistanceMeters>607.0</DistanceMeters>
                <TotalTimeSeconds>600.0</TotalTimeSeconds>
                <Calories>53.80907440185547</Calories>
                <Intensity>Active</Intensity>
                <TriggerMethod>Manual</TriggerMethod>
            </Lap>
        </Activity>
        <Activity Sport="Walking">
            <Id>2022-03-03T12:11:00.000Z</Id>
            <Lap StartTime="2022-03-03T12:11:00.000Z">
                <Track>
                    <Trackpoint>
                        <DistanceMeters>0.0</DistanceMeters>
                        <Time>2022-03-03T12:11:00.000Z</Time>
                    </Trackpoint>
                    <Trackpoint>
                        <DistanceMeters>58.0</DistanceMeters>
                        <Time>2022-03-03T12:11:35.311Z</Time>
                    </Trackpoint>
                    <Trackpoint>
                        <DistanceMeters>58.0</DistanceMeters>
                        <Time>2022-03-03T12:12:00.000Z</Time>
                    </Trackpoint>
                    <Trackpoint>
                        <DistanceMeters>65.35148906707764</DistanceMeters>
                        <Time>2022-03-03T12:12:10.108Z</Time>
                    </Trackpoint>
                </Track>
                <DistanceMeters>65.35148906707764</DistanceMeters>
                <TotalTimeSeconds>70.108337503</TotalTimeSeconds>
                <Calories>3.3792080879211426</Calories>
                <Intensity>Active</Intensity>
                <TriggerMethod>Manual</TriggerMethod>
            </Lap>
        </Activity>
        <Activity Sport="Walking">
            <Id>2022-03-03T12:18:00.000Z</Id>
            <Lap StartTime="2022-03-03T12:18:00.000Z">
                <Track>
                    <Trackpoint>
                        <DistanceMeters>0.0</DistanceMeters>
                        <Time>2022-03-03T12:18:00.000Z</Time>
                    </Trackpoint>
                    <Trackpoint>
                        <DistanceMeters>55.0</DistanceMeters>
                        <Time>2022-03-03T12:18:01.669Z</Time>
                    </Trackpoint>
                    <Trackpoint>
                        <DistanceMeters>55.0</DistanceMeters>
                        <Time>2022-03-03T12:19:00.000Z</Time>
                    </Trackpoint>
                </Track>
                <DistanceMeters>55.0</DistanceMeters>
                <TotalTimeSeconds>60.0</TotalTimeSeconds>
                <Calories>4.500031471252441</Calories>
                <Intensity>Active</Intensity>
                <TriggerMethod>Manual</TriggerMethod>
            </Lap>
        </Activity>
    </Activities>
    <Author xsi:type="Application_t">
        <Name>Google Fit</Name>
        <Build>
            <Version>
                <VersionMajor>0</VersionMajor>
                <VersionMinor>0</VersionMinor>
                <BuildMajor>0</BuildMajor>
                <BuildMinor>0</BuildMinor>
            </Version>
        </Build>
        <LangID>en</LangID>
        <PartNumber>000-00000-00</PartNumber>
    </Author>
</TrainingCenterDatabase>
