<?xml version="1.0" encoding="UTF-8"?>
<TrainingCenterDatabase
    xmlns="http://www.garmin.com/xmlschemas/TrainingCenterDatabase/v2"
    xmlns:ns2="http://www.garmin.com/xmlschemas/UserProfile/v2"
    xmlns:ns3="http://www.garmin.com/xmlschemas/ActivityExtension/v2"
    xmlns:ns4="http://www.garmin.com/xmlschemas/ProfileExtension/v1"
    xmlns:ns5="http://www.garmin.com/xmlschemas/ActivityGoals/v1"
    xmlns:xsi="http://www.w3.org/2001/XMLSchema-instance" xsi:schemaLocation="http://www.garmin.com/xmlschemas/TrainingCenterDatabase/v2 http://www.garmin.com/xmlschemas/TrainingCenterDatabasev2.xsd">
    <Activities>
        <Activity Sport="Walking">
            <Id>2022-02-07T11:36:00.862Z</Id>
            <Lap StartTime="2022-02-07T11:36:00.862Z">
                <Track>
                    <Trackpoint>
                        <DistanceMeters>0.0</DistanceMeters>
                        <Time>2022-02-07T11:36:00.862Z</Time>
                    </Trackpoint>
                    <Trackpoint>
                        <DistanceMeters>50.892269134521484</DistanceMeters>
                        <Time>2022-02-07T11:37:11.981Z</Time>
                    </Trackpoint>
                    <Trackpoint>
                        <DistanceMeters>50.892269134521484</DistanceMeters>
                        <Time>2022-02-07T11:37:51.082Z</Time>
                    </Trackpoint>
                </Track>
                <DistanceMeters>50.892269134521484</DistanceMeters>
                <TotalTimeSeconds>110.220000005</TotalTimeSeconds>
                <Calories>3.2387523651123047</Calories>
                <Intensity>Active</Intensity>
                <TriggerMethod>Manual</TriggerMethod>
            </Lap>
        </Activity>
        <Activity Sport="Walking">
            <Id>2022-02-07T11:47:34.402Z</Id>
            <Lap StartTime="2022-02-07T11:47:34.402Z">
                <Track>
                    <Trackpoint>
                        <DistanceMeters>0.0</DistanceMeters>
                        <Time>2022-02-07T11:47:34.402Z</Time>
                    </Trackpoint>
                    <Trackpoint>
                        <DistanceMeters>17.616554260253906</DistanceMeters>
                        <Time>2022-02-07T11:47:59.344Z</Time>
                    </Trackpoint>
                    <Trackpoint>
                        <DistanceMeters>17.616554260253906</DistanceMeters>
                        <Time>2022-02-07T11:48:18.522Z</Time>
                    </Trackpoint>
                    <Trackpoint>
                        <DistanceMeters>52.19719696044922</DistanceMeters>
                        <Time>2022-02-07T11:49:06.962Z</Time>
                    </Trackpoint>
                    <Trackpoint>
                        <DistanceMeters>64.59403133392334</DistanceMeters>
                        <Time>2022-02-07T11:50:04.855Z</Time>
                    </Trackpoint>
                </Track>
                <DistanceMeters>64.59403133392334</DistanceMeters>
                <TotalTimeSeconds>150.452451988</TotalTimeSeconds>
                <Calories>12.188512802124023</Calories>
                <Intensity>Active</Intensity>
                <TriggerMethod>Manual</TriggerMethod>
            </Lap>
        </Activity>
    </Activities>
    <Author xsi:type="Application_t">
        <Name>Google Fit</Name>
        <Build>
            <Version>
                <VersionMajor>0</VersionMajor>
                <VersionMinor>0</VersionMinor>
                <BuildMajor>0</BuildMajor>
                <BuildMinor>0</BuildMinor>
            </Version>
        </Build>
        <LangID>en</LangID>
        <PartNumber>000-00000-00</PartNumber>
    </Author>
</TrainingCenterDatabase>
