<?xml version="1.0" encoding="UTF-8"?>
<TrainingCenterDatabase
    xmlns="http://www.garmin.com/xmlschemas/TrainingCenterDatabase/v2"
    xmlns:ns2="http://www.garmin.com/xmlschemas/UserProfile/v2"
    xmlns:ns3="http://www.garmin.com/xmlschemas/ActivityExtension/v2"
    xmlns:ns4="http://www.garmin.com/xmlschemas/ProfileExtension/v1"
    xmlns:ns5="http://www.garmin.com/xmlschemas/ActivityGoals/v1"
    xmlns:xsi="http://www.w3.org/2001/XMLSchema-instance" xsi:schemaLocation="http://www.garmin.com/xmlschemas/TrainingCenterDatabase/v2 http://www.garmin.com/xmlschemas/TrainingCenterDatabasev2.xsd">
    <Activities>
        <Activity Sport="Walking">
            <Id>2022-11-18T10:54:20.919Z</Id>
            <Lap StartTime="2022-11-18T10:54:20.919Z">
                <Track>
                    <Trackpoint>
                        <DistanceMeters>0.0</DistanceMeters>
                        <Time>2022-11-18T10:54:20.919Z</Time>
                    </Trackpoint>
                    <Trackpoint>
                        <DistanceMeters>0.0</DistanceMeters>
                        <Time>2022-11-18T10:54:31.912Z</Time>
                    </Trackpoint>
                    <Trackpoint>
                        <DistanceMeters>13.701764970046877</DistanceMeters>
                        <Time>2022-11-18T10:55:35.472Z</Time>
                    </Trackpoint>
                    <Trackpoint>
                        <DistanceMeters>78.07241831399803</DistanceMeters>
                        <Time>2022-11-18T10:56:33.072Z</Time>
                    </Trackpoint>
                    <Trackpoint>
                        <DistanceMeters>110.63750212501711</DistanceMeters>
                        <Time>2022-11-18T10:57:02.112Z</Time>
                    </Trackpoint>
                    <Trackpoint>
                        <DistanceMeters>187.6283719567091</DistanceMeters>
                        <Time>2022-11-18T10:58:53.312Z</Time>
                    </Trackpoint>
                    <Trackpoint>
                        <DistanceMeters>217.64176189109747</DistanceMeters>
                        <Time>2022-11-18T10:59:50.912Z</Time>
                    </Trackpoint>
                    <Trackpoint>
                        <DistanceMeters>267.8815667812694</DistanceMeters>
                        <Time>2022-11-18T11:00:54.472Z</Time>
                    </Trackpoint>
                    <Trackpoint>
                        <DistanceMeters>340.22204781502205</DistanceMeters>
                        <Time>2022-11-18T11:01:54.232Z</Time>
                    </Trackpoint>
                    <Trackpoint>
                        <DistanceMeters>416.8630582915593</DistanceMeters>
                        <Time>2022-11-18T11:02:55.552Z</Time>
                    </Trackpoint>
                    <Trackpoint>
                        <DistanceMeters>469.3357941234337</DistanceMeters>
                        <Time>2022-11-18T11:03:49.532Z</Time>
                    </Trackpoint>
                    <Trackpoint>
                        <DistanceMeters>523.4903890050475</DistanceMeters>
                        <Time>2022-11-18T11:05:10.692Z</Time>
                    </Trackpoint>
                    <Trackpoint>
                        <DistanceMeters>556.4368788061823</DistanceMeters>
                        <Time>2022-11-18T11:05:35.272Z</Time>
                    </Trackpoint>
                    <Trackpoint>
                        <DistanceMeters>608.6461284026143</DistanceMeters>
                        <Time>2022-11-18T11:06:15.432Z</Time>
                    </Trackpoint>
                    <Trackpoint>
                        <DistanceMeters>636.246093177778</DistanceMeters>
                        <Time>2022-11-18T11:06:36.552Z</Time>
                    </Trackpoint>
                    <Trackpoint>
                        <DistanceMeters>688.6955594628384</DistanceMeters>
                        <Time>2022-11-18T11:07:16.312Z</Time>
                    </Trackpoint>
                    <Trackpoint>
                        <DistanceMeters>713.9586472994459</DistanceMeters>
                        <Time>2022-11-18T11:08:17.112Z</Time>
                    </Trackpoint>
                    <Trackpoint>
                        <DistanceMeters>778.9105653988912</DistanceMeters>
                        <Time>2022-11-18T11:09:09.672Z</Time>
                    </Trackpoint>
                    <Trackpoint>
                        <DistanceMeters>799.7894453532483</DistanceMeters>
                        <Time>2022-11-18T11:11:43.832Z</Time>
                    </Trackpoint>
                    <Trackpoint>
                        <DistanceMeters>833.065160280505</DistanceMeters>
                        <Time>2022-11-18T11:15:00.928Z</Time>
                    </Trackpoint>
                </Track>
                <DistanceMeters>833.065160280505</DistanceMeters>
                <TotalTimeSeconds>1240.009</TotalTimeSeconds>
                <Calories>126.96314372222221</Calories>
                <Intensity>Active</Intensity>
                <TriggerMethod>Manual</TriggerMethod>
            </Lap>
        </Activity>
        <Activity Sport="Walking">
            <Id>2022-11-18T11:21:45.072Z</Id>
            <Lap StartTime="2022-11-18T11:21:45.072Z">
                <Track>
                    <Trackpoint>
                        <DistanceMeters>0.0</DistanceMeters>
                        <Time>2022-11-18T11:21:45.072Z</Time>
                    </Trackpoint>
                    <Trackpoint>
                        <DistanceMeters>27.403529940093755</DistanceMeters>
                        <Time>2022-11-18T11:22:21.289Z</Time>
                    </Trackpoint>
                    <Trackpoint>
                        <DistanceMeters>27.403529940093755</DistanceMeters>
                        <Time>2022-11-18T11:23:09.072Z</Time>
                    </Trackpoint>
                    <Trackpoint>
                        <DistanceMeters>41.10529491014063</DistanceMeters>
                        <Time>2022-11-18T11:23:34.792Z</Time>
                    </Trackpoint>
                    <Trackpoint>
                        <DistanceMeters>63.2891048616451</DistanceMeters>
                        <Time>2022-11-18T11:24:20.272Z</Time>
                    </Trackpoint>
                    <Trackpoint>
                        <DistanceMeters>75.68593983454466</DistanceMeters>
                        <Time>2022-11-18T11:24:39.832Z</Time>
                    </Trackpoint>
                    <Trackpoint>
                        <DistanceMeters>94.60742479318083</DistanceMeters>
                        <Time>2022-11-18T11:26:13.192Z</Time>
                    </Trackpoint>
                    <Trackpoint>
                        <DistanceMeters>122.66341973184824</DistanceMeters>
                        <Time>2022-11-18T11:29:25.312Z</Time>
                    </Trackpoint>
                    <Trackpoint>
                        <DistanceMeters>129.18806971758485</DistanceMeters>
                        <Time>2022-11-18T11:31:39.912Z</Time>
                    </Trackpoint>
                </Track>
                <DistanceMeters>129.18806971758485</DistanceMeters>
                <TotalTimeSeconds>594.839778242</TotalTimeSeconds>
                <Calories>57.19678827777778</Calories>
                <Intensity>Active</Intensity>
                <TriggerMethod>Manual</TriggerMethod>
            </Lap>
        </Activity>
        <Activity Sport="Walking">
            <Id>2022-11-18T11:43:03.552Z</Id>
            <Lap StartTime="2022-11-18T11:43:03.552Z">
                <Track>
                    <Trackpoint>
                        <DistanceMeters>0.0</DistanceMeters>
                        <Time>2022-11-18T11:43:03.552Z</Time>
                    </Trackpoint>
                    <Trackpoint>
                        <DistanceMeters>18.2690199600625</DistanceMeters>
                        <Time>2022-11-18T11:43:38.397Z</Time>
                    </Trackpoint>
                    <Trackpoint>
                        <DistanceMeters>18.2690199600625</DistanceMeters>
                        <Time>2022-11-18T11:44:03.552Z</Time>
                    </Trackpoint>
                    <Trackpoint>
                        <DistanceMeters>71.16158721669399</DistanceMeters>
                        <Time>2022-11-18T11:44:50.032Z</Time>
                    </Trackpoint>
                    <Trackpoint>
                        <DistanceMeters>87.44964414123292</DistanceMeters>
                        <Time>2022-11-18T11:45:03.552Z</Time>
                    </Trackpoint>
                    <Trackpoint>
                        <DistanceMeters>141.84500156964927</DistanceMeters>
                        <Time>2022-11-18T11:45:51.032Z</Time>
                    </Trackpoint>
                    <Trackpoint>
                        <DistanceMeters>157.20319174245782</DistanceMeters>
                        <Time>2022-11-18T11:46:04.392Z</Time>
                    </Trackpoint>
                    <Trackpoint>
                        <DistanceMeters>198.45605131780874</DistanceMeters>
                        <Time>2022-11-18T11:46:40.250Z</Time>
                    </Trackpoint>
                </Track>
                <DistanceMeters>198.45605131780874</DistanceMeters>
                <TotalTimeSeconds>216.697780093</TotalTimeSeconds>
                <Calories>18.619726611111112</Calories>
                <Intensity>Active</Intensity>
                <TriggerMethod>Manual</TriggerMethod>
            </Lap>
        </Activity>
        <Activity Sport="Walking">
            <Id>2022-11-18T11:47:40.784Z</Id>
            <Lap StartTime="2022-11-18T11:47:40.784Z">
                <Track>
                    <Trackpoint>
                        <DistanceMeters>0.0</DistanceMeters>
                        <Time>2022-11-18T11:47:40.784Z</Time>
                    </Trackpoint>
                    <Trackpoint>
                        <DistanceMeters>14.189268468891987</DistanceMeters>
                        <Time>2022-11-18T11:48:05.112Z</Time>
                    </Trackpoint>
                    <Trackpoint>
                        <DistanceMeters>82.65325537758153</DistanceMeters>
                        <Time>2022-11-18T11:49:06.552Z</Time>
                    </Trackpoint>
                    <Trackpoint>
                        <DistanceMeters>150.02459913741896</DistanceMeters>
                        <Time>2022-11-18T11:50:06.152Z</Time>
                    </Trackpoint>
                    <Trackpoint>
                        <DistanceMeters>217.78713769123414</DistanceMeters>
                        <Time>2022-11-18T11:51:06.992Z</Time>
                    </Trackpoint>
                    <Trackpoint>
                        <DistanceMeters>283.86210300093194</DistanceMeters>
                        <Time>2022-11-18T11:52:07.232Z</Time>
                    </Trackpoint>
                    <Trackpoint>
                        <DistanceMeters>326.3348229528681</DistanceMeters>
                        <Time>2022-11-18T11:52:48.752Z</Time>
                    </Trackpoint>
                    <Trackpoint>
                        <DistanceMeters>392.23378780880785</DistanceMeters>
                        <Time>2022-11-18T11:54:20.832Z</Time>
                    </Trackpoint>
                    <Trackpoint>
                        <DistanceMeters>423.71359462446526</DistanceMeters>
                        <Time>2022-11-18T11:54:46.112Z</Time>
                    </Trackpoint>
                    <Trackpoint>
                        <DistanceMeters>462.20902954031123</DistanceMeters>
                        <Time>2022-11-18T11:55:45.952Z</Time>
                    </Trackpoint>
                    <Trackpoint>
                        <DistanceMeters>473.6298776816188</DistanceMeters>
                        <Time>2022-11-18T11:55:55.192Z</Time>
                    </Trackpoint>
                    <Trackpoint>
                        <DistanceMeters>506.6967665339184</DistanceMeters>
                        <Time>2022-11-18T11:56:23.232Z</Time>
                    </Trackpoint>
                    <Trackpoint>
                        <DistanceMeters>554.418077769183</DistanceMeters>
                        <Time>2022-11-18T11:57:02.112Z</Time>
                    </Trackpoint>
                    <Trackpoint>
                        <DistanceMeters>576.6018877206875</DistanceMeters>
                        <Time>2022-11-18T11:57:26.752Z</Time>
                    </Trackpoint>
                    <Trackpoint>
                        <DistanceMeters>614.947272861296</DistanceMeters>
                        <Time>2022-11-18T11:58:04.512Z</Time>
                    </Trackpoint>
                    <Trackpoint>
                        <DistanceMeters>642.0165636198723</DistanceMeters>
                        <Time>2022-11-18T11:58:28.512Z</Time>
                    </Trackpoint>
                    <Trackpoint>
                        <DistanceMeters>681.8596939819081</DistanceMeters>
                        <Time>2022-11-18T11:59:05.072Z</Time>
                    </Trackpoint>
                    <Trackpoint>
                        <DistanceMeters>708.699126165791</DistanceMeters>
                        <Time>2022-11-18T11:59:29.552Z</Time>
                    </Trackpoint>
                    <Trackpoint>
                        <DistanceMeters>741.9924735030784</DistanceMeters>
                        <Time>2022-11-18T12:00:05.932Z</Time>
                    </Trackpoint>
                    <Trackpoint>
                        <DistanceMeters>764.8287484531565</DistanceMeters>
                        <Time>2022-11-18T12:00:32.552Z</Time>
                    </Trackpoint>
                    <Trackpoint>
                        <DistanceMeters>787.6276216401166</DistanceMeters>
                        <Time>2022-11-18T12:08:37.292Z</Time>
                    </Trackpoint>
                    <Trackpoint>
                        <DistanceMeters>831.3427765445518</DistanceMeters>
                        <Time>2022-11-18T12:10:51.292Z</Time>
                    </Trackpoint>
                    <Trackpoint>
                        <DistanceMeters>834.0819733818605</DistanceMeters>
                        <Time>2022-11-18T12:10:53.832Z</Time>
                    </Trackpoint>
                    <Trackpoint>
                        <DistanceMeters>907.6330027974384</DistanceMeters>
                        <Time>2022-11-18T12:11:55.152Z</Time>
                    </Trackpoint>
                    <Trackpoint>
                        <DistanceMeters>976.3684158855385</DistanceMeters>
                        <Time>2022-11-18T12:12:56.032Z</Time>
                    </Trackpoint>
                    <Trackpoint>
                        <DistanceMeters>1048.7974798137725</DistanceMeters>
                        <Time>2022-11-18T12:13:57.552Z</Time>
                    </Trackpoint>
                    <Trackpoint>
                        <DistanceMeters>1100.3422147010917</DistanceMeters>
                        <Time>2022-11-18T12:14:58.112Z</Time>
                    </Trackpoint>
                    <Trackpoint>
                        <DistanceMeters>1161.327867270112</DistanceMeters>
                        <Time>2022-11-18T12:15:58.952Z</Time>
                    </Trackpoint>
                    <Trackpoint>
                        <DistanceMeters>1229.032923958627</DistanceMeters>
                        <Time>2022-11-18T12:16:59.912Z</Time>
                    </Trackpoint>
                    <Trackpoint>
                        <DistanceMeters>1282.5350538416671</DistanceMeters>
                        <Time>2022-11-18T12:18:00.232Z</Time>
                    </Trackpoint>
                    <Trackpoint>
                        <DistanceMeters>1338.7302220155796</DistanceMeters>
                        <Time>2022-11-18T12:19:01.432Z</Time>
                    </Trackpoint>
                    <Trackpoint>
                        <DistanceMeters>1411.9021040581965</DistanceMeters>
                        <Time>2022-11-18T12:20:01.552Z</Time>
                    </Trackpoint>
                    <Trackpoint>
                        <DistanceMeters>1472.5749851967546</DistanceMeters>
                        <Time>2022-11-18T12:21:00.872Z</Time>
                    </Trackpoint>
                    <Trackpoint>
                        <DistanceMeters>1511.7228851111743</DistanceMeters>
                        <Time>2022-11-18T12:22:03.512Z</Time>
                    </Trackpoint>
                    <Trackpoint>
                        <DistanceMeters>1585.488147859893</DistanceMeters>
                        <Time>2022-11-18T12:23:04.432Z</Time>
                    </Trackpoint>
                    <Trackpoint>
                        <DistanceMeters>1656.8703135138555</DistanceMeters>
                        <Time>2022-11-18T12:24:04.072Z</Time>
                    </Trackpoint>
                    <Trackpoint>
                        <DistanceMeters>1732.675458566947</DistanceMeters>
                        <Time>2022-11-18T12:25:05.032Z</Time>
                    </Trackpoint>
                    <Trackpoint>
                        <DistanceMeters>1812.6041631565536</DistanceMeters>
                        <Time>2022-11-18T12:26:06.112Z</Time>
                    </Trackpoint>
                    <Trackpoint>
                        <DistanceMeters>1897.0015698528955</DistanceMeters>
                        <Time>2022-11-18T12:27:06.912Z</Time>
                    </Trackpoint>
                    <Trackpoint>
                        <DistanceMeters>1977.8470139485478</DistanceMeters>
                        <Time>2022-11-18T12:28:08.232Z</Time>
                    </Trackpoint>
                    <Trackpoint>
                        <DistanceMeters>2059.109238370309</DistanceMeters>
                        <Time>2022-11-18T12:29:08.872Z</Time>
                    </Trackpoint>
                    <Trackpoint>
                        <DistanceMeters>2121.0999323936235</DistanceMeters>
                        <Time>2022-11-18T12:29:57.472Z</Time>
                    </Trackpoint>
                    <Trackpoint>
                        <DistanceMeters>2167.4249472923534</DistanceMeters>
                        <Time>2022-11-18T12:32:00.937Z</Time>
                    </Trackpoint>
                </Track>
                <DistanceMeters>2167.4249472923534</DistanceMeters>
                <TotalTimeSeconds>2660.153</TotalTimeSeconds>
                <Calories>272.37010994444444</Calories>
                <Intensity>Active</Intensity>
                <TriggerMethod>Manual</TriggerMethod>
            </Lap>
        </Activity>
    </Activities>
    <Author xsi:type="Application_t">
        <Name>Google Fit</Name>
        <Build>
            <Version>
                <VersionMajor>0</VersionMajor>
                <VersionMinor>0</VersionMinor>
                <BuildMajor>0</BuildMajor>
                <BuildMinor>0</BuildMinor>
            </Version>
        </Build>
        <LangID>en</LangID>
        <PartNumber>000-00000-00</PartNumber>
    </Author>
</TrainingCenterDatabase>
