<?xml version="1.0" encoding="UTF-8"?>
<TrainingCenterDatabase
    xmlns="http://www.garmin.com/xmlschemas/TrainingCenterDatabase/v2"
    xmlns:ns2="http://www.garmin.com/xmlschemas/UserProfile/v2"
    xmlns:ns3="http://www.garmin.com/xmlschemas/ActivityExtension/v2"
    xmlns:ns4="http://www.garmin.com/xmlschemas/ProfileExtension/v1"
    xmlns:ns5="http://www.garmin.com/xmlschemas/ActivityGoals/v1"
    xmlns:xsi="http://www.w3.org/2001/XMLSchema-instance" xsi:schemaLocation="http://www.garmin.com/xmlschemas/TrainingCenterDatabase/v2 http://www.garmin.com/xmlschemas/TrainingCenterDatabasev2.xsd">
    <Activities>
        <Activity Sport="Walking">
            <Id>2022-02-27T04:56:44.844Z</Id>
            <Lap StartTime="2022-02-27T04:56:44.844Z">
                <Track>
                    <Trackpoint>
                        <DistanceMeters>0.0</DistanceMeters>
                        <Time>2022-02-27T04:56:44.844Z</Time>
                    </Trackpoint>
                    <Trackpoint>
                        <DistanceMeters>0.0</DistanceMeters>
                        <Time>2022-02-27T05:42:00.000Z</Time>
                    </Trackpoint>
                    <Trackpoint>
                        <DistanceMeters>46.0</DistanceMeters>
                        <Time>2022-02-27T05:42:21.561Z</Time>
                    </Trackpoint>
                    <Trackpoint>
                        <DistanceMeters>46.0</DistanceMeters>
                        <Time>2022-02-27T05:43:00.000Z</Time>
                    </Trackpoint>
                </Track>
                <DistanceMeters>46.0</DistanceMeters>
                <TotalTimeSeconds>2775.156</TotalTimeSeconds>
                <Calories>59.35316324234009</Calories>
                <Intensity>Active</Intensity>
                <TriggerMethod>Manual</TriggerMethod>
            </Lap>
        </Activity>
        <Activity Sport="Walking">
            <Id>2022-02-27T05:42:00.000Z</Id>
            <Lap StartTime="2022-02-27T05:42:00.000Z">
                <Track>
                    <Trackpoint>
                        <DistanceMeters>0.0</DistanceMeters>
                        <Time>2022-02-27T05:42:00.000Z</Time>
                    </Trackpoint>
                    <Trackpoint>
                        <DistanceMeters>46.0</DistanceMeters>
                        <Time>2022-02-27T05:42:50.287Z</Time>
                    </Trackpoint>
                    <Trackpoint>
                        <DistanceMeters>46.0</DistanceMeters>
                        <Time>2022-02-27T05:43:00.000Z</Time>
                    </Trackpoint>
                    <Trackpoint>
                        <DistanceMeters>69.0</DistanceMeters>
                        <Time>2022-02-27T05:44:00.000Z</Time>
                    </Trackpoint>
                    <Trackpoint>
                        <DistanceMeters>102.0</DistanceMeters>
                        <Time>2022-02-27T05:45:00.000Z</Time>
                    </Trackpoint>
                    <Trackpoint>
                        <DistanceMeters>132.0</DistanceMeters>
                        <Time>2022-02-27T05:46:00.000Z</Time>
                    </Trackpoint>
                    <Trackpoint>
                        <DistanceMeters>171.0</DistanceMeters>
                        <Time>2022-02-27T05:47:00.000Z</Time>
                    </Trackpoint>
                    <Trackpoint>
                        <DistanceMeters>195.0</DistanceMeters>
                        <Time>2022-02-27T05:48:00.000Z</Time>
                    </Trackpoint>
                    <Trackpoint>
                        <DistanceMeters>251.0</DistanceMeters>
                        <Time>2022-02-27T05:49:00.000Z</Time>
                    </Trackpoint>
                    <Trackpoint>
                        <DistanceMeters>328.0</DistanceMeters>
                        <Time>2022-02-27T05:50:00.000Z</Time>
                    </Trackpoint>
                    <Trackpoint>
                        <DistanceMeters>335.09812450408936</DistanceMeters>
                        <Time>2022-02-27T05:50:28.641Z</Time>
                    </Trackpoint>
                    <Trackpoint>
                        <DistanceMeters>341.1476926803589</DistanceMeters>
                        <Time>2022-02-27T05:50:32.721Z</Time>
                    </Trackpoint>
                    <Trackpoint>
                        <DistanceMeters>354.4584741592407</DistanceMeters>
                        <Time>2022-02-27T05:51:00.000Z</Time>
                    </Trackpoint>
                    <Trackpoint>
                        <DistanceMeters>444.4584741592407</DistanceMeters>
                        <Time>2022-02-27T05:52:00.000Z</Time>
                    </Trackpoint>
                    <Trackpoint>
                        <DistanceMeters>458.4584741592407</DistanceMeters>
                        <Time>2022-02-27T05:53:00.000Z</Time>
                    </Trackpoint>
                    <Trackpoint>
                        <DistanceMeters>509.4584741592407</DistanceMeters>
                        <Time>2022-02-27T05:54:00.000Z</Time>
                    </Trackpoint>
                    <Trackpoint>
                        <DistanceMeters>562.4584741592407</DistanceMeters>
                        <Time>2022-02-27T05:55:00.000Z</Time>
                    </Trackpoint>
                    <Trackpoint>
                        <DistanceMeters>627.4584741592407</DistanceMeters>
                        <Time>2022-02-27T05:56:00.000Z</Time>
                    </Trackpoint>
                    <Trackpoint>
                        <DistanceMeters>674.4584741592407</DistanceMeters>
                        <Time>2022-02-27T05:57:00.000Z</Time>
                    </Trackpoint>
                    <Trackpoint>
                        <DistanceMeters>719.4584741592407</DistanceMeters>
                        <Time>2022-02-27T05:58:00.000Z</Time>
                    </Trackpoint>
                    <Trackpoint>
                        <DistanceMeters>783.4584741592407</DistanceMeters>
                        <Time>2022-02-27T05:59:00.000Z</Time>
                    </Trackpoint>
                    <Trackpoint>
                        <DistanceMeters>851.4584741592407</DistanceMeters>
                        <Time>2022-02-27T06:00:00.000Z</Time>
                    </Trackpoint>
                    <Trackpoint>
                        <DistanceMeters>891.4584741592407</DistanceMeters>
                        <Time>2022-02-27T06:01:00.000Z</Time>
                    </Trackpoint>
                    <Trackpoint>
                        <DistanceMeters>901.4584741592407</DistanceMeters>
                        <Time>2022-02-27T06:02:00.000Z</Time>
                    </Trackpoint>
                    <Trackpoint>
                        <DistanceMeters>933.4584741592407</DistanceMeters>
                        <Time>2022-02-27T06:03:00.000Z</Time>
                    </Trackpoint>
                    <Trackpoint>
                        <DistanceMeters>948.4584741592407</DistanceMeters>
                        <Time>2022-02-27T06:04:00.000Z</Time>
                    </Trackpoint>
                    <Trackpoint>
                        <DistanceMeters>976.4584741592407</DistanceMeters>
                        <Time>2022-02-27T06:05:00.000Z</Time>
                    </Trackpoint>
                    <Trackpoint>
                        <DistanceMeters>1017.4584741592407</DistanceMeters>
                        <Time>2022-02-27T06:06:00.000Z</Time>
                    </Trackpoint>
                    <Trackpoint>
                        <DistanceMeters>1066.4584741592407</DistanceMeters>
                        <Time>2022-02-27T06:07:00.000Z</Time>
                    </Trackpoint>
                </Track>
                <DistanceMeters>1066.4584741592407</DistanceMeters>
                <TotalTimeSeconds>1500.0</TotalTimeSeconds>
                <Calories>136.6082305908203</Calories>
                <Intensity>Active</Intensity>
                <TriggerMethod>Manual</TriggerMethod>
            </Lap>
        </Activity>
        <Activity Sport="Walking">
            <Id>2022-02-27T06:06:00.000Z</Id>
            <Lap StartTime="2022-02-27T06:06:00.000Z">
                <Track>
                    <Trackpoint>
                        <DistanceMeters>0.0</DistanceMeters>
                        <Time>2022-02-27T06:06:00.000Z</Time>
                    </Trackpoint>
                    <Trackpoint>
                        <DistanceMeters>49.0</DistanceMeters>
                        <Time>2022-02-27T06:06:17.008Z</Time>
                    </Trackpoint>
                    <Trackpoint>
                        <DistanceMeters>49.0</DistanceMeters>
                        <Time>2022-02-27T06:07:00.000Z</Time>
                    </Trackpoint>
                    <Trackpoint>
                        <DistanceMeters>110.0</DistanceMeters>
                        <Time>2022-02-27T06:08:00.000Z</Time>
                    </Trackpoint>
                </Track>
                <DistanceMeters>110.0</DistanceMeters>
                <TotalTimeSeconds>120.0</TotalTimeSeconds>
                <Calories>9.401643753051758</Calories>
                <Intensity>Active</Intensity>
                <TriggerMethod>Manual</TriggerMethod>
            </Lap>
        </Activity>
        <Activity Sport="Walking">
            <Id>2022-02-27T06:07:53.821Z</Id>
            <Lap StartTime="2022-02-27T06:07:53.821Z">
                <Track>
                    <Trackpoint>
                        <DistanceMeters>0.0</DistanceMeters>
                        <Time>2022-02-27T06:07:53.821Z</Time>
                    </Trackpoint>
                    <Trackpoint>
                        <DistanceMeters>0.0</DistanceMeters>
                        <Time>2022-02-27T06:09:00.000Z</Time>
                    </Trackpoint>
                    <Trackpoint>
                        <DistanceMeters>51.0</DistanceMeters>
                        <Time>2022-02-27T06:09:05.441Z</Time>
                    </Trackpoint>
                    <Trackpoint>
                        <DistanceMeters>51.0</DistanceMeters>
                        <Time>2022-02-27T06:10:00.000Z</Time>
                    </Trackpoint>
                </Track>
                <DistanceMeters>51.0</DistanceMeters>
                <TotalTimeSeconds>126.178729987</TotalTimeSeconds>
                <Calories>6.569546103477478</Calories>
                <Intensity>Active</Intensity>
                <TriggerMethod>Manual</TriggerMethod>
            </Lap>
        </Activity>
        <Activity Sport="Walking">
            <Id>2022-02-27T06:09:00.000Z</Id>
            <Lap StartTime="2022-02-27T06:09:00.000Z">
                <Track>
                    <Trackpoint>
                        <DistanceMeters>0.0</DistanceMeters>
                        <Time>2022-02-27T06:09:00.000Z</Time>
                    </Trackpoint>
                    <Trackpoint>
                        <DistanceMeters>51.0</DistanceMeters>
                        <Time>2022-02-27T06:09:57.848Z</Time>
                    </Trackpoint>
                    <Trackpoint>
                        <DistanceMeters>51.0</DistanceMeters>
                        <Time>2022-02-27T06:10:00.000Z</Time>
                    </Trackpoint>
                    <Trackpoint>
                        <DistanceMeters>119.0</DistanceMeters>
                        <Time>2022-02-27T06:11:00.000Z</Time>
                    </Trackpoint>
                    <Trackpoint>
                        <DistanceMeters>188.0</DistanceMeters>
                        <Time>2022-02-27T06:12:00.000Z</Time>
                    </Trackpoint>
                    <Trackpoint>
                        <DistanceMeters>254.0</DistanceMeters>
                        <Time>2022-02-27T06:13:00.000Z</Time>
                    </Trackpoint>
                    <Trackpoint>
                        <DistanceMeters>332.0</DistanceMeters>
                        <Time>2022-02-27T06:14:00.000Z</Time>
                    </Trackpoint>
                    <Trackpoint>
                        <DistanceMeters>401.0</DistanceMeters>
                        <Time>2022-02-27T06:15:00.000Z</Time>
                    </Trackpoint>
                    <Trackpoint>
                        <DistanceMeters>498.0</DistanceMeters>
                        <Time>2022-02-27T06:16:00.000Z</Time>
                    </Trackpoint>
                    <Trackpoint>
                        <DistanceMeters>567.0</DistanceMeters>
                        <Time>2022-02-27T06:17:00.000Z</Time>
                    </Trackpoint>
                    <Trackpoint>
                        <DistanceMeters>648.0</DistanceMeters>
                        <Time>2022-02-27T06:18:00.000Z</Time>
                    </Trackpoint>
                    <Trackpoint>
                        <DistanceMeters>748.0</DistanceMeters>
                        <Time>2022-02-27T06:19:00.000Z</Time>
                    </Trackpoint>
                    <Trackpoint>
                        <DistanceMeters>827.0</DistanceMeters>
                        <Time>2022-02-27T06:20:00.000Z</Time>
                    </Trackpoint>
                    <Trackpoint>
                        <DistanceMeters>908.0</DistanceMeters>
                        <Time>2022-02-27T06:21:00.000Z</Time>
                    </Trackpoint>
                    <Trackpoint>
                        <DistanceMeters>988.0</DistanceMeters>
                        <Time>2022-02-27T06:22:00.000Z</Time>
                    </Trackpoint>
                </Track>
                <DistanceMeters>988.0</DistanceMeters>
                <TotalTimeSeconds>780.0</TotalTimeSeconds>
                <Calories>66.12158966064453</Calories>
                <Intensity>Active</Intensity>
                <TriggerMethod>Manual</TriggerMethod>
            </Lap>
        </Activity>
        <Activity Sport="Walking">
            <Id>2022-02-27T06:21:00.000Z</Id>
            <Lap StartTime="2022-02-27T06:21:00.000Z">
                <Track>
                    <Trackpoint>
                        <DistanceMeters>0.0</DistanceMeters>
                        <Time>2022-02-27T06:21:00.000Z</Time>
                    </Trackpoint>
                    <Trackpoint>
                        <DistanceMeters>80.0</DistanceMeters>
                        <Time>2022-02-27T06:21:18.734Z</Time>
                    </Trackpoint>
                    <Trackpoint>
                        <DistanceMeters>80.0</DistanceMeters>
                        <Time>2022-02-27T06:22:00.000Z</Time>
                    </Trackpoint>
                    <Trackpoint>
                        <DistanceMeters>168.0</DistanceMeters>
                        <Time>2022-02-27T06:23:00.000Z</Time>
                    </Trackpoint>
                    <Trackpoint>
                        <DistanceMeters>262.0</DistanceMeters>
                        <Time>2022-02-27T06:24:00.000Z</Time>
                    </Trackpoint>
                    <Trackpoint>
                        <DistanceMeters>358.0</DistanceMeters>
                        <Time>2022-02-27T06:25:00.000Z</Time>
                    </Trackpoint>
                    <Trackpoint>
                        <DistanceMeters>452.0</DistanceMeters>
                        <Time>2022-02-27T06:26:00.000Z</Time>
                    </Trackpoint>
                </Track>
                <DistanceMeters>452.0</DistanceMeters>
                <TotalTimeSeconds>300.0</TotalTimeSeconds>
                <Calories>27.10635757446289</Calories>
                <Intensity>Active</Intensity>
                <TriggerMethod>Manual</TriggerMethod>
            </Lap>
        </Activity>
        <Activity Sport="Walking">
            <Id>2022-02-27T06:25:57.861Z</Id>
            <Lap StartTime="2022-02-27T06:25:57.861Z">
                <Track>
                    <Trackpoint>
                        <DistanceMeters>0.0</DistanceMeters>
                        <Time>2022-02-27T06:25:57.861Z</Time>
                    </Trackpoint>
                    <Trackpoint>
                        <DistanceMeters>0.0</DistanceMeters>
                        <Time>2022-02-27T06:26:00.000Z</Time>
                    </Trackpoint>
                    <Trackpoint>
                        <DistanceMeters>70.0</DistanceMeters>
                        <Time>2022-02-27T06:26:19.721Z</Time>
                    </Trackpoint>
                    <Trackpoint>
                        <DistanceMeters>70.0</DistanceMeters>
                        <Time>2022-02-27T06:27:00.000Z</Time>
                    </Trackpoint>
                </Track>
                <DistanceMeters>70.0</DistanceMeters>
                <TotalTimeSeconds>62.138733478</TotalTimeSeconds>
                <Calories>2.0599453151226044</Calories>
                <Intensity>Active</Intensity>
                <TriggerMethod>Manual</TriggerMethod>
            </Lap>
        </Activity>
        <Activity Sport="Walking">
            <Id>2022-02-27T06:26:00.000Z</Id>
            <Lap StartTime="2022-02-27T06:26:00.000Z">
                <Track>
                    <Trackpoint>
                        <DistanceMeters>0.0</DistanceMeters>
                        <Time>2022-02-27T06:26:00.000Z</Time>
                    </Trackpoint>
                    <Trackpoint>
                        <DistanceMeters>70.0</DistanceMeters>
                        <Time>2022-02-27T06:26:36.281Z</Time>
                    </Trackpoint>
                    <Trackpoint>
                        <DistanceMeters>70.0</DistanceMeters>
                        <Time>2022-02-27T06:27:00.000Z</Time>
                    </Trackpoint>
                    <Trackpoint>
                        <DistanceMeters>139.0</DistanceMeters>
                        <Time>2022-02-27T06:28:00.000Z</Time>
                    </Trackpoint>
                    <Trackpoint>
                        <DistanceMeters>169.0</DistanceMeters>
                        <Time>2022-02-27T06:29:00.000Z</Time>
                    </Trackpoint>
                    <Trackpoint>
                        <DistanceMeters>197.0</DistanceMeters>
                        <Time>2022-02-27T06:30:00.000Z</Time>
                    </Trackpoint>
                    <Trackpoint>
                        <DistanceMeters>255.0</DistanceMeters>
                        <Time>2022-02-27T06:31:00.000Z</Time>
                    </Trackpoint>
                    <Trackpoint>
                        <DistanceMeters>301.0</DistanceMeters>
                        <Time>2022-02-27T06:32:00.000Z</Time>
                    </Trackpoint>
                    <Trackpoint>
                        <DistanceMeters>349.0</DistanceMeters>
                        <Time>2022-02-27T06:33:00.000Z</Time>
                    </Trackpoint>
                    <Trackpoint>
                        <DistanceMeters>420.0</DistanceMeters>
                        <Time>2022-02-27T06:34:00.000Z</Time>
                    </Trackpoint>
                    <Trackpoint>
                        <DistanceMeters>526.0</DistanceMeters>
                        <Time>2022-02-27T06:35:00.000Z</Time>
                    </Trackpoint>
                    <Trackpoint>
                        <DistanceMeters>626.0</DistanceMeters>
                        <Time>2022-02-27T06:36:00.000Z</Time>
                    </Trackpoint>
                    <Trackpoint>
                        <DistanceMeters>721.0</DistanceMeters>
                        <Time>2022-02-27T06:37:00.000Z</Time>
                    </Trackpoint>
                    <Trackpoint>
                        <DistanceMeters>825.0</DistanceMeters>
                        <Time>2022-02-27T06:38:00.000Z</Time>
                    </Trackpoint>
                    <Trackpoint>
                        <DistanceMeters>922.0</DistanceMeters>
                        <Time>2022-02-27T06:39:00.000Z</Time>
                    </Trackpoint>
                </Track>
                <DistanceMeters>922.0</DistanceMeters>
                <TotalTimeSeconds>780.0</TotalTimeSeconds>
                <Calories>70.91412353515625</Calories>
                <Intensity>Active</Intensity>
                <TriggerMethod>Manual</TriggerMethod>
            </Lap>
        </Activity>
        <Activity Sport="Walking">
            <Id>2022-02-27T06:38:00.000Z</Id>
            <Lap StartTime="2022-02-27T06:38:00.000Z">
                <Track>
                    <Trackpoint>
                        <DistanceMeters>0.0</DistanceMeters>
                        <Time>2022-02-27T06:38:00.000Z</Time>
                    </Trackpoint>
                    <Trackpoint>
                        <DistanceMeters>97.0</DistanceMeters>
                        <Time>2022-02-27T06:38:46.518Z</Time>
                    </Trackpoint>
                    <Trackpoint>
                        <DistanceMeters>97.0</DistanceMeters>
                        <Time>2022-02-27T06:39:00.000Z</Time>
                    </Trackpoint>
                    <Trackpoint>
                        <DistanceMeters>197.0</DistanceMeters>
                        <Time>2022-02-27T06:40:00.000Z</Time>
                    </Trackpoint>
                    <Trackpoint>
                        <DistanceMeters>288.0</DistanceMeters>
                        <Time>2022-02-27T06:41:00.000Z</Time>
                    </Trackpoint>
                    <Trackpoint>
                        <DistanceMeters>351.0</DistanceMeters>
                        <Time>2022-02-27T06:42:00.000Z</Time>
                    </Trackpoint>
                    <Trackpoint>
                        <DistanceMeters>419.0</DistanceMeters>
                        <Time>2022-02-27T06:43:00.000Z</Time>
                    </Trackpoint>
                    <Trackpoint>
                        <DistanceMeters>519.0</DistanceMeters>
                        <Time>2022-02-27T06:44:00.000Z</Time>
                    </Trackpoint>
                    <Trackpoint>
                        <DistanceMeters>626.0</DistanceMeters>
                        <Time>2022-02-27T06:45:00.000Z</Time>
                    </Trackpoint>
                    <Trackpoint>
                        <DistanceMeters>727.0</DistanceMeters>
                        <Time>2022-02-27T06:46:00.000Z</Time>
                    </Trackpoint>
                    <Trackpoint>
                        <DistanceMeters>821.0</DistanceMeters>
                        <Time>2022-02-27T06:47:00.000Z</Time>
                    </Trackpoint>
                    <Trackpoint>
                        <DistanceMeters>923.0</DistanceMeters>
                        <Time>2022-02-27T06:48:00.000Z</Time>
                    </Trackpoint>
                    <Trackpoint>
                        <DistanceMeters>1010.0</DistanceMeters>
                        <Time>2022-02-27T06:49:00.000Z</Time>
                    </Trackpoint>
                    <Trackpoint>
                        <DistanceMeters>1044.0</DistanceMeters>
                        <Time>2022-02-27T06:50:00.000Z</Time>
                    </Trackpoint>
                </Track>
                <DistanceMeters>1044.0</DistanceMeters>
                <TotalTimeSeconds>720.0</TotalTimeSeconds>
                <Calories>61.780460357666016</Calories>
                <Intensity>Active</Intensity>
                <TriggerMethod>Manual</TriggerMethod>
            </Lap>
        </Activity>
        <Activity Sport="Walking">
            <Id>2022-02-27T06:49:22.701Z</Id>
            <Lap StartTime="2022-02-27T06:49:22.701Z">
                <Track>
                    <Trackpoint>
                        <DistanceMeters>0.0</DistanceMeters>
                        <Time>2022-02-27T06:49:22.701Z</Time>
                    </Trackpoint>
                    <Trackpoint>
                        <DistanceMeters>0.0</DistanceMeters>
                        <Time>2022-02-27T06:57:00.000Z</Time>
                    </Trackpoint>
                    <Trackpoint>
                        <DistanceMeters>88.0</DistanceMeters>
                        <Time>2022-02-27T06:57:48.401Z</Time>
                    </Trackpoint>
                    <Trackpoint>
                        <DistanceMeters>88.0</DistanceMeters>
                        <Time>2022-02-27T06:58:00.000Z</Time>
                    </Trackpoint>
                    <Trackpoint>
                        <DistanceMeters>172.0</DistanceMeters>
                        <Time>2022-02-27T06:59:00.000Z</Time>
                    </Trackpoint>
                    <Trackpoint>
                        <DistanceMeters>258.0</DistanceMeters>
                        <Time>2022-02-27T07:00:00.000Z</Time>
                    </Trackpoint>
                    <Trackpoint>
                        <DistanceMeters>334.0</DistanceMeters>
                        <Time>2022-02-27T07:01:00.000Z</Time>
                    </Trackpoint>
                    <Trackpoint>
                        <DistanceMeters>418.0</DistanceMeters>
                        <Time>2022-02-27T07:02:00.000Z</Time>
                    </Trackpoint>
                    <Trackpoint>
                        <DistanceMeters>500.0</DistanceMeters>
                        <Time>2022-02-27T07:03:00.000Z</Time>
                    </Trackpoint>
                    <Trackpoint>
                        <DistanceMeters>588.0</DistanceMeters>
                        <Time>2022-02-27T07:04:00.000Z</Time>
                    </Trackpoint>
                    <Trackpoint>
                        <DistanceMeters>672.0</DistanceMeters>
                        <Time>2022-02-27T07:05:00.000Z</Time>
                    </Trackpoint>
                </Track>
                <DistanceMeters>672.0</DistanceMeters>
                <TotalTimeSeconds>937.298732693</TotalTimeSeconds>
                <Calories>48.9945068359375</Calories>
                <Intensity>Active</Intensity>
                <TriggerMethod>Manual</TriggerMethod>
            </Lap>
        </Activity>
        <Activity Sport="Walking">
            <Id>2022-02-27T07:04:00.000Z</Id>
            <Lap StartTime="2022-02-27T07:04:00.000Z">
                <Track>
                    <Trackpoint>
                        <DistanceMeters>0.0</DistanceMeters>
                        <Time>2022-02-27T07:04:00.000Z</Time>
                    </Trackpoint>
                    <Trackpoint>
                        <DistanceMeters>84.0</DistanceMeters>
                        <Time>2022-02-27T07:04:25.292Z</Time>
                    </Trackpoint>
                    <Trackpoint>
                        <DistanceMeters>84.0</DistanceMeters>
                        <Time>2022-02-27T07:05:00.000Z</Time>
                    </Trackpoint>
                    <Trackpoint>
                        <DistanceMeters>170.0</DistanceMeters>
                        <Time>2022-02-27T07:06:00.000Z</Time>
                    </Trackpoint>
                    <Trackpoint>
                        <DistanceMeters>257.0</DistanceMeters>
                        <Time>2022-02-27T07:07:00.000Z</Time>
                    </Trackpoint>
                    <Trackpoint>
                        <DistanceMeters>335.0</DistanceMeters>
                        <Time>2022-02-27T07:08:00.000Z</Time>
                    </Trackpoint>
                    <Trackpoint>
                        <DistanceMeters>425.0</DistanceMeters>
                        <Time>2022-02-27T07:09:00.000Z</Time>
                    </Trackpoint>
                    <Trackpoint>
                        <DistanceMeters>512.0</DistanceMeters>
                        <Time>2022-02-27T07:10:00.000Z</Time>
                    </Trackpoint>
                    <Trackpoint>
                        <DistanceMeters>594.0</DistanceMeters>
                        <Time>2022-02-27T07:11:00.000Z</Time>
                    </Trackpoint>
                    <Trackpoint>
                        <DistanceMeters>665.0</DistanceMeters>
                        <Time>2022-02-27T07:12:00.000Z</Time>
                    </Trackpoint>
                    <Trackpoint>
                        <DistanceMeters>702.0</DistanceMeters>
                        <Time>2022-02-27T07:13:00.000Z</Time>
                    </Trackpoint>
                    <Trackpoint>
                        <DistanceMeters>746.0</DistanceMeters>
                        <Time>2022-02-27T07:14:00.000Z</Time>
                    </Trackpoint>
                    <Trackpoint>
                        <DistanceMeters>762.0</DistanceMeters>
                        <Time>2022-02-27T07:15:00.000Z</Time>
                    </Trackpoint>
                    <Trackpoint>
                        <DistanceMeters>832.0</DistanceMeters>
                        <Time>2022-02-27T07:16:00.000Z</Time>
                    </Trackpoint>
                    <Trackpoint>
                        <DistanceMeters>909.0</DistanceMeters>
                        <Time>2022-02-27T07:17:00.000Z</Time>
                    </Trackpoint>
                    <Trackpoint>
                        <DistanceMeters>991.0</DistanceMeters>
                        <Time>2022-02-27T07:18:00.000Z</Time>
                    </Trackpoint>
                    <Trackpoint>
                        <DistanceMeters>1071.0</DistanceMeters>
                        <Time>2022-02-27T07:19:00.000Z</Time>
                    </Trackpoint>
                    <Trackpoint>
                        <DistanceMeters>1116.0</DistanceMeters>
                        <Time>2022-02-27T07:20:00.000Z</Time>
                    </Trackpoint>
                    <Trackpoint>
                        <DistanceMeters>1205.0</DistanceMeters>
                        <Time>2022-02-27T07:21:00.000Z</Time>
                    </Trackpoint>
                    <Trackpoint>
                        <DistanceMeters>1238.0</DistanceMeters>
                        <Time>2022-02-27T07:22:00.000Z</Time>
                    </Trackpoint>
                    <Trackpoint>
                        <DistanceMeters>1247.0</DistanceMeters>
                        <Time>2022-02-27T07:23:00.000Z</Time>
                    </Trackpoint>
                </Track>
                <DistanceMeters>1247.0</DistanceMeters>
                <TotalTimeSeconds>1140.0</TotalTimeSeconds>
                <Calories>104.498046875</Calories>
                <Intensity>Active</Intensity>
                <TriggerMethod>Manual</TriggerMethod>
            </Lap>
        </Activity>
        <Activity Sport="Walking">
            <Id>2022-02-27T07:22:21.359Z</Id>
            <Lap StartTime="2022-02-27T07:22:21.359Z">
                <Track>
                    <Trackpoint>
                        <DistanceMeters>0.0</DistanceMeters>
                        <Time>2022-02-27T07:22:21.359Z</Time>
                    </Trackpoint>
                    <Trackpoint>
                        <DistanceMeters>0.0</DistanceMeters>
                        <Time>2022-02-27T07:27:00.000Z</Time>
                    </Trackpoint>
                    <Trackpoint>
                        <DistanceMeters>73.0</DistanceMeters>
                        <Time>2022-02-27T07:27:23.561Z</Time>
                    </Trackpoint>
                    <Trackpoint>
                        <DistanceMeters>73.0</DistanceMeters>
                        <Time>2022-02-27T07:28:00.000Z</Time>
                    </Trackpoint>
                    <Trackpoint>
                        <DistanceMeters>151.0</DistanceMeters>
                        <Time>2022-02-27T07:29:00.000Z</Time>
                    </Trackpoint>
                </Track>
                <DistanceMeters>151.0</DistanceMeters>
                <TotalTimeSeconds>398.641</TotalTimeSeconds>
                <Calories>9.860584020614624</Calories>
                <Intensity>Active</Intensity>
                <TriggerMethod>Manual</TriggerMethod>
            </Lap>
        </Activity>
        <Activity Sport="Walking">
            <Id>2022-02-27T07:28:00.000Z</Id>
            <Lap StartTime="2022-02-27T07:28:00.000Z">
                <Track>
                    <Trackpoint>
                        <DistanceMeters>0.0</DistanceMeters>
                        <Time>2022-02-27T07:28:00.000Z</Time>
                    </Trackpoint>
                    <Trackpoint>
                        <DistanceMeters>78.0</DistanceMeters>
                        <Time>2022-02-27T07:28:00.782Z</Time>
                    </Trackpoint>
                    <Trackpoint>
                        <DistanceMeters>78.0</DistanceMeters>
                        <Time>2022-02-27T07:29:00.000Z</Time>
                    </Trackpoint>
                    <Trackpoint>
                        <DistanceMeters>148.0</DistanceMeters>
                        <Time>2022-02-27T07:30:00.000Z</Time>
                    </Trackpoint>
                </Track>
                <DistanceMeters>148.0</DistanceMeters>
                <TotalTimeSeconds>120.0</TotalTimeSeconds>
                <Calories>6.906445026397705</Calories>
                <Intensity>Active</Intensity>
                <TriggerMethod>Manual</TriggerMethod>
            </Lap>
        </Activity>
        <Activity Sport="Walking">
            <Id>2022-02-27T07:29:00.000Z</Id>
            <Lap StartTime="2022-02-27T07:29:00.000Z">
                <Track>
                    <Trackpoint>
                        <DistanceMeters>0.0</DistanceMeters>
                        <Time>2022-02-27T07:29:00.000Z</Time>
                    </Trackpoint>
                    <Trackpoint>
                        <DistanceMeters>70.0</DistanceMeters>
                        <Time>2022-02-27T07:29:11.901Z</Time>
                    </Trackpoint>
                    <Trackpoint>
                        <DistanceMeters>70.0</DistanceMeters>
                        <Time>2022-02-27T07:30:00.000Z</Time>
                    </Trackpoint>
                    <Trackpoint>
                        <DistanceMeters>155.0</DistanceMeters>
                        <Time>2022-02-27T07:31:00.000Z</Time>
                    </Trackpoint>
                    <Trackpoint>
                        <DistanceMeters>241.0</DistanceMeters>
                        <Time>2022-02-27T07:32:00.000Z</Time>
                    </Trackpoint>
                    <Trackpoint>
                        <DistanceMeters>319.0</DistanceMeters>
                        <Time>2022-02-27T07:33:00.000Z</Time>
                    </Trackpoint>
                    <Trackpoint>
                        <DistanceMeters>404.0</DistanceMeters>
                        <Time>2022-02-27T07:34:00.000Z</Time>
                    </Trackpoint>
                    <Trackpoint>
                        <DistanceMeters>459.0</DistanceMeters>
                        <Time>2022-02-27T07:35:00.000Z</Time>
                    </Trackpoint>
                </Track>
                <DistanceMeters>459.0</DistanceMeters>
                <TotalTimeSeconds>360.0</TotalTimeSeconds>
                <Calories>31.67766761779785</Calories>
                <Intensity>Active</Intensity>
                <TriggerMethod>Manual</TriggerMethod>
            </Lap>
        </Activity>
        <Activity Sport="Walking">
            <Id>2022-02-27T07:34:38.101Z</Id>
            <Lap StartTime="2022-02-27T07:34:38.101Z">
                <Track>
                    <Trackpoint>
                        <DistanceMeters>0.0</DistanceMeters>
                        <Time>2022-02-27T07:34:38.101Z</Time>
                    </Trackpoint>
                    <Trackpoint>
                        <DistanceMeters>0.0</DistanceMeters>
                        <Time>2022-02-27T07:40:00.000Z</Time>
                    </Trackpoint>
                    <Trackpoint>
                        <DistanceMeters>87.0</DistanceMeters>
                        <Time>2022-02-27T07:40:46.361Z</Time>
                    </Trackpoint>
                    <Trackpoint>
                        <DistanceMeters>87.0</DistanceMeters>
                        <Time>2022-02-27T07:41:00.000Z</Time>
                    </Trackpoint>
                    <Trackpoint>
                        <DistanceMeters>169.0</DistanceMeters>
                        <Time>2022-02-27T07:42:00.000Z</Time>
                    </Trackpoint>
                    <Trackpoint>
                        <DistanceMeters>252.0</DistanceMeters>
                        <Time>2022-02-27T07:43:00.000Z</Time>
                    </Trackpoint>
                </Track>
                <DistanceMeters>252.0</DistanceMeters>
                <TotalTimeSeconds>501.898731975</TotalTimeSeconds>
                <Calories>14.903489589691162</Calories>
                <Intensity>Active</Intensity>
                <TriggerMethod>Manual</TriggerMethod>
            </Lap>
        </Activity>
        <Activity Sport="Walking">
            <Id>2022-02-27T07:42:00.000Z</Id>
            <Lap StartTime="2022-02-27T07:42:00.000Z">
                <Track>
                    <Trackpoint>
                        <DistanceMeters>0.0</DistanceMeters>
                        <Time>2022-02-27T07:42:00.000Z</Time>
                    </Trackpoint>
                    <Trackpoint>
                        <DistanceMeters>83.0</DistanceMeters>
                        <Time>2022-02-27T07:42:01.452Z</Time>
                    </Trackpoint>
                    <Trackpoint>
                        <DistanceMeters>83.0</DistanceMeters>
                        <Time>2022-02-27T07:43:00.000Z</Time>
                    </Trackpoint>
                    <Trackpoint>
                        <DistanceMeters>157.0</DistanceMeters>
                        <Time>2022-02-27T07:44:00.000Z</Time>
                    </Trackpoint>
                    <Trackpoint>
                        <DistanceMeters>199.0</DistanceMeters>
                        <Time>2022-02-27T07:45:00.000Z</Time>
                    </Trackpoint>
                    <Trackpoint>
                        <DistanceMeters>280.0</DistanceMeters>
                        <Time>2022-02-27T07:46:00.000Z</Time>
                    </Trackpoint>
                    <Trackpoint>
                        <DistanceMeters>360.0</DistanceMeters>
                        <Time>2022-02-27T07:47:00.000Z</Time>
                    </Trackpoint>
                    <Trackpoint>
                        <DistanceMeters>442.0</DistanceMeters>
                        <Time>2022-02-27T07:48:00.000Z</Time>
                    </Trackpoint>
                    <Trackpoint>
                        <DistanceMeters>527.0</DistanceMeters>
                        <Time>2022-02-27T07:49:00.000Z</Time>
                    </Trackpoint>
                    <Trackpoint>
                        <DistanceMeters>605.0</DistanceMeters>
                        <Time>2022-02-27T07:50:00.000Z</Time>
                    </Trackpoint>
                    <Trackpoint>
                        <DistanceMeters>685.0</DistanceMeters>
                        <Time>2022-02-27T07:51:00.000Z</Time>
                    </Trackpoint>
                    <Trackpoint>
                        <DistanceMeters>764.0</DistanceMeters>
                        <Time>2022-02-27T07:52:00.000Z</Time>
                    </Trackpoint>
                    <Trackpoint>
                        <DistanceMeters>845.0</DistanceMeters>
                        <Time>2022-02-27T07:53:00.000Z</Time>
                    </Trackpoint>
                    <Trackpoint>
                        <DistanceMeters>925.0</DistanceMeters>
                        <Time>2022-02-27T07:54:00.000Z</Time>
                    </Trackpoint>
                    <Trackpoint>
                        <DistanceMeters>1006.0</DistanceMeters>
                        <Time>2022-02-27T07:55:00.000Z</Time>
                    </Trackpoint>
                    <Trackpoint>
                        <DistanceMeters>1081.0</DistanceMeters>
                        <Time>2022-02-27T07:56:00.000Z</Time>
                    </Trackpoint>
                    <Trackpoint>
                        <DistanceMeters>1162.0</DistanceMeters>
                        <Time>2022-02-27T07:57:00.000Z</Time>
                    </Trackpoint>
                    <Trackpoint>
                        <DistanceMeters>1175.0</DistanceMeters>
                        <Time>2022-02-27T07:58:00.000Z</Time>
                    </Trackpoint>
                    <Trackpoint>
                        <DistanceMeters>1205.0</DistanceMeters>
                        <Time>2022-02-27T07:59:00.000Z</Time>
                    </Trackpoint>
                    <Trackpoint>
                        <DistanceMeters>1284.0</DistanceMeters>
                        <Time>2022-02-27T08:00:00.000Z</Time>
                    </Trackpoint>
                </Track>
                <DistanceMeters>1284.0</DistanceMeters>
                <TotalTimeSeconds>1080.0</TotalTimeSeconds>
                <Calories>103.4513931274414</Calories>
                <Intensity>Active</Intensity>
                <TriggerMethod>Manual</TriggerMethod>
            </Lap>
        </Activity>
        <Activity Sport="Walking">
            <Id>2022-02-27T07:59:00.000Z</Id>
            <Lap StartTime="2022-02-27T07:59:00.000Z">
                <Track>
                    <Trackpoint>
                        <DistanceMeters>0.0</DistanceMeters>
                        <Time>2022-02-27T07:59:00.000Z</Time>
                    </Trackpoint>
                    <Trackpoint>
                        <DistanceMeters>79.0</DistanceMeters>
                        <Time>2022-02-27T07:59:46.741Z</Time>
                    </Trackpoint>
                    <Trackpoint>
                        <DistanceMeters>79.0</DistanceMeters>
                        <Time>2022-02-27T08:00:00.000Z</Time>
                    </Trackpoint>
                    <Trackpoint>
                        <DistanceMeters>123.0</DistanceMeters>
                        <Time>2022-02-27T08:01:00.000Z</Time>
                    </Trackpoint>
                    <Trackpoint>
                        <DistanceMeters>207.0</DistanceMeters>
                        <Time>2022-02-27T08:02:00.000Z</Time>
                    </Trackpoint>
                    <Trackpoint>
                        <DistanceMeters>291.0</DistanceMeters>
                        <Time>2022-02-27T08:03:00.000Z</Time>
                    </Trackpoint>
                    <Trackpoint>
                        <DistanceMeters>368.0</DistanceMeters>
                        <Time>2022-02-27T08:04:00.000Z</Time>
                    </Trackpoint>
                    <Trackpoint>
                        <DistanceMeters>447.0</DistanceMeters>
                        <Time>2022-02-27T08:05:00.000Z</Time>
                    </Trackpoint>
                    <Trackpoint>
                        <DistanceMeters>532.0</DistanceMeters>
                        <Time>2022-02-27T08:06:00.000Z</Time>
                    </Trackpoint>
                    <Trackpoint>
                        <DistanceMeters>614.0</DistanceMeters>
                        <Time>2022-02-27T08:07:00.000Z</Time>
                    </Trackpoint>
                    <Trackpoint>
                        <DistanceMeters>693.0</DistanceMeters>
                        <Time>2022-02-27T08:08:00.000Z</Time>
                    </Trackpoint>
                    <Trackpoint>
                        <DistanceMeters>771.0</DistanceMeters>
                        <Time>2022-02-27T08:09:00.000Z</Time>
                    </Trackpoint>
                    <Trackpoint>
                        <DistanceMeters>850.0</DistanceMeters>
                        <Time>2022-02-27T08:10:00.000Z</Time>
                    </Trackpoint>
                    <Trackpoint>
                        <DistanceMeters>925.0</DistanceMeters>
                        <Time>2022-02-27T08:11:00.000Z</Time>
                    </Trackpoint>
                    <Trackpoint>
                        <DistanceMeters>1008.0</DistanceMeters>
                        <Time>2022-02-27T08:12:00.000Z</Time>
                    </Trackpoint>
                    <Trackpoint>
                        <DistanceMeters>1088.0</DistanceMeters>
                        <Time>2022-02-27T08:13:00.000Z</Time>
                    </Trackpoint>
                    <Trackpoint>
                        <DistanceMeters>1157.0</DistanceMeters>
                        <Time>2022-02-27T08:14:00.000Z</Time>
                    </Trackpoint>
                </Track>
                <DistanceMeters>1157.0</DistanceMeters>
                <TotalTimeSeconds>900.0</TotalTimeSeconds>
                <Calories>82.05696868896484</Calories>
                <Intensity>Active</Intensity>
                <TriggerMethod>Manual</TriggerMethod>
            </Lap>
        </Activity>
        <Activity Sport="Walking">
            <Id>2022-02-27T08:21:00.000Z</Id>
            <Lap StartTime="2022-02-27T08:21:00.000Z">
                <Track>
                    <Trackpoint>
                        <DistanceMeters>0.0</DistanceMeters>
                        <Time>2022-02-27T08:21:00.000Z</Time>
                    </Trackpoint>
                    <Trackpoint>
                        <DistanceMeters>64.0</DistanceMeters>
                        <Time>2022-02-27T08:21:15.646Z</Time>
                    </Trackpoint>
                    <Trackpoint>
                        <DistanceMeters>64.0</DistanceMeters>
                        <Time>2022-02-27T08:22:00.000Z</Time>
                    </Trackpoint>
                    <Trackpoint>
                        <DistanceMeters>92.0</DistanceMeters>
                        <Time>2022-02-27T08:23:00.000Z</Time>
                    </Trackpoint>
                </Track>
                <DistanceMeters>92.0</DistanceMeters>
                <TotalTimeSeconds>120.0</TotalTimeSeconds>
                <Calories>8.071681022644043</Calories>
                <Intensity>Active</Intensity>
                <TriggerMethod>Manual</TriggerMethod>
            </Lap>
        </Activity>
        <Activity Sport="Walking">
            <Id>2022-02-27T08:22:38.764Z</Id>
            <Lap StartTime="2022-02-27T08:22:38.764Z">
                <Track>
                    <Trackpoint>
                        <DistanceMeters>0.0</DistanceMeters>
                        <Time>2022-02-27T08:22:38.764Z</Time>
                    </Trackpoint>
                    <Trackpoint>
                        <DistanceMeters>0.0</DistanceMeters>
                        <Time>2022-02-27T08:27:00.000Z</Time>
                    </Trackpoint>
                    <Trackpoint>
                        <DistanceMeters>85.0</DistanceMeters>
                        <Time>2022-02-27T08:27:23.201Z</Time>
                    </Trackpoint>
                    <Trackpoint>
                        <DistanceMeters>85.0</DistanceMeters>
                        <Time>2022-02-27T08:28:00.000Z</Time>
                    </Trackpoint>
                    <Trackpoint>
                        <DistanceMeters>170.0</DistanceMeters>
                        <Time>2022-02-27T08:29:00.000Z</Time>
                    </Trackpoint>
                    <Trackpoint>
                        <DistanceMeters>253.0</DistanceMeters>
                        <Time>2022-02-27T08:30:00.000Z</Time>
                    </Trackpoint>
                    <Trackpoint>
                        <DistanceMeters>334.0</DistanceMeters>
                        <Time>2022-02-27T08:31:00.000Z</Time>
                    </Trackpoint>
                    <Trackpoint>
                        <DistanceMeters>417.0</DistanceMeters>
                        <Time>2022-02-27T08:32:00.000Z</Time>
                    </Trackpoint>
                    <Trackpoint>
                        <DistanceMeters>502.0</DistanceMeters>
                        <Time>2022-02-27T08:33:00.000Z</Time>
                    </Trackpoint>
                    <Trackpoint>
                        <DistanceMeters>587.0</DistanceMeters>
                        <Time>2022-02-27T08:34:00.000Z</Time>
                    </Trackpoint>
                    <Trackpoint>
                        <DistanceMeters>670.0</DistanceMeters>
                        <Time>2022-02-27T08:35:00.000Z</Time>
                    </Trackpoint>
                </Track>
                <DistanceMeters>670.0</DistanceMeters>
                <TotalTimeSeconds>741.236</TotalTimeSeconds>
                <Calories>49.06307888031006</Calories>
                <Intensity>Active</Intensity>
                <TriggerMethod>Manual</TriggerMethod>
            </Lap>
        </Activity>
        <Activity Sport="Walking">
            <Id>2022-02-27T08:34:00.000Z</Id>
            <Lap StartTime="2022-02-27T08:34:00.000Z">
                <Track>
                    <Trackpoint>
                        <DistanceMeters>0.0</DistanceMeters>
                        <Time>2022-02-27T08:34:00.000Z</Time>
                    </Trackpoint>
                    <Trackpoint>
                        <DistanceMeters>83.0</DistanceMeters>
                        <Time>2022-02-27T08:34:47.890Z</Time>
                    </Trackpoint>
                    <Trackpoint>
                        <DistanceMeters>83.0</DistanceMeters>
                        <Time>2022-02-27T08:35:00.000Z</Time>
                    </Trackpoint>
                    <Trackpoint>
                        <DistanceMeters>168.0</DistanceMeters>
                        <Time>2022-02-27T08:36:00.000Z</Time>
                    </Trackpoint>
                    <Trackpoint>
                        <DistanceMeters>244.0</DistanceMeters>
                        <Time>2022-02-27T08:37:00.000Z</Time>
                    </Trackpoint>
                    <Trackpoint>
                        <DistanceMeters>329.0</DistanceMeters>
                        <Time>2022-02-27T08:38:00.000Z</Time>
                    </Trackpoint>
                    <Trackpoint>
                        <DistanceMeters>394.0</DistanceMeters>
                        <Time>2022-02-27T08:39:00.000Z</Time>
                    </Trackpoint>
                    <Trackpoint>
                        <DistanceMeters>478.0</DistanceMeters>
                        <Time>2022-02-27T08:40:00.000Z</Time>
                    </Trackpoint>
                    <Trackpoint>
                        <DistanceMeters>568.0</DistanceMeters>
                        <Time>2022-02-27T08:41:00.000Z</Time>
                    </Trackpoint>
                    <Trackpoint>
                        <DistanceMeters>654.0</DistanceMeters>
                        <Time>2022-02-27T08:42:00.000Z</Time>
                    </Trackpoint>
                    <Trackpoint>
                        <DistanceMeters>739.0</DistanceMeters>
                        <Time>2022-02-27T08:43:00.000Z</Time>
                    </Trackpoint>
                    <Trackpoint>
                        <DistanceMeters>823.0</DistanceMeters>
                        <Time>2022-02-27T08:44:00.000Z</Time>
                    </Trackpoint>
                </Track>
                <DistanceMeters>823.0</DistanceMeters>
                <TotalTimeSeconds>600.0</TotalTimeSeconds>
                <Calories>52.67073440551758</Calories>
                <Intensity>Active</Intensity>
                <TriggerMethod>Manual</TriggerMethod>
            </Lap>
        </Activity>
        <Activity Sport="Walking">
            <Id>2022-02-27T08:43:00.000Z</Id>
            <Lap StartTime="2022-02-27T08:43:00.000Z">
                <Track>
                    <Trackpoint>
                        <DistanceMeters>0.0</DistanceMeters>
                        <Time>2022-02-27T08:43:00.000Z</Time>
                    </Trackpoint>
                    <Trackpoint>
                        <DistanceMeters>84.0</DistanceMeters>
                        <Time>2022-02-27T08:43:50.266Z</Time>
                    </Trackpoint>
                    <Trackpoint>
                        <DistanceMeters>84.0</DistanceMeters>
                        <Time>2022-02-27T08:44:00.000Z</Time>
                    </Trackpoint>
                    <Trackpoint>
                        <DistanceMeters>165.0</DistanceMeters>
                        <Time>2022-02-27T08:45:00.000Z</Time>
                    </Trackpoint>
                    <Trackpoint>
                        <DistanceMeters>252.0</DistanceMeters>
                        <Time>2022-02-27T08:46:00.000Z</Time>
                    </Trackpoint>
                    <Trackpoint>
                        <DistanceMeters>331.0</DistanceMeters>
                        <Time>2022-02-27T08:47:00.000Z</Time>
                    </Trackpoint>
                    <Trackpoint>
                        <DistanceMeters>413.0</DistanceMeters>
                        <Time>2022-02-27T08:48:00.000Z</Time>
                    </Trackpoint>
                    <Trackpoint>
                        <DistanceMeters>492.0</DistanceMeters>
                        <Time>2022-02-27T08:49:00.000Z</Time>
                    </Trackpoint>
                    <Trackpoint>
                        <DistanceMeters>573.0</DistanceMeters>
                        <Time>2022-02-27T08:50:00.000Z</Time>
                    </Trackpoint>
                    <Trackpoint>
                        <DistanceMeters>643.0</DistanceMeters>
                        <Time>2022-02-27T08:51:00.000Z</Time>
                    </Trackpoint>
                </Track>
                <DistanceMeters>643.0</DistanceMeters>
                <TotalTimeSeconds>480.0</TotalTimeSeconds>
                <Calories>41.574745178222656</Calories>
                <Intensity>Active</Intensity>
                <TriggerMethod>Manual</TriggerMethod>
            </Lap>
        </Activity>
        <Activity Sport="Walking">
            <Id>2022-02-27T08:50:58.381Z</Id>
            <Lap StartTime="2022-02-27T08:50:58.381Z">
                <Track>
                    <Trackpoint>
                        <DistanceMeters>0.0</DistanceMeters>
                        <Time>2022-02-27T08:50:58.381Z</Time>
                    </Trackpoint>
                    <Trackpoint>
                        <DistanceMeters>0.0</DistanceMeters>
                        <Time>2022-02-27T08:55:00.000Z</Time>
                    </Trackpoint>
                    <Trackpoint>
                        <DistanceMeters>60.0</DistanceMeters>
                        <Time>2022-02-27T08:55:48.041Z</Time>
                    </Trackpoint>
                    <Trackpoint>
                        <DistanceMeters>60.0</DistanceMeters>
                        <Time>2022-02-27T08:56:00.000Z</Time>
                    </Trackpoint>
                    <Trackpoint>
                        <DistanceMeters>151.0</DistanceMeters>
                        <Time>2022-02-27T08:57:00.000Z</Time>
                    </Trackpoint>
                    <Trackpoint>
                        <DistanceMeters>223.0</DistanceMeters>
                        <Time>2022-02-27T08:58:00.000Z</Time>
                    </Trackpoint>
                </Track>
                <DistanceMeters>223.0</DistanceMeters>
                <TotalTimeSeconds>421.61873679</TotalTimeSeconds>
                <Calories>13.3804349899292</Calories>
                <Intensity>Active</Intensity>
                <TriggerMethod>Manual</TriggerMethod>
            </Lap>
        </Activity>
        <Activity Sport="Walking">
            <Id>2022-02-27T08:57:00.000Z</Id>
            <Lap StartTime="2022-02-27T08:57:00.000Z">
                <Track>
                    <Trackpoint>
                        <DistanceMeters>0.0</DistanceMeters>
                        <Time>2022-02-27T08:57:00.000Z</Time>
                    </Trackpoint>
                    <Trackpoint>
                        <DistanceMeters>72.0</DistanceMeters>
                        <Time>2022-02-27T08:57:04.177Z</Time>
                    </Trackpoint>
                    <Trackpoint>
                        <DistanceMeters>72.0</DistanceMeters>
                        <Time>2022-02-27T08:58:00.000Z</Time>
                    </Trackpoint>
                    <Trackpoint>
                        <DistanceMeters>131.0</DistanceMeters>
                        <Time>2022-02-27T08:59:00.000Z</Time>
                    </Trackpoint>
                    <Trackpoint>
                        <DistanceMeters>168.0</DistanceMeters>
                        <Time>2022-02-27T09:00:00.000Z</Time>
                    </Trackpoint>
                    <Trackpoint>
                        <DistanceMeters>247.0</DistanceMeters>
                        <Time>2022-02-27T09:01:00.000Z</Time>
                    </Trackpoint>
                    <Trackpoint>
                        <DistanceMeters>330.0</DistanceMeters>
                        <Time>2022-02-27T09:02:00.000Z</Time>
                    </Trackpoint>
                    <Trackpoint>
                        <DistanceMeters>394.0</DistanceMeters>
                        <Time>2022-02-27T09:03:00.000Z</Time>
                    </Trackpoint>
                    <Trackpoint>
                        <DistanceMeters>484.0</DistanceMeters>
                        <Time>2022-02-27T09:04:00.000Z</Time>
                    </Trackpoint>
                    <Trackpoint>
                        <DistanceMeters>554.0</DistanceMeters>
                        <Time>2022-02-27T09:05:00.000Z</Time>
                    </Trackpoint>
                    <Trackpoint>
                        <DistanceMeters>592.0</DistanceMeters>
                        <Time>2022-02-27T09:06:00.000Z</Time>
                    </Trackpoint>
                    <Trackpoint>
                        <DistanceMeters>638.0</DistanceMeters>
                        <Time>2022-02-27T09:07:00.000Z</Time>
                    </Trackpoint>
                </Track>
                <DistanceMeters>638.0</DistanceMeters>
                <TotalTimeSeconds>600.0</TotalTimeSeconds>
                <Calories>53.26369094848633</Calories>
                <Intensity>Active</Intensity>
                <TriggerMethod>Manual</TriggerMethod>
            </Lap>
        </Activity>
    </Activities>
    <Author xsi:type="Application_t">
        <Name>Google Fit</Name>
        <Build>
            <Version>
                <VersionMajor>0</VersionMajor>
                <VersionMinor>0</VersionMinor>
                <BuildMajor>0</BuildMajor>
                <BuildMinor>0</BuildMinor>
            </Version>
        </Build>
        <LangID>en</LangID>
        <PartNumber>000-00000-00</PartNumber>
    </Author>
</TrainingCenterDatabase>
