<?xml version="1.0" encoding="UTF-8"?>
<TrainingCenterDatabase
    xmlns="http://www.garmin.com/xmlschemas/TrainingCenterDatabase/v2"
    xmlns:ns2="http://www.garmin.com/xmlschemas/UserProfile/v2"
    xmlns:ns3="http://www.garmin.com/xmlschemas/ActivityExtension/v2"
    xmlns:ns4="http://www.garmin.com/xmlschemas/ProfileExtension/v1"
    xmlns:ns5="http://www.garmin.com/xmlschemas/ActivityGoals/v1"
    xmlns:xsi="http://www.w3.org/2001/XMLSchema-instance" xsi:schemaLocation="http://www.garmin.com/xmlschemas/TrainingCenterDatabase/v2 http://www.garmin.com/xmlschemas/TrainingCenterDatabasev2.xsd">
    <Activities>
        <Activity Sport="Walking">
            <Id>2022-06-30T06:24:06.811Z</Id>
            <Lap StartTime="2022-06-30T06:24:06.811Z">
                <Track>
                    <Trackpoint>
                        <DistanceMeters>0.0</DistanceMeters>
                        <Time>2022-06-30T06:24:06.811Z</Time>
                    </Trackpoint>
                    <Trackpoint>
                        <DistanceMeters>15.659159660339355</DistanceMeters>
                        <Time>2022-06-30T06:24:55.732Z</Time>
                    </Trackpoint>
                    <Trackpoint>
                        <DistanceMeters>54.1545934677124</DistanceMeters>
                        <Time>2022-06-30T06:26:15.032Z</Time>
                    </Trackpoint>
                    <Trackpoint>
                        <DistanceMeters>84.16798305511475</DistanceMeters>
                        <Time>2022-06-30T06:27:10.392Z</Time>
                    </Trackpoint>
                    <Trackpoint>
                        <DistanceMeters>105.69932842254639</DistanceMeters>
                        <Time>2022-06-30T06:27:45.992Z</Time>
                    </Trackpoint>
                    <Trackpoint>
                        <DistanceMeters>118.09616279602051</DistanceMeters>
                        <Time>2022-06-30T06:28:17.132Z</Time>
                    </Trackpoint>
                    <Trackpoint>
                        <DistanceMeters>166.37857246398926</DistanceMeters>
                        <Time>2022-06-30T06:30:45.132Z</Time>
                    </Trackpoint>
                    <Trackpoint>
                        <DistanceMeters>176.81801223754883</DistanceMeters>
                        <Time>2022-06-30T06:31:09.912Z</Time>
                    </Trackpoint>
                    <Trackpoint>
                        <DistanceMeters>191.82470703125</DistanceMeters>
                        <Time>2022-06-30T06:31:50.992Z</Time>
                    </Trackpoint>
                </Track>
                <DistanceMeters>191.82470703125</DistanceMeters>
                <TotalTimeSeconds>464.181525159</TotalTimeSeconds>
                <Calories>45.710594177246094</Calories>
                <Intensity>Active</Intensity>
                <TriggerMethod>Manual</TriggerMethod>
            </Lap>
        </Activity>
        <Activity Sport="Walking">
            <Id>2022-06-30T06:35:22.052Z</Id>
            <Lap StartTime="2022-06-30T06:35:22.052Z">
                <Track>
                    <Trackpoint>
                        <DistanceMeters>0.0</DistanceMeters>
                        <Time>2022-06-30T06:35:22.052Z</Time>
                    </Trackpoint>
                    <Trackpoint>
                        <DistanceMeters>10.43943977355957</DistanceMeters>
                        <Time>2022-06-30T06:35:23.484Z</Time>
                    </Trackpoint>
                    <Trackpoint>
                        <DistanceMeters>10.43943977355957</DistanceMeters>
                        <Time>2022-06-30T06:36:23.947Z</Time>
                    </Trackpoint>
                </Track>
                <DistanceMeters>10.43943977355957</DistanceMeters>
                <TotalTimeSeconds>61.894475037</TotalTimeSeconds>
                <Calories>6.190739154815674</Calories>
                <Intensity>Active</Intensity>
                <TriggerMethod>Manual</TriggerMethod>
            </Lap>
        </Activity>
        <Activity Sport="Walking">
            <Id>2022-06-30T06:38:58.542Z</Id>
            <Lap StartTime="2022-06-30T06:38:58.542Z">
                <Track>
                    <Trackpoint>
                        <DistanceMeters>0.0</DistanceMeters>
                        <Time>2022-06-30T06:38:58.542Z</Time>
                    </Trackpoint>
                    <Trackpoint>
                        <DistanceMeters>0.0</DistanceMeters>
                        <Time>2022-06-30T06:39:05.952Z</Time>
                    </Trackpoint>
                    <Trackpoint>
                        <DistanceMeters>15.741019248962402</DistanceMeters>
                        <Time>2022-06-30T06:39:22.872Z</Time>
                    </Trackpoint>
                    <Trackpoint>
                        <DistanceMeters>39.88222408294678</DistanceMeters>
                        <Time>2022-06-30T06:40:04.792Z</Time>
                    </Trackpoint>
                    <Trackpoint>
                        <DistanceMeters>56.193848609924316</DistanceMeters>
                        <Time>2022-06-30T06:40:22.792Z</Time>
                    </Trackpoint>
                    <Trackpoint>
                        <DistanceMeters>71.85300827026367</DistanceMeters>
                        <Time>2022-06-30T06:41:06.592Z</Time>
                    </Trackpoint>
                </Track>
                <DistanceMeters>71.85300827026367</DistanceMeters>
                <TotalTimeSeconds>128.050524635</TotalTimeSeconds>
                <Calories>13.018746376037598</Calories>
                <Intensity>Active</Intensity>
                <TriggerMethod>Manual</TriggerMethod>
            </Lap>
        </Activity>
        <Activity Sport="Walking">
            <Id>2022-06-30T06:48:01.152Z</Id>
            <Lap StartTime="2022-06-30T06:48:01.152Z">
                <Track>
                    <Trackpoint>
                        <DistanceMeters>0.0</DistanceMeters>
                        <Time>2022-06-30T06:48:01.152Z</Time>
                    </Trackpoint>
                    <Trackpoint>
                        <DistanceMeters>33.27571487426758</DistanceMeters>
                        <Time>2022-06-30T06:49:20.160Z</Time>
                    </Trackpoint>
                    <Trackpoint>
                        <DistanceMeters>33.27571487426758</DistanceMeters>
                        <Time>2022-06-30T06:49:43.152Z</Time>
                    </Trackpoint>
                    <Trackpoint>
                        <DistanceMeters>42.41022491455078</DistanceMeters>
                        <Time>2022-06-30T06:50:26.950Z</Time>
                    </Trackpoint>
                </Track>
                <DistanceMeters>42.41022491455078</DistanceMeters>
                <TotalTimeSeconds>145.79748411</TotalTimeSeconds>
                <Calories>6.838553428649902</Calories>
                <Intensity>Active</Intensity>
                <TriggerMethod>Manual</TriggerMethod>
            </Lap>
        </Activity>
    </Activities>
    <Author xsi:type="Application_t">
        <Name>Google Fit</Name>
        <Build>
            <Version>
                <VersionMajor>0</VersionMajor>
                <VersionMinor>0</VersionMinor>
                <BuildMajor>0</BuildMajor>
                <BuildMinor>0</BuildMinor>
            </Version>
        </Build>
        <LangID>en</LangID>
        <PartNumber>000-00000-00</PartNumber>
    </Author>
</TrainingCenterDatabase>
