<?xml version="1.0" encoding="UTF-8"?>
<TrainingCenterDatabase
    xmlns="http://www.garmin.com/xmlschemas/TrainingCenterDatabase/v2"
    xmlns:ns2="http://www.garmin.com/xmlschemas/UserProfile/v2"
    xmlns:ns3="http://www.garmin.com/xmlschemas/ActivityExtension/v2"
    xmlns:ns4="http://www.garmin.com/xmlschemas/ProfileExtension/v1"
    xmlns:ns5="http://www.garmin.com/xmlschemas/ActivityGoals/v1"
    xmlns:xsi="http://www.w3.org/2001/XMLSchema-instance" xsi:schemaLocation="http://www.garmin.com/xmlschemas/TrainingCenterDatabase/v2 http://www.garmin.com/xmlschemas/TrainingCenterDatabasev2.xsd">
    <Activities>
        <Activity Sport="Walking">
            <Id>2022-12-04T14:33:55.162Z</Id>
            <Lap StartTime="2022-12-04T14:33:55.162Z">
                <Track>
                    <Trackpoint>
                        <DistanceMeters>0.0</DistanceMeters>
                        <Time>2022-12-04T14:33:55.162Z</Time>
                    </Trackpoint>
                    <Trackpoint>
                        <DistanceMeters>0.0</DistanceMeters>
                        <Time>2022-12-04T15:05:29.143Z</Time>
                    </Trackpoint>
                    <Trackpoint>
                        <DistanceMeters>60.39525305474336</DistanceMeters>
                        <Time>2022-12-04T15:06:25.242Z</Time>
                    </Trackpoint>
                </Track>
                <DistanceMeters>60.39525305474336</DistanceMeters>
                <TotalTimeSeconds>1950.08</TotalTimeSeconds>
                <Calories>45.98548350275699</Calories>
                <Intensity>Active</Intensity>
                <TriggerMethod>Manual</TriggerMethod>
            </Lap>
        </Activity>
        <Activity Sport="Walking">
            <Id>2022-12-04T15:06:25.242Z</Id>
            <Lap StartTime="2022-12-04T15:06:25.242Z">
                <Track>
                    <Trackpoint>
                        <DistanceMeters>0.0</DistanceMeters>
                        <Time>2022-12-04T15:06:25.242Z</Time>
                    </Trackpoint>
                    <Trackpoint>
                        <DistanceMeters>67.24433346783894</DistanceMeters>
                        <Time>2022-12-04T15:07:21.663Z</Time>
                    </Trackpoint>
                    <Trackpoint>
                        <DistanceMeters>71.9522333385705</DistanceMeters>
                        <Time>2022-12-04T15:07:26.303Z</Time>
                    </Trackpoint>
                    <Trackpoint>
                        <DistanceMeters>137.6559051690843</DistanceMeters>
                        <Time>2022-12-04T15:08:23.223Z</Time>
                    </Trackpoint>
                    <Trackpoint>
                        <DistanceMeters>139.02095205068923</DistanceMeters>
                        <Time>2022-12-04T15:08:24.503Z</Time>
                    </Trackpoint>
                    <Trackpoint>
                        <DistanceMeters>208.0661055068653</DistanceMeters>
                        <Time>2022-12-04T15:09:22.783Z</Time>
                    </Trackpoint>
                    <Trackpoint>
                        <DistanceMeters>222.74265486378405</DistanceMeters>
                        <Time>2022-12-04T15:09:35.503Z</Time>
                    </Trackpoint>
                    <Trackpoint>
                        <DistanceMeters>256.28169779073335</DistanceMeters>
                        <Time>2022-12-04T15:10:02.663Z</Time>
                    </Trackpoint>
                    <Trackpoint>
                        <DistanceMeters>283.69281980422096</DistanceMeters>
                        <Time>2022-12-04T15:10:25.983Z</Time>
                    </Trackpoint>
                    <Trackpoint>
                        <DistanceMeters>294.54205070695514</DistanceMeters>
                        <Time>2022-12-04T15:10:36.383Z</Time>
                    </Trackpoint>
                    <Trackpoint>
                        <DistanceMeters>324.3010938655958</DistanceMeters>
                        <Time>2022-12-04T15:11:03.023Z</Time>
                    </Trackpoint>
                    <Trackpoint>
                        <DistanceMeters>372.89042070557764</DistanceMeters>
                        <Time>2022-12-04T15:11:44.103Z</Time>
                    </Trackpoint>
                    <Trackpoint>
                        <DistanceMeters>396.42991928745954</DistanceMeters>
                        <Time>2022-12-04T15:12:07.303Z</Time>
                    </Trackpoint>
                    <Trackpoint>
                        <DistanceMeters>421.0552387121552</DistanceMeters>
                        <Time>2022-12-04T15:12:30.223Z</Time>
                    </Trackpoint>
                    <Trackpoint>
                        <DistanceMeters>454.7190234068244</DistanceMeters>
                        <Time>2022-12-04T15:13:01.103Z</Time>
                    </Trackpoint>
                    <Trackpoint>
                        <DistanceMeters>482.340696610873</DistanceMeters>
                        <Time>2022-12-04T15:13:24.023Z</Time>
                    </Trackpoint>
                    <Trackpoint>
                        <DistanceMeters>494.46289670122593</DistanceMeters>
                        <Time>2022-12-04T15:13:33.863Z</Time>
                    </Trackpoint>
                    <Trackpoint>
                        <DistanceMeters>528.2956023456775</DistanceMeters>
                        <Time>2022-12-04T15:14:00.503Z</Time>
                    </Trackpoint>
                    <Trackpoint>
                        <DistanceMeters>547.6991893592478</DistanceMeters>
                        <Time>2022-12-04T15:14:15.863Z</Time>
                    </Trackpoint>
                    <Trackpoint>
                        <DistanceMeters>580.8081308162774</DistanceMeters>
                        <Time>2022-12-04T15:14:41.943Z</Time>
                    </Trackpoint>
                    <Trackpoint>
                        <DistanceMeters>636.763845104988</DistanceMeters>
                        <Time>2022-12-04T15:15:35.280Z</Time>
                    </Trackpoint>
                </Track>
                <DistanceMeters>636.763845104988</DistanceMeters>
                <TotalTimeSeconds>550.038</TotalTimeSeconds>
                <Calories>56.31777966666666</Calories>
                <Intensity>Active</Intensity>
                <TriggerMethod>Manual</TriggerMethod>
            </Lap>
        </Activity>
    </Activities>
    <Author xsi:type="Application_t">
        <Name>Google Fit</Name>
        <Build>
            <Version>
                <VersionMajor>0</VersionMajor>
                <VersionMinor>0</VersionMinor>
                <BuildMajor>0</BuildMajor>
                <BuildMinor>0</BuildMinor>
            </Version>
        </Build>
        <LangID>en</LangID>
        <PartNumber>000-00000-00</PartNumber>
    </Author>
</TrainingCenterDatabase>
