<?xml version="1.0" encoding="UTF-8"?>
<TrainingCenterDatabase
    xmlns="http://www.garmin.com/xmlschemas/TrainingCenterDatabase/v2"
    xmlns:ns2="http://www.garmin.com/xmlschemas/UserProfile/v2"
    xmlns:ns3="http://www.garmin.com/xmlschemas/ActivityExtension/v2"
    xmlns:ns4="http://www.garmin.com/xmlschemas/ProfileExtension/v1"
    xmlns:ns5="http://www.garmin.com/xmlschemas/ActivityGoals/v1"
    xmlns:xsi="http://www.w3.org/2001/XMLSchema-instance" xsi:schemaLocation="http://www.garmin.com/xmlschemas/TrainingCenterDatabase/v2 http://www.garmin.com/xmlschemas/TrainingCenterDatabasev2.xsd">
    <Activities>
        <Activity Sport="Walking">
            <Id>2022-11-22T16:13:36.859Z</Id>
            <Lap StartTime="2022-11-22T16:13:36.859Z">
                <Track>
                    <Trackpoint>
                        <DistanceMeters>0.0</DistanceMeters>
                        <Time>2022-11-22T16:13:36.859Z</Time>
                    </Trackpoint>
                    <Trackpoint>
                        <DistanceMeters>0.0</DistanceMeters>
                        <Time>2022-11-22T16:37:39.219Z</Time>
                    </Trackpoint>
                    <Trackpoint>
                        <DistanceMeters>54.154594881613846</DistanceMeters>
                        <Time>2022-11-22T16:40:25.219Z</Time>
                    </Trackpoint>
                    <Trackpoint>
                        <DistanceMeters>127.91985533705581</DistanceMeters>
                        <Time>2022-11-22T16:41:26.139Z</Time>
                    </Trackpoint>
                    <Trackpoint>
                        <DistanceMeters>196.67484359345752</DistanceMeters>
                        <Time>2022-11-22T16:42:26.979Z</Time>
                    </Trackpoint>
                </Track>
                <DistanceMeters>196.67484359345752</DistanceMeters>
                <TotalTimeSeconds>1730.119999766</TotalTimeSeconds>
                <Calories>41.39382900122224</Calories>
                <Intensity>Active</Intensity>
                <TriggerMethod>Manual</TriggerMethod>
            </Lap>
        </Activity>
        <Activity Sport="Walking">
            <Id>2022-11-22T16:41:26.139Z</Id>
            <Lap StartTime="2022-11-22T16:41:26.139Z">
                <Track>
                    <Trackpoint>
                        <DistanceMeters>0.0</DistanceMeters>
                        <Time>2022-11-22T16:41:26.139Z</Time>
                    </Trackpoint>
                    <Trackpoint>
                        <DistanceMeters>68.75498825640172</DistanceMeters>
                        <Time>2022-11-22T16:41:35.743Z</Time>
                    </Trackpoint>
                    <Trackpoint>
                        <DistanceMeters>68.75498825640172</DistanceMeters>
                        <Time>2022-11-22T16:42:26.979Z</Time>
                    </Trackpoint>
                    <Trackpoint>
                        <DistanceMeters>145.08256306807897</DistanceMeters>
                        <Time>2022-11-22T16:43:27.019Z</Time>
                    </Trackpoint>
                    <Trackpoint>
                        <DistanceMeters>146.53018806925914</DistanceMeters>
                        <Time>2022-11-22T16:43:28.139Z</Time>
                    </Trackpoint>
                    <Trackpoint>
                        <DistanceMeters>219.1012796901113</DistanceMeters>
                        <Time>2022-11-22T16:44:25.619Z</Time>
                    </Trackpoint>
                    <Trackpoint>
                        <DistanceMeters>305.53859147111626</DistanceMeters>
                        <Time>2022-11-22T16:45:33.539Z</Time>
                    </Trackpoint>
                    <Trackpoint>
                        <DistanceMeters>324.19567641358105</DistanceMeters>
                        <Time>2022-11-22T16:45:48.379Z</Time>
                    </Trackpoint>
                    <Trackpoint>
                        <DistanceMeters>351.49174059998484</DistanceMeters>
                        <Time>2022-11-22T16:46:10.019Z</Time>
                    </Trackpoint>
                    <Trackpoint>
                        <DistanceMeters>382.9939995658556</DistanceMeters>
                        <Time>2022-11-22T16:46:35.259Z</Time>
                    </Trackpoint>
                    <Trackpoint>
                        <DistanceMeters>423.51452195140826</DistanceMeters>
                        <Time>2022-11-22T16:48:04.078Z</Time>
                    </Trackpoint>
                </Track>
                <DistanceMeters>423.51452195140826</DistanceMeters>
                <TotalTimeSeconds>397.93859886</TotalTimeSeconds>
                <Calories>39.76118916666667</Calories>
                <Intensity>Active</Intensity>
                <TriggerMethod>Manual</TriggerMethod>
            </Lap>
        </Activity>
        <Activity Sport="Walking">
            <Id>2022-11-22T16:58:10.175Z</Id>
            <Lap StartTime="2022-11-22T16:58:10.175Z">
                <Track>
                    <Trackpoint>
                        <DistanceMeters>0.0</DistanceMeters>
                        <Time>2022-11-22T16:58:10.175Z</Time>
                    </Trackpoint>
                    <Trackpoint>
                        <DistanceMeters>0.7927532931872677</DistanceMeters>
                        <Time>2022-11-22T16:58:12.299Z</Time>
                    </Trackpoint>
                    <Trackpoint>
                        <DistanceMeters>69.51881998139328</DistanceMeters>
                        <Time>2022-11-22T16:59:07.379Z</Time>
                    </Trackpoint>
                    <Trackpoint>
                        <DistanceMeters>150.95905063396668</DistanceMeters>
                        <Time>2022-11-22T17:00:11.259Z</Time>
                    </Trackpoint>
                    <Trackpoint>
                        <DistanceMeters>182.52908519091613</DistanceMeters>
                        <Time>2022-11-22T17:00:36.379Z</Time>
                    </Trackpoint>
                    <Trackpoint>
                        <DistanceMeters>205.6441083163527</DistanceMeters>
                        <Time>2022-11-22T17:00:54.379Z</Time>
                    </Trackpoint>
                    <Trackpoint>
                        <DistanceMeters>254.67618048573456</DistanceMeters>
                        <Time>2022-11-22T17:01:32.779Z</Time>
                    </Trackpoint>
                    <Trackpoint>
                        <DistanceMeters>306.9837816963917</DistanceMeters>
                        <Time>2022-11-22T17:02:14.579Z</Time>
                    </Trackpoint>
                    <Trackpoint>
                        <DistanceMeters>389.4042680592755</DistanceMeters>
                        <Time>2022-11-22T17:03:18.579Z</Time>
                    </Trackpoint>
                    <Trackpoint>
                        <DistanceMeters>419.8012076063328</DistanceMeters>
                        <Time>2022-11-22T17:03:40.379Z</Time>
                    </Trackpoint>
                    <Trackpoint>
                        <DistanceMeters>495.71857954055656</DistanceMeters>
                        <Time>2022-11-22T17:04:41.139Z</Time>
                    </Trackpoint>
                    <Trackpoint>
                        <DistanceMeters>508.8922196016187</DistanceMeters>
                        <Time>2022-11-22T17:04:50.979Z</Time>
                    </Trackpoint>
                    <Trackpoint>
                        <DistanceMeters>555.5235831041616</DistanceMeters>
                        <Time>2022-11-22T17:05:28.099Z</Time>
                    </Trackpoint>
                    <Trackpoint>
                        <DistanceMeters>621.4903798149284</DistanceMeters>
                        <Time>2022-11-22T17:06:20.699Z</Time>
                    </Trackpoint>
                    <Trackpoint>
                        <DistanceMeters>636.1169046678741</DistanceMeters>
                        <Time>2022-11-22T17:07:44.173Z</Time>
                    </Trackpoint>
                </Track>
                <DistanceMeters>636.1169046678741</DistanceMeters>
                <TotalTimeSeconds>573.998</TotalTimeSeconds>
                <Calories>58.771017444444446</Calories>
                <Intensity>Active</Intensity>
                <TriggerMethod>Manual</TriggerMethod>
            </Lap>
        </Activity>
        <Activity Sport="Walking">
            <Id>2022-11-22T17:15:36.139Z</Id>
            <Lap StartTime="2022-11-22T17:15:36.139Z">
                <Track>
                    <Trackpoint>
                        <DistanceMeters>0.0</DistanceMeters>
                        <Time>2022-11-22T17:15:36.139Z</Time>
                    </Trackpoint>
                    <Trackpoint>
                        <DistanceMeters>12.396834972899555</DistanceMeters>
                        <Time>2022-11-22T17:15:46.554Z</Time>
                    </Trackpoint>
                    <Trackpoint>
                        <DistanceMeters>12.396834972899555</DistanceMeters>
                        <Time>2022-11-22T17:16:18.147Z</Time>
                    </Trackpoint>
                </Track>
                <DistanceMeters>12.396834972899555</DistanceMeters>
                <TotalTimeSeconds>42.007597409</TotalTimeSeconds>
                <Calories>3.234772166666667</Calories>
                <Intensity>Active</Intensity>
                <TriggerMethod>Manual</TriggerMethod>
            </Lap>
        </Activity>
    </Activities>
    <Author xsi:type="Application_t">
        <Name>Google Fit</Name>
        <Build>
            <Version>
                <VersionMajor>0</VersionMajor>
                <VersionMinor>0</VersionMinor>
                <BuildMajor>0</BuildMajor>
                <BuildMinor>0</BuildMinor>
            </Version>
        </Build>
        <LangID>en</LangID>
        <PartNumber>000-00000-00</PartNumber>
    </Author>
</TrainingCenterDatabase>
