<?xml version="1.0" encoding="UTF-8"?>
<TrainingCenterDatabase
    xmlns="http://www.garmin.com/xmlschemas/TrainingCenterDatabase/v2"
    xmlns:ns2="http://www.garmin.com/xmlschemas/UserProfile/v2"
    xmlns:ns3="http://www.garmin.com/xmlschemas/ActivityExtension/v2"
    xmlns:ns4="http://www.garmin.com/xmlschemas/ProfileExtension/v1"
    xmlns:ns5="http://www.garmin.com/xmlschemas/ActivityGoals/v1"
    xmlns:xsi="http://www.w3.org/2001/XMLSchema-instance" xsi:schemaLocation="http://www.garmin.com/xmlschemas/TrainingCenterDatabase/v2 http://www.garmin.com/xmlschemas/TrainingCenterDatabasev2.xsd">
    <Activities>
        <Activity Sport="Walking">
            <Id>2022-03-02T09:28:00.000Z</Id>
            <Lap StartTime="2022-03-02T09:28:00.000Z">
                <Track>
                    <Trackpoint>
                        <DistanceMeters>0.0</DistanceMeters>
                        <Time>2022-03-02T09:28:00.000Z</Time>
                    </Trackpoint>
                    <Trackpoint>
                        <DistanceMeters>80.0</DistanceMeters>
                        <Time>2022-03-02T09:28:28.420Z</Time>
                    </Trackpoint>
                    <Trackpoint>
                        <DistanceMeters>80.0</DistanceMeters>
                        <Time>2022-03-02T09:29:00.000Z</Time>
                    </Trackpoint>
                    <Trackpoint>
                        <DistanceMeters>124.0</DistanceMeters>
                        <Time>2022-03-02T09:30:00.000Z</Time>
                    </Trackpoint>
                    <Trackpoint>
                        <DistanceMeters>166.0</DistanceMeters>
                        <Time>2022-03-02T09:31:00.000Z</Time>
                    </Trackpoint>
                    <Trackpoint>
                        <DistanceMeters>223.0</DistanceMeters>
                        <Time>2022-03-02T09:32:00.000Z</Time>
                    </Trackpoint>
                    <Trackpoint>
                        <DistanceMeters>288.0</DistanceMeters>
                        <Time>2022-03-02T09:33:00.000Z</Time>
                    </Trackpoint>
                    <Trackpoint>
                        <DistanceMeters>336.0</DistanceMeters>
                        <Time>2022-03-02T09:34:00.000Z</Time>
                    </Trackpoint>
                    <Trackpoint>
                        <DistanceMeters>414.0</DistanceMeters>
                        <Time>2022-03-02T09:35:00.000Z</Time>
                    </Trackpoint>
                    <Trackpoint>
                        <DistanceMeters>486.0</DistanceMeters>
                        <Time>2022-03-02T09:36:00.000Z</Time>
                    </Trackpoint>
                    <Trackpoint>
                        <DistanceMeters>526.0</DistanceMeters>
                        <Time>2022-03-02T09:37:00.000Z</Time>
                    </Trackpoint>
                    <Trackpoint>
                        <DistanceMeters>554.0</DistanceMeters>
                        <Time>2022-03-02T09:38:00.000Z</Time>
                    </Trackpoint>
                    <Trackpoint>
                        <DistanceMeters>558.0</DistanceMeters>
                        <Time>2022-03-02T09:39:00.000Z</Time>
                    </Trackpoint>
                    <Trackpoint>
                        <DistanceMeters>592.0</DistanceMeters>
                        <Time>2022-03-02T09:40:00.000Z</Time>
                    </Trackpoint>
                    <Trackpoint>
                        <DistanceMeters>608.0</DistanceMeters>
                        <Time>2022-03-02T09:41:00.000Z</Time>
                    </Trackpoint>
                    <Trackpoint>
                        <DistanceMeters>625.0</DistanceMeters>
                        <Time>2022-03-02T09:42:00.000Z</Time>
                    </Trackpoint>
                    <Trackpoint>
                        <DistanceMeters>712.0</DistanceMeters>
                        <Time>2022-03-02T09:43:00.000Z</Time>
                    </Trackpoint>
                    <Trackpoint>
                        <DistanceMeters>784.0</DistanceMeters>
                        <Time>2022-03-02T09:44:00.000Z</Time>
                    </Trackpoint>
                    <Trackpoint>
                        <DistanceMeters>820.0</DistanceMeters>
                        <Time>2022-03-02T09:45:00.000Z</Time>
                    </Trackpoint>
                    <Trackpoint>
                        <DistanceMeters>858.0</DistanceMeters>
                        <Time>2022-03-02T09:46:00.000Z</Time>
                    </Trackpoint>
                    <Trackpoint>
                        <DistanceMeters>934.0</DistanceMeters>
                        <Time>2022-03-02T09:47:00.000Z</Time>
                    </Trackpoint>
                    <Trackpoint>
                        <DistanceMeters>1003.0</DistanceMeters>
                        <Time>2022-03-02T09:48:00.000Z</Time>
                    </Trackpoint>
                    <Trackpoint>
                        <DistanceMeters>1050.0</DistanceMeters>
                        <Time>2022-03-02T09:49:00.000Z</Time>
                    </Trackpoint>
                    <Trackpoint>
                        <DistanceMeters>1139.0</DistanceMeters>
                        <Time>2022-03-02T09:50:00.000Z</Time>
                    </Trackpoint>
                    <Trackpoint>
                        <DistanceMeters>1216.0</DistanceMeters>
                        <Time>2022-03-02T09:51:00.000Z</Time>
                    </Trackpoint>
                    <Trackpoint>
                        <DistanceMeters>1240.0</DistanceMeters>
                        <Time>2022-03-02T09:52:00.000Z</Time>
                    </Trackpoint>
                    <Trackpoint>
                        <DistanceMeters>1313.0</DistanceMeters>
                        <Time>2022-03-02T09:53:00.000Z</Time>
                    </Trackpoint>
                    <Trackpoint>
                        <DistanceMeters>1392.0</DistanceMeters>
                        <Time>2022-03-02T09:54:00.000Z</Time>
                    </Trackpoint>
                    <Trackpoint>
                        <DistanceMeters>1455.0</DistanceMeters>
                        <Time>2022-03-02T09:55:00.000Z</Time>
                    </Trackpoint>
                    <Trackpoint>
                        <DistanceMeters>1540.0</DistanceMeters>
                        <Time>2022-03-02T09:56:00.000Z</Time>
                    </Trackpoint>
                    <Trackpoint>
                        <DistanceMeters>1615.0</DistanceMeters>
                        <Time>2022-03-02T09:57:00.000Z</Time>
                    </Trackpoint>
                    <Trackpoint>
                        <DistanceMeters>1694.0</DistanceMeters>
                        <Time>2022-03-02T09:58:00.000Z</Time>
                    </Trackpoint>
                    <Trackpoint>
                        <DistanceMeters>1744.0</DistanceMeters>
                        <Time>2022-03-02T09:59:00.000Z</Time>
                    </Trackpoint>
                    <Trackpoint>
                        <DistanceMeters>1812.0</DistanceMeters>
                        <Time>2022-03-02T10:00:00.000Z</Time>
                    </Trackpoint>
                    <Trackpoint>
                        <DistanceMeters>1883.0</DistanceMeters>
                        <Time>2022-03-02T10:01:00.000Z</Time>
                    </Trackpoint>
                    <Trackpoint>
                        <DistanceMeters>1952.0</DistanceMeters>
                        <Time>2022-03-02T10:02:00.000Z</Time>
                    </Trackpoint>
                    <Trackpoint>
                        <DistanceMeters>2025.0</DistanceMeters>
                        <Time>2022-03-02T10:03:00.000Z</Time>
                    </Trackpoint>
                    <Trackpoint>
                        <DistanceMeters>2064.0</DistanceMeters>
                        <Time>2022-03-02T10:04:00.000Z</Time>
                    </Trackpoint>
                    <Trackpoint>
                        <DistanceMeters>2162.0</DistanceMeters>
                        <Time>2022-03-02T10:05:00.000Z</Time>
                    </Trackpoint>
                    <Trackpoint>
                        <DistanceMeters>2240.0</DistanceMeters>
                        <Time>2022-03-02T10:06:00.000Z</Time>
                    </Trackpoint>
                    <Trackpoint>
                        <DistanceMeters>2322.0</DistanceMeters>
                        <Time>2022-03-02T10:07:00.000Z</Time>
                    </Trackpoint>
                    <Trackpoint>
                        <DistanceMeters>2403.0</DistanceMeters>
                        <Time>2022-03-02T10:08:00.000Z</Time>
                    </Trackpoint>
                    <Trackpoint>
                        <DistanceMeters>2461.0</DistanceMeters>
                        <Time>2022-03-02T10:09:00.000Z</Time>
                    </Trackpoint>
                    <Trackpoint>
                        <DistanceMeters>2532.0</DistanceMeters>
                        <Time>2022-03-02T10:10:00.000Z</Time>
                    </Trackpoint>
                    <Trackpoint>
                        <DistanceMeters>2605.0</DistanceMeters>
                        <Time>2022-03-02T10:11:00.000Z</Time>
                    </Trackpoint>
                    <Trackpoint>
                        <DistanceMeters>2634.0</DistanceMeters>
                        <Time>2022-03-02T10:12:00.000Z</Time>
                    </Trackpoint>
                </Track>
                <DistanceMeters>2634.0</DistanceMeters>
                <TotalTimeSeconds>2640.0</TotalTimeSeconds>
                <Calories>250.7587432861328</Calories>
                <Intensity>Active</Intensity>
                <TriggerMethod>Manual</TriggerMethod>
            </Lap>
        </Activity>
    </Activities>
    <Author xsi:type="Application_t">
        <Name>Google Fit</Name>
        <Build>
            <Version>
                <VersionMajor>0</VersionMajor>
                <VersionMinor>0</VersionMinor>
                <BuildMajor>0</BuildMajor>
                <BuildMinor>0</BuildMinor>
            </Version>
        </Build>
        <LangID>en</LangID>
        <PartNumber>000-00000-00</PartNumber>
    </Author>
</TrainingCenterDatabase>
