<?xml version="1.0" encoding="UTF-8"?>
<TrainingCenterDatabase
    xmlns="http://www.garmin.com/xmlschemas/TrainingCenterDatabase/v2"
    xmlns:ns2="http://www.garmin.com/xmlschemas/UserProfile/v2"
    xmlns:ns3="http://www.garmin.com/xmlschemas/ActivityExtension/v2"
    xmlns:ns4="http://www.garmin.com/xmlschemas/ProfileExtension/v1"
    xmlns:ns5="http://www.garmin.com/xmlschemas/ActivityGoals/v1"
    xmlns:xsi="http://www.w3.org/2001/XMLSchema-instance" xsi:schemaLocation="http://www.garmin.com/xmlschemas/TrainingCenterDatabase/v2 http://www.garmin.com/xmlschemas/TrainingCenterDatabasev2.xsd">
    <Activities>
        <Activity Sport="Walking">
            <Id>2022-09-30T12:51:25.812Z</Id>
            <Lap StartTime="2022-09-30T12:51:25.812Z">
                <Track>
                    <Trackpoint>
                        <DistanceMeters>0.0</DistanceMeters>
                        <Time>2022-09-30T12:51:25.812Z</Time>
                    </Trackpoint>
                    <Trackpoint>
                        <DistanceMeters>39.80036544799805</DistanceMeters>
                        <Time>2022-09-30T12:53:12.187Z</Time>
                    </Trackpoint>
                    <Trackpoint>
                        <DistanceMeters>39.80036544799805</DistanceMeters>
                        <Time>2022-09-30T12:53:27.812Z</Time>
                    </Trackpoint>
                    <Trackpoint>
                        <DistanceMeters>50.23980522155762</DistanceMeters>
                        <Time>2022-09-30T12:54:29.616Z</Time>
                    </Trackpoint>
                </Track>
                <DistanceMeters>50.23980522155762</DistanceMeters>
                <TotalTimeSeconds>183.803642722</TotalTimeSeconds>
                <Calories>7.927868843078613</Calories>
                <Intensity>Active</Intensity>
                <TriggerMethod>Manual</TriggerMethod>
            </Lap>
        </Activity>
        <Activity Sport="Walking">
            <Id>2022-09-30T13:05:20.522Z</Id>
            <Lap StartTime="2022-09-30T13:05:20.522Z">
                <Track>
                    <Trackpoint>
                        <DistanceMeters>0.0</DistanceMeters>
                        <Time>2022-09-30T13:05:20.522Z</Time>
                    </Trackpoint>
                    <Trackpoint>
                        <DistanceMeters>22.9691162109375</DistanceMeters>
                        <Time>2022-09-30T13:06:14.252Z</Time>
                    </Trackpoint>
                    <Trackpoint>
                        <DistanceMeters>80.38603591918945</DistanceMeters>
                        <Time>2022-09-30T13:08:34.852Z</Time>
                    </Trackpoint>
                    <Trackpoint>
                        <DistanceMeters>159.4237174987793</DistanceMeters>
                        <Time>2022-09-30T13:09:35.652Z</Time>
                    </Trackpoint>
                    <Trackpoint>
                        <DistanceMeters>186.3964900970459</DistanceMeters>
                        <Time>2022-09-30T13:09:56.052Z</Time>
                    </Trackpoint>
                    <Trackpoint>
                        <DistanceMeters>267.2419261932373</DistanceMeters>
                        <Time>2022-09-30T13:10:57.372Z</Time>
                    </Trackpoint>
                    <Trackpoint>
                        <DistanceMeters>287.6768341064453</DistanceMeters>
                        <Time>2022-09-30T13:11:12.772Z</Time>
                    </Trackpoint>
                    <Trackpoint>
                        <DistanceMeters>355.45782470703125</DistanceMeters>
                        <Time>2022-09-30T13:12:05.852Z</Time>
                    </Trackpoint>
                    <Trackpoint>
                        <DistanceMeters>370.32115936279297</DistanceMeters>
                        <Time>2022-09-30T13:12:18.212Z</Time>
                    </Trackpoint>
                    <Trackpoint>
                        <DistanceMeters>458.5582504272461</DistanceMeters>
                        <Time>2022-09-30T13:13:16.652Z</Time>
                    </Trackpoint>
                    <Trackpoint>
                        <DistanceMeters>487.27675437927246</DistanceMeters>
                        <Time>2022-09-30T13:13:37.692Z</Time>
                    </Trackpoint>
                    <Trackpoint>
                        <DistanceMeters>533.3443698883057</DistanceMeters>
                        <Time>2022-09-30T13:14:13.972Z</Time>
                    </Trackpoint>
                    <Trackpoint>
                        <DistanceMeters>541.5053997039795</DistanceMeters>
                        <Time>2022-09-30T13:14:19.812Z</Time>
                    </Trackpoint>
                    <Trackpoint>
                        <DistanceMeters>582.7239933013916</DistanceMeters>
                        <Time>2022-09-30T13:14:50.052Z</Time>
                    </Trackpoint>
                    <Trackpoint>
                        <DistanceMeters>595.3797626495361</DistanceMeters>
                        <Time>2022-09-30T13:14:59.012Z</Time>
                    </Trackpoint>
                    <Trackpoint>
                        <DistanceMeters>631.1116199493408</DistanceMeters>
                        <Time>2022-09-30T13:15:27.812Z</Time>
                    </Trackpoint>
                    <Trackpoint>
                        <DistanceMeters>661.559741973877</DistanceMeters>
                        <Time>2022-09-30T13:15:57.212Z</Time>
                    </Trackpoint>
                    <Trackpoint>
                        <DistanceMeters>686.7303485870361</DistanceMeters>
                        <Time>2022-09-30T13:16:17.092Z</Time>
                    </Trackpoint>
                    <Trackpoint>
                        <DistanceMeters>700.3443450927734</DistanceMeters>
                        <Time>2022-09-30T13:16:27.972Z</Time>
                    </Trackpoint>
                    <Trackpoint>
                        <DistanceMeters>752.2308349609375</DistanceMeters>
                        <Time>2022-09-30T13:17:10.532Z</Time>
                    </Trackpoint>
                    <Trackpoint>
                        <DistanceMeters>759.2283344268799</DistanceMeters>
                        <Time>2022-09-30T13:17:16.572Z</Time>
                    </Trackpoint>
                    <Trackpoint>
                        <DistanceMeters>786.4274196624756</DistanceMeters>
                        <Time>2022-09-30T13:18:07.711Z</Time>
                    </Trackpoint>
                </Track>
                <DistanceMeters>786.4274196624756</DistanceMeters>
                <TotalTimeSeconds>767.189</TotalTimeSeconds>
                <Calories>78.55162811279297</Calories>
                <Intensity>Active</Intensity>
                <TriggerMethod>Manual</TriggerMethod>
            </Lap>
        </Activity>
        <Activity Sport="Walking">
            <Id>2022-09-30T13:18:07.711Z</Id>
            <Lap StartTime="2022-09-30T13:18:07.711Z">
                <Track>
                    <Trackpoint>
                        <DistanceMeters>0.0</DistanceMeters>
                        <Time>2022-09-30T13:18:07.711Z</Time>
                    </Trackpoint>
                    <Trackpoint>
                        <DistanceMeters>0.0</DistanceMeters>
                        <Time>2022-09-30T13:22:35.492Z</Time>
                    </Trackpoint>
                    <Trackpoint>
                        <DistanceMeters>11.091904640197754</DistanceMeters>
                        <Time>2022-09-30T13:23:05.172Z</Time>
                    </Trackpoint>
                    <Trackpoint>
                        <DistanceMeters>92.42864322662354</DistanceMeters>
                        <Time>2022-09-30T13:24:05.692Z</Time>
                    </Trackpoint>
                </Track>
                <DistanceMeters>92.42864322662354</DistanceMeters>
                <TotalTimeSeconds>357.981355816</TotalTimeSeconds>
                <Calories>7.3224415025867975</Calories>
                <Intensity>Active</Intensity>
                <TriggerMethod>Manual</TriggerMethod>
            </Lap>
        </Activity>
        <Activity Sport="Walking">
            <Id>2022-09-30T13:23:05.172Z</Id>
            <Lap StartTime="2022-09-30T13:23:05.172Z">
                <Track>
                    <Trackpoint>
                        <DistanceMeters>0.0</DistanceMeters>
                        <Time>2022-09-30T13:23:05.172Z</Time>
                    </Trackpoint>
                    <Trackpoint>
                        <DistanceMeters>81.33673858642578</DistanceMeters>
                        <Time>2022-09-30T13:23:14.961Z</Time>
                    </Trackpoint>
                    <Trackpoint>
                        <DistanceMeters>81.33673858642578</DistanceMeters>
                        <Time>2022-09-30T13:24:05.692Z</Time>
                    </Trackpoint>
                    <Trackpoint>
                        <DistanceMeters>121.79972457885742</DistanceMeters>
                        <Time>2022-09-30T13:24:37.172Z</Time>
                    </Trackpoint>
                    <Trackpoint>
                        <DistanceMeters>146.50452423095703</DistanceMeters>
                        <Time>2022-09-30T13:24:56.052Z</Time>
                    </Trackpoint>
                    <Trackpoint>
                        <DistanceMeters>217.747802734375</DistanceMeters>
                        <Time>2022-09-30T13:25:50.412Z</Time>
                    </Trackpoint>
                    <Trackpoint>
                        <DistanceMeters>245.47969818115234</DistanceMeters>
                        <Time>2022-09-30T13:26:15.092Z</Time>
                    </Trackpoint>
                    <Trackpoint>
                        <DistanceMeters>274.6124858856201</DistanceMeters>
                        <Time>2022-09-30T13:26:39.012Z</Time>
                    </Trackpoint>
                    <Trackpoint>
                        <DistanceMeters>293.20198249816895</DistanceMeters>
                        <Time>2022-09-30T13:26:53.972Z</Time>
                    </Trackpoint>
                    <Trackpoint>
                        <DistanceMeters>365.704683303833</DistanceMeters>
                        <Time>2022-09-30T13:27:51.572Z</Time>
                    </Trackpoint>
                    <Trackpoint>
                        <DistanceMeters>403.67971992492676</DistanceMeters>
                        <Time>2022-09-30T13:28:20.132Z</Time>
                    </Trackpoint>
                    <Trackpoint>
                        <DistanceMeters>434.391300201416</DistanceMeters>
                        <Time>2022-09-30T13:28:44.932Z</Time>
                    </Trackpoint>
                    <Trackpoint>
                        <DistanceMeters>450.33884620666504</DistanceMeters>
                        <Time>2022-09-30T13:28:57.212Z</Time>
                    </Trackpoint>
                    <Trackpoint>
                        <DistanceMeters>521.7387866973877</DistanceMeters>
                        <Time>2022-09-30T13:29:53.092Z</Time>
                    </Trackpoint>
                    <Trackpoint>
                        <DistanceMeters>560.2551364898682</DistanceMeters>
                        <Time>2022-09-30T13:30:19.172Z</Time>
                    </Trackpoint>
                    <Trackpoint>
                        <DistanceMeters>596.6183681488037</DistanceMeters>
                        <Time>2022-09-30T13:30:45.172Z</Time>
                    </Trackpoint>
                    <Trackpoint>
                        <DistanceMeters>678.6041927337646</DistanceMeters>
                        <Time>2022-09-30T13:31:46.372Z</Time>
                    </Trackpoint>
                    <Trackpoint>
                        <DistanceMeters>711.3857440948486</DistanceMeters>
                        <Time>2022-09-30T13:32:14.972Z</Time>
                    </Trackpoint>
                    <Trackpoint>
                        <DistanceMeters>717.9103937149048</DistanceMeters>
                        <Time>2022-09-30T13:33:26.067Z</Time>
                    </Trackpoint>
                </Track>
                <DistanceMeters>717.9103937149048</DistanceMeters>
                <TotalTimeSeconds>620.894644418</TotalTimeSeconds>
                <Calories>62.570465087890625</Calories>
                <Intensity>Active</Intensity>
                <TriggerMethod>Manual</TriggerMethod>
            </Lap>
        </Activity>
        <Activity Sport="Walking">
            <Id>2022-09-30T13:35:31.904Z</Id>
            <Lap StartTime="2022-09-30T13:35:31.904Z">
                <Track>
                    <Trackpoint>
                        <DistanceMeters>0.0</DistanceMeters>
                        <Time>2022-09-30T13:35:31.904Z</Time>
                    </Trackpoint>
                    <Trackpoint>
                        <DistanceMeters>0.0</DistanceMeters>
                        <Time>2022-09-30T13:35:42.692Z</Time>
                    </Trackpoint>
                    <Trackpoint>
                        <DistanceMeters>15.659159660339355</DistanceMeters>
                        <Time>2022-09-30T13:37:00.802Z</Time>
                    </Trackpoint>
                </Track>
                <DistanceMeters>15.659159660339355</DistanceMeters>
                <TotalTimeSeconds>88.898</TotalTimeSeconds>
                <Calories>9.102168083190918</Calories>
                <Intensity>Active</Intensity>
                <TriggerMethod>Manual</TriggerMethod>
            </Lap>
        </Activity>
        <Activity Sport="Walking">
            <Id>2022-09-30T13:43:21.292Z</Id>
            <Lap StartTime="2022-09-30T13:43:21.292Z">
                <Track>
                    <Trackpoint>
                        <DistanceMeters>0.0</DistanceMeters>
                        <Time>2022-09-30T13:43:21.292Z</Time>
                    </Trackpoint>
                    <Trackpoint>
                        <DistanceMeters>17.616554260253906</DistanceMeters>
                        <Time>2022-09-30T13:43:38.449Z</Time>
                    </Trackpoint>
                    <Trackpoint>
                        <DistanceMeters>17.616554260253906</DistanceMeters>
                        <Time>2022-09-30T13:45:14.880Z</Time>
                    </Trackpoint>
                </Track>
                <DistanceMeters>17.616554260253906</DistanceMeters>
                <TotalTimeSeconds>113.587643482</TotalTimeSeconds>
                <Calories>9.873461723327637</Calories>
                <Intensity>Active</Intensity>
                <TriggerMethod>Manual</TriggerMethod>
            </Lap>
        </Activity>
    </Activities>
    <Author xsi:type="Application_t">
        <Name>Google Fit</Name>
        <Build>
            <Version>
                <VersionMajor>0</VersionMajor>
                <VersionMinor>0</VersionMinor>
                <BuildMajor>0</BuildMajor>
                <BuildMinor>0</BuildMinor>
            </Version>
        </Build>
        <LangID>en</LangID>
        <PartNumber>000-00000-00</PartNumber>
    </Author>
</TrainingCenterDatabase>
