<?xml version="1.0" encoding="UTF-8"?>
<TrainingCenterDatabase
    xmlns="http://www.garmin.com/xmlschemas/TrainingCenterDatabase/v2"
    xmlns:ns2="http://www.garmin.com/xmlschemas/UserProfile/v2"
    xmlns:ns3="http://www.garmin.com/xmlschemas/ActivityExtension/v2"
    xmlns:ns4="http://www.garmin.com/xmlschemas/ProfileExtension/v1"
    xmlns:ns5="http://www.garmin.com/xmlschemas/ActivityGoals/v1"
    xmlns:xsi="http://www.w3.org/2001/XMLSchema-instance" xsi:schemaLocation="http://www.garmin.com/xmlschemas/TrainingCenterDatabase/v2 http://www.garmin.com/xmlschemas/TrainingCenterDatabasev2.xsd">
    <Activities>
        <Activity Sport="Walking">
            <Id>2022-09-03T08:05:24.968Z</Id>
            <Lap StartTime="2022-09-03T08:05:24.968Z">
                <Track>
                    <Trackpoint>
                        <DistanceMeters>0.0</DistanceMeters>
                        <Time>2022-09-03T08:05:24.968Z</Time>
                    </Trackpoint>
                    <Trackpoint>
                        <DistanceMeters>31.97078514099121</DistanceMeters>
                        <Time>2022-09-03T08:05:46.629Z</Time>
                    </Trackpoint>
                    <Trackpoint>
                        <DistanceMeters>31.97078514099121</DistanceMeters>
                        <Time>2022-09-03T08:07:02.968Z</Time>
                    </Trackpoint>
                </Track>
                <DistanceMeters>31.97078514099121</DistanceMeters>
                <TotalTimeSeconds>98.000003072</TotalTimeSeconds>
                <Calories>6.243879318237305</Calories>
                <Intensity>Active</Intensity>
                <TriggerMethod>Manual</TriggerMethod>
            </Lap>
        </Activity>
        <Activity Sport="Walking">
            <Id>2022-09-03T08:06:47.611Z</Id>
            <Lap StartTime="2022-09-03T08:06:47.611Z">
                <Track>
                    <Trackpoint>
                        <DistanceMeters>0.0</DistanceMeters>
                        <Time>2022-09-03T08:06:47.611Z</Time>
                    </Trackpoint>
                    <Trackpoint>
                        <DistanceMeters>0.0</DistanceMeters>
                        <Time>2022-09-03T08:15:02.708Z</Time>
                    </Trackpoint>
                    <Trackpoint>
                        <DistanceMeters>36.53804016113281</DistanceMeters>
                        <Time>2022-09-03T08:16:54.708Z</Time>
                    </Trackpoint>
                    <Trackpoint>
                        <DistanceMeters>65.24650001525879</DistanceMeters>
                        <Time>2022-09-03T08:17:35.388Z</Time>
                    </Trackpoint>
                </Track>
                <DistanceMeters>65.24650001525879</DistanceMeters>
                <TotalTimeSeconds>647.777340256</TotalTimeSeconds>
                <Calories>14.653152585029602</Calories>
                <Intensity>Active</Intensity>
                <TriggerMethod>Manual</TriggerMethod>
            </Lap>
        </Activity>
        <Activity Sport="Walking">
            <Id>2022-09-03T08:16:54.708Z</Id>
            <Lap StartTime="2022-09-03T08:16:54.708Z">
                <Track>
                    <Trackpoint>
                        <DistanceMeters>0.0</DistanceMeters>
                        <Time>2022-09-03T08:16:54.708Z</Time>
                    </Trackpoint>
                    <Trackpoint>
                        <DistanceMeters>28.708459854125977</DistanceMeters>
                        <Time>2022-09-03T08:17:11.840Z</Time>
                    </Trackpoint>
                    <Trackpoint>
                        <DistanceMeters>28.708459854125977</DistanceMeters>
                        <Time>2022-09-03T08:17:35.388Z</Time>
                    </Trackpoint>
                    <Trackpoint>
                        <DistanceMeters>61.984174728393555</DistanceMeters>
                        <Time>2022-09-03T08:18:39.708Z</Time>
                    </Trackpoint>
                    <Trackpoint>
                        <DistanceMeters>74.19617080688477</DistanceMeters>
                        <Time>2022-09-03T08:18:49.388Z</Time>
                    </Trackpoint>
                    <Trackpoint>
                        <DistanceMeters>91.1602611541748</DistanceMeters>
                        <Time>2022-09-03T08:19:47.628Z</Time>
                    </Trackpoint>
                </Track>
                <DistanceMeters>91.1602611541748</DistanceMeters>
                <TotalTimeSeconds>172.919999043</TotalTimeSeconds>
                <Calories>15.915533065795898</Calories>
                <Intensity>Active</Intensity>
                <TriggerMethod>Manual</TriggerMethod>
            </Lap>
        </Activity>
        <Activity Sport="Walking">
            <Id>2022-09-03T08:19:47.282Z</Id>
            <Lap StartTime="2022-09-03T08:19:47.282Z">
                <Track>
                    <Trackpoint>
                        <DistanceMeters>0.0</DistanceMeters>
                        <Time>2022-09-03T08:19:47.282Z</Time>
                    </Trackpoint>
                    <Trackpoint>
                        <DistanceMeters>0.0</DistanceMeters>
                        <Time>2022-09-03T08:32:21.908Z</Time>
                    </Trackpoint>
                    <Trackpoint>
                        <DistanceMeters>51.544734954833984</DistanceMeters>
                        <Time>2022-09-03T08:34:21.388Z</Time>
                    </Trackpoint>
                    <Trackpoint>
                        <DistanceMeters>75.03347396850586</DistanceMeters>
                        <Time>2022-09-03T08:34:48.668Z</Time>
                    </Trackpoint>
                </Track>
                <DistanceMeters>75.03347396850586</DistanceMeters>
                <TotalTimeSeconds>901.386341651</TotalTimeSeconds>
                <Calories>20.38243019580841</Calories>
                <Intensity>Active</Intensity>
                <TriggerMethod>Manual</TriggerMethod>
            </Lap>
        </Activity>
        <Activity Sport="Walking">
            <Id>2022-09-03T08:34:21.388Z</Id>
            <Lap StartTime="2022-09-03T08:34:21.388Z">
                <Track>
                    <Trackpoint>
                        <DistanceMeters>0.0</DistanceMeters>
                        <Time>2022-09-03T08:34:21.388Z</Time>
                    </Trackpoint>
                    <Trackpoint>
                        <DistanceMeters>23.488739013671875</DistanceMeters>
                        <Time>2022-09-03T08:34:39.068Z</Time>
                    </Trackpoint>
                    <Trackpoint>
                        <DistanceMeters>23.488739013671875</DistanceMeters>
                        <Time>2022-09-03T08:34:48.668Z</Time>
                    </Trackpoint>
                    <Trackpoint>
                        <DistanceMeters>32.27334403991699</DistanceMeters>
                        <Time>2022-09-03T08:34:57.188Z</Time>
                    </Trackpoint>
                    <Trackpoint>
                        <DistanceMeters>57.85064125061035</DistanceMeters>
                        <Time>2022-09-03T08:35:24.688Z</Time>
                    </Trackpoint>
                    <Trackpoint>
                        <DistanceMeters>65.68022108078003</DistanceMeters>
                        <Time>2022-09-03T08:35:39.148Z</Time>
                    </Trackpoint>
                    <Trackpoint>
                        <DistanceMeters>87.21156644821167</DistanceMeters>
                        <Time>2022-09-03T08:37:11.348Z</Time>
                    </Trackpoint>
                    <Trackpoint>
                        <DistanceMeters>110.04784154891968</DistanceMeters>
                        <Time>2022-09-03T08:38:21.348Z</Time>
                    </Trackpoint>
                </Track>
                <DistanceMeters>110.04784154891968</DistanceMeters>
                <TotalTimeSeconds>239.960001422</TotalTimeSeconds>
                <Calories>21.745454788208008</Calories>
                <Intensity>Active</Intensity>
                <TriggerMethod>Manual</TriggerMethod>
            </Lap>
        </Activity>
    </Activities>
    <Author xsi:type="Application_t">
        <Name>Google Fit</Name>
        <Build>
            <Version>
                <VersionMajor>0</VersionMajor>
                <VersionMinor>0</VersionMinor>
                <BuildMajor>0</BuildMajor>
                <BuildMinor>0</BuildMinor>
            </Version>
        </Build>
        <LangID>en</LangID>
        <PartNumber>000-00000-00</PartNumber>
    </Author>
</TrainingCenterDatabase>
