<?xml version="1.0" encoding="UTF-8"?>
<TrainingCenterDatabase
    xmlns="http://www.garmin.com/xmlschemas/TrainingCenterDatabase/v2"
    xmlns:ns2="http://www.garmin.com/xmlschemas/UserProfile/v2"
    xmlns:ns3="http://www.garmin.com/xmlschemas/ActivityExtension/v2"
    xmlns:ns4="http://www.garmin.com/xmlschemas/ProfileExtension/v1"
    xmlns:ns5="http://www.garmin.com/xmlschemas/ActivityGoals/v1"
    xmlns:xsi="http://www.w3.org/2001/XMLSchema-instance" xsi:schemaLocation="http://www.garmin.com/xmlschemas/TrainingCenterDatabase/v2 http://www.garmin.com/xmlschemas/TrainingCenterDatabasev2.xsd">
    <Activities>
        <Activity Sport="Walking">
            <Id>2022-02-28T07:05:15.282Z</Id>
            <Lap StartTime="2022-02-28T07:05:15.282Z">
                <Track>
                    <Trackpoint>
                        <DistanceMeters>0.0</DistanceMeters>
                        <Time>2022-02-28T07:05:15.282Z</Time>
                    </Trackpoint>
                    <Trackpoint>
                        <DistanceMeters>0.0</DistanceMeters>
                        <Time>2022-02-28T07:05:23.290Z</Time>
                    </Trackpoint>
                </Track>
                <DistanceMeters>0.0</DistanceMeters>
                <TotalTimeSeconds>8.008</TotalTimeSeconds>
                <Calories>0.7776657342910767</Calories>
                <Intensity>Active</Intensity>
                <TriggerMethod>Manual</TriggerMethod>
            </Lap>
        </Activity>
        <Activity Sport="Walking">
            <Id>2022-02-28T07:14:00.000Z</Id>
            <Lap StartTime="2022-02-28T07:14:00.000Z">
                <Track>
                    <Trackpoint>
                        <DistanceMeters>0.0</DistanceMeters>
                        <Time>2022-02-28T07:14:00.000Z</Time>
                    </Trackpoint>
                    <Trackpoint>
                        <DistanceMeters>33.0</DistanceMeters>
                        <Time>2022-02-28T07:15:00.000Z</Time>
                    </Trackpoint>
                </Track>
                <DistanceMeters>33.0</DistanceMeters>
                <TotalTimeSeconds>60.0</TotalTimeSeconds>
                <Calories>5.826666831970215</Calories>
                <Intensity>Active</Intensity>
                <TriggerMethod>Manual</TriggerMethod>
            </Lap>
        </Activity>
        <Activity Sport="Walking">
            <Id>2022-02-28T07:15:00.000Z</Id>
            <Lap StartTime="2022-02-28T07:15:00.000Z">
                <Track>
                    <Trackpoint>
                        <DistanceMeters>0.0</DistanceMeters>
                        <Time>2022-02-28T07:15:00.000Z</Time>
                    </Trackpoint>
                    <Trackpoint>
                        <DistanceMeters>37.0</DistanceMeters>
                        <Time>2022-02-28T07:16:00.000Z</Time>
                    </Trackpoint>
                </Track>
                <DistanceMeters>37.0</DistanceMeters>
                <TotalTimeSeconds>60.0</TotalTimeSeconds>
                <Calories>5.826666831970215</Calories>
                <Intensity>Active</Intensity>
                <TriggerMethod>Manual</TriggerMethod>
            </Lap>
        </Activity>
        <Activity Sport="Walking">
            <Id>2022-02-28T07:16:00.000Z</Id>
            <Lap StartTime="2022-02-28T07:16:00.000Z">
                <Track>
                    <Trackpoint>
                        <DistanceMeters>0.0</DistanceMeters>
                        <Time>2022-02-28T07:16:00.000Z</Time>
                    </Trackpoint>
                    <Trackpoint>
                        <DistanceMeters>0.0</DistanceMeters>
                        <Time>2022-02-28T07:17:00.000Z</Time>
                    </Trackpoint>
                </Track>
                <DistanceMeters>0.0</DistanceMeters>
                <TotalTimeSeconds>60.0</TotalTimeSeconds>
                <Calories>5.826666831970215</Calories>
                <Intensity>Active</Intensity>
                <TriggerMethod>Manual</TriggerMethod>
            </Lap>
        </Activity>
        <Activity Sport="Walking">
            <Id>2022-02-28T07:18:00.000Z</Id>
            <Lap StartTime="2022-02-28T07:18:00.000Z">
                <Track>
                    <Trackpoint>
                        <DistanceMeters>0.0</DistanceMeters>
                        <Time>2022-02-28T07:18:00.000Z</Time>
                    </Trackpoint>
                    <Trackpoint>
                        <DistanceMeters>30.0</DistanceMeters>
                        <Time>2022-02-28T07:19:00.000Z</Time>
                    </Trackpoint>
                </Track>
                <DistanceMeters>30.0</DistanceMeters>
                <TotalTimeSeconds>60.0</TotalTimeSeconds>
                <Calories>5.826666831970215</Calories>
                <Intensity>Active</Intensity>
                <TriggerMethod>Manual</TriggerMethod>
            </Lap>
        </Activity>
        <Activity Sport="Walking">
            <Id>2022-02-28T07:19:00.000Z</Id>
            <Lap StartTime="2022-02-28T07:19:00.000Z">
                <Track>
                    <Trackpoint>
                        <DistanceMeters>0.0</DistanceMeters>
                        <Time>2022-02-28T07:19:00.000Z</Time>
                    </Trackpoint>
                    <Trackpoint>
                        <DistanceMeters>51.0</DistanceMeters>
                        <Time>2022-02-28T07:20:00.000Z</Time>
                    </Trackpoint>
                </Track>
                <DistanceMeters>51.0</DistanceMeters>
                <TotalTimeSeconds>60.0</TotalTimeSeconds>
                <Calories>5.826666831970215</Calories>
                <Intensity>Active</Intensity>
                <TriggerMethod>Manual</TriggerMethod>
            </Lap>
        </Activity>
        <Activity Sport="Walking">
            <Id>2022-02-28T07:20:00.000Z</Id>
            <Lap StartTime="2022-02-28T07:20:00.000Z">
                <Track>
                    <Trackpoint>
                        <DistanceMeters>0.0</DistanceMeters>
                        <Time>2022-02-28T07:20:00.000Z</Time>
                    </Trackpoint>
                    <Trackpoint>
                        <DistanceMeters>29.0</DistanceMeters>
                        <Time>2022-02-28T07:21:00.000Z</Time>
                    </Trackpoint>
                </Track>
                <DistanceMeters>29.0</DistanceMeters>
                <TotalTimeSeconds>60.0</TotalTimeSeconds>
                <Calories>5.826666831970215</Calories>
                <Intensity>Active</Intensity>
                <TriggerMethod>Manual</TriggerMethod>
            </Lap>
        </Activity>
        <Activity Sport="Walking">
            <Id>2022-02-28T07:21:00.000Z</Id>
            <Lap StartTime="2022-02-28T07:21:00.000Z">
                <Track>
                    <Trackpoint>
                        <DistanceMeters>0.0</DistanceMeters>
                        <Time>2022-02-28T07:21:00.000Z</Time>
                    </Trackpoint>
                    <Trackpoint>
                        <DistanceMeters>60.0</DistanceMeters>
                        <Time>2022-02-28T07:22:00.000Z</Time>
                    </Trackpoint>
                </Track>
                <DistanceMeters>60.0</DistanceMeters>
                <TotalTimeSeconds>60.0</TotalTimeSeconds>
                <Calories>5.826666831970215</Calories>
                <Intensity>Active</Intensity>
                <TriggerMethod>Manual</TriggerMethod>
            </Lap>
        </Activity>
        <Activity Sport="Walking">
            <Id>2022-02-28T07:22:00.000Z</Id>
            <Lap StartTime="2022-02-28T07:22:00.000Z">
                <Track>
                    <Trackpoint>
                        <DistanceMeters>0.0</DistanceMeters>
                        <Time>2022-02-28T07:22:00.000Z</Time>
                    </Trackpoint>
                    <Trackpoint>
                        <DistanceMeters>24.0</DistanceMeters>
                        <Time>2022-02-28T07:23:00.000Z</Time>
                    </Trackpoint>
                </Track>
                <DistanceMeters>24.0</DistanceMeters>
                <TotalTimeSeconds>60.0</TotalTimeSeconds>
                <Calories>5.826666831970215</Calories>
                <Intensity>Active</Intensity>
                <TriggerMethod>Manual</TriggerMethod>
            </Lap>
        </Activity>
        <Activity Sport="Walking">
            <Id>2022-02-28T07:23:00.000Z</Id>
            <Lap StartTime="2022-02-28T07:23:00.000Z">
                <Track>
                    <Trackpoint>
                        <DistanceMeters>0.0</DistanceMeters>
                        <Time>2022-02-28T07:23:00.000Z</Time>
                    </Trackpoint>
                    <Trackpoint>
                        <DistanceMeters>41.0</DistanceMeters>
                        <Time>2022-02-28T07:24:00.000Z</Time>
                    </Trackpoint>
                </Track>
                <DistanceMeters>41.0</DistanceMeters>
                <TotalTimeSeconds>60.0</TotalTimeSeconds>
                <Calories>5.826666831970215</Calories>
                <Intensity>Active</Intensity>
                <TriggerMethod>Manual</TriggerMethod>
            </Lap>
        </Activity>
        <Activity Sport="Walking">
            <Id>2022-02-28T07:24:00.000Z</Id>
            <Lap StartTime="2022-02-28T07:24:00.000Z">
                <Track>
                    <Trackpoint>
                        <DistanceMeters>0.0</DistanceMeters>
                        <Time>2022-02-28T07:24:00.000Z</Time>
                    </Trackpoint>
                    <Trackpoint>
                        <DistanceMeters>62.0</DistanceMeters>
                        <Time>2022-02-28T07:25:00.000Z</Time>
                    </Trackpoint>
                </Track>
                <DistanceMeters>62.0</DistanceMeters>
                <TotalTimeSeconds>60.0</TotalTimeSeconds>
                <Calories>5.826666831970215</Calories>
                <Intensity>Active</Intensity>
                <TriggerMethod>Manual</TriggerMethod>
            </Lap>
        </Activity>
        <Activity Sport="Walking">
            <Id>2022-02-28T07:25:00.000Z</Id>
            <Lap StartTime="2022-02-28T07:25:00.000Z">
                <Track>
                    <Trackpoint>
                        <DistanceMeters>0.0</DistanceMeters>
                        <Time>2022-02-28T07:25:00.000Z</Time>
                    </Trackpoint>
                    <Trackpoint>
                        <DistanceMeters>70.0</DistanceMeters>
                        <Time>2022-02-28T07:26:00.000Z</Time>
                    </Trackpoint>
                </Track>
                <DistanceMeters>70.0</DistanceMeters>
                <TotalTimeSeconds>60.0</TotalTimeSeconds>
                <Calories>5.826666831970215</Calories>
                <Intensity>Active</Intensity>
                <TriggerMethod>Manual</TriggerMethod>
            </Lap>
        </Activity>
        <Activity Sport="Walking">
            <Id>2022-02-28T07:26:00.000Z</Id>
            <Lap StartTime="2022-02-28T07:26:00.000Z">
                <Track>
                    <Trackpoint>
                        <DistanceMeters>0.0</DistanceMeters>
                        <Time>2022-02-28T07:26:00.000Z</Time>
                    </Trackpoint>
                    <Trackpoint>
                        <DistanceMeters>3.0</DistanceMeters>
                        <Time>2022-02-28T07:27:00.000Z</Time>
                    </Trackpoint>
                </Track>
                <DistanceMeters>3.0</DistanceMeters>
                <TotalTimeSeconds>60.0</TotalTimeSeconds>
                <Calories>5.826666831970215</Calories>
                <Intensity>Active</Intensity>
                <TriggerMethod>Manual</TriggerMethod>
            </Lap>
        </Activity>
        <Activity Sport="Walking">
            <Id>2022-02-28T07:27:00.000Z</Id>
            <Lap StartTime="2022-02-28T07:27:00.000Z">
                <Track>
                    <Trackpoint>
                        <DistanceMeters>0.0</DistanceMeters>
                        <Time>2022-02-28T07:27:00.000Z</Time>
                    </Trackpoint>
                    <Trackpoint>
                        <DistanceMeters>0.0</DistanceMeters>
                        <Time>2022-02-28T07:28:00.000Z</Time>
                    </Trackpoint>
                </Track>
                <DistanceMeters>0.0</DistanceMeters>
                <TotalTimeSeconds>60.0</TotalTimeSeconds>
                <Calories>5.826666831970215</Calories>
                <Intensity>Active</Intensity>
                <TriggerMethod>Manual</TriggerMethod>
            </Lap>
        </Activity>
        <Activity Sport="Walking">
            <Id>2022-02-28T07:31:00.000Z</Id>
            <Lap StartTime="2022-02-28T07:31:00.000Z">
                <Track>
                    <Trackpoint>
                        <DistanceMeters>0.0</DistanceMeters>
                        <Time>2022-02-28T07:31:00.000Z</Time>
                    </Trackpoint>
                    <Trackpoint>
                        <DistanceMeters>62.0</DistanceMeters>
                        <Time>2022-02-28T07:32:00.000Z</Time>
                    </Trackpoint>
                </Track>
                <DistanceMeters>62.0</DistanceMeters>
                <TotalTimeSeconds>60.0</TotalTimeSeconds>
                <Calories>5.826666831970215</Calories>
                <Intensity>Active</Intensity>
                <TriggerMethod>Manual</TriggerMethod>
            </Lap>
        </Activity>
        <Activity Sport="Walking">
            <Id>2022-02-28T07:32:00.000Z</Id>
            <Lap StartTime="2022-02-28T07:32:00.000Z">
                <Track>
                    <Trackpoint>
                        <DistanceMeters>0.0</DistanceMeters>
                        <Time>2022-02-28T07:32:00.000Z</Time>
                    </Trackpoint>
                    <Trackpoint>
                        <DistanceMeters>21.0</DistanceMeters>
                        <Time>2022-02-28T07:33:00.000Z</Time>
                    </Trackpoint>
                </Track>
                <DistanceMeters>21.0</DistanceMeters>
                <TotalTimeSeconds>60.0</TotalTimeSeconds>
                <Calories>5.826666831970215</Calories>
                <Intensity>Active</Intensity>
                <TriggerMethod>Manual</TriggerMethod>
            </Lap>
        </Activity>
        <Activity Sport="Walking">
            <Id>2022-02-28T07:33:00.000Z</Id>
            <Lap StartTime="2022-02-28T07:33:00.000Z">
                <Track>
                    <Trackpoint>
                        <DistanceMeters>0.0</DistanceMeters>
                        <Time>2022-02-28T07:33:00.000Z</Time>
                    </Trackpoint>
                    <Trackpoint>
                        <DistanceMeters>23.0</DistanceMeters>
                        <Time>2022-02-28T07:34:00.000Z</Time>
                    </Trackpoint>
                </Track>
                <DistanceMeters>23.0</DistanceMeters>
                <TotalTimeSeconds>60.0</TotalTimeSeconds>
                <Calories>5.826666831970215</Calories>
                <Intensity>Active</Intensity>
                <TriggerMethod>Manual</TriggerMethod>
            </Lap>
        </Activity>
        <Activity Sport="Walking">
            <Id>2022-02-28T07:34:00.000Z</Id>
            <Lap StartTime="2022-02-28T07:34:00.000Z">
                <Track>
                    <Trackpoint>
                        <DistanceMeters>0.0</DistanceMeters>
                        <Time>2022-02-28T07:34:00.000Z</Time>
                    </Trackpoint>
                    <Trackpoint>
                        <DistanceMeters>10.0</DistanceMeters>
                        <Time>2022-02-28T07:35:00.000Z</Time>
                    </Trackpoint>
                </Track>
                <DistanceMeters>10.0</DistanceMeters>
                <TotalTimeSeconds>60.0</TotalTimeSeconds>
                <Calories>5.826666831970215</Calories>
                <Intensity>Active</Intensity>
                <TriggerMethod>Manual</TriggerMethod>
            </Lap>
        </Activity>
        <Activity Sport="Walking">
            <Id>2022-02-28T07:35:00.000Z</Id>
            <Lap StartTime="2022-02-28T07:35:00.000Z">
                <Track>
                    <Trackpoint>
                        <DistanceMeters>0.0</DistanceMeters>
                        <Time>2022-02-28T07:35:00.000Z</Time>
                    </Trackpoint>
                    <Trackpoint>
                        <DistanceMeters>21.0</DistanceMeters>
                        <Time>2022-02-28T07:36:00.000Z</Time>
                    </Trackpoint>
                </Track>
                <DistanceMeters>21.0</DistanceMeters>
                <TotalTimeSeconds>60.0</TotalTimeSeconds>
                <Calories>5.826666831970215</Calories>
                <Intensity>Active</Intensity>
                <TriggerMethod>Manual</TriggerMethod>
            </Lap>
        </Activity>
        <Activity Sport="Walking">
            <Id>2022-02-28T07:36:00.000Z</Id>
            <Lap StartTime="2022-02-28T07:36:00.000Z">
                <Track>
                    <Trackpoint>
                        <DistanceMeters>0.0</DistanceMeters>
                        <Time>2022-02-28T07:36:00.000Z</Time>
                    </Trackpoint>
                    <Trackpoint>
                        <DistanceMeters>26.0</DistanceMeters>
                        <Time>2022-02-28T07:37:00.000Z</Time>
                    </Trackpoint>
                </Track>
                <DistanceMeters>26.0</DistanceMeters>
                <TotalTimeSeconds>60.0</TotalTimeSeconds>
                <Calories>5.826666831970215</Calories>
                <Intensity>Active</Intensity>
                <TriggerMethod>Manual</TriggerMethod>
            </Lap>
        </Activity>
        <Activity Sport="Walking">
            <Id>2022-02-28T07:37:00.000Z</Id>
            <Lap StartTime="2022-02-28T07:37:00.000Z">
                <Track>
                    <Trackpoint>
                        <DistanceMeters>0.0</DistanceMeters>
                        <Time>2022-02-28T07:37:00.000Z</Time>
                    </Trackpoint>
                    <Trackpoint>
                        <DistanceMeters>22.0</DistanceMeters>
                        <Time>2022-02-28T07:38:00.000Z</Time>
                    </Trackpoint>
                </Track>
                <DistanceMeters>22.0</DistanceMeters>
                <TotalTimeSeconds>60.0</TotalTimeSeconds>
                <Calories>5.826666831970215</Calories>
                <Intensity>Active</Intensity>
                <TriggerMethod>Manual</TriggerMethod>
            </Lap>
        </Activity>
        <Activity Sport="Walking">
            <Id>2022-02-28T07:38:00.000Z</Id>
            <Lap StartTime="2022-02-28T07:38:00.000Z">
                <Track>
                    <Trackpoint>
                        <DistanceMeters>0.0</DistanceMeters>
                        <Time>2022-02-28T07:38:00.000Z</Time>
                    </Trackpoint>
                    <Trackpoint>
                        <DistanceMeters>62.0</DistanceMeters>
                        <Time>2022-02-28T07:39:00.000Z</Time>
                    </Trackpoint>
                </Track>
                <DistanceMeters>62.0</DistanceMeters>
                <TotalTimeSeconds>60.0</TotalTimeSeconds>
                <Calories>5.826666831970215</Calories>
                <Intensity>Active</Intensity>
                <TriggerMethod>Manual</TriggerMethod>
            </Lap>
        </Activity>
        <Activity Sport="Walking">
            <Id>2022-02-28T07:39:00.000Z</Id>
            <Lap StartTime="2022-02-28T07:39:00.000Z">
                <Track>
                    <Trackpoint>
                        <DistanceMeters>0.0</DistanceMeters>
                        <Time>2022-02-28T07:39:00.000Z</Time>
                    </Trackpoint>
                    <Trackpoint>
                        <DistanceMeters>57.0</DistanceMeters>
                        <Time>2022-02-28T07:40:00.000Z</Time>
                    </Trackpoint>
                </Track>
                <DistanceMeters>57.0</DistanceMeters>
                <TotalTimeSeconds>60.0</TotalTimeSeconds>
                <Calories>5.826666831970215</Calories>
                <Intensity>Active</Intensity>
                <TriggerMethod>Manual</TriggerMethod>
            </Lap>
        </Activity>
        <Activity Sport="Walking">
            <Id>2022-02-28T07:40:00.000Z</Id>
            <Lap StartTime="2022-02-28T07:40:00.000Z">
                <Track>
                    <Trackpoint>
                        <DistanceMeters>0.0</DistanceMeters>
                        <Time>2022-02-28T07:40:00.000Z</Time>
                    </Trackpoint>
                    <Trackpoint>
                        <DistanceMeters>55.0</DistanceMeters>
                        <Time>2022-02-28T07:41:00.000Z</Time>
                    </Trackpoint>
                </Track>
                <DistanceMeters>55.0</DistanceMeters>
                <TotalTimeSeconds>60.0</TotalTimeSeconds>
                <Calories>5.826666831970215</Calories>
                <Intensity>Active</Intensity>
                <TriggerMethod>Manual</TriggerMethod>
            </Lap>
        </Activity>
        <Activity Sport="Walking">
            <Id>2022-02-28T07:41:00.000Z</Id>
            <Lap StartTime="2022-02-28T07:41:00.000Z">
                <Track>
                    <Trackpoint>
                        <DistanceMeters>0.0</DistanceMeters>
                        <Time>2022-02-28T07:41:00.000Z</Time>
                    </Trackpoint>
                    <Trackpoint>
                        <DistanceMeters>70.0</DistanceMeters>
                        <Time>2022-02-28T07:42:00.000Z</Time>
                    </Trackpoint>
                </Track>
                <DistanceMeters>70.0</DistanceMeters>
                <TotalTimeSeconds>60.0</TotalTimeSeconds>
                <Calories>5.826666831970215</Calories>
                <Intensity>Active</Intensity>
                <TriggerMethod>Manual</TriggerMethod>
            </Lap>
        </Activity>
        <Activity Sport="Walking">
            <Id>2022-02-28T07:42:00.000Z</Id>
            <Lap StartTime="2022-02-28T07:42:00.000Z">
                <Track>
                    <Trackpoint>
                        <DistanceMeters>0.0</DistanceMeters>
                        <Time>2022-02-28T07:42:00.000Z</Time>
                    </Trackpoint>
                    <Trackpoint>
                        <DistanceMeters>33.0</DistanceMeters>
                        <Time>2022-02-28T07:43:00.000Z</Time>
                    </Trackpoint>
                </Track>
                <DistanceMeters>33.0</DistanceMeters>
                <TotalTimeSeconds>60.0</TotalTimeSeconds>
                <Calories>5.826666831970215</Calories>
                <Intensity>Active</Intensity>
                <TriggerMethod>Manual</TriggerMethod>
            </Lap>
        </Activity>
        <Activity Sport="Walking">
            <Id>2022-02-28T07:43:00.000Z</Id>
            <Lap StartTime="2022-02-28T07:43:00.000Z">
                <Track>
                    <Trackpoint>
                        <DistanceMeters>0.0</DistanceMeters>
                        <Time>2022-02-28T07:43:00.000Z</Time>
                    </Trackpoint>
                    <Trackpoint>
                        <DistanceMeters>0.0</DistanceMeters>
                        <Time>2022-02-28T07:44:00.000Z</Time>
                    </Trackpoint>
                </Track>
                <DistanceMeters>0.0</DistanceMeters>
                <TotalTimeSeconds>60.0</TotalTimeSeconds>
                <Calories>5.826666831970215</Calories>
                <Intensity>Active</Intensity>
                <TriggerMethod>Manual</TriggerMethod>
            </Lap>
        </Activity>
        <Activity Sport="Walking">
            <Id>2022-02-28T07:45:00.000Z</Id>
            <Lap StartTime="2022-02-28T07:45:00.000Z">
                <Track>
                    <Trackpoint>
                        <DistanceMeters>0.0</DistanceMeters>
                        <Time>2022-02-28T07:45:00.000Z</Time>
                    </Trackpoint>
                    <Trackpoint>
                        <DistanceMeters>0.0</DistanceMeters>
                        <Time>2022-02-28T07:46:00.000Z</Time>
                    </Trackpoint>
                </Track>
                <DistanceMeters>0.0</DistanceMeters>
                <TotalTimeSeconds>60.0</TotalTimeSeconds>
                <Calories>5.826666831970215</Calories>
                <Intensity>Active</Intensity>
                <TriggerMethod>Manual</TriggerMethod>
            </Lap>
        </Activity>
    </Activities>
    <Author xsi:type="Application_t">
        <Name>Google Fit</Name>
        <Build>
            <Version>
                <VersionMajor>0</VersionMajor>
                <VersionMinor>0</VersionMinor>
                <BuildMajor>0</BuildMajor>
                <BuildMinor>0</BuildMinor>
            </Version>
        </Build>
        <LangID>en</LangID>
        <PartNumber>000-00000-00</PartNumber>
    </Author>
</TrainingCenterDatabase>
