<?xml version="1.0" encoding="UTF-8"?>
<TrainingCenterDatabase
    xmlns="http://www.garmin.com/xmlschemas/TrainingCenterDatabase/v2"
    xmlns:ns2="http://www.garmin.com/xmlschemas/UserProfile/v2"
    xmlns:ns3="http://www.garmin.com/xmlschemas/ActivityExtension/v2"
    xmlns:ns4="http://www.garmin.com/xmlschemas/ProfileExtension/v1"
    xmlns:ns5="http://www.garmin.com/xmlschemas/ActivityGoals/v1"
    xmlns:xsi="http://www.w3.org/2001/XMLSchema-instance" xsi:schemaLocation="http://www.garmin.com/xmlschemas/TrainingCenterDatabase/v2 http://www.garmin.com/xmlschemas/TrainingCenterDatabasev2.xsd">
    <Activities>
        <Activity Sport="Walking">
            <Id>2022-05-20T11:18:03.301Z</Id>
            <Lap StartTime="2022-05-20T11:18:03.301Z">
                <Track>
                    <Trackpoint>
                        <DistanceMeters>0.0</DistanceMeters>
                        <Time>2022-05-20T11:18:03.301Z</Time>
                    </Trackpoint>
                    <Trackpoint>
                        <DistanceMeters>22.183809280395508</DistanceMeters>
                        <Time>2022-05-20T11:18:46.711Z</Time>
                    </Trackpoint>
                    <Trackpoint>
                        <DistanceMeters>22.183809280395508</DistanceMeters>
                        <Time>2022-05-20T11:19:11.301Z</Time>
                    </Trackpoint>
                    <Trackpoint>
                        <DistanceMeters>70.51729774475098</DistanceMeters>
                        <Time>2022-05-20T11:19:57.021Z</Time>
                    </Trackpoint>
                    <Trackpoint>
                        <DistanceMeters>88.20869636535645</DistanceMeters>
                        <Time>2022-05-20T11:20:11.741Z</Time>
                    </Trackpoint>
                    <Trackpoint>
                        <DistanceMeters>154.69898414611816</DistanceMeters>
                        <Time>2022-05-20T11:20:58.301Z</Time>
                    </Trackpoint>
                    <Trackpoint>
                        <DistanceMeters>178.12950706481934</DistanceMeters>
                        <Time>2022-05-20T11:21:12.621Z</Time>
                    </Trackpoint>
                    <Trackpoint>
                        <DistanceMeters>243.60260581970215</DistanceMeters>
                        <Time>2022-05-20T11:21:59.061Z</Time>
                    </Trackpoint>
                    <Trackpoint>
                        <DistanceMeters>265.49685287475586</DistanceMeters>
                        <Time>2022-05-20T11:22:13.901Z</Time>
                    </Trackpoint>
                    <Trackpoint>
                        <DistanceMeters>329.02698135375977</DistanceMeters>
                        <Time>2022-05-20T11:22:59.981Z</Time>
                    </Trackpoint>
                    <Trackpoint>
                        <DistanceMeters>349.09453201293945</DistanceMeters>
                        <Time>2022-05-20T11:23:14.261Z</Time>
                    </Trackpoint>
                    <Trackpoint>
                        <DistanceMeters>409.0301284790039</DistanceMeters>
                        <Time>2022-05-20T11:24:00.981Z</Time>
                    </Trackpoint>
                    <Trackpoint>
                        <DistanceMeters>425.9773368835449</DistanceMeters>
                        <Time>2022-05-20T11:24:15.181Z</Time>
                    </Trackpoint>
                    <Trackpoint>
                        <DistanceMeters>493.3253593444824</DistanceMeters>
                        <Time>2022-05-20T11:25:02.101Z</Time>
                    </Trackpoint>
                    <Trackpoint>
                        <DistanceMeters>511.46813011169434</DistanceMeters>
                        <Time>2022-05-20T11:25:16.021Z</Time>
                    </Trackpoint>
                    <Trackpoint>
                        <DistanceMeters>578.8161525726318</DistanceMeters>
                        <Time>2022-05-20T11:26:02.941Z</Time>
                    </Trackpoint>
                    <Trackpoint>
                        <DistanceMeters>602.3119888305664</DistanceMeters>
                        <Time>2022-05-20T11:26:17.181Z</Time>
                    </Trackpoint>
                    <Trackpoint>
                        <DistanceMeters>665.236213684082</DistanceMeters>
                        <Time>2022-05-20T11:27:04.221Z</Time>
                    </Trackpoint>
                    <Trackpoint>
                        <DistanceMeters>684.5546474456787</DistanceMeters>
                        <Time>2022-05-20T11:27:17.981Z</Time>
                    </Trackpoint>
                    <Trackpoint>
                        <DistanceMeters>744.258710861206</DistanceMeters>
                        <Time>2022-05-20T11:28:05.101Z</Time>
                    </Trackpoint>
                    <Trackpoint>
                        <DistanceMeters>761.1751079559326</DistanceMeters>
                        <Time>2022-05-20T11:28:17.541Z</Time>
                    </Trackpoint>
                    <Trackpoint>
                        <DistanceMeters>823.4939403533936</DistanceMeters>
                        <Time>2022-05-20T11:29:05.581Z</Time>
                    </Trackpoint>
                    <Trackpoint>
                        <DistanceMeters>839.9799842834473</DistanceMeters>
                        <Time>2022-05-20T11:29:18.741Z</Time>
                    </Trackpoint>
                    <Trackpoint>
                        <DistanceMeters>906.505802154541</DistanceMeters>
                        <Time>2022-05-20T11:30:06.901Z</Time>
                    </Trackpoint>
                    <Trackpoint>
                        <DistanceMeters>923.9970512390137</DistanceMeters>
                        <Time>2022-05-20T11:30:20.141Z</Time>
                    </Trackpoint>
                    <Trackpoint>
                        <DistanceMeters>986.3396110534668</DistanceMeters>
                        <Time>2022-05-20T11:31:08.141Z</Time>
                    </Trackpoint>
                    <Trackpoint>
                        <DistanceMeters>1004.2665405273438</DistanceMeters>
                        <Time>2022-05-20T11:31:20.701Z</Time>
                    </Trackpoint>
                    <Trackpoint>
                        <DistanceMeters>1071.6190567016602</DistanceMeters>
                        <Time>2022-05-20T11:32:09.261Z</Time>
                    </Trackpoint>
                    <Trackpoint>
                        <DistanceMeters>1089.2588710784912</DistanceMeters>
                        <Time>2022-05-20T11:32:22.261Z</Time>
                    </Trackpoint>
                    <Trackpoint>
                        <DistanceMeters>1158.2695064544678</DistanceMeters>
                        <Time>2022-05-20T11:33:09.981Z</Time>
                    </Trackpoint>
                    <Trackpoint>
                        <DistanceMeters>1175.5015907287598</DistanceMeters>
                        <Time>2022-05-20T11:33:21.941Z</Time>
                    </Trackpoint>
                    <Trackpoint>
                        <DistanceMeters>1237.1038513183594</DistanceMeters>
                        <Time>2022-05-20T11:34:11.221Z</Time>
                    </Trackpoint>
                    <Trackpoint>
                        <DistanceMeters>1251.5332489013672</DistanceMeters>
                        <Time>2022-05-20T11:34:22.501Z</Time>
                    </Trackpoint>
                    <Trackpoint>
                        <DistanceMeters>1315.0645217895508</DistanceMeters>
                        <Time>2022-05-20T11:35:12.061Z</Time>
                    </Trackpoint>
                    <Trackpoint>
                        <DistanceMeters>1329.636513710022</DistanceMeters>
                        <Time>2022-05-20T11:35:23.101Z</Time>
                    </Trackpoint>
                    <Trackpoint>
                        <DistanceMeters>1394.9695901870728</DistanceMeters>
                        <Time>2022-05-20T11:36:13.181Z</Time>
                    </Trackpoint>
                    <Trackpoint>
                        <DistanceMeters>1407.004867553711</DistanceMeters>
                        <Time>2022-05-20T11:36:23.181Z</Time>
                    </Trackpoint>
                    <Trackpoint>
                        <DistanceMeters>1472.1716003417969</DistanceMeters>
                        <Time>2022-05-20T11:37:13.541Z</Time>
                    </Trackpoint>
                    <Trackpoint>
                        <DistanceMeters>1487.0748691558838</DistanceMeters>
                        <Time>2022-05-20T11:37:24.061Z</Time>
                    </Trackpoint>
                    <Trackpoint>
                        <DistanceMeters>1550.7580814361572</DistanceMeters>
                        <Time>2022-05-20T11:38:15.181Z</Time>
                    </Trackpoint>
                    <Trackpoint>
                        <DistanceMeters>1562.902455329895</DistanceMeters>
                        <Time>2022-05-20T11:38:24.981Z</Time>
                    </Trackpoint>
                    <Trackpoint>
                        <DistanceMeters>1629.3710374832153</DistanceMeters>
                        <Time>2022-05-20T11:39:14.941Z</Time>
                    </Trackpoint>
                    <Trackpoint>
                        <DistanceMeters>1641.4932384490967</DistanceMeters>
                        <Time>2022-05-20T11:39:24.781Z</Time>
                    </Trackpoint>
                    <Trackpoint>
                        <DistanceMeters>1703.7068691253662</DistanceMeters>
                        <Time>2022-05-20T11:40:14.821Z</Time>
                    </Trackpoint>
                    <Trackpoint>
                        <DistanceMeters>1716.6655445098877</DistanceMeters>
                        <Time>2022-05-20T11:40:25.021Z</Time>
                    </Trackpoint>
                    <Trackpoint>
                        <DistanceMeters>1777.268575668335</DistanceMeters>
                        <Time>2022-05-20T11:41:16.141Z</Time>
                    </Trackpoint>
                </Track>
                <DistanceMeters>1777.268575668335</DistanceMeters>
                <TotalTimeSeconds>1392.83999904</TotalTimeSeconds>
                <Calories>137.96739196777344</Calories>
                <Intensity>Active</Intensity>
                <TriggerMethod>Manual</TriggerMethod>
            </Lap>
        </Activity>
        <Activity Sport="Walking">
            <Id>2022-05-20T11:40:25.021Z</Id>
            <Lap StartTime="2022-05-20T11:40:25.021Z">
                <Track>
                    <Trackpoint>
                        <DistanceMeters>0.0</DistanceMeters>
                        <Time>2022-05-20T11:40:25.021Z</Time>
                    </Trackpoint>
                    <Trackpoint>
                        <DistanceMeters>60.603031158447266</DistanceMeters>
                        <Time>2022-05-20T11:41:14.195Z</Time>
                    </Trackpoint>
                    <Trackpoint>
                        <DistanceMeters>60.603031158447266</DistanceMeters>
                        <Time>2022-05-20T11:41:16.141Z</Time>
                    </Trackpoint>
                    <Trackpoint>
                        <DistanceMeters>62.61591863632202</DistanceMeters>
                        <Time>2022-05-20T11:41:18.141Z</Time>
                    </Trackpoint>
                </Track>
                <DistanceMeters>62.61591863632202</DistanceMeters>
                <TotalTimeSeconds>53.119999927</TotalTimeSeconds>
                <Calories>0.404116153717041</Calories>
                <Intensity>Active</Intensity>
                <TriggerMethod>Manual</TriggerMethod>
            </Lap>
        </Activity>
        <Activity Sport="Walking">
            <Id>2022-05-20T11:48:22.608Z</Id>
            <Lap StartTime="2022-05-20T11:48:22.608Z">
                <Track>
                    <Trackpoint>
                        <DistanceMeters>0.0</DistanceMeters>
                        <Time>2022-05-20T11:48:22.608Z</Time>
                    </Trackpoint>
                    <Trackpoint>
                        <DistanceMeters>31.037118911743164</DistanceMeters>
                        <Time>2022-05-20T11:49:43.661Z</Time>
                    </Trackpoint>
                    <Trackpoint>
                        <DistanceMeters>94.48675727844238</DistanceMeters>
                        <Time>2022-05-20T11:50:50.061Z</Time>
                    </Trackpoint>
                    <Trackpoint>
                        <DistanceMeters>166.59185981750488</DistanceMeters>
                        <Time>2022-05-20T11:51:50.261Z</Time>
                    </Trackpoint>
                    <Trackpoint>
                        <DistanceMeters>237.5338840484619</DistanceMeters>
                        <Time>2022-05-20T11:52:46.941Z</Time>
                    </Trackpoint>
                    <Trackpoint>
                        <DistanceMeters>266.8206367492676</DistanceMeters>
                        <Time>2022-05-20T11:53:10.581Z</Time>
                    </Trackpoint>
                    <Trackpoint>
                        <DistanceMeters>344.8196907043457</DistanceMeters>
                        <Time>2022-05-20T11:54:09.581Z</Time>
                    </Trackpoint>
                    <Trackpoint>
                        <DistanceMeters>440.68928146362305</DistanceMeters>
                        <Time>2022-05-20T11:55:24.741Z</Time>
                    </Trackpoint>
                    <Trackpoint>
                        <DistanceMeters>475.7871971130371</DistanceMeters>
                        <Time>2022-05-20T11:55:52.821Z</Time>
                    </Trackpoint>
                    <Trackpoint>
                        <DistanceMeters>481.36109828948975</DistanceMeters>
                        <Time>2022-05-20T11:55:57.701Z</Time>
                    </Trackpoint>
                    <Trackpoint>
                        <DistanceMeters>518.9757833480835</DistanceMeters>
                        <Time>2022-05-20T11:56:26.861Z</Time>
                    </Trackpoint>
                    <Trackpoint>
                        <DistanceMeters>559.3951063156128</DistanceMeters>
                        <Time>2022-05-20T11:56:56.661Z</Time>
                    </Trackpoint>
                    <Trackpoint>
                        <DistanceMeters>583.7736463546753</DistanceMeters>
                        <Time>2022-05-20T11:57:16.101Z</Time>
                    </Trackpoint>
                    <Trackpoint>
                        <DistanceMeters>639.3242902755737</DistanceMeters>
                        <Time>2022-05-20T11:57:56.061Z</Time>
                    </Trackpoint>
                    <Trackpoint>
                        <DistanceMeters>669.8235483169556</DistanceMeters>
                        <Time>2022-05-20T11:58:23.221Z</Time>
                    </Trackpoint>
                    <Trackpoint>
                        <DistanceMeters>692.4480905532837</DistanceMeters>
                        <Time>2022-05-20T11:58:42.101Z</Time>
                    </Trackpoint>
                    <Trackpoint>
                        <DistanceMeters>718.5390462875366</DistanceMeters>
                        <Time>2022-05-20T11:59:04.061Z</Time>
                    </Trackpoint>
                    <Trackpoint>
                        <DistanceMeters>742.5247449874878</DistanceMeters>
                        <Time>2022-05-20T11:59:24.221Z</Time>
                    </Trackpoint>
                    <Trackpoint>
                        <DistanceMeters>765.0649785995483</DistanceMeters>
                        <Time>2022-05-20T11:59:43.261Z</Time>
                    </Trackpoint>
                    <Trackpoint>
                        <DistanceMeters>790.329478263855</DistanceMeters>
                        <Time>2022-05-20T12:00:04.861Z</Time>
                    </Trackpoint>
                    <Trackpoint>
                        <DistanceMeters>813.4476613998413</DistanceMeters>
                        <Time>2022-05-20T12:00:24.741Z</Time>
                    </Trackpoint>
                    <Trackpoint>
                        <DistanceMeters>834.501410484314</DistanceMeters>
                        <Time>2022-05-20T12:00:42.741Z</Time>
                    </Trackpoint>
                    <Trackpoint>
                        <DistanceMeters>861.9749326705933</DistanceMeters>
                        <Time>2022-05-20T12:01:05.941Z</Time>
                    </Trackpoint>
                    <Trackpoint>
                        <DistanceMeters>885.8771162033081</DistanceMeters>
                        <Time>2022-05-20T12:01:26.261Z</Time>
                    </Trackpoint>
                    <Trackpoint>
                        <DistanceMeters>907.1626100540161</DistanceMeters>
                        <Time>2022-05-20T12:01:43.821Z</Time>
                    </Trackpoint>
                    <Trackpoint>
                        <DistanceMeters>934.5737314224243</DistanceMeters>
                        <Time>2022-05-20T12:02:07.141Z</Time>
                    </Trackpoint>
                    <Trackpoint>
                        <DistanceMeters>958.5594301223755</DistanceMeters>
                        <Time>2022-05-20T12:02:27.301Z</Time>
                    </Trackpoint>
                    <Trackpoint>
                        <DistanceMeters>979.8233785629272</DistanceMeters>
                        <Time>2022-05-20T12:02:44.901Z</Time>
                    </Trackpoint>
                    <Trackpoint>
                        <DistanceMeters>1008.3423070907593</DistanceMeters>
                        <Time>2022-05-20T12:03:08.061Z</Time>
                    </Trackpoint>
                    <Trackpoint>
                        <DistanceMeters>1032.391520500183</DistanceMeters>
                        <Time>2022-05-20T12:03:28.101Z</Time>
                    </Trackpoint>
                    <Trackpoint>
                        <DistanceMeters>1054.487624168396</DistanceMeters>
                        <Time>2022-05-20T12:03:46.061Z</Time>
                    </Trackpoint>
                    <Trackpoint>
                        <DistanceMeters>1082.195590019226</DistanceMeters>
                        <Time>2022-05-20T12:04:08.821Z</Time>
                    </Trackpoint>
                    <Trackpoint>
                        <DistanceMeters>1106.2235479354858</DistanceMeters>
                        <Time>2022-05-20T12:04:28.901Z</Time>
                    </Trackpoint>
                    <Trackpoint>
                        <DistanceMeters>1128.189133644104</DistanceMeters>
                        <Time>2022-05-20T12:04:47.101Z</Time>
                    </Trackpoint>
                    <Trackpoint>
                        <DistanceMeters>1154.7351846694946</DistanceMeters>
                        <Time>2022-05-20T12:05:10.141Z</Time>
                    </Trackpoint>
                    <Trackpoint>
                        <DistanceMeters>1177.9355821609497</DistanceMeters>
                        <Time>2022-05-20T12:05:29.861Z</Time>
                    </Trackpoint>
                    <Trackpoint>
                        <DistanceMeters>1199.0514039993286</DistanceMeters>
                        <Time>2022-05-20T12:05:47.741Z</Time>
                    </Trackpoint>
                    <Trackpoint>
                        <DistanceMeters>1226.4625253677368</DistanceMeters>
                        <Time>2022-05-20T12:06:11.061Z</Time>
                    </Trackpoint>
                    <Trackpoint>
                        <DistanceMeters>1250.5760202407837</DistanceMeters>
                        <Time>2022-05-20T12:06:30.981Z</Time>
                    </Trackpoint>
                    <Trackpoint>
                        <DistanceMeters>1272.738699913025</DistanceMeters>
                        <Time>2022-05-20T12:06:48.821Z</Time>
                    </Trackpoint>
                    <Trackpoint>
                        <DistanceMeters>1301.1049795150757</DistanceMeters>
                        <Time>2022-05-20T12:07:12.261Z</Time>
                    </Trackpoint>
                    <Trackpoint>
                        <DistanceMeters>1325.175534248352</DistanceMeters>
                        <Time>2022-05-20T12:07:32.261Z</Time>
                    </Trackpoint>
                    <Trackpoint>
                        <DistanceMeters>1346.3966817855835</DistanceMeters>
                        <Time>2022-05-20T12:07:49.941Z</Time>
                    </Trackpoint>
                    <Trackpoint>
                        <DistanceMeters>1373.9332571029663</DistanceMeters>
                        <Time>2022-05-20T12:08:13.021Z</Time>
                    </Trackpoint>
                    <Trackpoint>
                        <DistanceMeters>1397.1336545944214</DistanceMeters>
                        <Time>2022-05-20T12:08:32.741Z</Time>
                    </Trackpoint>
                    <Trackpoint>
                        <DistanceMeters>1418.9304780960083</DistanceMeters>
                        <Time>2022-05-20T12:08:51.261Z</Time>
                    </Trackpoint>
                    <Trackpoint>
                        <DistanceMeters>1444.6161088943481</DistanceMeters>
                        <Time>2022-05-20T12:09:14.021Z</Time>
                    </Trackpoint>
                </Track>
                <DistanceMeters>1444.6161088943481</DistanceMeters>
                <TotalTimeSeconds>1251.413875727</TotalTimeSeconds>
                <Calories>127.43115997314453</Calories>
                <Intensity>Active</Intensity>
                <TriggerMethod>Manual</TriggerMethod>
            </Lap>
        </Activity>
        <Activity Sport="Walking">
            <Id>2022-05-20T12:08:51.261Z</Id>
            <Lap StartTime="2022-05-20T12:08:51.261Z">
                <Track>
                    <Trackpoint>
                        <DistanceMeters>0.0</DistanceMeters>
                        <Time>2022-05-20T12:08:51.261Z</Time>
                    </Trackpoint>
                    <Trackpoint>
                        <DistanceMeters>25.685630798339844</DistanceMeters>
                        <Time>2022-05-20T12:09:07.188Z</Time>
                    </Trackpoint>
                    <Trackpoint>
                        <DistanceMeters>25.685630798339844</DistanceMeters>
                        <Time>2022-05-20T12:09:14.021Z</Time>
                    </Trackpoint>
                    <Trackpoint>
                        <DistanceMeters>47.72944641113281</DistanceMeters>
                        <Time>2022-05-20T12:09:34.061Z</Time>
                    </Trackpoint>
                    <Trackpoint>
                        <DistanceMeters>67.88049507141113</DistanceMeters>
                        <Time>2022-05-20T12:09:51.861Z</Time>
                    </Trackpoint>
                    <Trackpoint>
                        <DistanceMeters>94.2873477935791</DistanceMeters>
                        <Time>2022-05-20T12:10:15.181Z</Time>
                    </Trackpoint>
                    <Trackpoint>
                        <DistanceMeters>116.38810157775879</DistanceMeters>
                        <Time>2022-05-20T12:10:35.101Z</Time>
                    </Trackpoint>
                    <Trackpoint>
                        <DistanceMeters>136.59846878051758</DistanceMeters>
                        <Time>2022-05-20T12:10:52.781Z</Time>
                    </Trackpoint>
                    <Trackpoint>
                        <DistanceMeters>163.3911418914795</DistanceMeters>
                        <Time>2022-05-20T12:11:17.361Z</Time>
                    </Trackpoint>
                </Track>
                <DistanceMeters>163.3911418914795</DistanceMeters>
                <TotalTimeSeconds>146.099999415</TotalTimeSeconds>
                <Calories>13.32835865020752</Calories>
                <Intensity>Active</Intensity>
                <TriggerMethod>Manual</TriggerMethod>
            </Lap>
        </Activity>
        <Activity Sport="Walking">
            <Id>2022-05-20T12:18:38.461Z</Id>
            <Lap StartTime="2022-05-20T12:18:38.461Z">
                <Track>
                    <Trackpoint>
                        <DistanceMeters>0.0</DistanceMeters>
                        <Time>2022-05-20T12:18:38.461Z</Time>
                    </Trackpoint>
                    <Trackpoint>
                        <DistanceMeters>48.28240966796875</DistanceMeters>
                        <Time>2022-05-20T12:20:42.221Z</Time>
                    </Trackpoint>
                    <Trackpoint>
                        <DistanceMeters>48.28240966796875</DistanceMeters>
                        <Time>2022-05-20T12:21:06.461Z</Time>
                    </Trackpoint>
                    <Trackpoint>
                        <DistanceMeters>60.072842597961426</DistanceMeters>
                        <Time>2022-05-20T12:21:16.941Z</Time>
                    </Trackpoint>
                    <Trackpoint>
                        <DistanceMeters>118.1378984451294</DistanceMeters>
                        <Time>2022-05-20T12:22:07.101Z</Time>
                    </Trackpoint>
                    <Trackpoint>
                        <DistanceMeters>130.04788398742676</DistanceMeters>
                        <Time>2022-05-20T12:22:17.341Z</Time>
                    </Trackpoint>
                    <Trackpoint>
                        <DistanceMeters>188.93686866760254</DistanceMeters>
                        <Time>2022-05-20T12:23:07.861Z</Time>
                    </Trackpoint>
                    <Trackpoint>
                        <DistanceMeters>200.90875720977783</DistanceMeters>
                        <Time>2022-05-20T12:23:17.981Z</Time>
                    </Trackpoint>
                    <Trackpoint>
                        <DistanceMeters>258.8127717971802</DistanceMeters>
                        <Time>2022-05-20T12:24:08.461Z</Time>
                    </Trackpoint>
                    <Trackpoint>
                        <DistanceMeters>271.4656505584717</DistanceMeters>
                        <Time>2022-05-20T12:24:19.221Z</Time>
                    </Trackpoint>
                    <Trackpoint>
                        <DistanceMeters>329.6938228607178</DistanceMeters>
                        <Time>2022-05-20T12:25:09.061Z</Time>
                    </Trackpoint>
                    <Trackpoint>
                        <DistanceMeters>342.24506092071533</DistanceMeters>
                        <Time>2022-05-20T12:25:20.021Z</Time>
                    </Trackpoint>
                    <Trackpoint>
                        <DistanceMeters>399.3676118850708</DistanceMeters>
                        <Time>2022-05-20T12:26:10.061Z</Time>
                    </Trackpoint>
                    <Trackpoint>
                        <DistanceMeters>409.58747386932373</DistanceMeters>
                        <Time>2022-05-20T12:26:19.701Z</Time>
                    </Trackpoint>
                    <Trackpoint>
                        <DistanceMeters>466.20395946502686</DistanceMeters>
                        <Time>2022-05-20T12:27:10.781Z</Time>
                    </Trackpoint>
                    <Trackpoint>
                        <DistanceMeters>476.63030529022217</DistanceMeters>
                        <Time>2022-05-20T12:27:19.981Z</Time>
                    </Trackpoint>
                    <Trackpoint>
                        <DistanceMeters>534.8808927536011</DistanceMeters>
                        <Time>2022-05-20T12:28:11.781Z</Time>
                    </Trackpoint>
                    <Trackpoint>
                        <DistanceMeters>544.472674369812</DistanceMeters>
                        <Time>2022-05-20T12:28:20.661Z</Time>
                    </Trackpoint>
                    <Trackpoint>
                        <DistanceMeters>579.0533170700073</DistanceMeters>
                        <Time>2022-05-20T12:29:06.901Z</Time>
                    </Trackpoint>
                    <Trackpoint>
                        <DistanceMeters>587.5353622436523</DistanceMeters>
                        <Time>2022-05-20T12:29:22.141Z</Time>
                    </Trackpoint>
                    <Trackpoint>
                        <DistanceMeters>633.2079124450684</DistanceMeters>
                        <Time>2022-05-20T12:30:17.821Z</Time>
                    </Trackpoint>
                    <Trackpoint>
                        <DistanceMeters>638.6501760482788</DistanceMeters>
                        <Time>2022-05-20T12:30:22.981Z</Time>
                    </Trackpoint>
                    <Trackpoint>
                        <DistanceMeters>693.9366102218628</DistanceMeters>
                        <Time>2022-05-20T12:31:19.301Z</Time>
                    </Trackpoint>
                    <Trackpoint>
                        <DistanceMeters>698.6114015579224</DistanceMeters>
                        <Time>2022-05-20T12:31:24.021Z</Time>
                    </Trackpoint>
                    <Trackpoint>
                        <DistanceMeters>752.0949602127075</DistanceMeters>
                        <Time>2022-05-20T12:32:20.181Z</Time>
                    </Trackpoint>
                    <Trackpoint>
                        <DistanceMeters>756.0097501277924</DistanceMeters>
                        <Time>2022-05-20T12:32:24.741Z</Time>
                    </Trackpoint>
                    <Trackpoint>
                        <DistanceMeters>810.0619962215424</DistanceMeters>
                        <Time>2022-05-20T12:33:19.461Z</Time>
                    </Trackpoint>
                    <Trackpoint>
                        <DistanceMeters>813.3243210315704</DistanceMeters>
                        <Time>2022-05-20T12:33:25.981Z</Time>
                    </Trackpoint>
                    <Trackpoint>
                        <DistanceMeters>876.0406563282013</DistanceMeters>
                        <Time>2022-05-20T12:34:20.861Z</Time>
                    </Trackpoint>
                    <Trackpoint>
                        <DistanceMeters>883.4101850986481</DistanceMeters>
                        <Time>2022-05-20T12:34:28.221Z</Time>
                    </Trackpoint>
                    <Trackpoint>
                        <DistanceMeters>935.1306097507477</DistanceMeters>
                        <Time>2022-05-20T12:35:21.741Z</Time>
                    </Trackpoint>
                    <Trackpoint>
                        <DistanceMeters>941.7081105709076</DistanceMeters>
                        <Time>2022-05-20T12:35:28.741Z</Time>
                    </Trackpoint>
                    <Trackpoint>
                        <DistanceMeters>995.3242337703705</DistanceMeters>
                        <Time>2022-05-20T12:36:22.221Z</Time>
                    </Trackpoint>
                    <Trackpoint>
                        <DistanceMeters>1002.501348733902</DistanceMeters>
                        <Time>2022-05-20T12:36:30.221Z</Time>
                    </Trackpoint>
                    <Trackpoint>
                        <DistanceMeters>1059.0980818271637</DistanceMeters>
                        <Time>2022-05-20T12:37:30.341Z</Time>
                    </Trackpoint>
                    <Trackpoint>
                        <DistanceMeters>1079.9769613742828</DistanceMeters>
                        <Time>2022-05-20T12:37:54.221Z</Time>
                    </Trackpoint>
                    <Trackpoint>
                        <DistanceMeters>1086.501610994339</DistanceMeters>
                        <Time>2022-05-20T12:38:01.901Z</Time>
                    </Trackpoint>
                    <Trackpoint>
                        <DistanceMeters>1140.6562054157257</DistanceMeters>
                        <Time>2022-05-20T12:39:03.381Z</Time>
                    </Trackpoint>
                    <Trackpoint>
                        <DistanceMeters>1156.9678299427032</DistanceMeters>
                        <Time>2022-05-20T12:39:27.941Z</Time>
                    </Trackpoint>
                    <Trackpoint>
                        <DistanceMeters>1161.5350849628448</DistanceMeters>
                        <Time>2022-05-20T12:39:35.741Z</Time>
                    </Trackpoint>
                    <Trackpoint>
                        <DistanceMeters>1189.7807075977325</DistanceMeters>
                        <Time>2022-05-20T12:40:05.941Z</Time>
                    </Trackpoint>
                    <Trackpoint>
                        <DistanceMeters>1213.2694466114044</DistanceMeters>
                        <Time>2022-05-20T12:40:48.741Z</Time>
                    </Trackpoint>
                    <Trackpoint>
                        <DistanceMeters>1219.1416313648224</DistanceMeters>
                        <Time>2022-05-20T12:40:56.621Z</Time>
                    </Trackpoint>
                    <Trackpoint>
                        <DistanceMeters>1250.459950685501</DistanceMeters>
                        <Time>2022-05-20T12:41:34.581Z</Time>
                    </Trackpoint>
                    <Trackpoint>
                        <DistanceMeters>1272.6437599658966</DistanceMeters>
                        <Time>2022-05-20T12:42:02.661Z</Time>
                    </Trackpoint>
                    <Trackpoint>
                        <DistanceMeters>1279.1684095859528</DistanceMeters>
                        <Time>2022-05-20T12:42:10.901Z</Time>
                    </Trackpoint>
                    <Trackpoint>
                        <DistanceMeters>1300.047289133072</DistanceMeters>
                        <Time>2022-05-20T12:42:39.221Z</Time>
                    </Trackpoint>
                    <Trackpoint>
                        <DistanceMeters>1312.444123506546</DistanceMeters>
                        <Time>2022-05-20T12:43:03.461Z</Time>
                    </Trackpoint>
                    <Trackpoint>
                        <DistanceMeters>1317.0113785266876</DistanceMeters>
                        <Time>2022-05-20T12:43:12.181Z</Time>
                    </Trackpoint>
                    <Trackpoint>
                        <DistanceMeters>1337.8902580738068</DistanceMeters>
                        <Time>2022-05-20T12:43:41.101Z</Time>
                    </Trackpoint>
                    <Trackpoint>
                        <DistanceMeters>1360.7265331745148</DistanceMeters>
                        <Time>2022-05-20T12:44:12.061Z</Time>
                    </Trackpoint>
                    <Trackpoint>
                        <DistanceMeters>1369.2085783481598</DistanceMeters>
                        <Time>2022-05-20T12:44:21.701Z</Time>
                    </Trackpoint>
                    <Trackpoint>
                        <DistanceMeters>1391.3923876285553</DistanceMeters>
                        <Time>2022-05-20T12:44:49.901Z</Time>
                    </Trackpoint>
                    <Trackpoint>
                        <DistanceMeters>1409.0089418888092</DistanceMeters>
                        <Time>2022-05-20T12:45:12.981Z</Time>
                    </Trackpoint>
                    <Trackpoint>
                        <DistanceMeters>1414.8811266422272</DistanceMeters>
                        <Time>2022-05-20T12:45:22.341Z</Time>
                    </Trackpoint>
                    <Trackpoint>
                        <DistanceMeters>1435.7600061893463</DistanceMeters>
                        <Time>2022-05-20T12:45:50.301Z</Time>
                    </Trackpoint>
                    <Trackpoint>
                        <DistanceMeters>1463.9562361240387</DistanceMeters>
                        <Time>2022-05-20T12:46:14.061Z</Time>
                    </Trackpoint>
                    <Trackpoint>
                        <DistanceMeters>1496.11661362648</DistanceMeters>
                        <Time>2022-05-20T12:46:52.701Z</Time>
                    </Trackpoint>
                    <Trackpoint>
                        <DistanceMeters>1512.4282381534576</DistanceMeters>
                        <Time>2022-05-20T12:47:52.701Z</Time>
                    </Trackpoint>
                    <Trackpoint>
                        <DistanceMeters>1515.0380980968475</DistanceMeters>
                        <Time>2022-05-20T12:48:22.995Z</Time>
                    </Trackpoint>
                </Track>
                <DistanceMeters>1515.0380980968475</DistanceMeters>
                <TotalTimeSeconds>1784.533139568</TotalTimeSeconds>
                <Calories>170.0447998046875</Calories>
                <Intensity>Active</Intensity>
                <TriggerMethod>Manual</TriggerMethod>
            </Lap>
        </Activity>
    </Activities>
    <Author xsi:type="Application_t">
        <Name>Google Fit</Name>
        <Build>
            <Version>
                <VersionMajor>0</VersionMajor>
                <VersionMinor>0</VersionMinor>
                <BuildMajor>0</BuildMajor>
                <BuildMinor>0</BuildMinor>
            </Version>
        </Build>
        <LangID>en</LangID>
        <PartNumber>000-00000-00</PartNumber>
    </Author>
</TrainingCenterDatabase>
