<?xml version="1.0" encoding="UTF-8"?>
<TrainingCenterDatabase
    xmlns="http://www.garmin.com/xmlschemas/TrainingCenterDatabase/v2"
    xmlns:ns2="http://www.garmin.com/xmlschemas/UserProfile/v2"
    xmlns:ns3="http://www.garmin.com/xmlschemas/ActivityExtension/v2"
    xmlns:ns4="http://www.garmin.com/xmlschemas/ProfileExtension/v1"
    xmlns:ns5="http://www.garmin.com/xmlschemas/ActivityGoals/v1"
    xmlns:xsi="http://www.w3.org/2001/XMLSchema-instance" xsi:schemaLocation="http://www.garmin.com/xmlschemas/TrainingCenterDatabase/v2 http://www.garmin.com/xmlschemas/TrainingCenterDatabasev2.xsd">
    <Activities>
        <Activity Sport="Walking">
            <Id>2022-05-07T12:32:37.170Z</Id>
            <Lap StartTime="2022-05-07T12:32:37.170Z">
                <Track>
                    <Trackpoint>
                        <DistanceMeters>0.0</DistanceMeters>
                        <Time>2022-05-07T12:32:37.170Z</Time>
                    </Trackpoint>
                    <Trackpoint>
                        <DistanceMeters>41.75775909423828</DistanceMeters>
                        <Time>2022-05-07T12:33:58.092Z</Time>
                    </Trackpoint>
                    <Trackpoint>
                        <DistanceMeters>41.75775909423828</DistanceMeters>
                        <Time>2022-05-07T12:34:45.170Z</Time>
                    </Trackpoint>
                    <Trackpoint>
                        <DistanceMeters>93.30249404907227</DistanceMeters>
                        <Time>2022-05-07T12:35:46.290Z</Time>
                    </Trackpoint>
                    <Trackpoint>
                        <DistanceMeters>144.19476318359375</DistanceMeters>
                        <Time>2022-05-07T12:36:47.010Z</Time>
                    </Trackpoint>
                    <Trackpoint>
                        <DistanceMeters>197.04442596435547</DistanceMeters>
                        <Time>2022-05-07T12:37:47.690Z</Time>
                    </Trackpoint>
                    <Trackpoint>
                        <DistanceMeters>249.2416229248047</DistanceMeters>
                        <Time>2022-05-07T12:38:47.490Z</Time>
                    </Trackpoint>
                    <Trackpoint>
                        <DistanceMeters>306.00607681274414</DistanceMeters>
                        <Time>2022-05-07T12:39:50.650Z</Time>
                    </Trackpoint>
                    <Trackpoint>
                        <DistanceMeters>367.8404998779297</DistanceMeters>
                        <Time>2022-05-07T12:40:51.730Z</Time>
                    </Trackpoint>
                    <Trackpoint>
                        <DistanceMeters>411.5556526184082</DistanceMeters>
                        <Time>2022-05-07T12:41:47.290Z</Time>
                    </Trackpoint>
                    <Trackpoint>
                        <DistanceMeters>434.3919277191162</DistanceMeters>
                        <Time>2022-05-07T12:42:57.290Z</Time>
                    </Trackpoint>
                    <Trackpoint>
                        <DistanceMeters>440.6477346420288</DistanceMeters>
                        <Time>2022-05-07T12:43:02.810Z</Time>
                    </Trackpoint>
                    <Trackpoint>
                        <DistanceMeters>485.0153532028198</DistanceMeters>
                        <Time>2022-05-07T12:43:57.610Z</Time>
                    </Trackpoint>
                    <Trackpoint>
                        <DistanceMeters>490.3079905509949</DistanceMeters>
                        <Time>2022-05-07T12:44:03.130Z</Time>
                    </Trackpoint>
                    <Trackpoint>
                        <DistanceMeters>538.5904002189636</DistanceMeters>
                        <Time>2022-05-07T12:46:04.690Z</Time>
                    </Trackpoint>
                    <Trackpoint>
                        <DistanceMeters>560.7742094993591</DistanceMeters>
                        <Time>2022-05-07T12:47:46.758Z</Time>
                    </Trackpoint>
                </Track>
                <DistanceMeters>560.7742094993591</DistanceMeters>
                <TotalTimeSeconds>909.587207762</TotalTimeSeconds>
                <Calories>84.84618377685547</Calories>
                <Intensity>Active</Intensity>
                <TriggerMethod>Manual</TriggerMethod>
            </Lap>
        </Activity>
    </Activities>
    <Author xsi:type="Application_t">
        <Name>Google Fit</Name>
        <Build>
            <Version>
                <VersionMajor>0</VersionMajor>
                <VersionMinor>0</VersionMinor>
                <BuildMajor>0</BuildMajor>
                <BuildMinor>0</BuildMinor>
            </Version>
        </Build>
        <LangID>en</LangID>
        <PartNumber>000-00000-00</PartNumber>
    </Author>
</TrainingCenterDatabase>
