<?xml version="1.0" encoding="UTF-8"?>
<TrainingCenterDatabase
    xmlns="http://www.garmin.com/xmlschemas/TrainingCenterDatabase/v2"
    xmlns:ns2="http://www.garmin.com/xmlschemas/UserProfile/v2"
    xmlns:ns3="http://www.garmin.com/xmlschemas/ActivityExtension/v2"
    xmlns:ns4="http://www.garmin.com/xmlschemas/ProfileExtension/v1"
    xmlns:ns5="http://www.garmin.com/xmlschemas/ActivityGoals/v1"
    xmlns:xsi="http://www.w3.org/2001/XMLSchema-instance" xsi:schemaLocation="http://www.garmin.com/xmlschemas/TrainingCenterDatabase/v2 http://www.garmin.com/xmlschemas/TrainingCenterDatabasev2.xsd">
    <Activities>
        <Activity Sport="Walking">
            <Id>2022-09-19T15:05:22.362Z</Id>
            <Lap StartTime="2022-09-19T15:05:22.362Z">
                <Track>
                    <Trackpoint>
                        <DistanceMeters>0.0</DistanceMeters>
                        <Time>2022-09-19T15:05:22.362Z</Time>
                    </Trackpoint>
                    <Trackpoint>
                        <DistanceMeters>0.0</DistanceMeters>
                        <Time>2022-09-19T16:33:08.562Z</Time>
                    </Trackpoint>
                    <Trackpoint>
                        <DistanceMeters>15.006694793701172</DistanceMeters>
                        <Time>2022-09-19T16:34:08.562Z</Time>
                    </Trackpoint>
                    <Trackpoint>
                        <DistanceMeters>85.99074935913086</DistanceMeters>
                        <Time>2022-09-19T16:35:08.962Z</Time>
                    </Trackpoint>
                    <Trackpoint>
                        <DistanceMeters>118.09057235717773</DistanceMeters>
                        <Time>2022-09-19T16:35:36.922Z</Time>
                    </Trackpoint>
                    <Trackpoint>
                        <DistanceMeters>192.30080032348633</DistanceMeters>
                        <Time>2022-09-19T16:36:38.922Z</Time>
                    </Trackpoint>
                </Track>
                <DistanceMeters>192.30080032348633</DistanceMeters>
                <TotalTimeSeconds>5476.560557619</TotalTimeSeconds>
                <Calories>127.6109084993535</Calories>
                <Intensity>Active</Intensity>
                <TriggerMethod>Manual</TriggerMethod>
            </Lap>
        </Activity>
        <Activity Sport="Walking">
            <Id>2022-09-19T16:35:36.922Z</Id>
            <Lap StartTime="2022-09-19T16:35:36.922Z">
                <Track>
                    <Trackpoint>
                        <DistanceMeters>0.0</DistanceMeters>
                        <Time>2022-09-19T16:35:36.922Z</Time>
                    </Trackpoint>
                    <Trackpoint>
                        <DistanceMeters>74.2102279663086</DistanceMeters>
                        <Time>2022-09-19T16:36:29.638Z</Time>
                    </Trackpoint>
                    <Trackpoint>
                        <DistanceMeters>74.2102279663086</DistanceMeters>
                        <Time>2022-09-19T16:36:38.922Z</Time>
                    </Trackpoint>
                    <Trackpoint>
                        <DistanceMeters>105.852783203125</DistanceMeters>
                        <Time>2022-09-19T16:37:05.802Z</Time>
                    </Trackpoint>
                    <Trackpoint>
                        <DistanceMeters>113.93796443939209</DistanceMeters>
                        <Time>2022-09-19T16:37:13.722Z</Time>
                    </Trackpoint>
                    <Trackpoint>
                        <DistanceMeters>177.39588451385498</DistanceMeters>
                        <Time>2022-09-19T16:38:09.122Z</Time>
                    </Trackpoint>
                    <Trackpoint>
                        <DistanceMeters>187.20051193237305</DistanceMeters>
                        <Time>2022-09-19T16:38:17.562Z</Time>
                    </Trackpoint>
                    <Trackpoint>
                        <DistanceMeters>239.75296020507812</DistanceMeters>
                        <Time>2022-09-19T16:39:02.722Z</Time>
                    </Trackpoint>
                    <Trackpoint>
                        <DistanceMeters>312.64493560791016</DistanceMeters>
                        <Time>2022-09-19T16:40:03.362Z</Time>
                    </Trackpoint>
                    <Trackpoint>
                        <DistanceMeters>343.0307369232178</DistanceMeters>
                        <Time>2022-09-19T16:40:28.762Z</Time>
                    </Trackpoint>
                    <Trackpoint>
                        <DistanceMeters>350.94609117507935</DistanceMeters>
                        <Time>2022-09-19T16:40:35.002Z</Time>
                    </Trackpoint>
                    <Trackpoint>
                        <DistanceMeters>449.7212986946106</DistanceMeters>
                        <Time>2022-09-19T16:41:56.082Z</Time>
                    </Trackpoint>
                    <Trackpoint>
                        <DistanceMeters>495.16352128982544</DistanceMeters>
                        <Time>2022-09-19T16:42:33.482Z</Time>
                    </Trackpoint>
                    <Trackpoint>
                        <DistanceMeters>532.3201947212219</DistanceMeters>
                        <Time>2022-09-19T16:43:03.442Z</Time>
                    </Trackpoint>
                    <Trackpoint>
                        <DistanceMeters>562.2793774604797</DistanceMeters>
                        <Time>2022-09-19T16:43:31.762Z</Time>
                    </Trackpoint>
                    <Trackpoint>
                        <DistanceMeters>579.2434678077698</DistanceMeters>
                        <Time>2022-09-19T16:43:50.422Z</Time>
                    </Trackpoint>
                    <Trackpoint>
                        <DistanceMeters>587.0730476379395</DistanceMeters>
                        <Time>2022-09-19T16:44:17.762Z</Time>
                    </Trackpoint>
                    <Trackpoint>
                        <DistanceMeters>605.3420677185059</DistanceMeters>
                        <Time>2022-09-19T16:44:37.762Z</Time>
                    </Trackpoint>
                    <Trackpoint>
                        <DistanceMeters>630.7882022857666</DistanceMeters>
                        <Time>2022-09-19T16:45:07.522Z</Time>
                    </Trackpoint>
                    <Trackpoint>
                        <DistanceMeters>647.7522926330566</DistanceMeters>
                        <Time>2022-09-19T16:45:30.762Z</Time>
                    </Trackpoint>
                    <Trackpoint>
                        <DistanceMeters>661.4540576934814</DistanceMeters>
                        <Time>2022-09-19T16:46:08.322Z</Time>
                    </Trackpoint>
                    <Trackpoint>
                        <DistanceMeters>673.1984272003174</DistanceMeters>
                        <Time>2022-09-19T16:46:22.082Z</Time>
                    </Trackpoint>
                    <Trackpoint>
                        <DistanceMeters>699.9494915008545</DistanceMeters>
                        <Time>2022-09-19T16:46:55.582Z</Time>
                    </Trackpoint>
                    <Trackpoint>
                        <DistanceMeters>714.3037214279175</DistanceMeters>
                        <Time>2022-09-19T16:47:22.282Z</Time>
                    </Trackpoint>
                    <Trackpoint>
                        <DistanceMeters>738.4449262619019</DistanceMeters>
                        <Time>2022-09-19T16:48:23.662Z</Time>
                    </Trackpoint>
                    <Trackpoint>
                        <DistanceMeters>763.2385950088501</DistanceMeters>
                        <Time>2022-09-19T16:48:53.722Z</Time>
                    </Trackpoint>
                    <Trackpoint>
                        <DistanceMeters>778.8977546691895</DistanceMeters>
                        <Time>2022-09-19T16:49:16.002Z</Time>
                    </Trackpoint>
                    <Trackpoint>
                        <DistanceMeters>788.6847295761108</DistanceMeters>
                        <Time>2022-09-19T16:49:26.922Z</Time>
                    </Trackpoint>
                    <Trackpoint>
                        <DistanceMeters>828.4850950241089</DistanceMeters>
                        <Time>2022-09-19T16:50:22.762Z</Time>
                    </Trackpoint>
                    <Trackpoint>
                        <DistanceMeters>840.2294645309448</DistanceMeters>
                        <Time>2022-09-19T16:50:42.242Z</Time>
                    </Trackpoint>
                    <Trackpoint>
                        <DistanceMeters>846.754114151001</DistanceMeters>
                        <Time>2022-09-19T16:51:00.842Z</Time>
                    </Trackpoint>
                    <Trackpoint>
                        <DistanceMeters>872.2002487182617</DistanceMeters>
                        <Time>2022-09-19T16:52:18.842Z</Time>
                    </Trackpoint>
                    <Trackpoint>
                        <DistanceMeters>885.249547958374</DistanceMeters>
                        <Time>2022-09-19T16:52:36.122Z</Time>
                    </Trackpoint>
                    <Trackpoint>
                        <DistanceMeters>931.4031963348389</DistanceMeters>
                        <Time>2022-09-19T16:53:18.082Z</Time>
                    </Trackpoint>
                    <Trackpoint>
                        <DistanceMeters>941.8426361083984</DistanceMeters>
                        <Time>2022-09-19T16:53:29.522Z</Time>
                    </Trackpoint>
                    <Trackpoint>
                        <DistanceMeters>964.2669429779053</DistanceMeters>
                        <Time>2022-09-19T16:53:53.162Z</Time>
                    </Trackpoint>
                    <Trackpoint>
                        <DistanceMeters>970.8905329704285</DistanceMeters>
                        <Time>2022-09-19T16:54:00.042Z</Time>
                    </Trackpoint>
                    <Trackpoint>
                        <DistanceMeters>1000.5423674583435</DistanceMeters>
                        <Time>2022-09-19T16:54:31.402Z</Time>
                    </Trackpoint>
                    <Trackpoint>
                        <DistanceMeters>1006.5481724739075</DistanceMeters>
                        <Time>2022-09-19T16:54:37.482Z</Time>
                    </Trackpoint>
                    <Trackpoint>
                        <DistanceMeters>1051.9051861763</DistanceMeters>
                        <Time>2022-09-19T16:55:21.202Z</Time>
                    </Trackpoint>
                    <Trackpoint>
                        <DistanceMeters>1117.301556110382</DistanceMeters>
                        <Time>2022-09-19T16:56:22.922Z</Time>
                    </Trackpoint>
                    <Trackpoint>
                        <DistanceMeters>1123.4809031486511</DistanceMeters>
                        <Time>2022-09-19T16:56:28.602Z</Time>
                    </Trackpoint>
                    <Trackpoint>
                        <DistanceMeters>1158.8112864494324</DistanceMeters>
                        <Time>2022-09-19T16:57:02.242Z</Time>
                    </Trackpoint>
                    <Trackpoint>
                        <DistanceMeters>1183.2045722007751</DistanceMeters>
                        <Time>2022-09-19T16:57:25.682Z</Time>
                    </Trackpoint>
                    <Trackpoint>
                        <DistanceMeters>1194.0018649101257</DistanceMeters>
                        <Time>2022-09-19T16:57:36.202Z</Time>
                    </Trackpoint>
                    <Trackpoint>
                        <DistanceMeters>1258.6265215873718</DistanceMeters>
                        <Time>2022-09-19T16:58:37.482Z</Time>
                    </Trackpoint>
                    <Trackpoint>
                        <DistanceMeters>1272.87051820755</DistanceMeters>
                        <Time>2022-09-19T16:58:51.122Z</Time>
                    </Trackpoint>
                    <Trackpoint>
                        <DistanceMeters>1340.1237607002258</DistanceMeters>
                        <Time>2022-09-19T16:59:53.042Z</Time>
                    </Trackpoint>
                    <Trackpoint>
                        <DistanceMeters>1373.8509793281555</DistanceMeters>
                        <Time>2022-09-19T17:00:21.762Z</Time>
                    </Trackpoint>
                    <Trackpoint>
                        <DistanceMeters>1417.6712231636047</DistanceMeters>
                        <Time>2022-09-19T17:01:04.602Z</Time>
                    </Trackpoint>
                    <Trackpoint>
                        <DistanceMeters>1449.2133984565735</DistanceMeters>
                        <Time>2022-09-19T17:01:33.722Z</Time>
                    </Trackpoint>
                    <Trackpoint>
                        <DistanceMeters>1461.0038313865662</DistanceMeters>
                        <Time>2022-09-19T17:01:44.202Z</Time>
                    </Trackpoint>
                    <Trackpoint>
                        <DistanceMeters>1489.3019671440125</DistanceMeters>
                        <Time>2022-09-19T17:02:11.922Z</Time>
                    </Trackpoint>
                    <Trackpoint>
                        <DistanceMeters>1501.6988015174866</DistanceMeters>
                        <Time>2022-09-19T17:02:25.602Z</Time>
                    </Trackpoint>
                    <Trackpoint>
                        <DistanceMeters>1527.7973999977112</DistanceMeters>
                        <Time>2022-09-19T17:03:27.972Z</Time>
                    </Trackpoint>
                </Track>
                <DistanceMeters>1527.7973999977112</DistanceMeters>
                <TotalTimeSeconds>1671.049444229</TotalTimeSeconds>
                <Calories>165.6994171142578</Calories>
                <Intensity>Active</Intensity>
                <TriggerMethod>Manual</TriggerMethod>
            </Lap>
        </Activity>
        <Activity Sport="Walking">
            <Id>2022-09-19T17:04:35.443Z</Id>
            <Lap StartTime="2022-09-19T17:04:35.443Z">
                <Track>
                    <Trackpoint>
                        <DistanceMeters>0.0</DistanceMeters>
                        <Time>2022-09-19T17:04:35.443Z</Time>
                    </Trackpoint>
                    <Trackpoint>
                        <DistanceMeters>0.0</DistanceMeters>
                        <Time>2022-09-19T17:04:40.122Z</Time>
                    </Trackpoint>
                    <Trackpoint>
                        <DistanceMeters>11.091904640197754</DistanceMeters>
                        <Time>2022-09-19T17:05:30.475Z</Time>
                    </Trackpoint>
                </Track>
                <DistanceMeters>11.091904640197754</DistanceMeters>
                <TotalTimeSeconds>55.032</TotalTimeSeconds>
                <Calories>5.634665489196777</Calories>
                <Intensity>Active</Intensity>
                <TriggerMethod>Manual</TriggerMethod>
            </Lap>
        </Activity>
    </Activities>
    <Author xsi:type="Application_t">
        <Name>Google Fit</Name>
        <Build>
            <Version>
                <VersionMajor>0</VersionMajor>
                <VersionMinor>0</VersionMinor>
                <BuildMajor>0</BuildMajor>
                <BuildMinor>0</BuildMinor>
            </Version>
        </Build>
        <LangID>en</LangID>
        <PartNumber>000-00000-00</PartNumber>
    </Author>
</TrainingCenterDatabase>
