<?xml version="1.0" encoding="UTF-8"?>
<TrainingCenterDatabase
    xmlns="http://www.garmin.com/xmlschemas/TrainingCenterDatabase/v2"
    xmlns:ns2="http://www.garmin.com/xmlschemas/UserProfile/v2"
    xmlns:ns3="http://www.garmin.com/xmlschemas/ActivityExtension/v2"
    xmlns:ns4="http://www.garmin.com/xmlschemas/ProfileExtension/v1"
    xmlns:ns5="http://www.garmin.com/xmlschemas/ActivityGoals/v1"
    xmlns:xsi="http://www.w3.org/2001/XMLSchema-instance" xsi:schemaLocation="http://www.garmin.com/xmlschemas/TrainingCenterDatabase/v2 http://www.garmin.com/xmlschemas/TrainingCenterDatabasev2.xsd">
    <Activities>
        <Activity Sport="Walking">
            <Id>2022-10-19T16:46:27.490Z</Id>
            <Lap StartTime="2022-10-19T16:46:27.490Z">
                <Track>
                    <Trackpoint>
                        <DistanceMeters>0.0</DistanceMeters>
                        <Time>2022-10-19T16:46:27.490Z</Time>
                    </Trackpoint>
                    <Trackpoint>
                        <DistanceMeters>0.0</DistanceMeters>
                        <Time>2022-10-19T17:09:09.935Z</Time>
                    </Trackpoint>
                    <Trackpoint>
                        <DistanceMeters>43.06269073486328</DistanceMeters>
                        <Time>2022-10-19T17:09:59.575Z</Time>
                    </Trackpoint>
                    <Trackpoint>
                        <DistanceMeters>73.32294845581055</DistanceMeters>
                        <Time>2022-10-19T17:10:29.415Z</Time>
                    </Trackpoint>
                    <Trackpoint>
                        <DistanceMeters>116.2923355102539</DistanceMeters>
                        <Time>2022-10-19T17:11:12.015Z</Time>
                    </Trackpoint>
                    <Trackpoint>
                        <DistanceMeters>163.16785430908203</DistanceMeters>
                        <Time>2022-10-19T17:12:01.255Z</Time>
                    </Trackpoint>
                    <Trackpoint>
                        <DistanceMeters>224.39776229858398</DistanceMeters>
                        <Time>2022-10-19T17:12:59.295Z</Time>
                    </Trackpoint>
                </Track>
                <DistanceMeters>224.39776229858398</DistanceMeters>
                <TotalTimeSeconds>1591.805420461</TotalTimeSeconds>
                <Calories>51.570907626493124</Calories>
                <Intensity>Active</Intensity>
                <TriggerMethod>Manual</TriggerMethod>
            </Lap>
        </Activity>
        <Activity Sport="Walking">
            <Id>2022-10-19T17:12:01.255Z</Id>
            <Lap StartTime="2022-10-19T17:12:01.255Z">
                <Track>
                    <Trackpoint>
                        <DistanceMeters>0.0</DistanceMeters>
                        <Time>2022-10-19T17:12:01.255Z</Time>
                    </Trackpoint>
                    <Trackpoint>
                        <DistanceMeters>61.22990798950195</DistanceMeters>
                        <Time>2022-10-19T17:12:50.886Z</Time>
                    </Trackpoint>
                    <Trackpoint>
                        <DistanceMeters>61.22990798950195</DistanceMeters>
                        <Time>2022-10-19T17:12:59.295Z</Time>
                    </Trackpoint>
                    <Trackpoint>
                        <DistanceMeters>70.51293468475342</DistanceMeters>
                        <Time>2022-10-19T17:13:05.135Z</Time>
                    </Trackpoint>
                    <Trackpoint>
                        <DistanceMeters>128.70529460906982</DistanceMeters>
                        <Time>2022-10-19T17:13:57.055Z</Time>
                    </Trackpoint>
                    <Trackpoint>
                        <DistanceMeters>193.7085599899292</DistanceMeters>
                        <Time>2022-10-19T17:14:57.495Z</Time>
                    </Trackpoint>
                    <Trackpoint>
                        <DistanceMeters>202.39264106750488</DistanceMeters>
                        <Time>2022-10-19T17:15:06.255Z</Time>
                    </Trackpoint>
                    <Trackpoint>
                        <DistanceMeters>263.04722023010254</DistanceMeters>
                        <Time>2022-10-19T17:16:03.415Z</Time>
                    </Trackpoint>
                    <Trackpoint>
                        <DistanceMeters>269.2642512321472</DistanceMeters>
                        <Time>2022-10-19T17:16:09.015Z</Time>
                    </Trackpoint>
                    <Trackpoint>
                        <DistanceMeters>324.22232007980347</DistanceMeters>
                        <Time>2022-10-19T17:16:57.375Z</Time>
                    </Trackpoint>
                    <Trackpoint>
                        <DistanceMeters>407.05429792404175</DistanceMeters>
                        <Time>2022-10-19T17:18:08.135Z</Time>
                    </Trackpoint>
                    <Trackpoint>
                        <DistanceMeters>470.73357343673706</DistanceMeters>
                        <Time>2022-10-19T17:19:03.095Z</Time>
                    </Trackpoint>
                    <Trackpoint>
                        <DistanceMeters>498.2366862297058</DistanceMeters>
                        <Time>2022-10-19T17:19:28.255Z</Time>
                    </Trackpoint>
                    <Trackpoint>
                        <DistanceMeters>505.83740425109863</DistanceMeters>
                        <Time>2022-10-19T17:19:35.095Z</Time>
                    </Trackpoint>
                    <Trackpoint>
                        <DistanceMeters>538.0269718170166</DistanceMeters>
                        <Time>2022-10-19T17:20:07.135Z</Time>
                    </Trackpoint>
                    <Trackpoint>
                        <DistanceMeters>545.8565516471863</DistanceMeters>
                        <Time>2022-10-19T17:21:22.615Z</Time>
                    </Trackpoint>
                    <Trackpoint>
                        <DistanceMeters>563.4731059074402</DistanceMeters>
                        <Time>2022-10-19T17:22:22.615Z</Time>
                    </Trackpoint>
                </Track>
                <DistanceMeters>563.4731059074402</DistanceMeters>
                <TotalTimeSeconds>621.359997668</TotalTimeSeconds>
                <Calories>56.10931396484375</Calories>
                <Intensity>Active</Intensity>
                <TriggerMethod>Manual</TriggerMethod>
            </Lap>
        </Activity>
    </Activities>
    <Author xsi:type="Application_t">
        <Name>Google Fit</Name>
        <Build>
            <Version>
                <VersionMajor>0</VersionMajor>
                <VersionMinor>0</VersionMinor>
                <BuildMajor>0</BuildMajor>
                <BuildMinor>0</BuildMinor>
            </Version>
        </Build>
        <LangID>en</LangID>
        <PartNumber>000-00000-00</PartNumber>
    </Author>
</TrainingCenterDatabase>
