<?xml version="1.0" encoding="UTF-8"?>
<TrainingCenterDatabase
    xmlns="http://www.garmin.com/xmlschemas/TrainingCenterDatabase/v2"
    xmlns:ns2="http://www.garmin.com/xmlschemas/UserProfile/v2"
    xmlns:ns3="http://www.garmin.com/xmlschemas/ActivityExtension/v2"
    xmlns:ns4="http://www.garmin.com/xmlschemas/ProfileExtension/v1"
    xmlns:ns5="http://www.garmin.com/xmlschemas/ActivityGoals/v1"
    xmlns:xsi="http://www.w3.org/2001/XMLSchema-instance" xsi:schemaLocation="http://www.garmin.com/xmlschemas/TrainingCenterDatabase/v2 http://www.garmin.com/xmlschemas/TrainingCenterDatabasev2.xsd">
    <Activities>
        <Activity Sport="Walking">
            <Id>2022-03-17T14:55:46.043Z</Id>
            <Lap StartTime="2022-03-17T14:55:46.043Z">
                <Track>
                    <Trackpoint>
                        <DistanceMeters>0.0</DistanceMeters>
                        <Time>2022-03-17T14:55:46.043Z</Time>
                    </Trackpoint>
                    <Trackpoint>
                        <DistanceMeters>0.0</DistanceMeters>
                        <Time>2022-03-17T15:26:02.361Z</Time>
                    </Trackpoint>
                    <Trackpoint>
                        <DistanceMeters>40.45282745361328</DistanceMeters>
                        <Time>2022-03-17T15:28:06.361Z</Time>
                    </Trackpoint>
                    <Trackpoint>
                        <DistanceMeters>90.11502838134766</DistanceMeters>
                        <Time>2022-03-17T15:29:00.441Z</Time>
                    </Trackpoint>
                </Track>
                <DistanceMeters>90.11502838134766</DistanceMeters>
                <TotalTimeSeconds>1994.398699153</TotalTimeSeconds>
                <Calories>41.38848435878754</Calories>
                <Intensity>Active</Intensity>
                <TriggerMethod>Manual</TriggerMethod>
            </Lap>
        </Activity>
        <Activity Sport="Walking">
            <Id>2022-03-17T15:28:06.361Z</Id>
            <Lap StartTime="2022-03-17T15:28:06.361Z">
                <Track>
                    <Trackpoint>
                        <DistanceMeters>0.0</DistanceMeters>
                        <Time>2022-03-17T15:28:06.361Z</Time>
                    </Trackpoint>
                    <Trackpoint>
                        <DistanceMeters>49.662200927734375</DistanceMeters>
                        <Time>2022-03-17T15:28:19.596Z</Time>
                    </Trackpoint>
                    <Trackpoint>
                        <DistanceMeters>49.662200927734375</DistanceMeters>
                        <Time>2022-03-17T15:29:00.441Z</Time>
                    </Trackpoint>
                    <Trackpoint>
                        <DistanceMeters>74.27805709838867</DistanceMeters>
                        <Time>2022-03-17T15:29:17.761Z</Time>
                    </Trackpoint>
                    <Trackpoint>
                        <DistanceMeters>153.62754440307617</DistanceMeters>
                        <Time>2022-03-17T15:30:18.041Z</Time>
                    </Trackpoint>
                    <Trackpoint>
                        <DistanceMeters>190.3093032836914</DistanceMeters>
                        <Time>2022-03-17T15:30:47.001Z</Time>
                    </Trackpoint>
                    <Trackpoint>
                        <DistanceMeters>270.7983856201172</DistanceMeters>
                        <Time>2022-03-17T15:31:47.161Z</Time>
                    </Trackpoint>
                    <Trackpoint>
                        <DistanceMeters>305.2632255554199</DistanceMeters>
                        <Time>2022-03-17T15:32:14.521Z</Time>
                    </Trackpoint>
                    <Trackpoint>
                        <DistanceMeters>332.1026554107666</DistanceMeters>
                        <Time>2022-03-17T15:33:19.283Z</Time>
                    </Trackpoint>
                </Track>
                <DistanceMeters>332.1026554107666</DistanceMeters>
                <TotalTimeSeconds>312.921300508</TotalTimeSeconds>
                <Calories>29.102933883666992</Calories>
                <Intensity>Active</Intensity>
                <TriggerMethod>Manual</TriggerMethod>
            </Lap>
        </Activity>
        <Activity Sport="Walking">
            <Id>2022-03-17T15:41:26.571Z</Id>
            <Lap StartTime="2022-03-17T15:41:26.571Z">
                <Track>
                    <Trackpoint>
                        <DistanceMeters>0.0</DistanceMeters>
                        <Time>2022-03-17T15:41:26.571Z</Time>
                    </Trackpoint>
                    <Trackpoint>
                        <DistanceMeters>0.0</DistanceMeters>
                        <Time>2022-03-17T15:42:04.561Z</Time>
                    </Trackpoint>
                    <Trackpoint>
                        <DistanceMeters>97.90684509277344</DistanceMeters>
                        <Time>2022-03-17T15:43:16.361Z</Time>
                    </Trackpoint>
                    <Trackpoint>
                        <DistanceMeters>121.79265594482422</DistanceMeters>
                        <Time>2022-03-17T15:43:34.841Z</Time>
                    </Trackpoint>
                    <Trackpoint>
                        <DistanceMeters>209.5784149169922</DistanceMeters>
                        <Time>2022-03-17T15:44:27.921Z</Time>
                    </Trackpoint>
                    <Trackpoint>
                        <DistanceMeters>215.368914604187</DistanceMeters>
                        <Time>2022-03-17T15:44:32.401Z</Time>
                    </Trackpoint>
                    <Trackpoint>
                        <DistanceMeters>253.0397825241089</DistanceMeters>
                        <Time>2022-03-17T15:45:03.301Z</Time>
                    </Trackpoint>
                    <Trackpoint>
                        <DistanceMeters>262.8267574310303</DistanceMeters>
                        <Time>2022-03-17T15:45:36.801Z</Time>
                    </Trackpoint>
                    <Trackpoint>
                        <DistanceMeters>291.53521728515625</DistanceMeters>
                        <Time>2022-03-17T15:48:09.086Z</Time>
                    </Trackpoint>
                </Track>
                <DistanceMeters>291.53521728515625</DistanceMeters>
                <TotalTimeSeconds>402.515</TotalTimeSeconds>
                <Calories>39.08867645263672</Calories>
                <Intensity>Active</Intensity>
                <TriggerMethod>Manual</TriggerMethod>
            </Lap>
        </Activity>
    </Activities>
    <Author xsi:type="Application_t">
        <Name>Google Fit</Name>
        <Build>
            <Version>
                <VersionMajor>0</VersionMajor>
                <VersionMinor>0</VersionMinor>
                <BuildMajor>0</BuildMajor>
                <BuildMinor>0</BuildMinor>
            </Version>
        </Build>
        <LangID>en</LangID>
        <PartNumber>000-00000-00</PartNumber>
    </Author>
</TrainingCenterDatabase>
