<?xml version="1.0" encoding="UTF-8"?>
<TrainingCenterDatabase
    xmlns="http://www.garmin.com/xmlschemas/TrainingCenterDatabase/v2"
    xmlns:ns2="http://www.garmin.com/xmlschemas/UserProfile/v2"
    xmlns:ns3="http://www.garmin.com/xmlschemas/ActivityExtension/v2"
    xmlns:ns4="http://www.garmin.com/xmlschemas/ProfileExtension/v1"
    xmlns:ns5="http://www.garmin.com/xmlschemas/ActivityGoals/v1"
    xmlns:xsi="http://www.w3.org/2001/XMLSchema-instance" xsi:schemaLocation="http://www.garmin.com/xmlschemas/TrainingCenterDatabase/v2 http://www.garmin.com/xmlschemas/TrainingCenterDatabasev2.xsd">
    <Activities>
        <Activity Sport="Walking">
            <Id>2022-06-16T09:35:32.958Z</Id>
            <Lap StartTime="2022-06-16T09:35:32.958Z">
                <Track>
                    <Trackpoint>
                        <DistanceMeters>0.0</DistanceMeters>
                        <Time>2022-06-16T09:35:32.958Z</Time>
                    </Trackpoint>
                    <Trackpoint>
                        <DistanceMeters>54.80706024169922</DistanceMeters>
                        <Time>2022-06-16T09:36:47.717Z</Time>
                    </Trackpoint>
                    <Trackpoint>
                        <DistanceMeters>54.80706024169922</DistanceMeters>
                        <Time>2022-06-16T09:38:20.958Z</Time>
                    </Trackpoint>
                    <Trackpoint>
                        <DistanceMeters>65.89896488189697</DistanceMeters>
                        <Time>2022-06-16T09:38:33.278Z</Time>
                    </Trackpoint>
                </Track>
                <DistanceMeters>65.89896488189697</DistanceMeters>
                <TotalTimeSeconds>180.319996039</TotalTimeSeconds>
                <Calories>10.074246406555176</Calories>
                <Intensity>Active</Intensity>
                <TriggerMethod>Manual</TriggerMethod>
            </Lap>
        </Activity>
        <Activity Sport="Walking">
            <Id>2022-06-16T09:38:20.958Z</Id>
            <Lap StartTime="2022-06-16T09:38:20.958Z">
                <Track>
                    <Trackpoint>
                        <DistanceMeters>0.0</DistanceMeters>
                        <Time>2022-06-16T09:38:20.958Z</Time>
                    </Trackpoint>
                    <Trackpoint>
                        <DistanceMeters>11.091904640197754</DistanceMeters>
                        <Time>2022-06-16T09:38:26.109Z</Time>
                    </Trackpoint>
                    <Trackpoint>
                        <DistanceMeters>11.091904640197754</DistanceMeters>
                        <Time>2022-06-16T09:38:33.278Z</Time>
                    </Trackpoint>
                </Track>
                <DistanceMeters>11.091904640197754</DistanceMeters>
                <TotalTimeSeconds>12.320000135</TotalTimeSeconds>
                <Calories>0.7341147065162659</Calories>
                <Intensity>Active</Intensity>
                <TriggerMethod>Manual</TriggerMethod>
            </Lap>
        </Activity>
        <Activity Sport="Walking">
            <Id>2022-06-16T09:38:33.278Z</Id>
            <Lap StartTime="2022-06-16T09:38:33.278Z">
                <Track>
                    <Trackpoint>
                        <DistanceMeters>0.0</DistanceMeters>
                        <Time>2022-06-16T09:38:33.278Z</Time>
                    </Trackpoint>
                    <Trackpoint>
                        <DistanceMeters>0.0</DistanceMeters>
                        <Time>2022-06-16T09:50:12.504Z</Time>
                    </Trackpoint>
                    <Trackpoint>
                        <DistanceMeters>60.02677917480469</DistanceMeters>
                        <Time>2022-06-16T09:53:16.504Z</Time>
                    </Trackpoint>
                    <Trackpoint>
                        <DistanceMeters>96.88346481323242</DistanceMeters>
                        <Time>2022-06-16T09:53:55.644Z</Time>
                    </Trackpoint>
                </Track>
                <DistanceMeters>96.88346481323242</DistanceMeters>
                <TotalTimeSeconds>922.36598614</TotalTimeSeconds>
                <Calories>19.761229991912842</Calories>
                <Intensity>Active</Intensity>
                <TriggerMethod>Manual</TriggerMethod>
            </Lap>
        </Activity>
        <Activity Sport="Walking">
            <Id>2022-06-16T09:53:16.504Z</Id>
            <Lap StartTime="2022-06-16T09:53:16.504Z">
                <Track>
                    <Trackpoint>
                        <DistanceMeters>0.0</DistanceMeters>
                        <Time>2022-06-16T09:53:16.504Z</Time>
                    </Trackpoint>
                    <Trackpoint>
                        <DistanceMeters>36.856685638427734</DistanceMeters>
                        <Time>2022-06-16T09:53:26.225Z</Time>
                    </Trackpoint>
                    <Trackpoint>
                        <DistanceMeters>36.856685638427734</DistanceMeters>
                        <Time>2022-06-16T09:56:59.024Z</Time>
                    </Trackpoint>
                    <Trackpoint>
                        <DistanceMeters>56.43063545227051</DistanceMeters>
                        <Time>2022-06-16T09:57:59.024Z</Time>
                    </Trackpoint>
                    <Trackpoint>
                        <DistanceMeters>104.71304512023926</DistanceMeters>
                        <Time>2022-06-16T09:58:59.184Z</Time>
                    </Trackpoint>
                    <Trackpoint>
                        <DistanceMeters>123.09627723693848</DistanceMeters>
                        <Time>2022-06-16T10:01:59.184Z</Time>
                    </Trackpoint>
                    <Trackpoint>
                        <DistanceMeters>145.28008651733398</DistanceMeters>
                        <Time>2022-06-16T10:03:07.184Z</Time>
                    </Trackpoint>
                </Track>
                <DistanceMeters>145.28008651733398</DistanceMeters>
                <TotalTimeSeconds>590.68000044</TotalTimeSeconds>
                <Calories>53.86955642700195</Calories>
                <Intensity>Active</Intensity>
                <TriggerMethod>Manual</TriggerMethod>
            </Lap>
        </Activity>
        <Activity Sport="Walking">
            <Id>2022-06-16T10:01:59.184Z</Id>
            <Lap StartTime="2022-06-16T10:01:59.184Z">
                <Track>
                    <Trackpoint>
                        <DistanceMeters>0.0</DistanceMeters>
                        <Time>2022-06-16T10:01:59.184Z</Time>
                    </Trackpoint>
                    <Trackpoint>
                        <DistanceMeters>22.183809280395508</DistanceMeters>
                        <Time>2022-06-16T10:02:42.462Z</Time>
                    </Trackpoint>
                    <Trackpoint>
                        <DistanceMeters>22.183809280395508</DistanceMeters>
                        <Time>2022-06-16T10:03:07.184Z</Time>
                    </Trackpoint>
                    <Trackpoint>
                        <DistanceMeters>81.44731712341309</DistanceMeters>
                        <Time>2022-06-16T10:04:07.624Z</Time>
                    </Trackpoint>
                    <Trackpoint>
                        <DistanceMeters>106.25654792785645</DistanceMeters>
                        <Time>2022-06-16T10:04:57.304Z</Time>
                    </Trackpoint>
                    <Trackpoint>
                        <DistanceMeters>130.39775276184082</DistanceMeters>
                        <Time>2022-06-16T10:06:11.304Z</Time>
                    </Trackpoint>
                </Track>
                <DistanceMeters>130.39775276184082</DistanceMeters>
                <TotalTimeSeconds>252.120004168</TotalTimeSeconds>
                <Calories>15.786932945251465</Calories>
                <Intensity>Active</Intensity>
                <TriggerMethod>Manual</TriggerMethod>
            </Lap>
        </Activity>
    </Activities>
    <Author xsi:type="Application_t">
        <Name>Google Fit</Name>
        <Build>
            <Version>
                <VersionMajor>0</VersionMajor>
                <VersionMinor>0</VersionMinor>
                <BuildMajor>0</BuildMajor>
                <BuildMinor>0</BuildMinor>
            </Version>
        </Build>
        <LangID>en</LangID>
        <PartNumber>000-00000-00</PartNumber>
    </Author>
</TrainingCenterDatabase>
