<?xml version="1.0" encoding="UTF-8"?>
<TrainingCenterDatabase
    xmlns="http://www.garmin.com/xmlschemas/TrainingCenterDatabase/v2"
    xmlns:ns2="http://www.garmin.com/xmlschemas/UserProfile/v2"
    xmlns:ns3="http://www.garmin.com/xmlschemas/ActivityExtension/v2"
    xmlns:ns4="http://www.garmin.com/xmlschemas/ProfileExtension/v1"
    xmlns:ns5="http://www.garmin.com/xmlschemas/ActivityGoals/v1"
    xmlns:xsi="http://www.w3.org/2001/XMLSchema-instance" xsi:schemaLocation="http://www.garmin.com/xmlschemas/TrainingCenterDatabase/v2 http://www.garmin.com/xmlschemas/TrainingCenterDatabasev2.xsd">
    <Activities>
        <Activity Sport="Walking">
            <Id>2022-05-10T07:58:23.035Z</Id>
            <Lap StartTime="2022-05-10T07:58:23.035Z">
                <Track>
                    <Trackpoint>
                        <DistanceMeters>0.0</DistanceMeters>
                        <Time>2022-05-10T07:58:23.035Z</Time>
                    </Trackpoint>
                    <Trackpoint>
                        <DistanceMeters>0.0</DistanceMeters>
                        <Time>2022-05-10T08:30:15.067Z</Time>
                    </Trackpoint>
                    <Trackpoint>
                        <DistanceMeters>46.97747802734375</DistanceMeters>
                        <Time>2022-05-10T08:31:25.427Z</Time>
                    </Trackpoint>
                </Track>
                <DistanceMeters>46.97747802734375</DistanceMeters>
                <TotalTimeSeconds>1982.391803737</TotalTimeSeconds>
                <Calories>47.21116495132446</Calories>
                <Intensity>Active</Intensity>
                <TriggerMethod>Manual</TriggerMethod>
            </Lap>
        </Activity>
        <Activity Sport="Walking">
            <Id>2022-05-10T08:30:15.067Z</Id>
            <Lap StartTime="2022-05-10T08:30:15.067Z">
                <Track>
                    <Trackpoint>
                        <DistanceMeters>0.0</DistanceMeters>
                        <Time>2022-05-10T08:30:15.067Z</Time>
                    </Trackpoint>
                    <Trackpoint>
                        <DistanceMeters>46.97747802734375</DistanceMeters>
                        <Time>2022-05-10T08:31:19.391Z</Time>
                    </Trackpoint>
                    <Trackpoint>
                        <DistanceMeters>46.97747802734375</DistanceMeters>
                        <Time>2022-05-10T08:31:25.427Z</Time>
                    </Trackpoint>
                    <Trackpoint>
                        <DistanceMeters>97.21728134155273</DistanceMeters>
                        <Time>2022-05-10T08:33:21.149Z</Time>
                    </Trackpoint>
                </Track>
                <DistanceMeters>97.21728134155273</DistanceMeters>
                <TotalTimeSeconds>186.081625176</TotalTimeSeconds>
                <Calories>12.466665267944336</Calories>
                <Intensity>Active</Intensity>
                <TriggerMethod>Manual</TriggerMethod>
            </Lap>
        </Activity>
        <Activity Sport="Walking">
            <Id>2022-05-10T08:36:23.067Z</Id>
            <Lap StartTime="2022-05-10T08:36:23.067Z">
                <Track>
                    <Trackpoint>
                        <DistanceMeters>0.0</DistanceMeters>
                        <Time>2022-05-10T08:36:23.067Z</Time>
                    </Trackpoint>
                    <Trackpoint>
                        <DistanceMeters>28.055994033813477</DistanceMeters>
                        <Time>2022-05-10T08:36:25.546Z</Time>
                    </Trackpoint>
                    <Trackpoint>
                        <DistanceMeters>28.055994033813477</DistanceMeters>
                        <Time>2022-05-10T08:37:22.947Z</Time>
                    </Trackpoint>
                    <Trackpoint>
                        <DistanceMeters>78.94826316833496</DistanceMeters>
                        <Time>2022-05-10T08:38:23.547Z</Time>
                    </Trackpoint>
                    <Trackpoint>
                        <DistanceMeters>107.65672302246094</DistanceMeters>
                        <Time>2022-05-10T08:39:04.127Z</Time>
                    </Trackpoint>
                </Track>
                <DistanceMeters>107.65672302246094</DistanceMeters>
                <TotalTimeSeconds>161.059997903</TotalTimeSeconds>
                <Calories>15.557785987854004</Calories>
                <Intensity>Active</Intensity>
                <TriggerMethod>Manual</TriggerMethod>
            </Lap>
        </Activity>
        <Activity Sport="Walking">
            <Id>2022-05-10T08:38:23.547Z</Id>
            <Lap StartTime="2022-05-10T08:38:23.547Z">
                <Track>
                    <Trackpoint>
                        <DistanceMeters>0.0</DistanceMeters>
                        <Time>2022-05-10T08:38:23.547Z</Time>
                    </Trackpoint>
                    <Trackpoint>
                        <DistanceMeters>28.708459854125977</DistanceMeters>
                        <Time>2022-05-10T08:38:57.494Z</Time>
                    </Trackpoint>
                    <Trackpoint>
                        <DistanceMeters>28.708459854125977</DistanceMeters>
                        <Time>2022-05-10T08:39:04.127Z</Time>
                    </Trackpoint>
                </Track>
                <DistanceMeters>28.708459854125977</DistanceMeters>
                <TotalTimeSeconds>40.579997481</TotalTimeSeconds>
                <Calories>0.6791837215423584</Calories>
                <Intensity>Active</Intensity>
                <TriggerMethod>Manual</TriggerMethod>
            </Lap>
        </Activity>
        <Activity Sport="Walking">
            <Id>2022-05-10T08:46:28.867Z</Id>
            <Lap StartTime="2022-05-10T08:46:28.867Z">
                <Track>
                    <Trackpoint>
                        <DistanceMeters>0.0</DistanceMeters>
                        <Time>2022-05-10T08:46:28.867Z</Time>
                    </Trackpoint>
                    <Trackpoint>
                        <DistanceMeters>41.10529327392578</DistanceMeters>
                        <Time>2022-05-10T08:48:08.045Z</Time>
                    </Trackpoint>
                    <Trackpoint>
                        <DistanceMeters>41.10529327392578</DistanceMeters>
                        <Time>2022-05-10T08:48:34.867Z</Time>
                    </Trackpoint>
                    <Trackpoint>
                        <DistanceMeters>92.65002822875977</DistanceMeters>
                        <Time>2022-05-10T08:49:35.907Z</Time>
                    </Trackpoint>
                    <Trackpoint>
                        <DistanceMeters>114.83383750915527</DistanceMeters>
                        <Time>2022-05-10T08:50:13.707Z</Time>
                    </Trackpoint>
                    <Trackpoint>
                        <DistanceMeters>155.93913078308105</DistanceMeters>
                        <Time>2022-05-10T08:51:00.347Z</Time>
                    </Trackpoint>
                    <Trackpoint>
                        <DistanceMeters>195.7394962310791</DistanceMeters>
                        <Time>2022-05-10T08:51:52.747Z</Time>
                    </Trackpoint>
                    <Trackpoint>
                        <DistanceMeters>233.58246421813965</DistanceMeters>
                        <Time>2022-05-10T08:52:42.307Z</Time>
                    </Trackpoint>
                    <Trackpoint>
                        <DistanceMeters>316.57446098327637</DistanceMeters>
                        <Time>2022-05-10T08:54:12.667Z</Time>
                    </Trackpoint>
                </Track>
                <DistanceMeters>316.57446098327637</DistanceMeters>
                <TotalTimeSeconds>463.799994915</TotalTimeSeconds>
                <Calories>34.485595703125</Calories>
                <Intensity>Active</Intensity>
                <TriggerMethod>Manual</TriggerMethod>
            </Lap>
        </Activity>
        <Activity Sport="Walking">
            <Id>2022-05-10T08:52:42.307Z</Id>
            <Lap StartTime="2022-05-10T08:52:42.307Z">
                <Track>
                    <Trackpoint>
                        <DistanceMeters>0.0</DistanceMeters>
                        <Time>2022-05-10T08:52:42.307Z</Time>
                    </Trackpoint>
                    <Trackpoint>
                        <DistanceMeters>82.99199676513672</DistanceMeters>
                        <Time>2022-05-10T08:53:44.855Z</Time>
                    </Trackpoint>
                    <Trackpoint>
                        <DistanceMeters>82.99199676513672</DistanceMeters>
                        <Time>2022-05-10T08:54:12.667Z</Time>
                    </Trackpoint>
                    <Trackpoint>
                        <DistanceMeters>107.78566551208496</DistanceMeters>
                        <Time>2022-05-10T08:54:42.587Z</Time>
                    </Trackpoint>
                    <Trackpoint>
                        <DistanceMeters>170.95672416687012</DistanceMeters>
                        <Time>2022-05-10T08:55:42.787Z</Time>
                    </Trackpoint>
                    <Trackpoint>
                        <DistanceMeters>187.92081451416016</DistanceMeters>
                        <Time>2022-05-10T08:56:04.867Z</Time>
                    </Trackpoint>
                    <Trackpoint>
                        <DistanceMeters>243.33916091918945</DistanceMeters>
                        <Time>2022-05-10T08:57:03.227Z</Time>
                    </Trackpoint>
                    <Trackpoint>
                        <DistanceMeters>247.90641593933105</DistanceMeters>
                        <Time>2022-05-10T08:57:09.347Z</Time>
                    </Trackpoint>
                    <Trackpoint>
                        <DistanceMeters>283.13952445983887</DistanceMeters>
                        <Time>2022-05-10T08:57:51.467Z</Time>
                    </Trackpoint>
                    <Trackpoint>
                        <DistanceMeters>305.3233337402344</DistanceMeters>
                        <Time>2022-05-10T08:58:18.947Z</Time>
                    </Trackpoint>
                    <Trackpoint>
                        <DistanceMeters>341.3009147644043</DistanceMeters>
                        <Time>2022-05-10T08:59:19.368Z</Time>
                    </Trackpoint>
                </Track>
                <DistanceMeters>341.3009147644043</DistanceMeters>
                <TotalTimeSeconds>397.060626112</TotalTimeSeconds>
                <Calories>34.25041198730469</Calories>
                <Intensity>Active</Intensity>
                <TriggerMethod>Manual</TriggerMethod>
            </Lap>
        </Activity>
        <Activity Sport="Walking">
            <Id>2022-05-10T08:59:19.368Z</Id>
            <Lap StartTime="2022-05-10T08:59:19.368Z">
                <Track>
                    <Trackpoint>
                        <DistanceMeters>0.0</DistanceMeters>
                        <Time>2022-05-10T08:59:19.368Z</Time>
                    </Trackpoint>
                    <Trackpoint>
                        <DistanceMeters>7.352904319763184</DistanceMeters>
                        <Time>2022-05-10T08:59:27.707Z</Time>
                    </Trackpoint>
                    <Trackpoint>
                        <DistanceMeters>50.14047145843506</DistanceMeters>
                        <Time>2022-05-10T09:00:10.747Z</Time>
                    </Trackpoint>
                    <Trackpoint>
                        <DistanceMeters>75.5866060256958</DistanceMeters>
                        <Time>2022-05-10T09:00:45.787Z</Time>
                    </Trackpoint>
                    <Trackpoint>
                        <DistanceMeters>104.56700229644775</DistanceMeters>
                        <Time>2022-05-10T09:01:14.147Z</Time>
                    </Trackpoint>
                    <Trackpoint>
                        <DistanceMeters>118.199462890625</DistanceMeters>
                        <Time>2022-05-10T09:01:26.987Z</Time>
                    </Trackpoint>
                    <Trackpoint>
                        <DistanceMeters>172.35405731201172</DistanceMeters>
                        <Time>2022-05-10T09:02:26.427Z</Time>
                    </Trackpoint>
                    <Trackpoint>
                        <DistanceMeters>216.37061309814453</DistanceMeters>
                        <Time>2022-05-10T09:03:13.467Z</Time>
                    </Trackpoint>
                    <Trackpoint>
                        <DistanceMeters>253.5881004333496</DistanceMeters>
                        <Time>2022-05-10T09:03:54.107Z</Time>
                    </Trackpoint>
                    <Trackpoint>
                        <DistanceMeters>256.3004078865051</DistanceMeters>
                        <Time>2022-05-10T09:03:56.707Z</Time>
                    </Trackpoint>
                    <Trackpoint>
                        <DistanceMeters>280.4416127204895</DistanceMeters>
                        <Time>2022-05-10T09:04:27.027Z</Time>
                    </Trackpoint>
                    <Trackpoint>
                        <DistanceMeters>315.9418377876282</DistanceMeters>
                        <Time>2022-05-10T09:05:02.507Z</Time>
                    </Trackpoint>
                    <Trackpoint>
                        <DistanceMeters>353.7848057746887</DistanceMeters>
                        <Time>2022-05-10T09:05:55.787Z</Time>
                    </Trackpoint>
                    <Trackpoint>
                        <DistanceMeters>365.52917528152466</DistanceMeters>
                        <Time>2022-05-10T09:06:10.067Z</Time>
                    </Trackpoint>
                    <Trackpoint>
                        <DistanceMeters>402.71968126296997</DistanceMeters>
                        <Time>2022-05-10T09:06:57.187Z</Time>
                    </Trackpoint>
                    <Trackpoint>
                        <DistanceMeters>464.0513882637024</DistanceMeters>
                        <Time>2022-05-10T09:08:04.587Z</Time>
                    </Trackpoint>
                    <Trackpoint>
                        <DistanceMeters>471.2285032272339</DistanceMeters>
                        <Time>2022-05-10T09:08:14.867Z</Time>
                    </Trackpoint>
                    <Trackpoint>
                        <DistanceMeters>503.85175228118896</DistanceMeters>
                        <Time>2022-05-10T09:08:58.547Z</Time>
                    </Trackpoint>
                    <Trackpoint>
                        <DistanceMeters>557.3538808822632</DistanceMeters>
                        <Time>2022-05-10T09:10:01.227Z</Time>
                    </Trackpoint>
                    <Trackpoint>
                        <DistanceMeters>584.4981069564819</DistanceMeters>
                        <Time>2022-05-10T09:10:29.467Z</Time>
                    </Trackpoint>
                    <Trackpoint>
                        <DistanceMeters>605.3769865036011</DistanceMeters>
                        <Time>2022-05-10T09:10:53.707Z</Time>
                    </Trackpoint>
                    <Trackpoint>
                        <DistanceMeters>624.2984704971313</DistanceMeters>
                        <Time>2022-05-10T09:11:15.987Z</Time>
                    </Trackpoint>
                    <Trackpoint>
                        <DistanceMeters>647.7872095108032</DistanceMeters>
                        <Time>2022-05-10T09:11:45.907Z</Time>
                    </Trackpoint>
                    <Trackpoint>
                        <DistanceMeters>664.7512998580933</DistanceMeters>
                        <Time>2022-05-10T09:12:06.307Z</Time>
                    </Trackpoint>
                    <Trackpoint>
                        <DistanceMeters>696.7220849990845</DistanceMeters>
                        <Time>2022-05-10T09:13:04.187Z</Time>
                    </Trackpoint>
                    <Trackpoint>
                        <DistanceMeters>713.6861753463745</DistanceMeters>
                        <Time>2022-05-10T09:13:27.427Z</Time>
                    </Trackpoint>
                    <Trackpoint>
                        <DistanceMeters>728.3116998672485</DistanceMeters>
                        <Time>2022-05-10T09:13:42.427Z</Time>
                    </Trackpoint>
                    <Trackpoint>
                        <DistanceMeters>749.1905794143677</DistanceMeters>
                        <Time>2022-05-10T09:14:12.427Z</Time>
                    </Trackpoint>
                    <Trackpoint>
                        <DistanceMeters>841.8406038284302</DistanceMeters>
                        <Time>2022-05-10T09:15:55.867Z</Time>
                    </Trackpoint>
                    <Trackpoint>
                        <DistanceMeters>852.9325084686279</DistanceMeters>
                        <Time>2022-05-10T09:16:11.867Z</Time>
                    </Trackpoint>
                    <Trackpoint>
                        <DistanceMeters>885.555757522583</DistanceMeters>
                        <Time>2022-05-10T09:16:51.667Z</Time>
                    </Trackpoint>
                    <Trackpoint>
                        <DistanceMeters>898.6050567626953</DistanceMeters>
                        <Time>2022-05-10T09:17:06.167Z</Time>
                    </Trackpoint>
                    <Trackpoint>
                        <DistanceMeters>914.9166812896729</DistanceMeters>
                        <Time>2022-05-10T09:17:31.427Z</Time>
                    </Trackpoint>
                    <Trackpoint>
                        <DistanceMeters>941.0152797698975</DistanceMeters>
                        <Time>2022-05-10T09:18:00.147Z</Time>
                    </Trackpoint>
                    <Trackpoint>
                        <DistanceMeters>949.1347789764404</DistanceMeters>
                        <Time>2022-05-10T09:18:07.987Z</Time>
                    </Trackpoint>
                    <Trackpoint>
                        <DistanceMeters>968.0562629699707</DistanceMeters>
                        <Time>2022-05-10T09:18:31.907Z</Time>
                    </Trackpoint>
                    <Trackpoint>
                        <DistanceMeters>991.6958713531494</DistanceMeters>
                        <Time>2022-05-10T09:18:52.747Z</Time>
                    </Trackpoint>
                    <Trackpoint>
                        <DistanceMeters>1024.1171627044678</DistanceMeters>
                        <Time>2022-05-10T09:19:26.547Z</Time>
                    </Trackpoint>
                    <Trackpoint>
                        <DistanceMeters>1034.0215253829956</DistanceMeters>
                        <Time>2022-05-10T09:19:36.947Z</Time>
                    </Trackpoint>
                    <Trackpoint>
                        <DistanceMeters>1071.9763402938843</DistanceMeters>
                        <Time>2022-05-10T09:20:13.387Z</Time>
                    </Trackpoint>
                    <Trackpoint>
                        <DistanceMeters>1080.4583854675293</DistanceMeters>
                        <Time>2022-05-10T09:20:22.947Z</Time>
                    </Trackpoint>
                    <Trackpoint>
                        <DistanceMeters>1099.3798694610596</DistanceMeters>
                        <Time>2022-05-10T09:20:44.027Z</Time>
                    </Trackpoint>
                    <Trackpoint>
                        <DistanceMeters>1160.0387554168701</DistanceMeters>
                        <Time>2022-05-10T09:21:45.667Z</Time>
                    </Trackpoint>
                    <Trackpoint>
                        <DistanceMeters>1177.0028457641602</DistanceMeters>
                        <Time>2022-05-10T09:22:04.887Z</Time>
                    </Trackpoint>
                    <Trackpoint>
                        <DistanceMeters>1190.0521450042725</DistanceMeters>
                        <Time>2022-05-10T09:23:15.374Z</Time>
                    </Trackpoint>
                </Track>
                <DistanceMeters>1190.0521450042725</DistanceMeters>
                <TotalTimeSeconds>1436.006</TotalTimeSeconds>
                <Calories>147.0310516357422</Calories>
                <Intensity>Active</Intensity>
                <TriggerMethod>Manual</TriggerMethod>
            </Lap>
        </Activity>
        <Activity Sport="Walking">
            <Id>2022-05-10T09:31:57.636Z</Id>
            <Lap StartTime="2022-05-10T09:31:57.636Z">
                <Track>
                    <Trackpoint>
                        <DistanceMeters>0.0</DistanceMeters>
                        <Time>2022-05-10T09:31:57.636Z</Time>
                    </Trackpoint>
                    <Trackpoint>
                        <DistanceMeters>0.0</DistanceMeters>
                        <Time>2022-05-10T09:33:39.587Z</Time>
                    </Trackpoint>
                    <Trackpoint>
                        <DistanceMeters>19.573949813842773</DistanceMeters>
                        <Time>2022-05-10T09:34:39.587Z</Time>
                    </Trackpoint>
                </Track>
                <DistanceMeters>19.573949813842773</DistanceMeters>
                <TotalTimeSeconds>161.951373776</TotalTimeSeconds>
                <Calories>13.129326820373535</Calories>
                <Intensity>Active</Intensity>
                <TriggerMethod>Manual</TriggerMethod>
            </Lap>
        </Activity>
    </Activities>
    <Author xsi:type="Application_t">
        <Name>Google Fit</Name>
        <Build>
            <Version>
                <VersionMajor>0</VersionMajor>
                <VersionMinor>0</VersionMinor>
                <BuildMajor>0</BuildMajor>
                <BuildMinor>0</BuildMinor>
            </Version>
        </Build>
        <LangID>en</LangID>
        <PartNumber>000-00000-00</PartNumber>
    </Author>
</TrainingCenterDatabase>
