<?xml version="1.0" encoding="UTF-8"?>
<TrainingCenterDatabase
    xmlns="http://www.garmin.com/xmlschemas/TrainingCenterDatabase/v2"
    xmlns:ns2="http://www.garmin.com/xmlschemas/UserProfile/v2"
    xmlns:ns3="http://www.garmin.com/xmlschemas/ActivityExtension/v2"
    xmlns:ns4="http://www.garmin.com/xmlschemas/ProfileExtension/v1"
    xmlns:ns5="http://www.garmin.com/xmlschemas/ActivityGoals/v1"
    xmlns:xsi="http://www.w3.org/2001/XMLSchema-instance" xsi:schemaLocation="http://www.garmin.com/xmlschemas/TrainingCenterDatabase/v2 http://www.garmin.com/xmlschemas/TrainingCenterDatabasev2.xsd">
    <Activities>
        <Activity Sport="Walking">
            <Id>2022-09-13T16:39:26.082Z</Id>
            <Lap StartTime="2022-09-13T16:39:26.082Z">
                <Track>
                    <Trackpoint>
                        <DistanceMeters>0.0</DistanceMeters>
                        <Time>2022-09-13T16:39:26.082Z</Time>
                    </Trackpoint>
                    <Trackpoint>
                        <DistanceMeters>0.0</DistanceMeters>
                        <Time>2022-09-13T16:40:43.663Z</Time>
                    </Trackpoint>
                </Track>
                <DistanceMeters>0.0</DistanceMeters>
                <TotalTimeSeconds>77.581</TotalTimeSeconds>
                <Calories>7.943431854248047</Calories>
                <Intensity>Active</Intensity>
                <TriggerMethod>Manual</TriggerMethod>
            </Lap>
        </Activity>
        <Activity Sport="Walking">
            <Id>2022-09-13T16:43:02.223Z</Id>
            <Lap StartTime="2022-09-13T16:43:02.223Z">
                <Track>
                    <Trackpoint>
                        <DistanceMeters>0.0</DistanceMeters>
                        <Time>2022-09-13T16:43:02.223Z</Time>
                    </Trackpoint>
                    <Trackpoint>
                        <DistanceMeters>29.360923767089844</DistanceMeters>
                        <Time>2022-09-13T16:43:18.827Z</Time>
                    </Trackpoint>
                    <Trackpoint>
                        <DistanceMeters>29.360923767089844</DistanceMeters>
                        <Time>2022-09-13T16:44:04.663Z</Time>
                    </Trackpoint>
                </Track>
                <DistanceMeters>29.360923767089844</DistanceMeters>
                <TotalTimeSeconds>62.439998271</TotalTimeSeconds>
                <Calories>3.520948886871338</Calories>
                <Intensity>Active</Intensity>
                <TriggerMethod>Manual</TriggerMethod>
            </Lap>
        </Activity>
        <Activity Sport="Walking">
            <Id>2022-09-13T16:45:50.543Z</Id>
            <Lap StartTime="2022-09-13T16:45:50.543Z">
                <Track>
                    <Trackpoint>
                        <DistanceMeters>0.0</DistanceMeters>
                        <Time>2022-09-13T16:45:50.543Z</Time>
                    </Trackpoint>
                    <Trackpoint>
                        <DistanceMeters>29.360923767089844</DistanceMeters>
                        <Time>2022-09-13T16:46:57.576Z</Time>
                    </Trackpoint>
                    <Trackpoint>
                        <DistanceMeters>29.360923767089844</DistanceMeters>
                        <Time>2022-09-13T16:47:20.543Z</Time>
                    </Trackpoint>
                    <Trackpoint>
                        <DistanceMeters>99.89349365234375</DistanceMeters>
                        <Time>2022-09-13T16:48:19.863Z</Time>
                    </Trackpoint>
                    <Trackpoint>
                        <DistanceMeters>177.76113891601562</DistanceMeters>
                        <Time>2022-09-13T16:49:20.863Z</Time>
                    </Trackpoint>
                    <Trackpoint>
                        <DistanceMeters>257.0141143798828</DistanceMeters>
                        <Time>2022-09-13T16:50:21.303Z</Time>
                    </Trackpoint>
                    <Trackpoint>
                        <DistanceMeters>342.1865539550781</DistanceMeters>
                        <Time>2022-09-13T16:51:22.583Z</Time>
                    </Trackpoint>
                    <Trackpoint>
                        <DistanceMeters>387.67232513427734</DistanceMeters>
                        <Time>2022-09-13T16:51:54.623Z</Time>
                    </Trackpoint>
                    <Trackpoint>
                        <DistanceMeters>455.5286865234375</DistanceMeters>
                        <Time>2022-09-13T16:54:01.143Z</Time>
                    </Trackpoint>
                    <Trackpoint>
                        <DistanceMeters>535.1217193603516</DistanceMeters>
                        <Time>2022-09-13T16:55:01.023Z</Time>
                    </Trackpoint>
                    <Trackpoint>
                        <DistanceMeters>539.374508857727</DistanceMeters>
                        <Time>2022-09-13T16:55:04.543Z</Time>
                    </Trackpoint>
                    <Trackpoint>
                        <DistanceMeters>613.2269868850708</DistanceMeters>
                        <Time>2022-09-13T16:56:01.623Z</Time>
                    </Trackpoint>
                    <Trackpoint>
                        <DistanceMeters>657.6243371963501</DistanceMeters>
                        <Time>2022-09-13T16:56:32.023Z</Time>
                    </Trackpoint>
                    <Trackpoint>
                        <DistanceMeters>674.9256811141968</DistanceMeters>
                        <Time>2022-09-13T16:56:45.583Z</Time>
                    </Trackpoint>
                    <Trackpoint>
                        <DistanceMeters>695.8465051651001</DistanceMeters>
                        <Time>2022-09-13T16:58:12.064Z</Time>
                    </Trackpoint>
                </Track>
                <DistanceMeters>695.8465051651001</DistanceMeters>
                <TotalTimeSeconds>741.520311474</TotalTimeSeconds>
                <Calories>69.06006622314453</Calories>
                <Intensity>Active</Intensity>
                <TriggerMethod>Manual</TriggerMethod>
            </Lap>
        </Activity>
        <Activity Sport="Walking">
            <Id>2022-09-13T16:58:12.064Z</Id>
            <Lap StartTime="2022-09-13T16:58:12.064Z">
                <Track>
                    <Trackpoint>
                        <DistanceMeters>0.0</DistanceMeters>
                        <Time>2022-09-13T16:58:12.064Z</Time>
                    </Trackpoint>
                    <Trackpoint>
                        <DistanceMeters>0.0</DistanceMeters>
                        <Time>2022-09-13T17:07:36.143Z</Time>
                    </Trackpoint>
                    <Trackpoint>
                        <DistanceMeters>19.573949813842773</DistanceMeters>
                        <Time>2022-09-13T17:08:36.143Z</Time>
                    </Trackpoint>
                    <Trackpoint>
                        <DistanceMeters>92.40200614929199</DistanceMeters>
                        <Time>2022-09-13T17:09:36.903Z</Time>
                    </Trackpoint>
                    <Trackpoint>
                        <DistanceMeters>123.06661033630371</DistanceMeters>
                        <Time>2022-09-13T17:09:59.983Z</Time>
                    </Trackpoint>
                    <Trackpoint>
                        <DistanceMeters>157.49561500549316</DistanceMeters>
                        <Time>2022-09-13T17:10:29.303Z</Time>
                    </Trackpoint>
                </Track>
                <DistanceMeters>157.49561500549316</DistanceMeters>
                <TotalTimeSeconds>737.239687931</TotalTimeSeconds>
                <Calories>24.346177965056107</Calories>
                <Intensity>Active</Intensity>
                <TriggerMethod>Manual</TriggerMethod>
            </Lap>
        </Activity>
        <Activity Sport="Walking">
            <Id>2022-09-13T17:09:59.983Z</Id>
            <Lap StartTime="2022-09-13T17:09:59.983Z">
                <Track>
                    <Trackpoint>
                        <DistanceMeters>0.0</DistanceMeters>
                        <Time>2022-09-13T17:09:59.983Z</Time>
                    </Trackpoint>
                    <Trackpoint>
                        <DistanceMeters>34.42900466918945</DistanceMeters>
                        <Time>2022-09-13T17:10:24.420Z</Time>
                    </Trackpoint>
                    <Trackpoint>
                        <DistanceMeters>34.42900466918945</DistanceMeters>
                        <Time>2022-09-13T17:10:29.303Z</Time>
                    </Trackpoint>
                    <Trackpoint>
                        <DistanceMeters>77.48820495605469</DistanceMeters>
                        <Time>2022-09-13T17:11:05.423Z</Time>
                    </Trackpoint>
                    <Trackpoint>
                        <DistanceMeters>110.26975631713867</DistanceMeters>
                        <Time>2022-09-13T17:11:34.023Z</Time>
                    </Trackpoint>
                    <Trackpoint>
                        <DistanceMeters>178.5088768005371</DistanceMeters>
                        <Time>2022-09-13T17:12:31.903Z</Time>
                    </Trackpoint>
                    <Trackpoint>
                        <DistanceMeters>238.72809600830078</DistanceMeters>
                        <Time>2022-09-13T17:13:21.823Z</Time>
                    </Trackpoint>
                    <Trackpoint>
                        <DistanceMeters>262.6927947998047</DistanceMeters>
                        <Time>2022-09-13T17:13:42.023Z</Time>
                    </Trackpoint>
                    <Trackpoint>
                        <DistanceMeters>312.5611877441406</DistanceMeters>
                        <Time>2022-09-13T17:14:24.543Z</Time>
                    </Trackpoint>
                    <Trackpoint>
                        <DistanceMeters>383.0929946899414</DistanceMeters>
                        <Time>2022-09-13T17:15:14.903Z</Time>
                    </Trackpoint>
                    <Trackpoint>
                        <DistanceMeters>423.3452606201172</DistanceMeters>
                        <Time>2022-09-13T17:15:48.623Z</Time>
                    </Trackpoint>
                    <Trackpoint>
                        <DistanceMeters>468.16258239746094</DistanceMeters>
                        <Time>2022-09-13T17:16:20.023Z</Time>
                    </Trackpoint>
                    <Trackpoint>
                        <DistanceMeters>498.8741626739502</DistanceMeters>
                        <Time>2022-09-13T17:16:44.823Z</Time>
                    </Trackpoint>
                    <Trackpoint>
                        <DistanceMeters>533.8929843902588</DistanceMeters>
                        <Time>2022-09-13T17:17:31.583Z</Time>
                    </Trackpoint>
                </Track>
                <DistanceMeters>533.8929843902588</DistanceMeters>
                <TotalTimeSeconds>451.599312069</TotalTimeSeconds>
                <Calories>43.73674011230469</Calories>
                <Intensity>Active</Intensity>
                <TriggerMethod>Manual</TriggerMethod>
            </Lap>
        </Activity>
    </Activities>
    <Author xsi:type="Application_t">
        <Name>Google Fit</Name>
        <Build>
            <Version>
                <VersionMajor>0</VersionMajor>
                <VersionMinor>0</VersionMinor>
                <BuildMajor>0</BuildMajor>
                <BuildMinor>0</BuildMinor>
            </Version>
        </Build>
        <LangID>en</LangID>
        <PartNumber>000-00000-00</PartNumber>
    </Author>
</TrainingCenterDatabase>
