<?xml version="1.0" encoding="UTF-8"?>
<TrainingCenterDatabase
    xmlns="http://www.garmin.com/xmlschemas/TrainingCenterDatabase/v2"
    xmlns:ns2="http://www.garmin.com/xmlschemas/UserProfile/v2"
    xmlns:ns3="http://www.garmin.com/xmlschemas/ActivityExtension/v2"
    xmlns:ns4="http://www.garmin.com/xmlschemas/ProfileExtension/v1"
    xmlns:ns5="http://www.garmin.com/xmlschemas/ActivityGoals/v1"
    xmlns:xsi="http://www.w3.org/2001/XMLSchema-instance" xsi:schemaLocation="http://www.garmin.com/xmlschemas/TrainingCenterDatabase/v2 http://www.garmin.com/xmlschemas/TrainingCenterDatabasev2.xsd">
    <Activities>
        <Activity Sport="Walking">
            <Id>2022-06-22T16:18:11.003Z</Id>
            <Lap StartTime="2022-06-22T16:18:11.003Z">
                <Track>
                    <Trackpoint>
                        <DistanceMeters>0.0</DistanceMeters>
                        <Time>2022-06-22T16:18:11.003Z</Time>
                    </Trackpoint>
                    <Trackpoint>
                        <DistanceMeters>46.32501220703125</DistanceMeters>
                        <Time>2022-06-22T16:18:31.891Z</Time>
                    </Trackpoint>
                    <Trackpoint>
                        <DistanceMeters>46.32501220703125</DistanceMeters>
                        <Time>2022-06-22T16:20:31.403Z</Time>
                    </Trackpoint>
                    <Trackpoint>
                        <DistanceMeters>82.21058654785156</DistanceMeters>
                        <Time>2022-06-22T16:21:31.243Z</Time>
                    </Trackpoint>
                    <Trackpoint>
                        <DistanceMeters>119.40109252929688</DistanceMeters>
                        <Time>2022-06-22T16:22:31.243Z</Time>
                    </Trackpoint>
                    <Trackpoint>
                        <DistanceMeters>121.3584874868393</DistanceMeters>
                        <Time>2022-06-22T16:23:51.203Z</Time>
                    </Trackpoint>
                    <Trackpoint>
                        <DistanceMeters>144.84722650051117</DistanceMeters>
                        <Time>2022-06-22T16:24:35.043Z</Time>
                    </Trackpoint>
                    <Trackpoint>
                        <DistanceMeters>151.37187612056732</DistanceMeters>
                        <Time>2022-06-22T16:24:52.443Z</Time>
                    </Trackpoint>
                    <Trackpoint>
                        <DistanceMeters>173.55568540096283</DistanceMeters>
                        <Time>2022-06-22T16:25:40.883Z</Time>
                    </Trackpoint>
                    <Trackpoint>
                        <DistanceMeters>178.77540528774261</DistanceMeters>
                        <Time>2022-06-22T16:25:50.683Z</Time>
                    </Trackpoint>
                    <Trackpoint>
                        <DistanceMeters>206.17893540859222</DistanceMeters>
                        <Time>2022-06-22T16:26:40.883Z</Time>
                    </Trackpoint>
                    <Trackpoint>
                        <DistanceMeters>227.71028077602386</DistanceMeters>
                        <Time>2022-06-22T16:27:05.083Z</Time>
                    </Trackpoint>
                    <Trackpoint>
                        <DistanceMeters>270.12050569057465</DistanceMeters>
                        <Time>2022-06-22T16:28:56.683Z</Time>
                    </Trackpoint>
                    <Trackpoint>
                        <DistanceMeters>278.60255086421967</DistanceMeters>
                        <Time>2022-06-22T16:29:08.403Z</Time>
                    </Trackpoint>
                    <Trackpoint>
                        <DistanceMeters>292.95678079128265</DistanceMeters>
                        <Time>2022-06-22T16:29:36.803Z</Time>
                    </Trackpoint>
                    <Trackpoint>
                        <DistanceMeters>309.9208711385727</DistanceMeters>
                        <Time>2022-06-22T16:30:22.003Z</Time>
                    </Trackpoint>
                    <Trackpoint>
                        <DistanceMeters>334.71453988552094</DistanceMeters>
                        <Time>2022-06-22T16:31:10.763Z</Time>
                    </Trackpoint>
                    <Trackpoint>
                        <DistanceMeters>356.2458852529526</DistanceMeters>
                        <Time>2022-06-22T16:32:01.043Z</Time>
                    </Trackpoint>
                </Track>
                <DistanceMeters>356.2458852529526</DistanceMeters>
                <TotalTimeSeconds>830.039997347</TotalTimeSeconds>
                <Calories>78.65248107910156</Calories>
                <Intensity>Active</Intensity>
                <TriggerMethod>Manual</TriggerMethod>
            </Lap>
        </Activity>
        <Activity Sport="Walking">
            <Id>2022-06-22T16:38:40.763Z</Id>
            <Lap StartTime="2022-06-22T16:38:40.763Z">
                <Track>
                    <Trackpoint>
                        <DistanceMeters>0.0</DistanceMeters>
                        <Time>2022-06-22T16:38:40.763Z</Time>
                    </Trackpoint>
                    <Trackpoint>
                        <DistanceMeters>32.62324905395508</DistanceMeters>
                        <Time>2022-06-22T16:40:01.033Z</Time>
                    </Trackpoint>
                    <Trackpoint>
                        <DistanceMeters>32.62324905395508</DistanceMeters>
                        <Time>2022-06-22T16:40:20.763Z</Time>
                    </Trackpoint>
                    <Trackpoint>
                        <DistanceMeters>58.72184753417969</DistanceMeters>
                        <Time>2022-06-22T16:43:06.803Z</Time>
                    </Trackpoint>
                </Track>
                <DistanceMeters>58.72184753417969</DistanceMeters>
                <TotalTimeSeconds>266.039671598</TotalTimeSeconds>
                <Calories>19.020780563354492</Calories>
                <Intensity>Active</Intensity>
                <TriggerMethod>Manual</TriggerMethod>
            </Lap>
        </Activity>
        <Activity Sport="Walking">
            <Id>2022-06-22T16:43:06.803Z</Id>
            <Lap StartTime="2022-06-22T16:43:06.803Z">
                <Track>
                    <Trackpoint>
                        <DistanceMeters>0.0</DistanceMeters>
                        <Time>2022-06-22T16:43:06.803Z</Time>
                    </Trackpoint>
                    <Trackpoint>
                        <DistanceMeters>0.0</DistanceMeters>
                        <Time>2022-06-22T16:45:41.363Z</Time>
                    </Trackpoint>
                    <Trackpoint>
                        <DistanceMeters>21.231067657470703</DistanceMeters>
                        <Time>2022-06-22T16:46:01.043Z</Time>
                    </Trackpoint>
                    <Trackpoint>
                        <DistanceMeters>61.13102340698242</DistanceMeters>
                        <Time>2022-06-22T16:46:35.443Z</Time>
                    </Trackpoint>
                    <Trackpoint>
                        <DistanceMeters>90.75652694702148</DistanceMeters>
                        <Time>2022-06-22T16:47:02.363Z</Time>
                    </Trackpoint>
                </Track>
                <DistanceMeters>90.75652694702148</DistanceMeters>
                <TotalTimeSeconds>235.56032671</TotalTimeSeconds>
                <Calories>9.864971399307251</Calories>
                <Intensity>Active</Intensity>
                <TriggerMethod>Manual</TriggerMethod>
            </Lap>
        </Activity>
        <Activity Sport="Walking">
            <Id>2022-06-22T16:46:35.443Z</Id>
            <Lap StartTime="2022-06-22T16:46:35.443Z">
                <Track>
                    <Trackpoint>
                        <DistanceMeters>0.0</DistanceMeters>
                        <Time>2022-06-22T16:46:35.443Z</Time>
                    </Trackpoint>
                    <Trackpoint>
                        <DistanceMeters>29.625503540039062</DistanceMeters>
                        <Time>2022-06-22T16:46:45.638Z</Time>
                    </Trackpoint>
                    <Trackpoint>
                        <DistanceMeters>29.625503540039062</DistanceMeters>
                        <Time>2022-06-22T16:47:02.363Z</Time>
                    </Trackpoint>
                    <Trackpoint>
                        <DistanceMeters>91.34501266479492</DistanceMeters>
                        <Time>2022-06-22T16:47:57.243Z</Time>
                    </Trackpoint>
                    <Trackpoint>
                        <DistanceMeters>122.94622039794922</DistanceMeters>
                        <Time>2022-06-22T16:48:24.203Z</Time>
                    </Trackpoint>
                    <Trackpoint>
                        <DistanceMeters>157.40502548217773</DistanceMeters>
                        <Time>2022-06-22T16:48:55.483Z</Time>
                    </Trackpoint>
                    <Trackpoint>
                        <DistanceMeters>241.71525955200195</DistanceMeters>
                        <Time>2022-06-22T16:50:09.283Z</Time>
                    </Trackpoint>
                    <Trackpoint>
                        <DistanceMeters>310.6873207092285</DistanceMeters>
                        <Time>2022-06-22T16:51:09.683Z</Time>
                    </Trackpoint>
                    <Trackpoint>
                        <DistanceMeters>347.07837677001953</DistanceMeters>
                        <Time>2022-06-22T16:51:41.083Z</Time>
                    </Trackpoint>
                    <Trackpoint>
                        <DistanceMeters>374.5933895111084</DistanceMeters>
                        <Time>2022-06-22T16:52:08.403Z</Time>
                    </Trackpoint>
                    <Trackpoint>
                        <DistanceMeters>398.4133605957031</DistanceMeters>
                        <Time>2022-06-22T16:52:28.883Z</Time>
                    </Trackpoint>
                    <Trackpoint>
                        <DistanceMeters>423.3973903656006</DistanceMeters>
                        <Time>2022-06-22T16:52:51.043Z</Time>
                    </Trackpoint>
                    <Trackpoint>
                        <DistanceMeters>444.28958892822266</DistanceMeters>
                        <Time>2022-06-22T16:53:09.363Z</Time>
                    </Trackpoint>
                    <Trackpoint>
                        <DistanceMeters>467.8123779296875</DistanceMeters>
                        <Time>2022-06-22T16:53:30.443Z</Time>
                    </Trackpoint>
                    <Trackpoint>
                        <DistanceMeters>499.65660285949707</DistanceMeters>
                        <Time>2022-06-22T16:53:58.923Z</Time>
                    </Trackpoint>
                    <Trackpoint>
                        <DistanceMeters>512.0906648635864</DistanceMeters>
                        <Time>2022-06-22T16:54:10.123Z</Time>
                    </Trackpoint>
                    <Trackpoint>
                        <DistanceMeters>534.7980623245239</DistanceMeters>
                        <Time>2022-06-22T16:54:30.843Z</Time>
                    </Trackpoint>
                    <Trackpoint>
                        <DistanceMeters>567.1908502578735</DistanceMeters>
                        <Time>2022-06-22T16:55:00.243Z</Time>
                    </Trackpoint>
                    <Trackpoint>
                        <DistanceMeters>578.3188486099243</DistanceMeters>
                        <Time>2022-06-22T16:55:10.043Z</Time>
                    </Trackpoint>
                    <Trackpoint>
                        <DistanceMeters>634.0449571609497</DistanceMeters>
                        <Time>2022-06-22T16:56:00.923Z</Time>
                    </Trackpoint>
                    <Trackpoint>
                        <DistanceMeters>657.9695348739624</DistanceMeters>
                        <Time>2022-06-22T16:56:23.243Z</Time>
                    </Trackpoint>
                    <Trackpoint>
                        <DistanceMeters>687.918023109436</DistanceMeters>
                        <Time>2022-06-22T16:56:53.843Z</Time>
                    </Trackpoint>
                    <Trackpoint>
                        <DistanceMeters>742.7250833511353</DistanceMeters>
                        <Time>2022-06-22T16:57:59.883Z</Time>
                    </Trackpoint>
                </Track>
                <DistanceMeters>742.7250833511353</DistanceMeters>
                <TotalTimeSeconds>684.440000795</TotalTimeSeconds>
                <Calories>65.51199340820312</Calories>
                <Intensity>Active</Intensity>
                <TriggerMethod>Manual</TriggerMethod>
            </Lap>
        </Activity>
        <Activity Sport="Walking">
            <Id>2022-06-22T16:56:53.843Z</Id>
            <Lap StartTime="2022-06-22T16:56:53.843Z">
                <Track>
                    <Trackpoint>
                        <DistanceMeters>0.0</DistanceMeters>
                        <Time>2022-06-22T16:56:53.843Z</Time>
                    </Trackpoint>
                    <Trackpoint>
                        <DistanceMeters>54.80706024169922</DistanceMeters>
                        <Time>2022-06-22T16:57:25.473Z</Time>
                    </Trackpoint>
                    <Trackpoint>
                        <DistanceMeters>54.80706024169922</DistanceMeters>
                        <Time>2022-06-22T16:57:59.883Z</Time>
                    </Trackpoint>
                    <Trackpoint>
                        <DistanceMeters>59.37431526184082</DistanceMeters>
                        <Time>2022-06-22T16:58:07.003Z</Time>
                    </Trackpoint>
                </Track>
                <DistanceMeters>59.37431526184082</DistanceMeters>
                <TotalTimeSeconds>73.160000004</TotalTimeSeconds>
                <Calories>4.252243518829346</Calories>
                <Intensity>Active</Intensity>
                <TriggerMethod>Manual</TriggerMethod>
            </Lap>
        </Activity>
        <Activity Sport="Walking">
            <Id>2022-06-22T16:58:07.003Z</Id>
            <Lap StartTime="2022-06-22T16:58:07.003Z">
                <Track>
                    <Trackpoint>
                        <DistanceMeters>0.0</DistanceMeters>
                        <Time>2022-06-22T16:58:07.003Z</Time>
                    </Trackpoint>
                    <Trackpoint>
                        <DistanceMeters>0.0</DistanceMeters>
                        <Time>2022-06-22T16:59:54.923Z</Time>
                    </Trackpoint>
                    <Trackpoint>
                        <DistanceMeters>12.396834373474121</DistanceMeters>
                        <Time>2022-06-22T17:00:15.163Z</Time>
                    </Trackpoint>
                    <Trackpoint>
                        <DistanceMeters>76.79226589202881</DistanceMeters>
                        <Time>2022-06-22T17:01:16.963Z</Time>
                    </Trackpoint>
                </Track>
                <DistanceMeters>76.79226589202881</DistanceMeters>
                <TotalTimeSeconds>189.960001185</TotalTimeSeconds>
                <Calories>4.08333432674408</Calories>
                <Intensity>Active</Intensity>
                <TriggerMethod>Manual</TriggerMethod>
            </Lap>
        </Activity>
        <Activity Sport="Walking">
            <Id>2022-06-22T17:00:15.163Z</Id>
            <Lap StartTime="2022-06-22T17:00:15.163Z">
                <Track>
                    <Trackpoint>
                        <DistanceMeters>0.0</DistanceMeters>
                        <Time>2022-06-22T17:00:15.163Z</Time>
                    </Trackpoint>
                    <Trackpoint>
                        <DistanceMeters>64.39543151855469</DistanceMeters>
                        <Time>2022-06-22T17:00:28.449Z</Time>
                    </Trackpoint>
                    <Trackpoint>
                        <DistanceMeters>64.39543151855469</DistanceMeters>
                        <Time>2022-06-22T17:01:16.963Z</Time>
                    </Trackpoint>
                    <Trackpoint>
                        <DistanceMeters>102.47923278808594</DistanceMeters>
                        <Time>2022-06-22T17:01:49.003Z</Time>
                    </Trackpoint>
                    <Trackpoint>
                        <DistanceMeters>134.34278678894043</DistanceMeters>
                        <Time>2022-06-22T17:02:17.443Z</Time>
                    </Trackpoint>
                    <Trackpoint>
                        <DistanceMeters>145.41233444213867</DistanceMeters>
                        <Time>2022-06-22T17:02:27.363Z</Time>
                    </Trackpoint>
                    <Trackpoint>
                        <DistanceMeters>162.3764247894287</DistanceMeters>
                        <Time>2022-06-22T17:03:35.072Z</Time>
                    </Trackpoint>
                </Track>
                <DistanceMeters>162.3764247894287</DistanceMeters>
                <TotalTimeSeconds>199.908673457</TotalTimeSeconds>
                <Calories>19.10811996459961</Calories>
                <Intensity>Active</Intensity>
                <TriggerMethod>Manual</TriggerMethod>
            </Lap>
        </Activity>
        <Activity Sport="Walking">
            <Id>2022-06-22T17:15:21.939Z</Id>
            <Lap StartTime="2022-06-22T17:15:21.939Z">
                <Track>
                    <Trackpoint>
                        <DistanceMeters>0.0</DistanceMeters>
                        <Time>2022-06-22T17:15:21.939Z</Time>
                    </Trackpoint>
                    <Trackpoint>
                        <DistanceMeters>41.75775909423828</DistanceMeters>
                        <Time>2022-06-22T17:16:35.171Z</Time>
                    </Trackpoint>
                    <Trackpoint>
                        <DistanceMeters>41.75775909423828</DistanceMeters>
                        <Time>2022-06-22T17:16:48.479Z</Time>
                    </Trackpoint>
                    <Trackpoint>
                        <DistanceMeters>107.20682525634766</DistanceMeters>
                        <Time>2022-06-22T17:17:47.959Z</Time>
                    </Trackpoint>
                    <Trackpoint>
                        <DistanceMeters>174.7585906982422</DistanceMeters>
                        <Time>2022-06-22T17:18:51.359Z</Time>
                    </Trackpoint>
                    <Trackpoint>
                        <DistanceMeters>191.7857265472412</DistanceMeters>
                        <Time>2022-06-22T17:19:07.439Z</Time>
                    </Trackpoint>
                    <Trackpoint>
                        <DistanceMeters>234.8484172821045</DistanceMeters>
                        <Time>2022-06-22T17:21:06.759Z</Time>
                    </Trackpoint>
                </Track>
                <DistanceMeters>234.8484172821045</DistanceMeters>
                <TotalTimeSeconds>344.819999829</TotalTimeSeconds>
                <Calories>16.196794509887695</Calories>
                <Intensity>Active</Intensity>
                <TriggerMethod>Manual</TriggerMethod>
            </Lap>
        </Activity>
        <Activity Sport="Walking">
            <Id>2022-06-22T17:19:07.439Z</Id>
            <Lap StartTime="2022-06-22T17:19:07.439Z">
                <Track>
                    <Trackpoint>
                        <DistanceMeters>0.0</DistanceMeters>
                        <Time>2022-06-22T17:19:07.439Z</Time>
                    </Trackpoint>
                    <Trackpoint>
                        <DistanceMeters>43.06269073486328</DistanceMeters>
                        <Time>2022-06-22T17:19:13.360Z</Time>
                    </Trackpoint>
                    <Trackpoint>
                        <DistanceMeters>43.06269073486328</DistanceMeters>
                        <Time>2022-06-22T17:21:06.759Z</Time>
                    </Trackpoint>
                    <Trackpoint>
                        <DistanceMeters>88.7352409362793</DistanceMeters>
                        <Time>2022-06-22T17:22:08.439Z</Time>
                    </Trackpoint>
                    <Trackpoint>
                        <DistanceMeters>149.1886329650879</DistanceMeters>
                        <Time>2022-06-22T17:23:08.279Z</Time>
                    </Trackpoint>
                </Track>
                <DistanceMeters>149.1886329650879</DistanceMeters>
                <TotalTimeSeconds>240.839999454</TotalTimeSeconds>
                <Calories>10.276336431503296</Calories>
                <Intensity>Active</Intensity>
                <TriggerMethod>Manual</TriggerMethod>
            </Lap>
        </Activity>
        <Activity Sport="Walking">
            <Id>2022-06-22T17:22:08.439Z</Id>
            <Lap StartTime="2022-06-22T17:22:08.439Z">
                <Track>
                    <Trackpoint>
                        <DistanceMeters>0.0</DistanceMeters>
                        <Time>2022-06-22T17:22:08.439Z</Time>
                    </Trackpoint>
                    <Trackpoint>
                        <DistanceMeters>60.453392028808594</DistanceMeters>
                        <Time>2022-06-22T17:22:23.593Z</Time>
                    </Trackpoint>
                    <Trackpoint>
                        <DistanceMeters>60.453392028808594</DistanceMeters>
                        <Time>2022-06-22T17:23:08.279Z</Time>
                    </Trackpoint>
                    <Trackpoint>
                        <DistanceMeters>124.1489028930664</DistanceMeters>
                        <Time>2022-06-22T17:24:09.479Z</Time>
                    </Trackpoint>
                    <Trackpoint>
                        <DistanceMeters>187.40854263305664</DistanceMeters>
                        <Time>2022-06-22T17:25:09.479Z</Time>
                    </Trackpoint>
                    <Trackpoint>
                        <DistanceMeters>252.41180801391602</DistanceMeters>
                        <Time>2022-06-22T17:26:09.919Z</Time>
                    </Trackpoint>
                    <Trackpoint>
                        <DistanceMeters>317.0009422302246</DistanceMeters>
                        <Time>2022-06-22T17:27:11.279Z</Time>
                    </Trackpoint>
                    <Trackpoint>
                        <DistanceMeters>378.3220672607422</DistanceMeters>
                        <Time>2022-06-22T17:28:11.319Z</Time>
                    </Trackpoint>
                    <Trackpoint>
                        <DistanceMeters>442.42518615722656</DistanceMeters>
                        <Time>2022-06-22T17:29:11.599Z</Time>
                    </Trackpoint>
                    <Trackpoint>
                        <DistanceMeters>505.36217880249023</DistanceMeters>
                        <Time>2022-06-22T17:30:06.039Z</Time>
                    </Trackpoint>
                    <Trackpoint>
                        <DistanceMeters>569.1228332519531</DistanceMeters>
                        <Time>2022-06-22T17:31:00.839Z</Time>
                    </Trackpoint>
                    <Trackpoint>
                        <DistanceMeters>637.3139114379883</DistanceMeters>
                        <Time>2022-06-22T17:32:00.799Z</Time>
                    </Trackpoint>
                    <Trackpoint>
                        <DistanceMeters>701.354248046875</DistanceMeters>
                        <Time>2022-06-22T17:32:57.039Z</Time>
                    </Trackpoint>
                    <Trackpoint>
                        <DistanceMeters>741.2339134216309</DistanceMeters>
                        <Time>2022-06-22T17:33:31.479Z</Time>
                    </Trackpoint>
                    <Trackpoint>
                        <DistanceMeters>798.4567222595215</DistanceMeters>
                        <Time>2022-06-22T17:34:23.359Z</Time>
                    </Trackpoint>
                    <Trackpoint>
                        <DistanceMeters>854.7905158996582</DistanceMeters>
                        <Time>2022-06-22T17:35:15.039Z</Time>
                    </Trackpoint>
                    <Trackpoint>
                        <DistanceMeters>856.194099187851</DistanceMeters>
                        <Time>2022-06-22T17:35:16.239Z</Time>
                    </Trackpoint>
                    <Trackpoint>
                        <DistanceMeters>895.3419988155365</DistanceMeters>
                        <Time>2022-06-22T17:36:22.759Z</Time>
                    </Trackpoint>
                </Track>
                <DistanceMeters>895.3419988155365</DistanceMeters>
                <TotalTimeSeconds>854.319999222</TotalTimeSeconds>
                <Calories>80.96053314208984</Calories>
                <Intensity>Active</Intensity>
                <TriggerMethod>Manual</TriggerMethod>
            </Lap>
        </Activity>
    </Activities>
    <Author xsi:type="Application_t">
        <Name>Google Fit</Name>
        <Build>
            <Version>
                <VersionMajor>0</VersionMajor>
                <VersionMinor>0</VersionMinor>
                <BuildMajor>0</BuildMajor>
                <BuildMinor>0</BuildMinor>
            </Version>
        </Build>
        <LangID>en</LangID>
        <PartNumber>000-00000-00</PartNumber>
    </Author>
</TrainingCenterDatabase>
