<?xml version="1.0" encoding="UTF-8"?>
<TrainingCenterDatabase
    xmlns="http://www.garmin.com/xmlschemas/TrainingCenterDatabase/v2"
    xmlns:ns2="http://www.garmin.com/xmlschemas/UserProfile/v2"
    xmlns:ns3="http://www.garmin.com/xmlschemas/ActivityExtension/v2"
    xmlns:ns4="http://www.garmin.com/xmlschemas/ProfileExtension/v1"
    xmlns:ns5="http://www.garmin.com/xmlschemas/ActivityGoals/v1"
    xmlns:xsi="http://www.w3.org/2001/XMLSchema-instance" xsi:schemaLocation="http://www.garmin.com/xmlschemas/TrainingCenterDatabase/v2 http://www.garmin.com/xmlschemas/TrainingCenterDatabasev2.xsd">
    <Activities>
        <Activity Sport="Walking">
            <Id>2022-05-30T12:23:30.440Z</Id>
            <Lap StartTime="2022-05-30T12:23:30.440Z">
                <Track>
                    <Trackpoint>
                        <DistanceMeters>0.0</DistanceMeters>
                        <Time>2022-05-30T12:23:30.440Z</Time>
                    </Trackpoint>
                    <Trackpoint>
                        <DistanceMeters>16.96409034729004</DistanceMeters>
                        <Time>2022-05-30T12:23:54.005Z</Time>
                    </Trackpoint>
                    <Trackpoint>
                        <DistanceMeters>16.96409034729004</DistanceMeters>
                        <Time>2022-05-30T12:24:54.226Z</Time>
                    </Trackpoint>
                </Track>
                <DistanceMeters>16.96409034729004</DistanceMeters>
                <TotalTimeSeconds>83.785733417</TotalTimeSeconds>
                <Calories>6.165960788726807</Calories>
                <Intensity>Active</Intensity>
                <TriggerMethod>Manual</TriggerMethod>
            </Lap>
        </Activity>
        <Activity Sport="Walking">
            <Id>2022-05-30T12:24:54.226Z</Id>
            <Lap StartTime="2022-05-30T12:24:54.226Z">
                <Track>
                    <Trackpoint>
                        <DistanceMeters>0.0</DistanceMeters>
                        <Time>2022-05-30T12:24:54.226Z</Time>
                    </Trackpoint>
                    <Trackpoint>
                        <DistanceMeters>0.0</DistanceMeters>
                        <Time>2022-05-30T12:25:17.340Z</Time>
                    </Trackpoint>
                    <Trackpoint>
                        <DistanceMeters>16.96409034729004</DistanceMeters>
                        <Time>2022-05-30T12:26:17.340Z</Time>
                    </Trackpoint>
                    <Trackpoint>
                        <DistanceMeters>56.764455795288086</DistanceMeters>
                        <Time>2022-05-30T12:27:10.340Z</Time>
                    </Trackpoint>
                </Track>
                <DistanceMeters>56.764455795288086</DistanceMeters>
                <TotalTimeSeconds>136.114266424</TotalTimeSeconds>
                <Calories>5.6464492082595825</Calories>
                <Intensity>Active</Intensity>
                <TriggerMethod>Manual</TriggerMethod>
            </Lap>
        </Activity>
        <Activity Sport="Walking">
            <Id>2022-05-30T12:26:17.340Z</Id>
            <Lap StartTime="2022-05-30T12:26:17.340Z">
                <Track>
                    <Trackpoint>
                        <DistanceMeters>0.0</DistanceMeters>
                        <Time>2022-05-30T12:26:17.340Z</Time>
                    </Trackpoint>
                    <Trackpoint>
                        <DistanceMeters>39.80036544799805</DistanceMeters>
                        <Time>2022-05-30T12:26:55.240Z</Time>
                    </Trackpoint>
                    <Trackpoint>
                        <DistanceMeters>39.80036544799805</DistanceMeters>
                        <Time>2022-05-30T12:27:56.508Z</Time>
                    </Trackpoint>
                </Track>
                <DistanceMeters>39.80036544799805</DistanceMeters>
                <TotalTimeSeconds>99.167733573</TotalTimeSeconds>
                <Calories>6.273162364959717</Calories>
                <Intensity>Active</Intensity>
                <TriggerMethod>Manual</TriggerMethod>
            </Lap>
        </Activity>
        <Activity Sport="Walking">
            <Id>2022-05-30T12:27:56.508Z</Id>
            <Lap StartTime="2022-05-30T12:27:56.508Z">
                <Track>
                    <Trackpoint>
                        <DistanceMeters>0.0</DistanceMeters>
                        <Time>2022-05-30T12:27:56.508Z</Time>
                    </Trackpoint>
                    <Trackpoint>
                        <DistanceMeters>0.0</DistanceMeters>
                        <Time>2022-05-30T12:32:44.220Z</Time>
                    </Trackpoint>
                    <Trackpoint>
                        <DistanceMeters>15.006694793701172</DistanceMeters>
                        <Time>2022-05-30T12:33:01.260Z</Time>
                    </Trackpoint>
                    <Trackpoint>
                        <DistanceMeters>37.84296989440918</DistanceMeters>
                        <Time>2022-05-30T12:33:33.860Z</Time>
                    </Trackpoint>
                </Track>
                <DistanceMeters>37.84296989440918</DistanceMeters>
                <TotalTimeSeconds>337.352266723</TotalTimeSeconds>
                <Calories>8.046332836151123</Calories>
                <Intensity>Active</Intensity>
                <TriggerMethod>Manual</TriggerMethod>
            </Lap>
        </Activity>
        <Activity Sport="Walking">
            <Id>2022-05-30T12:33:01.260Z</Id>
            <Lap StartTime="2022-05-30T12:33:01.260Z">
                <Track>
                    <Trackpoint>
                        <DistanceMeters>0.0</DistanceMeters>
                        <Time>2022-05-30T12:33:01.260Z</Time>
                    </Trackpoint>
                    <Trackpoint>
                        <DistanceMeters>22.836275100708008</DistanceMeters>
                        <Time>2022-05-30T12:33:03.102Z</Time>
                    </Trackpoint>
                    <Trackpoint>
                        <DistanceMeters>22.836275100708008</DistanceMeters>
                        <Time>2022-05-30T12:33:58.140Z</Time>
                    </Trackpoint>
                    <Trackpoint>
                        <DistanceMeters>41.105295181274414</DistanceMeters>
                        <Time>2022-05-30T12:34:58.140Z</Time>
                    </Trackpoint>
                </Track>
                <DistanceMeters>41.105295181274414</DistanceMeters>
                <TotalTimeSeconds>116.879999436</TotalTimeSeconds>
                <Calories>6.203332901000977</Calories>
                <Intensity>Active</Intensity>
                <TriggerMethod>Manual</TriggerMethod>
            </Lap>
        </Activity>
        <Activity Sport="Walking">
            <Id>2022-05-30T12:35:50.580Z</Id>
            <Lap StartTime="2022-05-30T12:35:50.580Z">
                <Track>
                    <Trackpoint>
                        <DistanceMeters>0.0</DistanceMeters>
                        <Time>2022-05-30T12:35:50.580Z</Time>
                    </Trackpoint>
                    <Trackpoint>
                        <DistanceMeters>36.53804016113281</DistanceMeters>
                        <Time>2022-05-30T12:37:05.503Z</Time>
                    </Trackpoint>
                    <Trackpoint>
                        <DistanceMeters>36.53804016113281</DistanceMeters>
                        <Time>2022-05-30T12:38:56.580Z</Time>
                    </Trackpoint>
                    <Trackpoint>
                        <DistanceMeters>62.63663864135742</DistanceMeters>
                        <Time>2022-05-30T12:40:16.580Z</Time>
                    </Trackpoint>
                    <Trackpoint>
                        <DistanceMeters>80.90565872192383</DistanceMeters>
                        <Time>2022-05-30T12:40:40.300Z</Time>
                    </Trackpoint>
                    <Trackpoint>
                        <DistanceMeters>94.60742378234863</DistanceMeters>
                        <Time>2022-05-30T12:41:16.980Z</Time>
                    </Trackpoint>
                    <Trackpoint>
                        <DistanceMeters>124.62081336975098</DistanceMeters>
                        <Time>2022-05-30T12:42:04.580Z</Time>
                    </Trackpoint>
                    <Trackpoint>
                        <DistanceMeters>133.102858543396</DistanceMeters>
                        <Time>2022-05-30T12:42:17.700Z</Time>
                    </Trackpoint>
                    <Trackpoint>
                        <DistanceMeters>162.46378231048584</DistanceMeters>
                        <Time>2022-05-30T12:43:01.120Z</Time>
                    </Trackpoint>
                    <Trackpoint>
                        <DistanceMeters>213.35605144500732</DistanceMeters>
                        <Time>2022-05-30T12:44:17.540Z</Time>
                    </Trackpoint>
                    <Trackpoint>
                        <DistanceMeters>221.83809661865234</DistanceMeters>
                        <Time>2022-05-30T12:44:48.340Z</Time>
                    </Trackpoint>
                </Track>
                <DistanceMeters>221.83809661865234</DistanceMeters>
                <TotalTimeSeconds>537.7600084</TotalTimeSeconds>
                <Calories>47.159908294677734</Calories>
                <Intensity>Active</Intensity>
                <TriggerMethod>Manual</TriggerMethod>
            </Lap>
        </Activity>
    </Activities>
    <Author xsi:type="Application_t">
        <Name>Google Fit</Name>
        <Build>
            <Version>
                <VersionMajor>0</VersionMajor>
                <VersionMinor>0</VersionMinor>
                <BuildMajor>0</BuildMajor>
                <BuildMinor>0</BuildMinor>
            </Version>
        </Build>
        <LangID>en</LangID>
        <PartNumber>000-00000-00</PartNumber>
    </Author>
</TrainingCenterDatabase>
