<?xml version="1.0" encoding="UTF-8"?>
<TrainingCenterDatabase
    xmlns="http://www.garmin.com/xmlschemas/TrainingCenterDatabase/v2"
    xmlns:ns2="http://www.garmin.com/xmlschemas/UserProfile/v2"
    xmlns:ns3="http://www.garmin.com/xmlschemas/ActivityExtension/v2"
    xmlns:ns4="http://www.garmin.com/xmlschemas/ProfileExtension/v1"
    xmlns:ns5="http://www.garmin.com/xmlschemas/ActivityGoals/v1"
    xmlns:xsi="http://www.w3.org/2001/XMLSchema-instance" xsi:schemaLocation="http://www.garmin.com/xmlschemas/TrainingCenterDatabase/v2 http://www.garmin.com/xmlschemas/TrainingCenterDatabasev2.xsd">
    <Activities>
        <Activity Sport="Walking">
            <Id>2022-07-15T05:37:00.697Z</Id>
            <Lap StartTime="2022-07-15T05:37:00.697Z">
                <Track>
                    <Trackpoint>
                        <DistanceMeters>0.0</DistanceMeters>
                        <Time>2022-07-15T05:37:00.697Z</Time>
                    </Trackpoint>
                    <Trackpoint>
                        <DistanceMeters>0.0</DistanceMeters>
                        <Time>2022-07-15T07:52:41.497Z</Time>
                    </Trackpoint>
                    <Trackpoint>
                        <DistanceMeters>19.573949813842773</DistanceMeters>
                        <Time>2022-07-15T07:53:41.497Z</Time>
                    </Trackpoint>
                    <Trackpoint>
                        <DistanceMeters>22.83627462387085</DistanceMeters>
                        <Time>2022-07-15T07:53:47.417Z</Time>
                    </Trackpoint>
                    <Trackpoint>
                        <DistanceMeters>51.544734477996826</DistanceMeters>
                        <Time>2022-07-15T07:54:26.937Z</Time>
                    </Trackpoint>
                </Track>
                <DistanceMeters>51.544734477996826</DistanceMeters>
                <TotalTimeSeconds>8246.239992845</TotalTimeSeconds>
                <Calories>175.82053005695343</Calories>
                <Intensity>Active</Intensity>
                <TriggerMethod>Manual</TriggerMethod>
            </Lap>
        </Activity>
        <Activity Sport="Walking">
            <Id>2022-07-15T07:53:47.417Z</Id>
            <Lap StartTime="2022-07-15T07:53:47.417Z">
                <Track>
                    <Trackpoint>
                        <DistanceMeters>0.0</DistanceMeters>
                        <Time>2022-07-15T07:53:47.417Z</Time>
                    </Trackpoint>
                    <Trackpoint>
                        <DistanceMeters>28.708459854125977</DistanceMeters>
                        <Time>2022-07-15T07:53:56.902Z</Time>
                    </Trackpoint>
                    <Trackpoint>
                        <DistanceMeters>28.708459854125977</DistanceMeters>
                        <Time>2022-07-15T07:54:26.937Z</Time>
                    </Trackpoint>
                    <Trackpoint>
                        <DistanceMeters>34.580644607543945</DistanceMeters>
                        <Time>2022-07-15T07:54:36.937Z</Time>
                    </Trackpoint>
                    <Trackpoint>
                        <DistanceMeters>52.19719886779785</DistanceMeters>
                        <Time>2022-07-15T07:55:15.817Z</Time>
                    </Trackpoint>
                    <Trackpoint>
                        <DistanceMeters>80.25319290161133</DistanceMeters>
                        <Time>2022-07-15T07:55:58.197Z</Time>
                    </Trackpoint>
                    <Trackpoint>
                        <DistanceMeters>89.38770294189453</DistanceMeters>
                        <Time>2022-07-15T07:56:29.057Z</Time>
                    </Trackpoint>
                    <Trackpoint>
                        <DistanceMeters>105.04686260223389</DistanceMeters>
                        <Time>2022-07-15T07:57:12.977Z</Time>
                    </Trackpoint>
                    <Trackpoint>
                        <DistanceMeters>136.3651819229126</DistanceMeters>
                        <Time>2022-07-15T07:57:56.137Z</Time>
                    </Trackpoint>
                    <Trackpoint>
                        <DistanceMeters>148.76201629638672</DistanceMeters>
                        <Time>2022-07-15T07:58:12.297Z</Time>
                    </Trackpoint>
                    <Trackpoint>
                        <DistanceMeters>188.56238174438477</DistanceMeters>
                        <Time>2022-07-15T07:58:57.097Z</Time>
                    </Trackpoint>
                    <Trackpoint>
                        <DistanceMeters>230.97260665893555</DistanceMeters>
                        <Time>2022-07-15T07:59:52.617Z</Time>
                    </Trackpoint>
                    <Trackpoint>
                        <DistanceMeters>251.1990203857422</DistanceMeters>
                        <Time>2022-07-15T08:00:16.777Z</Time>
                    </Trackpoint>
                    <Trackpoint>
                        <DistanceMeters>275.99268913269043</DistanceMeters>
                        <Time>2022-07-15T08:00:44.017Z</Time>
                    </Trackpoint>
                </Track>
                <DistanceMeters>275.99268913269043</DistanceMeters>
                <TotalTimeSeconds>416.599999411</TotalTimeSeconds>
                <Calories>39.755043029785156</Calories>
                <Intensity>Active</Intensity>
                <TriggerMethod>Manual</TriggerMethod>
            </Lap>
        </Activity>
        <Activity Sport="Walking">
            <Id>2022-07-15T08:00:16.777Z</Id>
            <Lap StartTime="2022-07-15T08:00:16.777Z">
                <Track>
                    <Trackpoint>
                        <DistanceMeters>0.0</DistanceMeters>
                        <Time>2022-07-15T08:00:16.777Z</Time>
                    </Trackpoint>
                    <Trackpoint>
                        <DistanceMeters>24.793668746948242</DistanceMeters>
                        <Time>2022-07-15T08:00:25.177Z</Time>
                    </Trackpoint>
                    <Trackpoint>
                        <DistanceMeters>24.793668746948242</DistanceMeters>
                        <Time>2022-07-15T08:00:44.017Z</Time>
                    </Trackpoint>
                </Track>
                <DistanceMeters>24.793668746948242</DistanceMeters>
                <TotalTimeSeconds>27.239998779</TotalTimeSeconds>
                <Calories>1.9290329217910767</Calories>
                <Intensity>Active</Intensity>
                <TriggerMethod>Manual</TriggerMethod>
            </Lap>
        </Activity>
        <Activity Sport="Walking">
            <Id>2022-07-15T08:00:44.017Z</Id>
            <Lap StartTime="2022-07-15T08:00:44.017Z">
                <Track>
                    <Trackpoint>
                        <DistanceMeters>0.0</DistanceMeters>
                        <Time>2022-07-15T08:00:44.017Z</Time>
                    </Trackpoint>
                    <Trackpoint>
                        <DistanceMeters>0.0</DistanceMeters>
                        <Time>2022-07-15T08:05:43.377Z</Time>
                    </Trackpoint>
                    <Trackpoint>
                        <DistanceMeters>10.43943977355957</DistanceMeters>
                        <Time>2022-07-15T08:06:06.657Z</Time>
                    </Trackpoint>
                    <Trackpoint>
                        <DistanceMeters>24.3209810256958</DistanceMeters>
                        <Time>2022-07-15T08:06:21.177Z</Time>
                    </Trackpoint>
                    <Trackpoint>
                        <DistanceMeters>39.980140686035156</DistanceMeters>
                        <Time>2022-07-15T08:06:45.017Z</Time>
                    </Trackpoint>
                    <Trackpoint>
                        <DistanceMeters>56.291765213012695</DistanceMeters>
                        <Time>2022-07-15T08:07:07.457Z</Time>
                    </Trackpoint>
                    <Trackpoint>
                        <DistanceMeters>69.341064453125</DistanceMeters>
                        <Time>2022-07-15T08:07:22.057Z</Time>
                    </Trackpoint>
                    <Trackpoint>
                        <DistanceMeters>93.66501426696777</DistanceMeters>
                        <Time>2022-07-15T08:07:45.657Z</Time>
                    </Trackpoint>
                </Track>
                <DistanceMeters>93.66501426696777</DistanceMeters>
                <TotalTimeSeconds>421.640000361</TotalTimeSeconds>
                <Calories>15.216011047363281</Calories>
                <Intensity>Active</Intensity>
                <TriggerMethod>Manual</TriggerMethod>
            </Lap>
        </Activity>
        <Activity Sport="Walking">
            <Id>2022-07-15T08:07:22.057Z</Id>
            <Lap StartTime="2022-07-15T08:07:22.057Z">
                <Track>
                    <Trackpoint>
                        <DistanceMeters>0.0</DistanceMeters>
                        <Time>2022-07-15T08:07:22.057Z</Time>
                    </Trackpoint>
                    <Trackpoint>
                        <DistanceMeters>24.323949813842773</DistanceMeters>
                        <Time>2022-07-15T08:07:28.315Z</Time>
                    </Trackpoint>
                    <Trackpoint>
                        <DistanceMeters>24.323949813842773</DistanceMeters>
                        <Time>2022-07-15T08:07:45.657Z</Time>
                    </Trackpoint>
                    <Trackpoint>
                        <DistanceMeters>48.17626953125</DistanceMeters>
                        <Time>2022-07-15T08:08:08.137Z</Time>
                    </Trackpoint>
                    <Trackpoint>
                        <DistanceMeters>62.53049945831299</DistanceMeters>
                        <Time>2022-07-15T08:08:23.857Z</Time>
                    </Trackpoint>
                    <Trackpoint>
                        <DistanceMeters>80.1470537185669</DistanceMeters>
                        <Time>2022-07-15T08:08:46.017Z</Time>
                    </Trackpoint>
                    <Trackpoint>
                        <DistanceMeters>86.01923847198486</DistanceMeters>
                        <Time>2022-07-15T08:08:55.797Z</Time>
                    </Trackpoint>
                    <Trackpoint>
                        <DistanceMeters>136.91150760650635</DistanceMeters>
                        <Time>2022-07-15T08:10:57.217Z</Time>
                    </Trackpoint>
                    <Trackpoint>
                        <DistanceMeters>185.8463830947876</DistanceMeters>
                        <Time>2022-07-15T08:11:57.937Z</Time>
                    </Trackpoint>
                    <Trackpoint>
                        <DistanceMeters>224.34181690216064</DistanceMeters>
                        <Time>2022-07-15T08:12:57.857Z</Time>
                    </Trackpoint>
                    <Trackpoint>
                        <DistanceMeters>274.58162021636963</DistanceMeters>
                        <Time>2022-07-15T08:13:58.457Z</Time>
                    </Trackpoint>
                    <Trackpoint>
                        <DistanceMeters>286.32598972320557</DistanceMeters>
                        <Time>2022-07-15T08:15:04.000Z</Time>
                    </Trackpoint>
                </Track>
                <DistanceMeters>286.32598972320557</DistanceMeters>
                <TotalTimeSeconds>461.942742501</TotalTimeSeconds>
                <Calories>46.657081604003906</Calories>
                <Intensity>Active</Intensity>
                <TriggerMethod>Manual</TriggerMethod>
            </Lap>
        </Activity>
        <Activity Sport="Walking">
            <Id>2022-07-15T08:23:30.652Z</Id>
            <Lap StartTime="2022-07-15T08:23:30.652Z">
                <Track>
                    <Trackpoint>
                        <DistanceMeters>0.0</DistanceMeters>
                        <Time>2022-07-15T08:23:30.652Z</Time>
                    </Trackpoint>
                    <Trackpoint>
                        <DistanceMeters>33.27571487426758</DistanceMeters>
                        <Time>2022-07-15T08:25:11.901Z</Time>
                    </Trackpoint>
                    <Trackpoint>
                        <DistanceMeters>33.27571487426758</DistanceMeters>
                        <Time>2022-07-15T08:25:12.652Z</Time>
                    </Trackpoint>
                    <Trackpoint>
                        <DistanceMeters>79.18562698364258</DistanceMeters>
                        <Time>2022-07-15T08:25:57.312Z</Time>
                    </Trackpoint>
                    <Trackpoint>
                        <DistanceMeters>108.54655075073242</DistanceMeters>
                        <Time>2022-07-15T08:27:25.452Z</Time>
                    </Trackpoint>
                </Track>
                <DistanceMeters>108.54655075073242</DistanceMeters>
                <TotalTimeSeconds>234.800009168</TotalTimeSeconds>
                <Calories>7.983978748321533</Calories>
                <Intensity>Active</Intensity>
                <TriggerMethod>Manual</TriggerMethod>
            </Lap>
        </Activity>
    </Activities>
    <Author xsi:type="Application_t">
        <Name>Google Fit</Name>
        <Build>
            <Version>
                <VersionMajor>0</VersionMajor>
                <VersionMinor>0</VersionMinor>
                <BuildMajor>0</BuildMajor>
                <BuildMinor>0</BuildMinor>
            </Version>
        </Build>
        <LangID>en</LangID>
        <PartNumber>000-00000-00</PartNumber>
    </Author>
</TrainingCenterDatabase>
