<?xml version="1.0" encoding="UTF-8"?>
<TrainingCenterDatabase
    xmlns="http://www.garmin.com/xmlschemas/TrainingCenterDatabase/v2"
    xmlns:ns2="http://www.garmin.com/xmlschemas/UserProfile/v2"
    xmlns:ns3="http://www.garmin.com/xmlschemas/ActivityExtension/v2"
    xmlns:ns4="http://www.garmin.com/xmlschemas/ProfileExtension/v1"
    xmlns:ns5="http://www.garmin.com/xmlschemas/ActivityGoals/v1"
    xmlns:xsi="http://www.w3.org/2001/XMLSchema-instance" xsi:schemaLocation="http://www.garmin.com/xmlschemas/TrainingCenterDatabase/v2 http://www.garmin.com/xmlschemas/TrainingCenterDatabasev2.xsd">
    <Activities>
        <Activity Sport="Walking">
            <Id>2022-03-02T08:42:00.000Z</Id>
            <Lap StartTime="2022-03-02T08:42:00.000Z">
                <Track>
                    <Trackpoint>
                        <DistanceMeters>0.0</DistanceMeters>
                        <Time>2022-03-02T08:42:00.000Z</Time>
                    </Trackpoint>
                    <Trackpoint>
                        <DistanceMeters>53.0</DistanceMeters>
                        <Time>2022-03-02T08:42:22.057Z</Time>
                    </Trackpoint>
                    <Trackpoint>
                        <DistanceMeters>53.0</DistanceMeters>
                        <Time>2022-03-02T08:43:00.000Z</Time>
                    </Trackpoint>
                    <Trackpoint>
                        <DistanceMeters>134.0</DistanceMeters>
                        <Time>2022-03-02T08:44:00.000Z</Time>
                    </Trackpoint>
                    <Trackpoint>
                        <DistanceMeters>192.0</DistanceMeters>
                        <Time>2022-03-02T08:45:00.000Z</Time>
                    </Trackpoint>
                    <Trackpoint>
                        <DistanceMeters>260.0</DistanceMeters>
                        <Time>2022-03-02T08:46:00.000Z</Time>
                    </Trackpoint>
                    <Trackpoint>
                        <DistanceMeters>322.0</DistanceMeters>
                        <Time>2022-03-02T08:47:00.000Z</Time>
                    </Trackpoint>
                    <Trackpoint>
                        <DistanceMeters>362.0</DistanceMeters>
                        <Time>2022-03-02T08:48:00.000Z</Time>
                    </Trackpoint>
                    <Trackpoint>
                        <DistanceMeters>409.0</DistanceMeters>
                        <Time>2022-03-02T08:49:00.000Z</Time>
                    </Trackpoint>
                    <Trackpoint>
                        <DistanceMeters>460.0</DistanceMeters>
                        <Time>2022-03-02T08:50:00.000Z</Time>
                    </Trackpoint>
                    <Trackpoint>
                        <DistanceMeters>513.0</DistanceMeters>
                        <Time>2022-03-02T08:51:00.000Z</Time>
                    </Trackpoint>
                    <Trackpoint>
                        <DistanceMeters>546.0</DistanceMeters>
                        <Time>2022-03-02T08:52:00.000Z</Time>
                    </Trackpoint>
                    <Trackpoint>
                        <DistanceMeters>561.0</DistanceMeters>
                        <Time>2022-03-02T08:53:00.000Z</Time>
                    </Trackpoint>
                    <Trackpoint>
                        <DistanceMeters>612.0</DistanceMeters>
                        <Time>2022-03-02T08:54:00.000Z</Time>
                    </Trackpoint>
                    <Trackpoint>
                        <DistanceMeters>663.0</DistanceMeters>
                        <Time>2022-03-02T08:55:00.000Z</Time>
                    </Trackpoint>
                    <Trackpoint>
                        <DistanceMeters>695.0</DistanceMeters>
                        <Time>2022-03-02T08:56:00.000Z</Time>
                    </Trackpoint>
                    <Trackpoint>
                        <DistanceMeters>755.0</DistanceMeters>
                        <Time>2022-03-02T08:57:00.000Z</Time>
                    </Trackpoint>
                    <Trackpoint>
                        <DistanceMeters>822.0</DistanceMeters>
                        <Time>2022-03-02T08:58:00.000Z</Time>
                    </Trackpoint>
                    <Trackpoint>
                        <DistanceMeters>903.0</DistanceMeters>
                        <Time>2022-03-02T08:59:00.000Z</Time>
                    </Trackpoint>
                    <Trackpoint>
                        <DistanceMeters>979.0</DistanceMeters>
                        <Time>2022-03-02T09:00:00.000Z</Time>
                    </Trackpoint>
                    <Trackpoint>
                        <DistanceMeters>1054.0</DistanceMeters>
                        <Time>2022-03-02T09:01:00.000Z</Time>
                    </Trackpoint>
                    <Trackpoint>
                        <DistanceMeters>1121.0</DistanceMeters>
                        <Time>2022-03-02T09:02:00.000Z</Time>
                    </Trackpoint>
                    <Trackpoint>
                        <DistanceMeters>1187.0</DistanceMeters>
                        <Time>2022-03-02T09:03:00.000Z</Time>
                    </Trackpoint>
                    <Trackpoint>
                        <DistanceMeters>1244.0</DistanceMeters>
                        <Time>2022-03-02T09:04:00.000Z</Time>
                    </Trackpoint>
                    <Trackpoint>
                        <DistanceMeters>1265.0</DistanceMeters>
                        <Time>2022-03-02T09:05:00.000Z</Time>
                    </Trackpoint>
                    <Trackpoint>
                        <DistanceMeters>1277.0</DistanceMeters>
                        <Time>2022-03-02T09:06:00.000Z</Time>
                    </Trackpoint>
                </Track>
                <DistanceMeters>1277.0</DistanceMeters>
                <TotalTimeSeconds>1440.0</TotalTimeSeconds>
                <Calories>132.77487182617188</Calories>
                <Intensity>Active</Intensity>
                <TriggerMethod>Manual</TriggerMethod>
            </Lap>
        </Activity>
    </Activities>
    <Author xsi:type="Application_t">
        <Name>Google Fit</Name>
        <Build>
            <Version>
                <VersionMajor>0</VersionMajor>
                <VersionMinor>0</VersionMinor>
                <BuildMajor>0</BuildMajor>
                <BuildMinor>0</BuildMinor>
            </Version>
        </Build>
        <LangID>en</LangID>
        <PartNumber>000-00000-00</PartNumber>
    </Author>
</TrainingCenterDatabase>
