<?xml version="1.0" encoding="UTF-8"?>
<TrainingCenterDatabase
    xmlns="http://www.garmin.com/xmlschemas/TrainingCenterDatabase/v2"
    xmlns:ns2="http://www.garmin.com/xmlschemas/UserProfile/v2"
    xmlns:ns3="http://www.garmin.com/xmlschemas/ActivityExtension/v2"
    xmlns:ns4="http://www.garmin.com/xmlschemas/ProfileExtension/v1"
    xmlns:ns5="http://www.garmin.com/xmlschemas/ActivityGoals/v1"
    xmlns:xsi="http://www.w3.org/2001/XMLSchema-instance" xsi:schemaLocation="http://www.garmin.com/xmlschemas/TrainingCenterDatabase/v2 http://www.garmin.com/xmlschemas/TrainingCenterDatabasev2.xsd">
    <Activities>
        <Activity Sport="Walking">
            <Id>2022-11-23T15:26:58.767Z</Id>
            <Lap StartTime="2022-11-23T15:26:58.767Z">
                <Track>
                    <Trackpoint>
                        <DistanceMeters>0.0</DistanceMeters>
                        <Time>2022-11-23T15:26:58.767Z</Time>
                    </Trackpoint>
                    <Trackpoint>
                        <DistanceMeters>0.0</DistanceMeters>
                        <Time>2022-11-23T16:02:06.019Z</Time>
                    </Trackpoint>
                    <Trackpoint>
                        <DistanceMeters>26.75106494152009</DistanceMeters>
                        <Time>2022-11-23T16:03:28.019Z</Time>
                    </Trackpoint>
                    <Trackpoint>
                        <DistanceMeters>104.57238502073179</DistanceMeters>
                        <Time>2022-11-23T16:04:29.099Z</Time>
                    </Trackpoint>
                </Track>
                <DistanceMeters>104.57238502073179</DistanceMeters>
                <TotalTimeSeconds>2250.332368316</TotalTimeSeconds>
                <Calories>52.07567391022896</Calories>
                <Intensity>Active</Intensity>
                <TriggerMethod>Manual</TriggerMethod>
            </Lap>
        </Activity>
        <Activity Sport="Walking">
            <Id>2022-11-23T16:03:28.019Z</Id>
            <Lap StartTime="2022-11-23T16:03:28.019Z">
                <Track>
                    <Trackpoint>
                        <DistanceMeters>0.0</DistanceMeters>
                        <Time>2022-11-23T16:03:28.019Z</Time>
                    </Trackpoint>
                    <Trackpoint>
                        <DistanceMeters>77.8213200792117</DistanceMeters>
                        <Time>2022-11-23T16:04:22.326Z</Time>
                    </Trackpoint>
                    <Trackpoint>
                        <DistanceMeters>77.8213200792117</DistanceMeters>
                        <Time>2022-11-23T16:04:29.099Z</Time>
                    </Trackpoint>
                    <Trackpoint>
                        <DistanceMeters>120.41393256898849</DistanceMeters>
                        <Time>2022-11-23T16:05:04.179Z</Time>
                    </Trackpoint>
                    <Trackpoint>
                        <DistanceMeters>189.29813798109998</DistanceMeters>
                        <Time>2022-11-23T16:05:58.979Z</Time>
                    </Trackpoint>
                    <Trackpoint>
                        <DistanceMeters>250.7515970432109</DistanceMeters>
                        <Time>2022-11-23T16:06:46.699Z</Time>
                    </Trackpoint>
                    <Trackpoint>
                        <DistanceMeters>291.121401566231</DistanceMeters>
                        <Time>2022-11-23T16:07:18.339Z</Time>
                    </Trackpoint>
                    <Trackpoint>
                        <DistanceMeters>366.3151373616717</DistanceMeters>
                        <Time>2022-11-23T16:08:18.539Z</Time>
                    </Trackpoint>
                    <Trackpoint>
                        <DistanceMeters>433.8201764073596</DistanceMeters>
                        <Time>2022-11-23T16:09:12.099Z</Time>
                    </Trackpoint>
                    <Trackpoint>
                        <DistanceMeters>456.42622892162996</DistanceMeters>
                        <Time>2022-11-23T16:09:29.179Z</Time>
                    </Trackpoint>
                    <Trackpoint>
                        <DistanceMeters>486.6401377083786</DistanceMeters>
                        <Time>2022-11-23T16:09:53.019Z</Time>
                    </Trackpoint>
                    <Trackpoint>
                        <DistanceMeters>503.8725587750241</DistanceMeters>
                        <Time>2022-11-23T16:10:06.699Z</Time>
                    </Trackpoint>
                    <Trackpoint>
                        <DistanceMeters>556.3163393272282</DistanceMeters>
                        <Time>2022-11-23T16:10:48.259Z</Time>
                    </Trackpoint>
                    <Trackpoint>
                        <DistanceMeters>609.0796698833362</DistanceMeters>
                        <Time>2022-11-23T16:11:31.099Z</Time>
                    </Trackpoint>
                    <Trackpoint>
                        <DistanceMeters>701.7680892011166</DistanceMeters>
                        <Time>2022-11-23T16:12:48.259Z</Time>
                    </Trackpoint>
                </Track>
                <DistanceMeters>701.7680892011166</DistanceMeters>
                <TotalTimeSeconds>560.24000069</TotalTimeSeconds>
                <Calories>49.876494666666666</Calories>
                <Intensity>Active</Intensity>
                <TriggerMethod>Manual</TriggerMethod>
            </Lap>
        </Activity>
        <Activity Sport="Walking">
            <Id>2022-11-23T16:11:31.099Z</Id>
            <Lap StartTime="2022-11-23T16:11:31.099Z">
                <Track>
                    <Trackpoint>
                        <DistanceMeters>0.0</DistanceMeters>
                        <Time>2022-11-23T16:11:31.099Z</Time>
                    </Trackpoint>
                    <Trackpoint>
                        <DistanceMeters>92.68841931778032</DistanceMeters>
                        <Time>2022-11-23T16:12:29.454Z</Time>
                    </Trackpoint>
                    <Trackpoint>
                        <DistanceMeters>92.68841931778032</DistanceMeters>
                        <Time>2022-11-23T16:12:48.259Z</Time>
                    </Trackpoint>
                </Track>
                <DistanceMeters>92.68841931778032</DistanceMeters>
                <TotalTimeSeconds>77.160000586</TotalTimeSeconds>
                <Calories>1.925460776646111</Calories>
                <Intensity>Active</Intensity>
                <TriggerMethod>Manual</TriggerMethod>
            </Lap>
        </Activity>
        <Activity Sport="Walking">
            <Id>2022-11-23T16:12:48.259Z</Id>
            <Lap StartTime="2022-11-23T16:12:48.259Z">
                <Track>
                    <Trackpoint>
                        <DistanceMeters>0.0</DistanceMeters>
                        <Time>2022-11-23T16:12:48.259Z</Time>
                    </Trackpoint>
                    <Trackpoint>
                        <DistanceMeters>0.0</DistanceMeters>
                        <Time>2022-11-23T16:21:41.619Z</Time>
                    </Trackpoint>
                    <Trackpoint>
                        <DistanceMeters>22.183809951504468</DistanceMeters>
                        <Time>2022-11-23T16:22:49.619Z</Time>
                    </Trackpoint>
                    <Trackpoint>
                        <DistanceMeters>50.23980489017188</DistanceMeters>
                        <Time>2022-11-23T16:23:22.779Z</Time>
                    </Trackpoint>
                </Track>
                <DistanceMeters>50.23980489017188</DistanceMeters>
                <TotalTimeSeconds>634.51999939</TotalTimeSeconds>
                <Calories>15.764932375018422</Calories>
                <Intensity>Active</Intensity>
                <TriggerMethod>Manual</TriggerMethod>
            </Lap>
        </Activity>
        <Activity Sport="Walking">
            <Id>2022-11-23T16:22:49.619Z</Id>
            <Lap StartTime="2022-11-23T16:22:49.619Z">
                <Track>
                    <Trackpoint>
                        <DistanceMeters>0.0</DistanceMeters>
                        <Time>2022-11-23T16:22:49.619Z</Time>
                    </Trackpoint>
                    <Trackpoint>
                        <DistanceMeters>28.055994938667414</DistanceMeters>
                        <Time>2022-11-23T16:23:18.800Z</Time>
                    </Trackpoint>
                    <Trackpoint>
                        <DistanceMeters>28.055994938667414</DistanceMeters>
                        <Time>2022-11-23T16:23:22.779Z</Time>
                    </Trackpoint>
                    <Trackpoint>
                        <DistanceMeters>55.757512165060675</DistanceMeters>
                        <Time>2022-11-23T16:23:51.979Z</Time>
                    </Trackpoint>
                    <Trackpoint>
                        <DistanceMeters>118.51359088809542</DistanceMeters>
                        <Time>2022-11-23T16:24:50.939Z</Time>
                    </Trackpoint>
                    <Trackpoint>
                        <DistanceMeters>171.11834860928505</DistanceMeters>
                        <Time>2022-11-23T16:25:42.299Z</Time>
                    </Trackpoint>
                    <Trackpoint>
                        <DistanceMeters>226.276980177135</DistanceMeters>
                        <Time>2022-11-23T16:26:34.419Z</Time>
                    </Trackpoint>
                    <Trackpoint>
                        <DistanceMeters>257.06319594545465</DistanceMeters>
                        <Time>2022-11-23T16:27:03.059Z</Time>
                    </Trackpoint>
                    <Trackpoint>
                        <DistanceMeters>325.4123667532386</DistanceMeters>
                        <Time>2022-11-23T16:28:04.739Z</Time>
                    </Trackpoint>
                    <Trackpoint>
                        <DistanceMeters>356.7705365631125</DistanceMeters>
                        <Time>2022-11-23T16:28:32.179Z</Time>
                    </Trackpoint>
                    <Trackpoint>
                        <DistanceMeters>390.69871648894286</DistanceMeters>
                        <Time>2022-11-23T16:29:32.899Z</Time>
                    </Trackpoint>
                    <Trackpoint>
                        <DistanceMeters>418.37258767809493</DistanceMeters>
                        <Time>2022-11-23T16:29:57.699Z</Time>
                    </Trackpoint>
                    <Trackpoint>
                        <DistanceMeters>475.0138654386628</DistanceMeters>
                        <Time>2022-11-23T16:30:46.699Z</Time>
                    </Trackpoint>
                    <Trackpoint>
                        <DistanceMeters>487.7084664788705</DistanceMeters>
                        <Time>2022-11-23T16:30:57.379Z</Time>
                    </Trackpoint>
                    <Trackpoint>
                        <DistanceMeters>519.4188929403763</DistanceMeters>
                        <Time>2022-11-23T16:31:26.139Z</Time>
                    </Trackpoint>
                    <Trackpoint>
                        <DistanceMeters>534.6012498182166</DistanceMeters>
                        <Time>2022-11-23T16:31:39.859Z</Time>
                    </Trackpoint>
                    <Trackpoint>
                        <DistanceMeters>553.8032449063899</DistanceMeters>
                        <Time>2022-11-23T16:31:57.579Z</Time>
                    </Trackpoint>
                    <Trackpoint>
                        <DistanceMeters>584.644489726105</DistanceMeters>
                        <Time>2022-11-23T16:32:26.099Z</Time>
                    </Trackpoint>
                    <Trackpoint>
                        <DistanceMeters>638.6278020701649</DistanceMeters>
                        <Time>2022-11-23T16:33:14.419Z</Time>
                    </Trackpoint>
                    <Trackpoint>
                        <DistanceMeters>672.5222237025662</DistanceMeters>
                        <Time>2022-11-23T16:33:42.819Z</Time>
                    </Trackpoint>
                    <Trackpoint>
                        <DistanceMeters>696.6634286497916</DistanceMeters>
                        <Time>2022-11-23T16:34:10.019Z</Time>
                    </Trackpoint>
                    <Trackpoint>
                        <DistanceMeters>704.69019277577</DistanceMeters>
                        <Time>2022-11-23T16:37:46.358Z</Time>
                    </Trackpoint>
                </Track>
                <DistanceMeters>704.69019277577</DistanceMeters>
                <TotalTimeSeconds>896.738631291</TotalTimeSeconds>
                <Calories>88.82829966666667</Calories>
                <Intensity>Active</Intensity>
                <TriggerMethod>Manual</TriggerMethod>
            </Lap>
        </Activity>
    </Activities>
    <Author xsi:type="Application_t">
        <Name>Google Fit</Name>
        <Build>
            <Version>
                <VersionMajor>0</VersionMajor>
                <VersionMinor>0</VersionMinor>
                <BuildMajor>0</BuildMajor>
                <BuildMinor>0</BuildMinor>
            </Version>
        </Build>
        <LangID>en</LangID>
        <PartNumber>000-00000-00</PartNumber>
    </Author>
</TrainingCenterDatabase>
