<?xml version="1.0" encoding="UTF-8"?>
<TrainingCenterDatabase
    xmlns="http://www.garmin.com/xmlschemas/TrainingCenterDatabase/v2"
    xmlns:ns2="http://www.garmin.com/xmlschemas/UserProfile/v2"
    xmlns:ns3="http://www.garmin.com/xmlschemas/ActivityExtension/v2"
    xmlns:ns4="http://www.garmin.com/xmlschemas/ProfileExtension/v1"
    xmlns:ns5="http://www.garmin.com/xmlschemas/ActivityGoals/v1"
    xmlns:xsi="http://www.w3.org/2001/XMLSchema-instance" xsi:schemaLocation="http://www.garmin.com/xmlschemas/TrainingCenterDatabase/v2 http://www.garmin.com/xmlschemas/TrainingCenterDatabasev2.xsd">
    <Activities>
        <Activity Sport="Walking">
            <Id>2022-05-15T04:38:57.707Z</Id>
            <Lap StartTime="2022-05-15T04:38:57.707Z">
                <Track>
                    <Trackpoint>
                        <DistanceMeters>0.0</DistanceMeters>
                        <Time>2022-05-15T04:38:57.707Z</Time>
                    </Trackpoint>
                    <Trackpoint>
                        <DistanceMeters>0.0</DistanceMeters>
                        <Time>2022-05-15T05:28:25.061Z</Time>
                    </Trackpoint>
                    <Trackpoint>
                        <DistanceMeters>44.367618560791016</DistanceMeters>
                        <Time>2022-05-15T05:30:41.061Z</Time>
                    </Trackpoint>
                    <Trackpoint>
                        <DistanceMeters>96.56481552124023</DistanceMeters>
                        <Time>2022-05-15T05:31:42.221Z</Time>
                    </Trackpoint>
                </Track>
                <DistanceMeters>96.56481552124023</DistanceMeters>
                <TotalTimeSeconds>3164.514052017</TotalTimeSeconds>
                <Calories>67.36766040325165</Calories>
                <Intensity>Active</Intensity>
                <TriggerMethod>Manual</TriggerMethod>
            </Lap>
        </Activity>
        <Activity Sport="Walking">
            <Id>2022-05-15T05:30:41.061Z</Id>
            <Lap StartTime="2022-05-15T05:30:41.061Z">
                <Track>
                    <Trackpoint>
                        <DistanceMeters>0.0</DistanceMeters>
                        <Time>2022-05-15T05:30:41.061Z</Time>
                    </Trackpoint>
                    <Trackpoint>
                        <DistanceMeters>52.19719696044922</DistanceMeters>
                        <Time>2022-05-15T05:30:55.032Z</Time>
                    </Trackpoint>
                    <Trackpoint>
                        <DistanceMeters>52.19719696044922</DistanceMeters>
                        <Time>2022-05-15T05:31:42.221Z</Time>
                    </Trackpoint>
                    <Trackpoint>
                        <DistanceMeters>112.48432922363281</DistanceMeters>
                        <Time>2022-05-15T05:32:42.461Z</Time>
                    </Trackpoint>
                    <Trackpoint>
                        <DistanceMeters>165.33399200439453</DistanceMeters>
                        <Time>2022-05-15T05:33:40.601Z</Time>
                    </Trackpoint>
                    <Trackpoint>
                        <DistanceMeters>211.00654220581055</DistanceMeters>
                        <Time>2022-05-15T05:34:55.021Z</Time>
                    </Trackpoint>
                    <Trackpoint>
                        <DistanceMeters>263.20373916625977</DistanceMeters>
                        <Time>2022-05-15T05:35:56.341Z</Time>
                    </Trackpoint>
                    <Trackpoint>
                        <DistanceMeters>314.09600830078125</DistanceMeters>
                        <Time>2022-05-15T05:36:57.061Z</Time>
                    </Trackpoint>
                    <Trackpoint>
                        <DistanceMeters>371.5875778198242</DistanceMeters>
                        <Time>2022-05-15T05:37:57.261Z</Time>
                    </Trackpoint>
                    <Trackpoint>
                        <DistanceMeters>429.74459075927734</DistanceMeters>
                        <Time>2022-05-15T05:38:58.141Z</Time>
                    </Trackpoint>
                    <Trackpoint>
                        <DistanceMeters>488.69141006469727</DistanceMeters>
                        <Time>2022-05-15T05:39:59.381Z</Time>
                    </Trackpoint>
                    <Trackpoint>
                        <DistanceMeters>545.5329933166504</DistanceMeters>
                        <Time>2022-05-15T05:40:58.861Z</Time>
                    </Trackpoint>
                    <Trackpoint>
                        <DistanceMeters>546.8379232883453</DistanceMeters>
                        <Time>2022-05-15T05:41:00.661Z</Time>
                    </Trackpoint>
                    <Trackpoint>
                        <DistanceMeters>606.4266073703766</DistanceMeters>
                        <Time>2022-05-15T05:42:00.301Z</Time>
                    </Trackpoint>
                    <Trackpoint>
                        <DistanceMeters>624.0431616306305</DistanceMeters>
                        <Time>2022-05-15T05:42:46.272Z</Time>
                    </Trackpoint>
                </Track>
                <DistanceMeters>624.0431616306305</DistanceMeters>
                <TotalTimeSeconds>725.210012233</TotalTimeSeconds>
                <Calories>72.82307434082031</Calories>
                <Intensity>Active</Intensity>
                <TriggerMethod>Manual</TriggerMethod>
            </Lap>
        </Activity>
        <Activity Sport="Walking">
            <Id>2022-05-15T05:45:21.901Z</Id>
            <Lap StartTime="2022-05-15T05:45:21.901Z">
                <Track>
                    <Trackpoint>
                        <DistanceMeters>0.0</DistanceMeters>
                        <Time>2022-05-15T05:45:21.901Z</Time>
                    </Trackpoint>
                    <Trackpoint>
                        <DistanceMeters>39.14789962768555</DistanceMeters>
                        <Time>2022-05-15T05:46:56.832Z</Time>
                    </Trackpoint>
                    <Trackpoint>
                        <DistanceMeters>39.14789962768555</DistanceMeters>
                        <Time>2022-05-15T05:47:21.901Z</Time>
                    </Trackpoint>
                    <Trackpoint>
                        <DistanceMeters>99.85525894165039</DistanceMeters>
                        <Time>2022-05-15T05:48:23.421Z</Time>
                    </Trackpoint>
                    <Trackpoint>
                        <DistanceMeters>150.74752807617188</DistanceMeters>
                        <Time>2022-05-15T05:49:25.101Z</Time>
                    </Trackpoint>
                    <Trackpoint>
                        <DistanceMeters>204.9021224975586</DistanceMeters>
                        <Time>2022-05-15T05:50:25.421Z</Time>
                    </Trackpoint>
                    <Trackpoint>
                        <DistanceMeters>264.2946586608887</DistanceMeters>
                        <Time>2022-05-15T05:51:25.541Z</Time>
                    </Trackpoint>
                    <Trackpoint>
                        <DistanceMeters>306.05241775512695</DistanceMeters>
                        <Time>2022-05-15T05:52:25.341Z</Time>
                    </Trackpoint>
                    <Trackpoint>
                        <DistanceMeters>308.4941110610962</DistanceMeters>
                        <Time>2022-05-15T05:52:26.661Z</Time>
                    </Trackpoint>
                    <Trackpoint>
                        <DistanceMeters>369.5794725418091</DistanceMeters>
                        <Time>2022-05-15T05:53:27.261Z</Time>
                    </Trackpoint>
                    <Trackpoint>
                        <DistanceMeters>426.1459741592407</DistanceMeters>
                        <Time>2022-05-15T05:54:27.461Z</Time>
                    </Trackpoint>
                    <Trackpoint>
                        <DistanceMeters>488.9684991836548</DistanceMeters>
                        <Time>2022-05-15T05:55:28.461Z</Time>
                    </Trackpoint>
                    <Trackpoint>
                        <DistanceMeters>548.1839685440063</DistanceMeters>
                        <Time>2022-05-15T05:56:29.021Z</Time>
                    </Trackpoint>
                    <Trackpoint>
                        <DistanceMeters>595.8139123916626</DistanceMeters>
                        <Time>2022-05-15T05:57:22.021Z</Time>
                    </Trackpoint>
                </Track>
                <DistanceMeters>595.8139123916626</DistanceMeters>
                <TotalTimeSeconds>720.120004022</TotalTimeSeconds>
                <Calories>62.92134475708008</Calories>
                <Intensity>Active</Intensity>
                <TriggerMethod>Manual</TriggerMethod>
            </Lap>
        </Activity>
        <Activity Sport="Walking">
            <Id>2022-05-15T05:56:29.021Z</Id>
            <Lap StartTime="2022-05-15T05:56:29.021Z">
                <Track>
                    <Trackpoint>
                        <DistanceMeters>0.0</DistanceMeters>
                        <Time>2022-05-15T05:56:29.021Z</Time>
                    </Trackpoint>
                    <Trackpoint>
                        <DistanceMeters>47.62994384765625</DistanceMeters>
                        <Time>2022-05-15T05:57:11.365Z</Time>
                    </Trackpoint>
                    <Trackpoint>
                        <DistanceMeters>47.62994384765625</DistanceMeters>
                        <Time>2022-05-15T05:57:22.021Z</Time>
                    </Trackpoint>
                </Track>
                <DistanceMeters>47.62994384765625</DistanceMeters>
                <TotalTimeSeconds>52.999999771</TotalTimeSeconds>
                <Calories>1.0911569595336914</Calories>
                <Intensity>Active</Intensity>
                <TriggerMethod>Manual</TriggerMethod>
            </Lap>
        </Activity>
        <Activity Sport="Walking">
            <Id>2022-05-15T05:58:27.221Z</Id>
            <Lap StartTime="2022-05-15T05:58:27.221Z">
                <Track>
                    <Trackpoint>
                        <DistanceMeters>0.0</DistanceMeters>
                        <Time>2022-05-15T05:58:27.221Z</Time>
                    </Trackpoint>
                    <Trackpoint>
                        <DistanceMeters>10.43943977355957</DistanceMeters>
                        <Time>2022-05-15T05:58:45.688Z</Time>
                    </Trackpoint>
                    <Trackpoint>
                        <DistanceMeters>10.43943977355957</DistanceMeters>
                        <Time>2022-05-15T05:58:47.581Z</Time>
                    </Trackpoint>
                    <Trackpoint>
                        <DistanceMeters>61.331708908081055</DistanceMeters>
                        <Time>2022-05-15T05:59:43.781Z</Time>
                    </Trackpoint>
                    <Trackpoint>
                        <DistanceMeters>66.24425029754639</DistanceMeters>
                        <Time>2022-05-15T05:59:47.981Z</Time>
                    </Trackpoint>
                    <Trackpoint>
                        <DistanceMeters>102.7822904586792</DistanceMeters>
                        <Time>2022-05-15T06:00:32.581Z</Time>
                    </Trackpoint>
                </Track>
                <DistanceMeters>102.7822904586792</DistanceMeters>
                <TotalTimeSeconds>125.360000008</TotalTimeSeconds>
                <Calories>9.247662544250488</Calories>
                <Intensity>Active</Intensity>
                <TriggerMethod>Manual</TriggerMethod>
            </Lap>
        </Activity>
        <Activity Sport="Walking">
            <Id>2022-05-15T05:59:47.981Z</Id>
            <Lap StartTime="2022-05-15T05:59:47.981Z">
                <Track>
                    <Trackpoint>
                        <DistanceMeters>0.0</DistanceMeters>
                        <Time>2022-05-15T05:59:47.981Z</Time>
                    </Trackpoint>
                    <Trackpoint>
                        <DistanceMeters>36.53804016113281</DistanceMeters>
                        <Time>2022-05-15T06:00:16.007Z</Time>
                    </Trackpoint>
                    <Trackpoint>
                        <DistanceMeters>36.53804016113281</DistanceMeters>
                        <Time>2022-05-15T06:00:32.581Z</Time>
                    </Trackpoint>
                </Track>
                <DistanceMeters>36.53804016113281</DistanceMeters>
                <TotalTimeSeconds>44.599997844</TotalTimeSeconds>
                <Calories>1.6970943212509155</Calories>
                <Intensity>Active</Intensity>
                <TriggerMethod>Manual</TriggerMethod>
            </Lap>
        </Activity>
        <Activity Sport="Walking">
            <Id>2022-05-15T06:00:32.581Z</Id>
            <Lap StartTime="2022-05-15T06:00:32.581Z">
                <Track>
                    <Trackpoint>
                        <DistanceMeters>0.0</DistanceMeters>
                        <Time>2022-05-15T06:00:32.581Z</Time>
                    </Trackpoint>
                    <Trackpoint>
                        <DistanceMeters>48.93487548828125</DistanceMeters>
                        <Time>2022-05-15T06:01:16.238Z</Time>
                    </Trackpoint>
                    <Trackpoint>
                        <DistanceMeters>48.93487548828125</DistanceMeters>
                        <Time>2022-05-15T06:02:16.475Z</Time>
                    </Trackpoint>
                </Track>
                <DistanceMeters>48.93487548828125</DistanceMeters>
                <TotalTimeSeconds>103.893013893</TotalTimeSeconds>
                <Calories>6.167599201202393</Calories>
                <Intensity>Active</Intensity>
                <TriggerMethod>Manual</TriggerMethod>
            </Lap>
        </Activity>
    </Activities>
    <Author xsi:type="Application_t">
        <Name>Google Fit</Name>
        <Build>
            <Version>
                <VersionMajor>0</VersionMajor>
                <VersionMinor>0</VersionMinor>
                <BuildMajor>0</BuildMajor>
                <BuildMinor>0</BuildMinor>
            </Version>
        </Build>
        <LangID>en</LangID>
        <PartNumber>000-00000-00</PartNumber>
    </Author>
</TrainingCenterDatabase>
