<?xml version="1.0" encoding="UTF-8"?>
<TrainingCenterDatabase
    xmlns="http://www.garmin.com/xmlschemas/TrainingCenterDatabase/v2"
    xmlns:ns2="http://www.garmin.com/xmlschemas/UserProfile/v2"
    xmlns:ns3="http://www.garmin.com/xmlschemas/ActivityExtension/v2"
    xmlns:ns4="http://www.garmin.com/xmlschemas/ProfileExtension/v1"
    xmlns:ns5="http://www.garmin.com/xmlschemas/ActivityGoals/v1"
    xmlns:xsi="http://www.w3.org/2001/XMLSchema-instance" xsi:schemaLocation="http://www.garmin.com/xmlschemas/TrainingCenterDatabase/v2 http://www.garmin.com/xmlschemas/TrainingCenterDatabasev2.xsd">
    <Activities>
        <Activity Sport="Walking">
            <Id>2022-04-30T15:20:39.253Z</Id>
            <Lap StartTime="2022-04-30T15:20:39.253Z">
                <Track>
                    <Trackpoint>
                        <DistanceMeters>0.0</DistanceMeters>
                        <Time>2022-04-30T15:20:39.253Z</Time>
                    </Trackpoint>
                    <Trackpoint>
                        <DistanceMeters>0.0</DistanceMeters>
                        <Time>2022-04-30T15:20:54.048Z</Time>
                    </Trackpoint>
                    <Trackpoint>
                        <DistanceMeters>11.091904640197754</DistanceMeters>
                        <Time>2022-04-30T15:21:12.368Z</Time>
                    </Trackpoint>
                    <Trackpoint>
                        <DistanceMeters>72.42361164093018</DistanceMeters>
                        <Time>2022-04-30T15:23:06.888Z</Time>
                    </Trackpoint>
                    <Trackpoint>
                        <DistanceMeters>111.26112079620361</DistanceMeters>
                        <Time>2022-04-30T15:23:48.108Z</Time>
                    </Trackpoint>
                    <Trackpoint>
                        <DistanceMeters>140.62204456329346</DistanceMeters>
                        <Time>2022-04-30T15:25:13.408Z</Time>
                    </Trackpoint>
                </Track>
                <DistanceMeters>140.62204456329346</DistanceMeters>
                <TotalTimeSeconds>274.15546682</TotalTimeSeconds>
                <Calories>23.312416076660156</Calories>
                <Intensity>Active</Intensity>
                <TriggerMethod>Manual</TriggerMethod>
            </Lap>
        </Activity>
        <Activity Sport="Walking">
            <Id>2022-04-30T15:33:43.988Z</Id>
            <Lap StartTime="2022-04-30T15:33:43.988Z">
                <Track>
                    <Trackpoint>
                        <DistanceMeters>0.0</DistanceMeters>
                        <Time>2022-04-30T15:33:43.988Z</Time>
                    </Trackpoint>
                    <Trackpoint>
                        <DistanceMeters>46.32501220703125</DistanceMeters>
                        <Time>2022-04-30T15:34:42.159Z</Time>
                    </Trackpoint>
                    <Trackpoint>
                        <DistanceMeters>46.32501220703125</DistanceMeters>
                        <Time>2022-04-30T15:36:05.988Z</Time>
                    </Trackpoint>
                    <Trackpoint>
                        <DistanceMeters>53.241055965423584</DistanceMeters>
                        <Time>2022-04-30T15:36:10.428Z</Time>
                    </Trackpoint>
                    <Trackpoint>
                        <DistanceMeters>91.73648977279663</DistanceMeters>
                        <Time>2022-04-30T15:37:26.368Z</Time>
                    </Trackpoint>
                    <Trackpoint>
                        <DistanceMeters>124.46816778182983</DistanceMeters>
                        <Time>2022-04-30T15:37:59.388Z</Time>
                    </Trackpoint>
                    <Trackpoint>
                        <DistanceMeters>143.3896517753601</DistanceMeters>
                        <Time>2022-04-30T15:38:45.088Z</Time>
                    </Trackpoint>
                    <Trackpoint>
                        <DistanceMeters>188.40973615646362</DistanceMeters>
                        <Time>2022-04-30T15:39:56.528Z</Time>
                    </Trackpoint>
                    <Trackpoint>
                        <DistanceMeters>201.45903539657593</DistanceMeters>
                        <Time>2022-04-30T15:40:12.288Z</Time>
                    </Trackpoint>
                    <Trackpoint>
                        <DistanceMeters>234.61681509017944</DistanceMeters>
                        <Time>2022-04-30T15:40:31.908Z</Time>
                    </Trackpoint>
                    <Trackpoint>
                        <DistanceMeters>271.80732107162476</DistanceMeters>
                        <Time>2022-04-30T15:42:08.168Z</Time>
                    </Trackpoint>
                    <Trackpoint>
                        <DistanceMeters>293.99113035202026</DistanceMeters>
                        <Time>2022-04-30T15:42:34.688Z</Time>
                    </Trackpoint>
                    <Trackpoint>
                        <DistanceMeters>303.12564039230347</DistanceMeters>
                        <Time>2022-04-30T15:43:36.778Z</Time>
                    </Trackpoint>
                </Track>
                <DistanceMeters>303.12564039230347</DistanceMeters>
                <TotalTimeSeconds>592.789531041</TotalTimeSeconds>
                <Calories>54.73904037475586</Calories>
                <Intensity>Active</Intensity>
                <TriggerMethod>Manual</TriggerMethod>
            </Lap>
        </Activity>
    </Activities>
    <Author xsi:type="Application_t">
        <Name>Google Fit</Name>
        <Build>
            <Version>
                <VersionMajor>0</VersionMajor>
                <VersionMinor>0</VersionMinor>
                <BuildMajor>0</BuildMajor>
                <BuildMinor>0</BuildMinor>
            </Version>
        </Build>
        <LangID>en</LangID>
        <PartNumber>000-00000-00</PartNumber>
    </Author>
</TrainingCenterDatabase>
