<?xml version="1.0" encoding="UTF-8"?>
<TrainingCenterDatabase
    xmlns="http://www.garmin.com/xmlschemas/TrainingCenterDatabase/v2"
    xmlns:ns2="http://www.garmin.com/xmlschemas/UserProfile/v2"
    xmlns:ns3="http://www.garmin.com/xmlschemas/ActivityExtension/v2"
    xmlns:ns4="http://www.garmin.com/xmlschemas/ProfileExtension/v1"
    xmlns:ns5="http://www.garmin.com/xmlschemas/ActivityGoals/v1"
    xmlns:xsi="http://www.w3.org/2001/XMLSchema-instance" xsi:schemaLocation="http://www.garmin.com/xmlschemas/TrainingCenterDatabase/v2 http://www.garmin.com/xmlschemas/TrainingCenterDatabasev2.xsd">
    <Activities>
        <Activity Sport="Running">
            <Id>2022-11-26T11:56:54.268Z</Id>
            <Lap StartTime="2022-11-26T11:56:54.268Z">
                <Track>
                    <Trackpoint>
                        <DistanceMeters>0.0</DistanceMeters>
                        <Time>2022-11-26T11:56:54.268Z</Time>
                    </Trackpoint>
                    <Trackpoint>
                        <DistanceMeters>7.035750076174736</DistanceMeters>
                        <Time>2022-11-26T11:57:04.498Z</Time>
                    </Trackpoint>
                    <Trackpoint>
                        <DistanceMeters>30.488250330090523</DistanceMeters>
                        <Time>2022-11-26T11:57:54.487Z</Time>
                    </Trackpoint>
                </Track>
                <DistanceMeters>30.488250330090523</DistanceMeters>
                <TotalTimeSeconds>60.219</TotalTimeSeconds>
                <Calories>12.169256250000002</Calories>
                <Intensity>Active</Intensity>
                <TriggerMethod>Manual</TriggerMethod>
            </Lap>
        </Activity>
        <Activity Sport="Running">
            <Id>2022-11-26T12:07:07.275Z</Id>
            <Lap StartTime="2022-11-26T12:07:07.275Z">
                <Track>
                    <Trackpoint>
                        <DistanceMeters>0.0</DistanceMeters>
                        <Time>2022-11-26T12:07:07.275Z</Time>
                    </Trackpoint>
                    <Trackpoint>
                        <DistanceMeters>62.540000677108765</DistanceMeters>
                        <Time>2022-11-26T12:08:01.738Z</Time>
                    </Trackpoint>
                    <Trackpoint>
                        <DistanceMeters>68.01225073635578</DistanceMeters>
                        <Time>2022-11-26T12:08:05.738Z</Time>
                    </Trackpoint>
                    <Trackpoint>
                        <DistanceMeters>152.4412516504526</DistanceMeters>
                        <Time>2022-11-26T12:09:12.958Z</Time>
                    </Trackpoint>
                    <Trackpoint>
                        <DistanceMeters>168.0762518197298</DistanceMeters>
                        <Time>2022-11-26T12:09:26.538Z</Time>
                    </Trackpoint>
                    <Trackpoint>
                        <DistanceMeters>185.27475200593472</DistanceMeters>
                        <Time>2022-11-26T12:09:52.338Z</Time>
                    </Trackpoint>
                    <Trackpoint>
                        <DistanceMeters>218.10825236141682</DistanceMeters>
                        <Time>2022-11-26T12:10:19.138Z</Time>
                    </Trackpoint>
                    <Trackpoint>
                        <DistanceMeters>248.59650269150734</DistanceMeters>
                        <Time>2022-11-26T12:10:47.178Z</Time>
                    </Trackpoint>
                    <Trackpoint>
                        <DistanceMeters>271.26725293695927</DistanceMeters>
                        <Time>2022-11-26T12:11:03.818Z</Time>
                    </Trackpoint>
                    <Trackpoint>
                        <DistanceMeters>286.1205030977726</DistanceMeters>
                        <Time>2022-11-26T12:11:20.338Z</Time>
                    </Trackpoint>
                    <Trackpoint>
                        <DistanceMeters>339.27950367331505</DistanceMeters>
                        <Time>2022-11-26T12:12:09.818Z</Time>
                    </Trackpoint>
                    <Trackpoint>
                        <DistanceMeters>363.5137539356947</DistanceMeters>
                        <Time>2022-11-26T12:12:36.218Z</Time>
                    </Trackpoint>
                    <Trackpoint>
                        <DistanceMeters>397.12900429964066</DistanceMeters>
                        <Time>2022-11-26T12:13:01.378Z</Time>
                    </Trackpoint>
                    <Trackpoint>
                        <DistanceMeters>411.982254460454</DistanceMeters>
                        <Time>2022-11-26T12:13:14.098Z</Time>
                    </Trackpoint>
                </Track>
                <DistanceMeters>411.982254460454</DistanceMeters>
                <TotalTimeSeconds>366.823</TotalTimeSeconds>
                <Calories>74.12881458333334</Calories>
                <Intensity>Active</Intensity>
                <TriggerMethod>Manual</TriggerMethod>
            </Lap>
        </Activity>
        <Activity Sport="Running">
            <Id>2022-11-26T12:16:15.571Z</Id>
            <Lap StartTime="2022-11-26T12:16:15.571Z">
                <Track>
                    <Trackpoint>
                        <DistanceMeters>0.0</DistanceMeters>
                        <Time>2022-11-26T12:16:15.571Z</Time>
                    </Trackpoint>
                    <Trackpoint>
                        <DistanceMeters>3.1270000338554382</DistanceMeters>
                        <Time>2022-11-26T12:16:18.178Z</Time>
                    </Trackpoint>
                    <Trackpoint>
                        <DistanceMeters>56.28600060939789</DistanceMeters>
                        <Time>2022-11-26T12:17:36.078Z</Time>
                    </Trackpoint>
                    <Trackpoint>
                        <DistanceMeters>64.10350069403648</DistanceMeters>
                        <Time>2022-11-26T12:17:42.898Z</Time>
                    </Trackpoint>
                    <Trackpoint>
                        <DistanceMeters>71.92100077867508</DistanceMeters>
                        <Time>2022-11-26T12:18:12.178Z</Time>
                    </Trackpoint>
                    <Trackpoint>
                        <DistanceMeters>89.90125097334385</DistanceMeters>
                        <Time>2022-11-26T12:18:26.778Z</Time>
                    </Trackpoint>
                    <Trackpoint>
                        <DistanceMeters>117.26250126957893</DistanceMeters>
                        <Time>2022-11-26T12:18:54.778Z</Time>
                    </Trackpoint>
                    <Trackpoint>
                        <DistanceMeters>136.02450147271156</DistanceMeters>
                        <Time>2022-11-26T12:19:37.018Z</Time>
                    </Trackpoint>
                    <Trackpoint>
                        <DistanceMeters>152.4412516504526</DistanceMeters>
                        <Time>2022-11-26T12:19:54.958Z</Time>
                    </Trackpoint>
                    <Trackpoint>
                        <DistanceMeters>159.47700172662735</DistanceMeters>
                        <Time>2022-11-26T12:20:17.907Z</Time>
                    </Trackpoint>
                </Track>
                <DistanceMeters>159.47700172662735</DistanceMeters>
                <TotalTimeSeconds>242.336</TotalTimeSeconds>
                <Calories>48.97206666666666</Calories>
                <Intensity>Active</Intensity>
                <TriggerMethod>Manual</TriggerMethod>
            </Lap>
        </Activity>
    </Activities>
    <Author xsi:type="Application_t">
        <Name>Google Fit</Name>
        <Build>
            <Version>
                <VersionMajor>0</VersionMajor>
                <VersionMinor>0</VersionMinor>
                <BuildMajor>0</BuildMajor>
                <BuildMinor>0</BuildMinor>
            </Version>
        </Build>
        <LangID>en</LangID>
        <PartNumber>000-00000-00</PartNumber>
    </Author>
</TrainingCenterDatabase>
