<?xml version="1.0" encoding="UTF-8"?>
<TrainingCenterDatabase
    xmlns="http://www.garmin.com/xmlschemas/TrainingCenterDatabase/v2"
    xmlns:ns2="http://www.garmin.com/xmlschemas/UserProfile/v2"
    xmlns:ns3="http://www.garmin.com/xmlschemas/ActivityExtension/v2"
    xmlns:ns4="http://www.garmin.com/xmlschemas/ProfileExtension/v1"
    xmlns:ns5="http://www.garmin.com/xmlschemas/ActivityGoals/v1"
    xmlns:xsi="http://www.w3.org/2001/XMLSchema-instance" xsi:schemaLocation="http://www.garmin.com/xmlschemas/TrainingCenterDatabase/v2 http://www.garmin.com/xmlschemas/TrainingCenterDatabasev2.xsd">
    <Activities>
        <Activity Sport="Walking">
            <Id>2022-12-09T16:29:34.750Z</Id>
            <Lap StartTime="2022-12-09T16:29:34.750Z">
                <Track>
                    <Trackpoint>
                        <DistanceMeters>0.0</DistanceMeters>
                        <Time>2022-12-09T16:29:34.750Z</Time>
                    </Trackpoint>
                    <Trackpoint>
                        <DistanceMeters>18.2690199600625</DistanceMeters>
                        <Time>2022-12-09T16:29:38.005Z</Time>
                    </Trackpoint>
                    <Trackpoint>
                        <DistanceMeters>18.2690199600625</DistanceMeters>
                        <Time>2022-12-09T16:31:56.430Z</Time>
                    </Trackpoint>
                    <Trackpoint>
                        <DistanceMeters>28.00889487988233</DistanceMeters>
                        <Time>2022-12-09T16:32:03.190Z</Time>
                    </Trackpoint>
                    <Trackpoint>
                        <DistanceMeters>95.98889334526409</DistanceMeters>
                        <Time>2022-12-09T16:32:57.750Z</Time>
                    </Trackpoint>
                    <Trackpoint>
                        <DistanceMeters>184.36777730581989</DistanceMeters>
                        <Time>2022-12-09T16:34:07.750Z</Time>
                    </Trackpoint>
                    <Trackpoint>
                        <DistanceMeters>213.2732580985591</DistanceMeters>
                        <Time>2022-12-09T16:34:30.230Z</Time>
                    </Trackpoint>
                    <Trackpoint>
                        <DistanceMeters>251.8987571871895</DistanceMeters>
                        <Time>2022-12-09T16:34:59.470Z</Time>
                    </Trackpoint>
                    <Trackpoint>
                        <DistanceMeters>308.40340698803897</DistanceMeters>
                        <Time>2022-12-09T16:35:43.070Z</Time>
                    </Trackpoint>
                    <Trackpoint>
                        <DistanceMeters>344.40741551450174</DistanceMeters>
                        <Time>2022-12-09T16:36:11.390Z</Time>
                    </Trackpoint>
                    <Trackpoint>
                        <DistanceMeters>354.97997697919374</DistanceMeters>
                        <Time>2022-12-09T16:36:18.550Z</Time>
                    </Trackpoint>
                    <Trackpoint>
                        <DistanceMeters>397.92374180765086</DistanceMeters>
                        <Time>2022-12-09T16:36:51.190Z</Time>
                    </Trackpoint>
                    <Trackpoint>
                        <DistanceMeters>436.26224122840154</DistanceMeters>
                        <Time>2022-12-09T16:37:20.910Z</Time>
                    </Trackpoint>
                    <Trackpoint>
                        <DistanceMeters>470.5277162676141</DistanceMeters>
                        <Time>2022-12-09T16:37:50.550Z</Time>
                    </Trackpoint>
                    <Trackpoint>
                        <DistanceMeters>510.20609977254765</DistanceMeters>
                        <Time>2022-12-09T16:38:23.430Z</Time>
                    </Trackpoint>
                    <Trackpoint>
                        <DistanceMeters>567.2219081971306</DistanceMeters>
                        <Time>2022-12-09T16:39:09.790Z</Time>
                    </Trackpoint>
                    <Trackpoint>
                        <DistanceMeters>594.1849755806245</DistanceMeters>
                        <Time>2022-12-09T16:39:32.030Z</Time>
                    </Trackpoint>
                    <Trackpoint>
                        <DistanceMeters>632.6778085676124</DistanceMeters>
                        <Time>2022-12-09T16:40:03.310Z</Time>
                    </Trackpoint>
                    <Trackpoint>
                        <DistanceMeters>661.8105979715682</DistanceMeters>
                        <Time>2022-12-09T16:40:27.230Z</Time>
                    </Trackpoint>
                    <Trackpoint>
                        <DistanceMeters>668.5146849603758</DistanceMeters>
                        <Time>2022-12-09T16:40:33.910Z</Time>
                    </Trackpoint>
                    <Trackpoint>
                        <DistanceMeters>746.0833681401559</DistanceMeters>
                        <Time>2022-12-09T16:41:35.430Z</Time>
                    </Trackpoint>
                    <Trackpoint>
                        <DistanceMeters>767.6147130930867</DistanceMeters>
                        <Time>2022-12-09T16:43:42.094Z</Time>
                    </Trackpoint>
                </Track>
                <DistanceMeters>767.6147130930867</DistanceMeters>
                <TotalTimeSeconds>847.343069496</TotalTimeSeconds>
                <Calories>86.42533483333332</Calories>
                <Intensity>Active</Intensity>
                <TriggerMethod>Manual</TriggerMethod>
            </Lap>
        </Activity>
        <Activity Sport="Walking">
            <Id>2022-12-09T16:52:53.679Z</Id>
            <Lap StartTime="2022-12-09T16:52:53.679Z">
                <Track>
                    <Trackpoint>
                        <DistanceMeters>0.0</DistanceMeters>
                        <Time>2022-12-09T16:52:53.679Z</Time>
                    </Trackpoint>
                    <Trackpoint>
                        <DistanceMeters>20.850148374503476</DistanceMeters>
                        <Time>2022-12-09T16:53:57.590Z</Time>
                    </Trackpoint>
                    <Trackpoint>
                        <DistanceMeters>48.86984679324002</DistanceMeters>
                        <Time>2022-12-09T16:54:23.750Z</Time>
                    </Trackpoint>
                    <Trackpoint>
                        <DistanceMeters>69.72253627960886</DistanceMeters>
                        <Time>2022-12-09T16:54:42.150Z</Time>
                    </Trackpoint>
                    <Trackpoint>
                        <DistanceMeters>136.92028741420893</DistanceMeters>
                        <Time>2022-12-09T16:55:44.190Z</Time>
                    </Trackpoint>
                    <Trackpoint>
                        <DistanceMeters>149.9800630020211</DistanceMeters>
                        <Time>2022-12-09T16:55:56.150Z</Time>
                    </Trackpoint>
                    <Trackpoint>
                        <DistanceMeters>182.5451468130402</DistanceMeters>
                        <Time>2022-12-09T16:56:25.190Z</Time>
                    </Trackpoint>
                    <Trackpoint>
                        <DistanceMeters>220.98616988176792</DistanceMeters>
                        <Time>2022-12-09T16:57:00.550Z</Time>
                    </Trackpoint>
                    <Trackpoint>
                        <DistanceMeters>276.4694149306045</DistanceMeters>
                        <Time>2022-12-09T16:57:49.870Z</Time>
                    </Trackpoint>
                    <Trackpoint>
                        <DistanceMeters>308.0912681338018</DistanceMeters>
                        <Time>2022-12-09T16:58:16.790Z</Time>
                    </Trackpoint>
                    <Trackpoint>
                        <DistanceMeters>322.57229687739436</DistanceMeters>
                        <Time>2022-12-09T16:58:29.910Z</Time>
                    </Trackpoint>
                    <Trackpoint>
                        <DistanceMeters>387.76072797521203</DistanceMeters>
                        <Time>2022-12-09T16:59:27.870Z</Time>
                    </Trackpoint>
                    <Trackpoint>
                        <DistanceMeters>402.0223146043006</DistanceMeters>
                        <Time>2022-12-09T16:59:41.470Z</Time>
                    </Trackpoint>
                    <Trackpoint>
                        <DistanceMeters>454.5020869953988</DistanceMeters>
                        <Time>2022-12-09T17:00:24.830Z</Time>
                    </Trackpoint>
                    <Trackpoint>
                        <DistanceMeters>469.7035239804091</DistanceMeters>
                        <Time>2022-12-09T17:00:38.510Z</Time>
                    </Trackpoint>
                    <Trackpoint>
                        <DistanceMeters>495.3501849555961</DistanceMeters>
                        <Time>2022-12-09T17:01:01.350Z</Time>
                    </Trackpoint>
                    <Trackpoint>
                        <DistanceMeters>555.4847085900202</DistanceMeters>
                        <Time>2022-12-09T17:01:57.510Z</Time>
                    </Trackpoint>
                    <Trackpoint>
                        <DistanceMeters>587.0859173405013</DistanceMeters>
                        <Time>2022-12-09T17:02:24.470Z</Time>
                    </Trackpoint>
                    <Trackpoint>
                        <DistanceMeters>601.8235422597877</DistanceMeters>
                        <Time>2022-12-09T17:02:37.070Z</Time>
                    </Trackpoint>
                    <Trackpoint>
                        <DistanceMeters>629.1789275755597</DistanceMeters>
                        <Time>2022-12-09T17:03:02.550Z</Time>
                    </Trackpoint>
                    <Trackpoint>
                        <DistanceMeters>654.8062065689658</DistanceMeters>
                        <Time>2022-12-09T17:03:25.430Z</Time>
                    </Trackpoint>
                    <Trackpoint>
                        <DistanceMeters>669.4228199677368</DistanceMeters>
                        <Time>2022-12-09T17:03:38.270Z</Time>
                    </Trackpoint>
                    <Trackpoint>
                        <DistanceMeters>698.074153170927</DistanceMeters>
                        <Time>2022-12-09T17:04:03.110Z</Time>
                    </Trackpoint>
                    <Trackpoint>
                        <DistanceMeters>724.481008094116</DistanceMeters>
                        <Time>2022-12-09T17:04:26.430Z</Time>
                    </Trackpoint>
                    <Trackpoint>
                        <DistanceMeters>737.7140571507574</DistanceMeters>
                        <Time>2022-12-09T17:04:38.030Z</Time>
                    </Trackpoint>
                    <Trackpoint>
                        <DistanceMeters>769.6848420808668</DistanceMeters>
                        <Time>2022-12-09T17:05:34.708Z</Time>
                    </Trackpoint>
                </Track>
                <DistanceMeters>769.6848420808668</DistanceMeters>
                <TotalTimeSeconds>761.029</TotalTimeSeconds>
                <Calories>77.92091372222222</Calories>
                <Intensity>Active</Intensity>
                <TriggerMethod>Manual</TriggerMethod>
            </Lap>
        </Activity>
    </Activities>
    <Author xsi:type="Application_t">
        <Name>Google Fit</Name>
        <Build>
            <Version>
                <VersionMajor>0</VersionMajor>
                <VersionMinor>0</VersionMinor>
                <BuildMajor>0</BuildMajor>
                <BuildMinor>0</BuildMinor>
            </Version>
        </Build>
        <LangID>en</LangID>
        <PartNumber>000-00000-00</PartNumber>
    </Author>
</TrainingCenterDatabase>
