<?xml version="1.0" encoding="UTF-8"?>
<TrainingCenterDatabase
    xmlns="http://www.garmin.com/xmlschemas/TrainingCenterDatabase/v2"
    xmlns:ns2="http://www.garmin.com/xmlschemas/UserProfile/v2"
    xmlns:ns3="http://www.garmin.com/xmlschemas/ActivityExtension/v2"
    xmlns:ns4="http://www.garmin.com/xmlschemas/ProfileExtension/v1"
    xmlns:ns5="http://www.garmin.com/xmlschemas/ActivityGoals/v1"
    xmlns:xsi="http://www.w3.org/2001/XMLSchema-instance" xsi:schemaLocation="http://www.garmin.com/xmlschemas/TrainingCenterDatabase/v2 http://www.garmin.com/xmlschemas/TrainingCenterDatabasev2.xsd">
    <Activities>
        <Activity Sport="Walking">
            <Id>2022-11-16T07:30:02.134Z</Id>
            <Lap StartTime="2022-11-16T07:30:02.134Z">
                <Track>
                    <Trackpoint>
                        <DistanceMeters>0.0</DistanceMeters>
                        <Time>2022-11-16T07:30:02.134Z</Time>
                    </Trackpoint>
                    <Trackpoint>
                        <DistanceMeters>47.62994489587724</DistanceMeters>
                        <Time>2022-11-16T07:32:19.541Z</Time>
                    </Trackpoint>
                    <Trackpoint>
                        <DistanceMeters>47.62994489587724</DistanceMeters>
                        <Time>2022-11-16T07:32:28.134Z</Time>
                    </Trackpoint>
                    <Trackpoint>
                        <DistanceMeters>99.8271447817701</DistanceMeters>
                        <Time>2022-11-16T07:33:35.074Z</Time>
                    </Trackpoint>
                    <Trackpoint>
                        <DistanceMeters>121.32019743045495</DistanceMeters>
                        <Time>2022-11-16T07:33:56.354Z</Time>
                    </Trackpoint>
                    <Trackpoint>
                        <DistanceMeters>157.28074585542217</DistanceMeters>
                        <Time>2022-11-16T07:34:35.434Z</Time>
                    </Trackpoint>
                    <Trackpoint>
                        <DistanceMeters>200.34343576128379</DistanceMeters>
                        <Time>2022-11-16T07:35:36.074Z</Time>
                    </Trackpoint>
                    <Trackpoint>
                        <DistanceMeters>216.6550607256253</DistanceMeters>
                        <Time>2022-11-16T07:35:54.154Z</Time>
                    </Trackpoint>
                    <Trackpoint>
                        <DistanceMeters>273.5591819145735</DistanceMeters>
                        <Time>2022-11-16T07:36:55.914Z</Time>
                    </Trackpoint>
                    <Trackpoint>
                        <DistanceMeters>304.2250368475356</DistanceMeters>
                        <Time>2022-11-16T07:37:29.874Z</Time>
                    </Trackpoint>
                    <Trackpoint>
                        <DistanceMeters>323.7989868047454</DistanceMeters>
                        <Time>2022-11-16T07:37:53.834Z</Time>
                    </Trackpoint>
                    <Trackpoint>
                        <DistanceMeters>338.15321677336595</DistanceMeters>
                        <Time>2022-11-16T07:38:11.074Z</Time>
                    </Trackpoint>
                    <Trackpoint>
                        <DistanceMeters>349.89758674769183</DistanceMeters>
                        <Time>2022-11-16T07:38:24.614Z</Time>
                    </Trackpoint>
                    <Trackpoint>
                        <DistanceMeters>374.6912566934909</DistanceMeters>
                        <Time>2022-11-16T07:39:37.914Z</Time>
                    </Trackpoint>
                    <Trackpoint>
                        <DistanceMeters>413.1866916093369</DistanceMeters>
                        <Time>2022-11-16T07:40:21.274Z</Time>
                    </Trackpoint>
                    <Trackpoint>
                        <DistanceMeters>466.1539522547475</DistanceMeters>
                        <Time>2022-11-16T07:41:14.034Z</Time>
                    </Trackpoint>
                    <Trackpoint>
                        <DistanceMeters>525.688359053195</DistanceMeters>
                        <Time>2022-11-16T07:42:16.154Z</Time>
                    </Trackpoint>
                    <Trackpoint>
                        <DistanceMeters>574.6232339462196</DistanceMeters>
                        <Time>2022-11-16T07:43:11.914Z</Time>
                    </Trackpoint>
                    <Trackpoint>
                        <DistanceMeters>598.764438893445</DistanceMeters>
                        <Time>2022-11-16T07:43:38.794Z</Time>
                    </Trackpoint>
                    <Trackpoint>
                        <DistanceMeters>615.7285288563602</DistanceMeters>
                        <Time>2022-11-16T07:44:04.794Z</Time>
                    </Trackpoint>
                    <Trackpoint>
                        <DistanceMeters>642.4795937978803</DistanceMeters>
                        <Time>2022-11-16T07:45:03.074Z</Time>
                    </Trackpoint>
                    <Trackpoint>
                        <DistanceMeters>659.4436837607955</DistanceMeters>
                        <Time>2022-11-16T07:46:09.101Z</Time>
                    </Trackpoint>
                </Track>
                <DistanceMeters>659.4436837607955</DistanceMeters>
                <TotalTimeSeconds>966.96669718</TotalTimeSeconds>
                <Calories>84.93772666666665</Calories>
                <Intensity>Active</Intensity>
                <TriggerMethod>Manual</TriggerMethod>
            </Lap>
        </Activity>
    </Activities>
    <Author xsi:type="Application_t">
        <Name>Google Fit</Name>
        <Build>
            <Version>
                <VersionMajor>0</VersionMajor>
                <VersionMinor>0</VersionMinor>
                <BuildMajor>0</BuildMajor>
                <BuildMinor>0</BuildMinor>
            </Version>
        </Build>
        <LangID>en</LangID>
        <PartNumber>000-00000-00</PartNumber>
    </Author>
</TrainingCenterDatabase>
