<?xml version="1.0" encoding="UTF-8"?>
<TrainingCenterDatabase
    xmlns="http://www.garmin.com/xmlschemas/TrainingCenterDatabase/v2"
    xmlns:ns2="http://www.garmin.com/xmlschemas/UserProfile/v2"
    xmlns:ns3="http://www.garmin.com/xmlschemas/ActivityExtension/v2"
    xmlns:ns4="http://www.garmin.com/xmlschemas/ProfileExtension/v1"
    xmlns:ns5="http://www.garmin.com/xmlschemas/ActivityGoals/v1"
    xmlns:xsi="http://www.w3.org/2001/XMLSchema-instance" xsi:schemaLocation="http://www.garmin.com/xmlschemas/TrainingCenterDatabase/v2 http://www.garmin.com/xmlschemas/TrainingCenterDatabasev2.xsd">
    <Activities>
        <Activity Sport="Walking">
            <Id>2022-03-29T15:27:44.114Z</Id>
            <Lap StartTime="2022-03-29T15:27:44.114Z">
                <Track>
                    <Trackpoint>
                        <DistanceMeters>0.0</DistanceMeters>
                        <Time>2022-03-29T15:27:44.114Z</Time>
                    </Trackpoint>
                    <Trackpoint>
                        <DistanceMeters>0.0</DistanceMeters>
                        <Time>2022-03-29T15:28:06.451Z</Time>
                    </Trackpoint>
                    <Trackpoint>
                        <DistanceMeters>35.88557434082031</DistanceMeters>
                        <Time>2022-03-29T15:28:51.331Z</Time>
                    </Trackpoint>
                    <Trackpoint>
                        <DistanceMeters>93.30249404907227</DistanceMeters>
                        <Time>2022-03-29T15:31:37.551Z</Time>
                    </Trackpoint>
                </Track>
                <DistanceMeters>93.30249404907227</DistanceMeters>
                <TotalTimeSeconds>233.437763837</TotalTimeSeconds>
                <Calories>9.544076919555664</Calories>
                <Intensity>Active</Intensity>
                <TriggerMethod>Manual</TriggerMethod>
            </Lap>
        </Activity>
        <Activity Sport="Walking">
            <Id>2022-03-29T15:28:51.331Z</Id>
            <Lap StartTime="2022-03-29T15:28:51.331Z">
                <Track>
                    <Trackpoint>
                        <DistanceMeters>0.0</DistanceMeters>
                        <Time>2022-03-29T15:28:51.331Z</Time>
                    </Trackpoint>
                    <Trackpoint>
                        <DistanceMeters>57.41691970825195</DistanceMeters>
                        <Time>2022-03-29T15:29:17.328Z</Time>
                    </Trackpoint>
                    <Trackpoint>
                        <DistanceMeters>57.41691970825195</DistanceMeters>
                        <Time>2022-03-29T15:31:37.551Z</Time>
                    </Trackpoint>
                    <Trackpoint>
                        <DistanceMeters>57.41691970825195</DistanceMeters>
                        <Time>2022-03-29T15:32:26.209Z</Time>
                    </Trackpoint>
                </Track>
                <DistanceMeters>57.41691970825195</DistanceMeters>
                <TotalTimeSeconds>214.877234377</TotalTimeSeconds>
                <Calories>7.961309194564819</Calories>
                <Intensity>Active</Intensity>
                <TriggerMethod>Manual</TriggerMethod>
            </Lap>
        </Activity>
        <Activity Sport="Walking">
            <Id>2022-03-29T15:32:26.209Z</Id>
            <Lap StartTime="2022-03-29T15:32:26.209Z">
                <Track>
                    <Trackpoint>
                        <DistanceMeters>0.0</DistanceMeters>
                        <Time>2022-03-29T15:32:26.209Z</Time>
                    </Trackpoint>
                    <Trackpoint>
                        <DistanceMeters>19.07551383972168</DistanceMeters>
                        <Time>2022-03-29T15:32:50.011Z</Time>
                    </Trackpoint>
                    <Trackpoint>
                        <DistanceMeters>92.90558433532715</DistanceMeters>
                        <Time>2022-03-29T15:33:50.811Z</Time>
                    </Trackpoint>
                    <Trackpoint>
                        <DistanceMeters>170.21252250671387</DistanceMeters>
                        <Time>2022-03-29T15:34:50.971Z</Time>
                    </Trackpoint>
                    <Trackpoint>
                        <DistanceMeters>171.66014742851257</DistanceMeters>
                        <Time>2022-03-29T15:34:52.091Z</Time>
                    </Trackpoint>
                    <Trackpoint>
                        <DistanceMeters>251.35150790214539</DistanceMeters>
                        <Time>2022-03-29T15:35:51.811Z</Time>
                    </Trackpoint>
                    <Trackpoint>
                        <DistanceMeters>335.54190707206726</DistanceMeters>
                        <Time>2022-03-29T15:36:52.931Z</Time>
                    </Trackpoint>
                    <Trackpoint>
                        <DistanceMeters>419.45205569267273</DistanceMeters>
                        <Time>2022-03-29T15:37:52.811Z</Time>
                    </Trackpoint>
                    <Trackpoint>
                        <DistanceMeters>420.95049798488617</DistanceMeters>
                        <Time>2022-03-29T15:37:53.851Z</Time>
                    </Trackpoint>
                    <Trackpoint>
                        <DistanceMeters>503.59174859523773</DistanceMeters>
                        <Time>2022-03-29T15:38:54.011Z</Time>
                    </Trackpoint>
                    <Trackpoint>
                        <DistanceMeters>586.8539861440659</DistanceMeters>
                        <Time>2022-03-29T15:39:54.891Z</Time>
                    </Trackpoint>
                    <Trackpoint>
                        <DistanceMeters>671.2774175405502</DistanceMeters>
                        <Time>2022-03-29T15:40:55.651Z</Time>
                    </Trackpoint>
                    <Trackpoint>
                        <DistanceMeters>756.4759343862534</DistanceMeters>
                        <Time>2022-03-29T15:41:56.891Z</Time>
                    </Trackpoint>
                    <Trackpoint>
                        <DistanceMeters>839.7127050161362</DistanceMeters>
                        <Time>2022-03-29T15:42:57.811Z</Time>
                    </Trackpoint>
                    <Trackpoint>
                        <DistanceMeters>923.0259908437729</DistanceMeters>
                        <Time>2022-03-29T15:43:58.611Z</Time>
                    </Trackpoint>
                    <Trackpoint>
                        <DistanceMeters>1005.5394414663315</DistanceMeters>
                        <Time>2022-03-29T15:44:58.971Z</Time>
                    </Trackpoint>
                    <Trackpoint>
                        <DistanceMeters>1007.0378837585449</DistanceMeters>
                        <Time>2022-03-29T15:45:00.011Z</Time>
                    </Trackpoint>
                    <Trackpoint>
                        <DistanceMeters>1088.675693511963</DistanceMeters>
                        <Time>2022-03-29T15:46:00.051Z</Time>
                    </Trackpoint>
                    <Trackpoint>
                        <DistanceMeters>1174.057689666748</DistanceMeters>
                        <Time>2022-03-29T15:47:01.011Z</Time>
                    </Trackpoint>
                    <Trackpoint>
                        <DistanceMeters>1258.3513145446777</DistanceMeters>
                        <Time>2022-03-29T15:48:01.971Z</Time>
                    </Trackpoint>
                    <Trackpoint>
                        <DistanceMeters>1341.30277633667</DistanceMeters>
                        <Time>2022-03-29T15:49:01.651Z</Time>
                    </Trackpoint>
                    <Trackpoint>
                        <DistanceMeters>1342.7504012584686</DistanceMeters>
                        <Time>2022-03-29T15:49:02.771Z</Time>
                    </Trackpoint>
                    <Trackpoint>
                        <DistanceMeters>1413.3217589855194</DistanceMeters>
                        <Time>2022-03-29T15:49:53.071Z</Time>
                    </Trackpoint>
                    <Trackpoint>
                        <DistanceMeters>1487.70277094841</DistanceMeters>
                        <Time>2022-03-29T15:51:22.651Z</Time>
                    </Trackpoint>
                    <Trackpoint>
                        <DistanceMeters>1549.44988322258</DistanceMeters>
                        <Time>2022-03-29T15:52:19.551Z</Time>
                    </Trackpoint>
                    <Trackpoint>
                        <DistanceMeters>1551.4072781801224</DistanceMeters>
                        <Time>2022-03-29T15:52:21.831Z</Time>
                    </Trackpoint>
                    <Trackpoint>
                        <DistanceMeters>1606.8668004274368</DistanceMeters>
                        <Time>2022-03-29T15:54:23.091Z</Time>
                    </Trackpoint>
                    <Trackpoint>
                        <DistanceMeters>1634.0878373384476</DistanceMeters>
                        <Time>2022-03-29T15:54:43.091Z</Time>
                    </Trackpoint>
                    <Trackpoint>
                        <DistanceMeters>1688.7341309785843</DistanceMeters>
                        <Time>2022-03-29T15:55:22.771Z</Time>
                    </Trackpoint>
                    <Trackpoint>
                        <DistanceMeters>1718.4873868227005</DistanceMeters>
                        <Time>2022-03-29T15:55:43.891Z</Time>
                    </Trackpoint>
                    <Trackpoint>
                        <DistanceMeters>1774.1164647340775</DistanceMeters>
                        <Time>2022-03-29T15:56:23.731Z</Time>
                    </Trackpoint>
                    <Trackpoint>
                        <DistanceMeters>1803.8697205781937</DistanceMeters>
                        <Time>2022-03-29T15:56:44.851Z</Time>
                    </Trackpoint>
                    <Trackpoint>
                        <DistanceMeters>1859.5250436067581</DistanceMeters>
                        <Time>2022-03-29T15:57:24.651Z</Time>
                    </Trackpoint>
                    <Trackpoint>
                        <DistanceMeters>1890.2980424165726</DistanceMeters>
                        <Time>2022-03-29T15:57:45.891Z</Time>
                    </Trackpoint>
                    <Trackpoint>
                        <DistanceMeters>1948.0154572725296</DistanceMeters>
                        <Time>2022-03-29T15:58:25.891Z</Time>
                    </Trackpoint>
                    <Trackpoint>
                        <DistanceMeters>1976.88825237751</DistanceMeters>
                        <Time>2022-03-29T15:58:46.691Z</Time>
                    </Trackpoint>
                    <Trackpoint>
                        <DistanceMeters>2031.7159577608109</DistanceMeters>
                        <Time>2022-03-29T15:59:26.091Z</Time>
                    </Trackpoint>
                    <Trackpoint>
                        <DistanceMeters>2061.9575768709183</DistanceMeters>
                        <Time>2022-03-29T15:59:48.131Z</Time>
                    </Trackpoint>
                    <Trackpoint>
                        <DistanceMeters>2116.1937333345413</DistanceMeters>
                        <Time>2022-03-29T16:00:26.771Z</Time>
                    </Trackpoint>
                    <Trackpoint>
                        <DistanceMeters>2146.4353524446487</DistanceMeters>
                        <Time>2022-03-29T16:00:48.811Z</Time>
                    </Trackpoint>
                    <Trackpoint>
                        <DistanceMeters>2199.405338406563</DistanceMeters>
                        <Time>2022-03-29T16:01:27.731Z</Time>
                    </Trackpoint>
                    <Trackpoint>
                        <DistanceMeters>2229.570558667183</DistanceMeters>
                        <Time>2022-03-29T16:01:49.891Z</Time>
                    </Trackpoint>
                    <Trackpoint>
                        <DistanceMeters>2283.6492406129837</DistanceMeters>
                        <Time>2022-03-29T16:02:28.771Z</Time>
                    </Trackpoint>
                    <Trackpoint>
                        <DistanceMeters>2314.7690793275833</DistanceMeters>
                        <Time>2022-03-29T16:02:51.131Z</Time>
                    </Trackpoint>
                    <Trackpoint>
                        <DistanceMeters>2369.887125134468</DistanceMeters>
                        <Time>2022-03-29T16:03:30.091Z</Time>
                    </Trackpoint>
                    <Trackpoint>
                        <DistanceMeters>2400.257938504219</DistanceMeters>
                        <Time>2022-03-29T16:03:51.931Z</Time>
                    </Trackpoint>
                    <Trackpoint>
                        <DistanceMeters>2454.206867337227</DistanceMeters>
                        <Time>2022-03-29T16:04:31.011Z</Time>
                    </Trackpoint>
                    <Trackpoint>
                        <DistanceMeters>2468.268767476082</DistanceMeters>
                        <Time>2022-03-29T16:05:30.316Z</Time>
                    </Trackpoint>
                </Track>
                <DistanceMeters>2468.268767476082</DistanceMeters>
                <TotalTimeSeconds>1984.107</TotalTimeSeconds>
                <Calories>203.15049743652344</Calories>
                <Intensity>Active</Intensity>
                <TriggerMethod>Manual</TriggerMethod>
            </Lap>
        </Activity>
    </Activities>
    <Author xsi:type="Application_t">
        <Name>Google Fit</Name>
        <Build>
            <Version>
                <VersionMajor>0</VersionMajor>
                <VersionMinor>0</VersionMinor>
                <BuildMajor>0</BuildMajor>
                <BuildMinor>0</BuildMinor>
            </Version>
        </Build>
        <LangID>en</LangID>
        <PartNumber>000-00000-00</PartNumber>
    </Author>
</TrainingCenterDatabase>
