<?xml version="1.0" encoding="UTF-8"?>
<TrainingCenterDatabase
    xmlns="http://www.garmin.com/xmlschemas/TrainingCenterDatabase/v2"
    xmlns:ns2="http://www.garmin.com/xmlschemas/UserProfile/v2"
    xmlns:ns3="http://www.garmin.com/xmlschemas/ActivityExtension/v2"
    xmlns:ns4="http://www.garmin.com/xmlschemas/ProfileExtension/v1"
    xmlns:ns5="http://www.garmin.com/xmlschemas/ActivityGoals/v1"
    xmlns:xsi="http://www.w3.org/2001/XMLSchema-instance" xsi:schemaLocation="http://www.garmin.com/xmlschemas/TrainingCenterDatabase/v2 http://www.garmin.com/xmlschemas/TrainingCenterDatabasev2.xsd">
    <Activities>
        <Activity Sport="Walking">
            <Id>2022-03-04T15:23:49.660Z</Id>
            <Lap StartTime="2022-03-04T15:23:49.660Z">
                <Track>
                    <Trackpoint>
                        <DistanceMeters>0.0</DistanceMeters>
                        <Time>2022-03-04T15:23:49.660Z</Time>
                    </Trackpoint>
                    <Trackpoint>
                        <DistanceMeters>29.360923767089844</DistanceMeters>
                        <Time>2022-03-04T15:24:18.079Z</Time>
                    </Trackpoint>
                    <Trackpoint>
                        <DistanceMeters>29.360923767089844</DistanceMeters>
                        <Time>2022-03-04T15:24:50.580Z</Time>
                    </Trackpoint>
                    <Trackpoint>
                        <DistanceMeters>38.710506439208984</DistanceMeters>
                        <Time>2022-03-04T15:25:00.020Z</Time>
                    </Trackpoint>
                    <Trackpoint>
                        <DistanceMeters>90.31374740600586</DistanceMeters>
                        <Time>2022-03-04T15:25:51.500Z</Time>
                    </Trackpoint>
                    <Trackpoint>
                        <DistanceMeters>110.57796859741211</DistanceMeters>
                        <Time>2022-03-04T15:26:11.180Z</Time>
                    </Trackpoint>
                    <Trackpoint>
                        <DistanceMeters>174.5914192199707</DistanceMeters>
                        <Time>2022-03-04T15:27:11.660Z</Time>
                    </Trackpoint>
                    <Trackpoint>
                        <DistanceMeters>189.5003662109375</DistanceMeters>
                        <Time>2022-03-04T15:27:25.980Z</Time>
                    </Trackpoint>
                    <Trackpoint>
                        <DistanceMeters>247.6324691772461</DistanceMeters>
                        <Time>2022-03-04T15:28:22.300Z</Time>
                    </Trackpoint>
                    <Trackpoint>
                        <DistanceMeters>287.1749839782715</DistanceMeters>
                        <Time>2022-03-04T15:29:01.740Z</Time>
                    </Trackpoint>
                    <Trackpoint>
                        <DistanceMeters>359.2599983215332</DistanceMeters>
                        <Time>2022-03-04T15:30:17.020Z</Time>
                    </Trackpoint>
                    <Trackpoint>
                        <DistanceMeters>446.81552505493164</DistanceMeters>
                        <Time>2022-03-04T15:31:42.900Z</Time>
                    </Trackpoint>
                    <Trackpoint>
                        <DistanceMeters>478.5259494781494</DistanceMeters>
                        <Time>2022-03-04T15:32:11.660Z</Time>
                    </Trackpoint>
                    <Trackpoint>
                        <DistanceMeters>481.293336391449</DistanceMeters>
                        <Time>2022-03-04T15:32:14.140Z</Time>
                    </Trackpoint>
                    <Trackpoint>
                        <DistanceMeters>547.4059309959412</DistanceMeters>
                        <Time>2022-03-04T15:33:14.300Z</Time>
                    </Trackpoint>
                </Track>
                <DistanceMeters>547.4059309959412</DistanceMeters>
                <TotalTimeSeconds>564.640000637</TotalTimeSeconds>
                <Calories>47.65591812133789</Calories>
                <Intensity>Active</Intensity>
                <TriggerMethod>Manual</TriggerMethod>
            </Lap>
        </Activity>
        <Activity Sport="Walking">
            <Id>2022-03-04T15:32:14.140Z</Id>
            <Lap StartTime="2022-03-04T15:32:14.140Z">
                <Track>
                    <Trackpoint>
                        <DistanceMeters>0.0</DistanceMeters>
                        <Time>2022-03-04T15:32:14.140Z</Time>
                    </Trackpoint>
                    <Trackpoint>
                        <DistanceMeters>66.11259460449219</DistanceMeters>
                        <Time>2022-03-04T15:32:28.815Z</Time>
                    </Trackpoint>
                    <Trackpoint>
                        <DistanceMeters>66.11259460449219</DistanceMeters>
                        <Time>2022-03-04T15:33:14.300Z</Time>
                    </Trackpoint>
                    <Trackpoint>
                        <DistanceMeters>97.4547004699707</DistanceMeters>
                        <Time>2022-03-04T15:33:43.860Z</Time>
                    </Trackpoint>
                    <Trackpoint>
                        <DistanceMeters>103.52710819244385</DistanceMeters>
                        <Time>2022-03-04T15:33:49.780Z</Time>
                    </Trackpoint>
                </Track>
                <DistanceMeters>103.52710819244385</DistanceMeters>
                <TotalTimeSeconds>95.640000791</TotalTimeSeconds>
                <Calories>7.86262845993042</Calories>
                <Intensity>Active</Intensity>
                <TriggerMethod>Manual</TriggerMethod>
            </Lap>
        </Activity>
        <Activity Sport="Walking">
            <Id>2022-03-04T15:41:29.590Z</Id>
            <Lap StartTime="2022-03-04T15:41:29.590Z">
                <Track>
                    <Trackpoint>
                        <DistanceMeters>0.0</DistanceMeters>
                        <Time>2022-03-04T15:41:29.590Z</Time>
                    </Trackpoint>
                    <Trackpoint>
                        <DistanceMeters>0.0</DistanceMeters>
                        <Time>2022-03-04T15:42:28.604Z</Time>
                    </Trackpoint>
                </Track>
                <DistanceMeters>0.0</DistanceMeters>
                <TotalTimeSeconds>59.014</TotalTimeSeconds>
                <Calories>5.730915069580078</Calories>
                <Intensity>Active</Intensity>
                <TriggerMethod>Manual</TriggerMethod>
            </Lap>
        </Activity>
    </Activities>
    <Author xsi:type="Application_t">
        <Name>Google Fit</Name>
        <Build>
            <Version>
                <VersionMajor>0</VersionMajor>
                <VersionMinor>0</VersionMinor>
                <BuildMajor>0</BuildMajor>
                <BuildMinor>0</BuildMinor>
            </Version>
        </Build>
        <LangID>en</LangID>
        <PartNumber>000-00000-00</PartNumber>
    </Author>
</TrainingCenterDatabase>
