<?xml version="1.0" encoding="UTF-8"?>
<TrainingCenterDatabase
    xmlns="http://www.garmin.com/xmlschemas/TrainingCenterDatabase/v2"
    xmlns:ns2="http://www.garmin.com/xmlschemas/UserProfile/v2"
    xmlns:ns3="http://www.garmin.com/xmlschemas/ActivityExtension/v2"
    xmlns:ns4="http://www.garmin.com/xmlschemas/ProfileExtension/v1"
    xmlns:ns5="http://www.garmin.com/xmlschemas/ActivityGoals/v1"
    xmlns:xsi="http://www.w3.org/2001/XMLSchema-instance" xsi:schemaLocation="http://www.garmin.com/xmlschemas/TrainingCenterDatabase/v2 http://www.garmin.com/xmlschemas/TrainingCenterDatabasev2.xsd">
    <Activities>
        <Activity Sport="Walking">
            <Id>2022-07-22T14:09:02.907Z</Id>
            <Lap StartTime="2022-07-22T14:09:02.907Z">
                <Track>
                    <Trackpoint>
                        <DistanceMeters>0.0</DistanceMeters>
                        <Time>2022-07-22T14:09:02.907Z</Time>
                    </Trackpoint>
                    <Trackpoint>
                        <DistanceMeters>20.22641372680664</DistanceMeters>
                        <Time>2022-07-22T14:09:47.640Z</Time>
                    </Trackpoint>
                    <Trackpoint>
                        <DistanceMeters>20.22641372680664</DistanceMeters>
                        <Time>2022-07-22T14:10:04.907Z</Time>
                    </Trackpoint>
                    <Trackpoint>
                        <DistanceMeters>73.07607650756836</DistanceMeters>
                        <Time>2022-07-22T14:11:05.427Z</Time>
                    </Trackpoint>
                    <Trackpoint>
                        <DistanceMeters>101.04402542114258</DistanceMeters>
                        <Time>2022-07-22T14:11:33.947Z</Time>
                    </Trackpoint>
                    <Trackpoint>
                        <DistanceMeters>148.02150344848633</DistanceMeters>
                        <Time>2022-07-22T14:12:36.547Z</Time>
                    </Trackpoint>
                    <Trackpoint>
                        <DistanceMeters>192.38912200927734</DistanceMeters>
                        <Time>2022-07-22T14:13:37.747Z</Time>
                    </Trackpoint>
                </Track>
                <DistanceMeters>192.38912200927734</DistanceMeters>
                <TotalTimeSeconds>274.840002341</TotalTimeSeconds>
                <Calories>17.72054672241211</Calories>
                <Intensity>Active</Intensity>
                <TriggerMethod>Manual</TriggerMethod>
            </Lap>
        </Activity>
        <Activity Sport="Walking">
            <Id>2022-07-22T14:12:36.547Z</Id>
            <Lap StartTime="2022-07-22T14:12:36.547Z">
                <Track>
                    <Trackpoint>
                        <DistanceMeters>0.0</DistanceMeters>
                        <Time>2022-07-22T14:12:36.547Z</Time>
                    </Trackpoint>
                    <Trackpoint>
                        <DistanceMeters>44.367618560791016</DistanceMeters>
                        <Time>2022-07-22T14:12:40.711Z</Time>
                    </Trackpoint>
                    <Trackpoint>
                        <DistanceMeters>44.367618560791016</DistanceMeters>
                        <Time>2022-07-22T14:13:37.747Z</Time>
                    </Trackpoint>
                    <Trackpoint>
                        <DistanceMeters>58.06938362121582</DistanceMeters>
                        <Time>2022-07-22T14:13:54.387Z</Time>
                    </Trackpoint>
                    <Trackpoint>
                        <DistanceMeters>78.29579734802246</DistanceMeters>
                        <Time>2022-07-22T14:14:17.867Z</Time>
                    </Trackpoint>
                    <Trackpoint>
                        <DistanceMeters>112.22397804260254</DistanceMeters>
                        <Time>2022-07-22T14:14:58.067Z</Time>
                    </Trackpoint>
                    <Trackpoint>
                        <DistanceMeters>138.97504234313965</DistanceMeters>
                        <Time>2022-07-22T14:15:28.907Z</Time>
                    </Trackpoint>
                    <Trackpoint>
                        <DistanceMeters>148.10955238342285</DistanceMeters>
                        <Time>2022-07-22T14:15:43.187Z</Time>
                    </Trackpoint>
                    <Trackpoint>
                        <DistanceMeters>173.561918258667</DistanceMeters>
                        <Time>2022-07-22T14:16:08.627Z</Time>
                    </Trackpoint>
                    <Trackpoint>
                        <DistanceMeters>202.27037811279297</DistanceMeters>
                        <Time>2022-07-22T14:16:40.707Z</Time>
                    </Trackpoint>
                    <Trackpoint>
                        <DistanceMeters>219.234468460083</DistanceMeters>
                        <Time>2022-07-22T14:17:04.747Z</Time>
                    </Trackpoint>
                    <Trackpoint>
                        <DistanceMeters>226.5552101135254</DistanceMeters>
                        <Time>2022-07-22T14:17:12.227Z</Time>
                    </Trackpoint>
                    <Trackpoint>
                        <DistanceMeters>258.06275939941406</DistanceMeters>
                        <Time>2022-07-22T14:17:43.627Z</Time>
                    </Trackpoint>
                    <Trackpoint>
                        <DistanceMeters>280.89903450012207</DistanceMeters>
                        <Time>2022-07-22T14:18:12.907Z</Time>
                    </Trackpoint>
                    <Trackpoint>
                        <DistanceMeters>309.60749435424805</DistanceMeters>
                        <Time>2022-07-22T14:18:44.587Z</Time>
                    </Trackpoint>
                    <Trackpoint>
                        <DistanceMeters>334.4011631011963</DistanceMeters>
                        <Time>2022-07-22T14:19:13.187Z</Time>
                    </Trackpoint>
                    <Trackpoint>
                        <DistanceMeters>364.43530464172363</DistanceMeters>
                        <Time>2022-07-22T14:19:45.987Z</Time>
                    </Trackpoint>
                    <Trackpoint>
                        <DistanceMeters>385.3141841888428</DistanceMeters>
                        <Time>2022-07-22T14:20:13.747Z</Time>
                    </Trackpoint>
                    <Trackpoint>
                        <DistanceMeters>415.3275737762451</DistanceMeters>
                        <Time>2022-07-22T14:20:46.627Z</Time>
                    </Trackpoint>
                    <Trackpoint>
                        <DistanceMeters>434.9015235900879</DistanceMeters>
                        <Time>2022-07-22T14:21:14.747Z</Time>
                    </Trackpoint>
                    <Trackpoint>
                        <DistanceMeters>463.60998344421387</DistanceMeters>
                        <Time>2022-07-22T14:21:47.867Z</Time>
                    </Trackpoint>
                    <Trackpoint>
                        <DistanceMeters>496.7815532684326</DistanceMeters>
                        <Time>2022-07-22T14:22:15.707Z</Time>
                    </Trackpoint>
                    <Trackpoint>
                        <DistanceMeters>530.28542137146</DistanceMeters>
                        <Time>2022-07-22T14:22:49.147Z</Time>
                    </Trackpoint>
                    <Trackpoint>
                        <DistanceMeters>551.1643009185791</DistanceMeters>
                        <Time>2022-07-22T14:23:16.667Z</Time>
                    </Trackpoint>
                    <Trackpoint>
                        <DistanceMeters>574.653039932251</DistanceMeters>
                        <Time>2022-07-22T14:23:49.507Z</Time>
                    </Trackpoint>
                </Track>
                <DistanceMeters>574.653039932251</DistanceMeters>
                <TotalTimeSeconds>672.959998066</TotalTimeSeconds>
                <Calories>68.4773178100586</Calories>
                <Intensity>Active</Intensity>
                <TriggerMethod>Manual</TriggerMethod>
            </Lap>
        </Activity>
        <Activity Sport="Walking">
            <Id>2022-07-22T14:23:49.507Z</Id>
            <Lap StartTime="2022-07-22T14:23:49.507Z">
                <Track>
                    <Trackpoint>
                        <DistanceMeters>0.0</DistanceMeters>
                        <Time>2022-07-22T14:23:49.507Z</Time>
                    </Trackpoint>
                    <Trackpoint>
                        <DistanceMeters>0.0</DistanceMeters>
                        <Time>2022-07-22T14:25:04.487Z</Time>
                    </Trackpoint>
                    <Trackpoint>
                        <DistanceMeters>11.744369506835938</DistanceMeters>
                        <Time>2022-07-22T14:25:29.547Z</Time>
                    </Trackpoint>
                    <Trackpoint>
                        <DistanceMeters>26.75106430053711</DistanceMeters>
                        <Time>2022-07-22T14:25:51.747Z</Time>
                    </Trackpoint>
                </Track>
                <DistanceMeters>26.75106430053711</DistanceMeters>
                <TotalTimeSeconds>122.239999605</TotalTimeSeconds>
                <Calories>2.6776047348976135</Calories>
                <Intensity>Active</Intensity>
                <TriggerMethod>Manual</TriggerMethod>
            </Lap>
        </Activity>
        <Activity Sport="Walking">
            <Id>2022-07-22T14:25:29.547Z</Id>
            <Lap StartTime="2022-07-22T14:25:29.547Z">
                <Track>
                    <Trackpoint>
                        <DistanceMeters>0.0</DistanceMeters>
                        <Time>2022-07-22T14:25:29.547Z</Time>
                    </Trackpoint>
                    <Trackpoint>
                        <DistanceMeters>15.006694793701172</DistanceMeters>
                        <Time>2022-07-22T14:25:34.939Z</Time>
                    </Trackpoint>
                    <Trackpoint>
                        <DistanceMeters>15.006694793701172</DistanceMeters>
                        <Time>2022-07-22T14:25:51.747Z</Time>
                    </Trackpoint>
                    <Trackpoint>
                        <DistanceMeters>36.53804016113281</DistanceMeters>
                        <Time>2022-07-22T14:26:21.787Z</Time>
                    </Trackpoint>
                    <Trackpoint>
                        <DistanceMeters>42.41022491455078</DistanceMeters>
                        <Time>2022-07-22T14:26:29.027Z</Time>
                    </Trackpoint>
                    <Trackpoint>
                        <DistanceMeters>61.331708908081055</DistanceMeters>
                        <Time>2022-07-22T14:26:52.587Z</Time>
                    </Trackpoint>
                    <Trackpoint>
                        <DistanceMeters>76.99086856842041</DistanceMeters>
                        <Time>2022-07-22T14:27:12.227Z</Time>
                    </Trackpoint>
                    <Trackpoint>
                        <DistanceMeters>90.04016780853271</DistanceMeters>
                        <Time>2022-07-22T14:27:40.592Z</Time>
                    </Trackpoint>
                </Track>
                <DistanceMeters>90.04016780853271</DistanceMeters>
                <TotalTimeSeconds>131.044644647</TotalTimeSeconds>
                <Calories>12.865470886230469</Calories>
                <Intensity>Active</Intensity>
                <TriggerMethod>Manual</TriggerMethod>
            </Lap>
        </Activity>
    </Activities>
    <Author xsi:type="Application_t">
        <Name>Google Fit</Name>
        <Build>
            <Version>
                <VersionMajor>0</VersionMajor>
                <VersionMinor>0</VersionMinor>
                <BuildMajor>0</BuildMajor>
                <BuildMinor>0</BuildMinor>
            </Version>
        </Build>
        <LangID>en</LangID>
        <PartNumber>000-00000-00</PartNumber>
    </Author>
</TrainingCenterDatabase>
