<?xml version="1.0" encoding="UTF-8"?>
<TrainingCenterDatabase
    xmlns="http://www.garmin.com/xmlschemas/TrainingCenterDatabase/v2"
    xmlns:ns2="http://www.garmin.com/xmlschemas/UserProfile/v2"
    xmlns:ns3="http://www.garmin.com/xmlschemas/ActivityExtension/v2"
    xmlns:ns4="http://www.garmin.com/xmlschemas/ProfileExtension/v1"
    xmlns:ns5="http://www.garmin.com/xmlschemas/ActivityGoals/v1"
    xmlns:xsi="http://www.w3.org/2001/XMLSchema-instance" xsi:schemaLocation="http://www.garmin.com/xmlschemas/TrainingCenterDatabase/v2 http://www.garmin.com/xmlschemas/TrainingCenterDatabasev2.xsd">
    <Activities>
        <Activity Sport="Walking">
            <Id>2022-05-27T04:11:26.137Z</Id>
            <Lap StartTime="2022-05-27T04:11:26.137Z">
                <Track>
                    <Trackpoint>
                        <DistanceMeters>0.0</DistanceMeters>
                        <Time>2022-05-27T04:11:26.137Z</Time>
                    </Trackpoint>
                    <Trackpoint>
                        <DistanceMeters>0.0</DistanceMeters>
                        <Time>2022-05-27T04:28:25.742Z</Time>
                    </Trackpoint>
                    <Trackpoint>
                        <DistanceMeters>22.836275100708008</DistanceMeters>
                        <Time>2022-05-27T04:29:35.742Z</Time>
                    </Trackpoint>
                    <Trackpoint>
                        <DistanceMeters>48.28240966796875</DistanceMeters>
                        <Time>2022-05-27T04:30:09.502Z</Time>
                    </Trackpoint>
                </Track>
                <DistanceMeters>48.28240966796875</DistanceMeters>
                <TotalTimeSeconds>1123.365336</TotalTimeSeconds>
                <Calories>24.810957551002502</Calories>
                <Intensity>Active</Intensity>
                <TriggerMethod>Manual</TriggerMethod>
            </Lap>
        </Activity>
        <Activity Sport="Walking">
            <Id>2022-05-27T04:29:35.742Z</Id>
            <Lap StartTime="2022-05-27T04:29:35.742Z">
                <Track>
                    <Trackpoint>
                        <DistanceMeters>0.0</DistanceMeters>
                        <Time>2022-05-27T04:29:35.742Z</Time>
                    </Trackpoint>
                    <Trackpoint>
                        <DistanceMeters>25.446134567260742</DistanceMeters>
                        <Time>2022-05-27T04:29:51.955Z</Time>
                    </Trackpoint>
                    <Trackpoint>
                        <DistanceMeters>25.446134567260742</DistanceMeters>
                        <Time>2022-05-27T04:30:09.502Z</Time>
                    </Trackpoint>
                    <Trackpoint>
                        <DistanceMeters>37.19050407409668</DistanceMeters>
                        <Time>2022-05-27T04:30:49.062Z</Time>
                    </Trackpoint>
                    <Trackpoint>
                        <DistanceMeters>63.28910255432129</DistanceMeters>
                        <Time>2022-05-27T04:31:46.502Z</Time>
                    </Trackpoint>
                    <Trackpoint>
                        <DistanceMeters>87.43030738830566</DistanceMeters>
                        <Time>2022-05-27T04:33:00.502Z</Time>
                    </Trackpoint>
                    <Trackpoint>
                        <DistanceMeters>91.3450973033905</DistanceMeters>
                        <Time>2022-05-27T04:34:06.596Z</Time>
                    </Trackpoint>
                </Track>
                <DistanceMeters>91.3450973033905</DistanceMeters>
                <TotalTimeSeconds>270.853664</TotalTimeSeconds>
                <Calories>26.072406768798828</Calories>
                <Intensity>Active</Intensity>
                <TriggerMethod>Manual</TriggerMethod>
            </Lap>
        </Activity>
        <Activity Sport="Walking">
            <Id>2022-05-27T04:43:13.336Z</Id>
            <Lap StartTime="2022-05-27T04:43:13.336Z">
                <Track>
                    <Trackpoint>
                        <DistanceMeters>0.0</DistanceMeters>
                        <Time>2022-05-27T04:43:13.336Z</Time>
                    </Trackpoint>
                    <Trackpoint>
                        <DistanceMeters>0.0</DistanceMeters>
                        <Time>2022-05-27T04:44:44.334Z</Time>
                    </Trackpoint>
                </Track>
                <DistanceMeters>0.0</DistanceMeters>
                <TotalTimeSeconds>90.998</TotalTimeSeconds>
                <Calories>9.317183494567871</Calories>
                <Intensity>Active</Intensity>
                <TriggerMethod>Manual</TriggerMethod>
            </Lap>
        </Activity>
        <Activity Sport="Walking">
            <Id>2022-05-27T04:52:32.651Z</Id>
            <Lap StartTime="2022-05-27T04:52:32.651Z">
                <Track>
                    <Trackpoint>
                        <DistanceMeters>0.0</DistanceMeters>
                        <Time>2022-05-27T04:52:32.651Z</Time>
                    </Trackpoint>
                    <Trackpoint>
                        <DistanceMeters>0.0</DistanceMeters>
                        <Time>2022-05-27T04:53:02.737Z</Time>
                    </Trackpoint>
                </Track>
                <DistanceMeters>0.0</DistanceMeters>
                <TotalTimeSeconds>30.086</TotalTimeSeconds>
                <Calories>3.080471992492676</Calories>
                <Intensity>Active</Intensity>
                <TriggerMethod>Manual</TriggerMethod>
            </Lap>
        </Activity>
        <Activity Sport="Walking">
            <Id>2022-05-27T04:57:46.662Z</Id>
            <Lap StartTime="2022-05-27T04:57:46.662Z">
                <Track>
                    <Trackpoint>
                        <DistanceMeters>0.0</DistanceMeters>
                        <Time>2022-05-27T04:57:46.662Z</Time>
                    </Trackpoint>
                    <Trackpoint>
                        <DistanceMeters>24.793668746948242</DistanceMeters>
                        <Time>2022-05-27T04:58:29.370Z</Time>
                    </Trackpoint>
                    <Trackpoint>
                        <DistanceMeters>24.793668746948242</DistanceMeters>
                        <Time>2022-05-27T04:58:35.702Z</Time>
                    </Trackpoint>
                    <Trackpoint>
                        <DistanceMeters>40.4528284072876</DistanceMeters>
                        <Time>2022-05-27T04:59:27.662Z</Time>
                    </Trackpoint>
                    <Trackpoint>
                        <DistanceMeters>81.55812168121338</DistanceMeters>
                        <Time>2022-05-27T05:01:08.242Z</Time>
                    </Trackpoint>
                    <Trackpoint>
                        <DistanceMeters>95.91235160827637</DistanceMeters>
                        <Time>2022-05-27T05:04:21.982Z</Time>
                    </Trackpoint>
                    <Trackpoint>
                        <DistanceMeters>110.91904640197754</DistanceMeters>
                        <Time>2022-05-27T05:05:21.982Z</Time>
                    </Trackpoint>
                </Track>
                <DistanceMeters>110.91904640197754</DistanceMeters>
                <TotalTimeSeconds>455.319999922</TotalTimeSeconds>
                <Calories>41.91975021362305</Calories>
                <Intensity>Active</Intensity>
                <TriggerMethod>Manual</TriggerMethod>
            </Lap>
        </Activity>
        <Activity Sport="Walking">
            <Id>2022-05-27T05:12:54.439Z</Id>
            <Lap StartTime="2022-05-27T05:12:54.439Z">
                <Track>
                    <Trackpoint>
                        <DistanceMeters>0.0</DistanceMeters>
                        <Time>2022-05-27T05:12:54.439Z</Time>
                    </Trackpoint>
                    <Trackpoint>
                        <DistanceMeters>0.0</DistanceMeters>
                        <Time>2022-05-27T05:13:40.382Z</Time>
                    </Trackpoint>
                    <Trackpoint>
                        <DistanceMeters>19.573949813842773</DistanceMeters>
                        <Time>2022-05-27T05:14:40.382Z</Time>
                    </Trackpoint>
                    <Trackpoint>
                        <DistanceMeters>30.665854454040527</DistanceMeters>
                        <Time>2022-05-27T05:15:04.862Z</Time>
                    </Trackpoint>
                    <Trackpoint>
                        <DistanceMeters>68.50882244110107</DistanceMeters>
                        <Time>2022-05-27T05:15:56.982Z</Time>
                    </Trackpoint>
                    <Trackpoint>
                        <DistanceMeters>91.99756145477295</DistanceMeters>
                        <Time>2022-05-27T05:17:16.917Z</Time>
                    </Trackpoint>
                </Track>
                <DistanceMeters>91.99756145477295</DistanceMeters>
                <TotalTimeSeconds>262.478</TotalTimeSeconds>
                <Calories>26.87483024597168</Calories>
                <Intensity>Active</Intensity>
                <TriggerMethod>Manual</TriggerMethod>
            </Lap>
        </Activity>
        <Activity Sport="Walking">
            <Id>2022-05-27T05:17:16.917Z</Id>
            <Lap StartTime="2022-05-27T05:17:16.917Z">
                <Track>
                    <Trackpoint>
                        <DistanceMeters>0.0</DistanceMeters>
                        <Time>2022-05-27T05:17:16.917Z</Time>
                    </Trackpoint>
                    <Trackpoint>
                        <DistanceMeters>0.0</DistanceMeters>
                        <Time>2022-05-27T05:20:17.942Z</Time>
                    </Trackpoint>
                    <Trackpoint>
                        <DistanceMeters>28.055994033813477</DistanceMeters>
                        <Time>2022-05-27T05:21:43.942Z</Time>
                    </Trackpoint>
                    <Trackpoint>
                        <DistanceMeters>68.07567405700684</DistanceMeters>
                        <Time>2022-05-27T05:22:22.262Z</Time>
                    </Trackpoint>
                </Track>
                <DistanceMeters>68.07567405700684</DistanceMeters>
                <TotalTimeSeconds>305.345335923</TotalTimeSeconds>
                <Calories>6.131671667098999</Calories>
                <Intensity>Active</Intensity>
                <TriggerMethod>Manual</TriggerMethod>
            </Lap>
        </Activity>
        <Activity Sport="Walking">
            <Id>2022-05-27T05:21:43.942Z</Id>
            <Lap StartTime="2022-05-27T05:21:43.942Z">
                <Track>
                    <Trackpoint>
                        <DistanceMeters>0.0</DistanceMeters>
                        <Time>2022-05-27T05:21:43.942Z</Time>
                    </Trackpoint>
                    <Trackpoint>
                        <DistanceMeters>40.01968002319336</DistanceMeters>
                        <Time>2022-05-27T05:21:48.417Z</Time>
                    </Trackpoint>
                    <Trackpoint>
                        <DistanceMeters>40.01968002319336</DistanceMeters>
                        <Time>2022-05-27T05:22:22.262Z</Time>
                    </Trackpoint>
                    <Trackpoint>
                        <DistanceMeters>66.79143714904785</DistanceMeters>
                        <Time>2022-05-27T05:22:44.862Z</Time>
                    </Trackpoint>
                    <Trackpoint>
                        <DistanceMeters>95.70863914489746</DistanceMeters>
                        <Time>2022-05-27T05:23:07.322Z</Time>
                    </Trackpoint>
                    <Trackpoint>
                        <DistanceMeters>125.0695629119873</DistanceMeters>
                        <Time>2022-05-27T05:23:46.942Z</Time>
                    </Trackpoint>
                    <Trackpoint>
                        <DistanceMeters>143.8173599243164</DistanceMeters>
                        <Time>2022-05-27T05:28:09.902Z</Time>
                    </Trackpoint>
                    <Trackpoint>
                        <DistanceMeters>180.35540008544922</DistanceMeters>
                        <Time>2022-05-27T05:28:50.562Z</Time>
                    </Trackpoint>
                </Track>
                <DistanceMeters>180.35540008544922</DistanceMeters>
                <TotalTimeSeconds>426.619996871</TotalTimeSeconds>
                <Calories>39.50818634033203</Calories>
                <Intensity>Active</Intensity>
                <TriggerMethod>Manual</TriggerMethod>
            </Lap>
        </Activity>
        <Activity Sport="Walking">
            <Id>2022-05-27T05:28:09.902Z</Id>
            <Lap StartTime="2022-05-27T05:28:09.902Z">
                <Track>
                    <Trackpoint>
                        <DistanceMeters>0.0</DistanceMeters>
                        <Time>2022-05-27T05:28:09.902Z</Time>
                    </Trackpoint>
                    <Trackpoint>
                        <DistanceMeters>36.53804016113281</DistanceMeters>
                        <Time>2022-05-27T05:28:14.281Z</Time>
                    </Trackpoint>
                    <Trackpoint>
                        <DistanceMeters>36.53804016113281</DistanceMeters>
                        <Time>2022-05-27T05:28:50.562Z</Time>
                    </Trackpoint>
                </Track>
                <DistanceMeters>36.53804016113281</DistanceMeters>
                <TotalTimeSeconds>40.659998309</TotalTimeSeconds>
                <Calories>3.7148051261901855</Calories>
                <Intensity>Active</Intensity>
                <TriggerMethod>Manual</TriggerMethod>
            </Lap>
        </Activity>
        <Activity Sport="Walking">
            <Id>2022-05-27T05:28:50.562Z</Id>
            <Lap StartTime="2022-05-27T05:28:50.562Z">
                <Track>
                    <Trackpoint>
                        <DistanceMeters>0.0</DistanceMeters>
                        <Time>2022-05-27T05:28:50.562Z</Time>
                    </Trackpoint>
                    <Trackpoint>
                        <DistanceMeters>0.0</DistanceMeters>
                        <Time>2022-05-27T05:30:12.662Z</Time>
                    </Trackpoint>
                    <Trackpoint>
                        <DistanceMeters>28.708459854125977</DistanceMeters>
                        <Time>2022-05-27T05:31:40.662Z</Time>
                    </Trackpoint>
                    <Trackpoint>
                        <DistanceMeters>45.67686653137207</DistanceMeters>
                        <Time>2022-05-27T05:31:54.822Z</Time>
                    </Trackpoint>
                </Track>
                <DistanceMeters>45.67686653137207</DistanceMeters>
                <TotalTimeSeconds>184.26000128</TotalTimeSeconds>
                <Calories>4.192288398742676</Calories>
                <Intensity>Active</Intensity>
                <TriggerMethod>Manual</TriggerMethod>
            </Lap>
        </Activity>
        <Activity Sport="Walking">
            <Id>2022-05-27T05:31:40.662Z</Id>
            <Lap StartTime="2022-05-27T05:31:40.662Z">
                <Track>
                    <Trackpoint>
                        <DistanceMeters>0.0</DistanceMeters>
                        <Time>2022-05-27T05:31:40.662Z</Time>
                    </Trackpoint>
                    <Trackpoint>
                        <DistanceMeters>16.968406677246094</DistanceMeters>
                        <Time>2022-05-27T05:31:46.309Z</Time>
                    </Trackpoint>
                    <Trackpoint>
                        <DistanceMeters>16.968406677246094</DistanceMeters>
                        <Time>2022-05-27T05:32:18.463Z</Time>
                    </Trackpoint>
                </Track>
                <DistanceMeters>16.968406677246094</DistanceMeters>
                <TotalTimeSeconds>37.800665926</TotalTimeSeconds>
                <Calories>3.2922120094299316</Calories>
                <Intensity>Active</Intensity>
                <TriggerMethod>Manual</TriggerMethod>
            </Lap>
        </Activity>
    </Activities>
    <Author xsi:type="Application_t">
        <Name>Google Fit</Name>
        <Build>
            <Version>
                <VersionMajor>0</VersionMajor>
                <VersionMinor>0</VersionMinor>
                <BuildMajor>0</BuildMajor>
                <BuildMinor>0</BuildMinor>
            </Version>
        </Build>
        <LangID>en</LangID>
        <PartNumber>000-00000-00</PartNumber>
    </Author>
</TrainingCenterDatabase>
