<?xml version="1.0" encoding="UTF-8"?>
<TrainingCenterDatabase
    xmlns="http://www.garmin.com/xmlschemas/TrainingCenterDatabase/v2"
    xmlns:ns2="http://www.garmin.com/xmlschemas/UserProfile/v2"
    xmlns:ns3="http://www.garmin.com/xmlschemas/ActivityExtension/v2"
    xmlns:ns4="http://www.garmin.com/xmlschemas/ProfileExtension/v1"
    xmlns:ns5="http://www.garmin.com/xmlschemas/ActivityGoals/v1"
    xmlns:xsi="http://www.w3.org/2001/XMLSchema-instance" xsi:schemaLocation="http://www.garmin.com/xmlschemas/TrainingCenterDatabase/v2 http://www.garmin.com/xmlschemas/TrainingCenterDatabasev2.xsd">
    <Activities>
        <Activity Sport="Walking">
            <Id>2022-09-06T16:25:13.352Z</Id>
            <Lap StartTime="2022-09-06T16:25:13.352Z">
                <Track>
                    <Trackpoint>
                        <DistanceMeters>0.0</DistanceMeters>
                        <Time>2022-09-06T16:25:13.352Z</Time>
                    </Trackpoint>
                    <Trackpoint>
                        <DistanceMeters>1.44854736328125</DistanceMeters>
                        <Time>2022-09-06T16:25:17.792Z</Time>
                    </Trackpoint>
                    <Trackpoint>
                        <DistanceMeters>27.649065017700195</DistanceMeters>
                        <Time>2022-09-06T16:25:37.712Z</Time>
                    </Trackpoint>
                    <Trackpoint>
                        <DistanceMeters>41.52173137664795</DistanceMeters>
                        <Time>2022-09-06T16:25:48.152Z</Time>
                    </Trackpoint>
                    <Trackpoint>
                        <DistanceMeters>80.37474727630615</DistanceMeters>
                        <Time>2022-09-06T16:26:18.792Z</Time>
                    </Trackpoint>
                    <Trackpoint>
                        <DistanceMeters>98.6655855178833</DistanceMeters>
                        <Time>2022-09-06T16:26:38.732Z</Time>
                    </Trackpoint>
                    <Trackpoint>
                        <DistanceMeters>107.14763069152832</DistanceMeters>
                        <Time>2022-09-06T16:26:49.112Z</Time>
                    </Trackpoint>
                    <Trackpoint>
                        <DistanceMeters>146.04673194885254</DistanceMeters>
                        <Time>2022-09-06T16:27:19.672Z</Time>
                    </Trackpoint>
                    <Trackpoint>
                        <DistanceMeters>179.46099662780762</DistanceMeters>
                        <Time>2022-09-06T16:27:45.232Z</Time>
                    </Trackpoint>
                    <Trackpoint>
                        <DistanceMeters>185.7567195892334</DistanceMeters>
                        <Time>2022-09-06T16:27:50.672Z</Time>
                    </Trackpoint>
                    <Trackpoint>
                        <DistanceMeters>223.9783535003662</DistanceMeters>
                        <Time>2022-09-06T16:28:20.592Z</Time>
                    </Trackpoint>
                    <Trackpoint>
                        <DistanceMeters>256.5972537994385</DistanceMeters>
                        <Time>2022-09-06T16:28:45.712Z</Time>
                    </Trackpoint>
                    <Trackpoint>
                        <DistanceMeters>263.9325294494629</DistanceMeters>
                        <Time>2022-09-06T16:28:51.152Z</Time>
                    </Trackpoint>
                    <Trackpoint>
                        <DistanceMeters>303.93294525146484</DistanceMeters>
                        <Time>2022-09-06T16:29:21.632Z</Time>
                    </Trackpoint>
                    <Trackpoint>
                        <DistanceMeters>341.2926597595215</DistanceMeters>
                        <Time>2022-09-06T16:29:51.232Z</Time>
                    </Trackpoint>
                    <Trackpoint>
                        <DistanceMeters>385.1889877319336</DistanceMeters>
                        <Time>2022-09-06T16:30:25.832Z</Time>
                    </Trackpoint>
                    <Trackpoint>
                        <DistanceMeters>470.36434173583984</DistanceMeters>
                        <Time>2022-09-06T16:31:32.312Z</Time>
                    </Trackpoint>
                    <Trackpoint>
                        <DistanceMeters>535.5848541259766</DistanceMeters>
                        <Time>2022-09-06T16:32:24.392Z</Time>
                    </Trackpoint>
                    <Trackpoint>
                        <DistanceMeters>564.537353515625</DistanceMeters>
                        <Time>2022-09-06T16:32:46.792Z</Time>
                    </Trackpoint>
                    <Trackpoint>
                        <DistanceMeters>594.7742614746094</DistanceMeters>
                        <Time>2022-09-06T16:33:10.592Z</Time>
                    </Trackpoint>
                    <Trackpoint>
                        <DistanceMeters>631.953254699707</DistanceMeters>
                        <Time>2022-09-06T16:33:40.512Z</Time>
                    </Trackpoint>
                    <Trackpoint>
                        <DistanceMeters>641.927167892456</DistanceMeters>
                        <Time>2022-09-06T16:33:48.632Z</Time>
                    </Trackpoint>
                    <Trackpoint>
                        <DistanceMeters>685.5811252593994</DistanceMeters>
                        <Time>2022-09-06T16:35:21.512Z</Time>
                    </Trackpoint>
                    <Trackpoint>
                        <DistanceMeters>727.9913501739502</DistanceMeters>
                        <Time>2022-09-06T16:36:18.752Z</Time>
                    </Trackpoint>
                    <Trackpoint>
                        <DistanceMeters>731.2536749839783</DistanceMeters>
                        <Time>2022-09-06T16:39:00.752Z</Time>
                    </Trackpoint>
                    <Trackpoint>
                        <DistanceMeters>793.121663570404</DistanceMeters>
                        <Time>2022-09-06T16:39:57.392Z</Time>
                    </Trackpoint>
                    <Trackpoint>
                        <DistanceMeters>815.0232729911804</DistanceMeters>
                        <Time>2022-09-06T16:40:15.712Z</Time>
                    </Trackpoint>
                    <Trackpoint>
                        <DistanceMeters>880.1550936698914</DistanceMeters>
                        <Time>2022-09-06T16:41:15.872Z</Time>
                    </Trackpoint>
                    <Trackpoint>
                        <DistanceMeters>887.4441719055176</DistanceMeters>
                        <Time>2022-09-06T16:41:23.432Z</Time>
                    </Trackpoint>
                    <Trackpoint>
                        <DistanceMeters>949.9943885803223</DistanceMeters>
                        <Time>2022-09-06T16:42:25.072Z</Time>
                    </Trackpoint>
                    <Trackpoint>
                        <DistanceMeters>971.2808723449707</DistanceMeters>
                        <Time>2022-09-06T16:42:44.632Z</Time>
                    </Trackpoint>
                    <Trackpoint>
                        <DistanceMeters>983.8161582946777</DistanceMeters>
                        <Time>2022-09-06T16:42:57.832Z</Time>
                    </Trackpoint>
                    <Trackpoint>
                        <DistanceMeters>1012.1313037872314</DistanceMeters>
                        <Time>2022-09-06T16:43:25.512Z</Time>
                    </Trackpoint>
                    <Trackpoint>
                        <DistanceMeters>1030.1325416564941</DistanceMeters>
                        <Time>2022-09-06T16:43:43.792Z</Time>
                    </Trackpoint>
                    <Trackpoint>
                        <DistanceMeters>1098.0682563781738</DistanceMeters>
                        <Time>2022-09-06T16:44:46.352Z</Time>
                    </Trackpoint>
                    <Trackpoint>
                        <DistanceMeters>1110.408441543579</DistanceMeters>
                        <Time>2022-09-06T16:44:57.752Z</Time>
                    </Trackpoint>
                    <Trackpoint>
                        <DistanceMeters>1138.4391384124756</DistanceMeters>
                        <Time>2022-09-06T16:45:21.832Z</Time>
                    </Trackpoint>
                    <Trackpoint>
                        <DistanceMeters>1157.1286373138428</DistanceMeters>
                        <Time>2022-09-06T16:45:38.552Z</Time>
                    </Trackpoint>
                    <Trackpoint>
                        <DistanceMeters>1186.811029434204</DistanceMeters>
                        <Time>2022-09-06T16:46:05.352Z</Time>
                    </Trackpoint>
                    <Trackpoint>
                        <DistanceMeters>1198.4320583343506</DistanceMeters>
                        <Time>2022-09-06T16:46:16.192Z</Time>
                    </Trackpoint>
                    <Trackpoint>
                        <DistanceMeters>1236.780813217163</DistanceMeters>
                        <Time>2022-09-06T16:46:51.752Z</Time>
                    </Trackpoint>
                    <Trackpoint>
                        <DistanceMeters>1269.9894542694092</DistanceMeters>
                        <Time>2022-09-06T16:47:21.512Z</Time>
                    </Trackpoint>
                    <Trackpoint>
                        <DistanceMeters>1283.1058158874512</DistanceMeters>
                        <Time>2022-09-06T16:47:33.352Z</Time>
                    </Trackpoint>
                    <Trackpoint>
                        <DistanceMeters>1311.6289863586426</DistanceMeters>
                        <Time>2022-09-06T16:48:00.552Z</Time>
                    </Trackpoint>
                    <Trackpoint>
                        <DistanceMeters>1332.7378196716309</DistanceMeters>
                        <Time>2022-09-06T16:48:22.792Z</Time>
                    </Trackpoint>
                    <Trackpoint>
                        <DistanceMeters>1363.185941696167</DistanceMeters>
                        <Time>2022-09-06T16:48:52.192Z</Time>
                    </Trackpoint>
                    <Trackpoint>
                        <DistanceMeters>1424.5581607818604</DistanceMeters>
                        <Time>2022-09-06T16:49:52.112Z</Time>
                    </Trackpoint>
                    <Trackpoint>
                        <DistanceMeters>1455.8467292785645</DistanceMeters>
                        <Time>2022-09-06T16:50:21.792Z</Time>
                    </Trackpoint>
                    <Trackpoint>
                        <DistanceMeters>1461.7189140319824</DistanceMeters>
                        <Time>2022-09-06T16:51:17.669Z</Time>
                    </Trackpoint>
                </Track>
                <DistanceMeters>1461.7189140319824</DistanceMeters>
                <TotalTimeSeconds>1564.317</TotalTimeSeconds>
                <Calories>160.16867065429688</Calories>
                <Intensity>Active</Intensity>
                <TriggerMethod>Manual</TriggerMethod>
            </Lap>
        </Activity>
    </Activities>
    <Author xsi:type="Application_t">
        <Name>Google Fit</Name>
        <Build>
            <Version>
                <VersionMajor>0</VersionMajor>
                <VersionMinor>0</VersionMinor>
                <BuildMajor>0</BuildMajor>
                <BuildMinor>0</BuildMinor>
            </Version>
        </Build>
        <LangID>en</LangID>
        <PartNumber>000-00000-00</PartNumber>
    </Author>
</TrainingCenterDatabase>
