<?xml version="1.0" encoding="UTF-8"?>
<TrainingCenterDatabase
    xmlns="http://www.garmin.com/xmlschemas/TrainingCenterDatabase/v2"
    xmlns:ns2="http://www.garmin.com/xmlschemas/UserProfile/v2"
    xmlns:ns3="http://www.garmin.com/xmlschemas/ActivityExtension/v2"
    xmlns:ns4="http://www.garmin.com/xmlschemas/ProfileExtension/v1"
    xmlns:ns5="http://www.garmin.com/xmlschemas/ActivityGoals/v1"
    xmlns:xsi="http://www.w3.org/2001/XMLSchema-instance" xsi:schemaLocation="http://www.garmin.com/xmlschemas/TrainingCenterDatabase/v2 http://www.garmin.com/xmlschemas/TrainingCenterDatabasev2.xsd">
    <Activities>
        <Activity Sport="Walking">
            <Id>2022-05-10T16:08:13.301Z</Id>
            <Lap StartTime="2022-05-10T16:08:13.301Z">
                <Track>
                    <Trackpoint>
                        <DistanceMeters>0.0</DistanceMeters>
                        <Time>2022-05-10T16:08:13.301Z</Time>
                    </Trackpoint>
                    <Trackpoint>
                        <DistanceMeters>0.0</DistanceMeters>
                        <Time>2022-05-10T16:42:26.760Z</Time>
                    </Trackpoint>
                    <Trackpoint>
                        <DistanceMeters>19.573949813842773</DistanceMeters>
                        <Time>2022-05-10T16:43:26.760Z</Time>
                    </Trackpoint>
                    <Trackpoint>
                        <DistanceMeters>75.03347206115723</DistanceMeters>
                        <Time>2022-05-10T16:44:44.760Z</Time>
                    </Trackpoint>
                    <Trackpoint>
                        <DistanceMeters>135.0107250213623</DistanceMeters>
                        <Time>2022-05-10T16:45:45.760Z</Time>
                    </Trackpoint>
                </Track>
                <DistanceMeters>135.0107250213623</DistanceMeters>
                <TotalTimeSeconds>2252.45902397</TotalTimeSeconds>
                <Calories>57.34544277191162</Calories>
                <Intensity>Active</Intensity>
                <TriggerMethod>Manual</TriggerMethod>
            </Lap>
        </Activity>
        <Activity Sport="Walking">
            <Id>2022-05-10T16:44:44.760Z</Id>
            <Lap StartTime="2022-05-10T16:44:44.760Z">
                <Track>
                    <Trackpoint>
                        <DistanceMeters>0.0</DistanceMeters>
                        <Time>2022-05-10T16:44:44.760Z</Time>
                    </Trackpoint>
                    <Trackpoint>
                        <DistanceMeters>59.97725296020508</DistanceMeters>
                        <Time>2022-05-10T16:45:28.263Z</Time>
                    </Trackpoint>
                    <Trackpoint>
                        <DistanceMeters>59.97725296020508</DistanceMeters>
                        <Time>2022-05-10T16:45:45.760Z</Time>
                    </Trackpoint>
                    <Trackpoint>
                        <DistanceMeters>111.52198791503906</DistanceMeters>
                        <Time>2022-05-10T16:46:45.760Z</Time>
                    </Trackpoint>
                    <Trackpoint>
                        <DistanceMeters>168.81438827514648</DistanceMeters>
                        <Time>2022-05-10T16:47:46.480Z</Time>
                    </Trackpoint>
                    <Trackpoint>
                        <DistanceMeters>222.9689826965332</DistanceMeters>
                        <Time>2022-05-10T16:48:48.840Z</Time>
                    </Trackpoint>
                    <Trackpoint>
                        <DistanceMeters>252.98237228393555</DistanceMeters>
                        <Time>2022-05-10T16:49:49.880Z</Time>
                    </Trackpoint>
                    <Trackpoint>
                        <DistanceMeters>290.17287826538086</DistanceMeters>
                        <Time>2022-05-10T16:50:50.840Z</Time>
                    </Trackpoint>
                    <Trackpoint>
                        <DistanceMeters>327.3633842468262</DistanceMeters>
                        <Time>2022-05-10T16:51:42.720Z</Time>
                    </Trackpoint>
                </Track>
                <DistanceMeters>327.3633842468262</DistanceMeters>
                <TotalTimeSeconds>417.959999622</TotalTimeSeconds>
                <Calories>37.18928146362305</Calories>
                <Intensity>Active</Intensity>
                <TriggerMethod>Manual</TriggerMethod>
            </Lap>
        </Activity>
        <Activity Sport="Walking">
            <Id>2022-05-10T16:50:50.840Z</Id>
            <Lap StartTime="2022-05-10T16:50:50.840Z">
                <Track>
                    <Trackpoint>
                        <DistanceMeters>0.0</DistanceMeters>
                        <Time>2022-05-10T16:50:50.840Z</Time>
                    </Trackpoint>
                    <Trackpoint>
                        <DistanceMeters>37.19050598144531</DistanceMeters>
                        <Time>2022-05-10T16:51:31.479Z</Time>
                    </Trackpoint>
                    <Trackpoint>
                        <DistanceMeters>37.19050598144531</DistanceMeters>
                        <Time>2022-05-10T16:51:42.720Z</Time>
                    </Trackpoint>
                    <Trackpoint>
                        <DistanceMeters>84.82044982910156</DistanceMeters>
                        <Time>2022-05-10T16:52:52.760Z</Time>
                    </Trackpoint>
                    <Trackpoint>
                        <DistanceMeters>129.84053421020508</DistanceMeters>
                        <Time>2022-05-10T16:53:53.680Z</Time>
                    </Trackpoint>
                    <Trackpoint>
                        <DistanceMeters>172.25075912475586</DistanceMeters>
                        <Time>2022-05-10T16:54:55.040Z</Time>
                    </Trackpoint>
                    <Trackpoint>
                        <DistanceMeters>217.27084350585938</DistanceMeters>
                        <Time>2022-05-10T16:55:54.400Z</Time>
                    </Trackpoint>
                    <Trackpoint>
                        <DistanceMeters>262.9433937072754</DistanceMeters>
                        <Time>2022-05-10T16:56:56.840Z</Time>
                    </Trackpoint>
                    <Trackpoint>
                        <DistanceMeters>284.47473907470703</DistanceMeters>
                        <Time>2022-05-10T16:57:26.800Z</Time>
                    </Trackpoint>
                </Track>
                <DistanceMeters>284.47473907470703</DistanceMeters>
                <TotalTimeSeconds>395.959999748</TotalTimeSeconds>
                <Calories>36.380924224853516</Calories>
                <Intensity>Active</Intensity>
                <TriggerMethod>Manual</TriggerMethod>
            </Lap>
        </Activity>
        <Activity Sport="Walking">
            <Id>2022-05-10T16:57:26.800Z</Id>
            <Lap StartTime="2022-05-10T16:57:26.800Z">
                <Track>
                    <Trackpoint>
                        <DistanceMeters>0.0</DistanceMeters>
                        <Time>2022-05-10T16:57:26.800Z</Time>
                    </Trackpoint>
                    <Trackpoint>
                        <DistanceMeters>0.0</DistanceMeters>
                        <Time>2022-05-10T16:58:13.920Z</Time>
                    </Trackpoint>
                    <Trackpoint>
                        <DistanceMeters>48.28240966796875</DistanceMeters>
                        <Time>2022-05-10T17:00:27.720Z</Time>
                    </Trackpoint>
                    <Trackpoint>
                        <DistanceMeters>88.73523712158203</DistanceMeters>
                        <Time>2022-05-10T17:01:26.880Z</Time>
                    </Trackpoint>
                    <Trackpoint>
                        <DistanceMeters>120.05355644226074</DistanceMeters>
                        <Time>2022-05-10T17:02:09.080Z</Time>
                    </Trackpoint>
                    <Trackpoint>
                        <DistanceMeters>146.15215492248535</DistanceMeters>
                        <Time>2022-05-10T17:02:37.720Z</Time>
                    </Trackpoint>
                </Track>
                <DistanceMeters>146.15215492248535</DistanceMeters>
                <TotalTimeSeconds>310.920000153</TotalTimeSeconds>
                <Calories>15.755843877792358</Calories>
                <Intensity>Active</Intensity>
                <TriggerMethod>Manual</TriggerMethod>
            </Lap>
        </Activity>
        <Activity Sport="Walking">
            <Id>2022-05-10T17:02:09.080Z</Id>
            <Lap StartTime="2022-05-10T17:02:09.080Z">
                <Track>
                    <Trackpoint>
                        <DistanceMeters>0.0</DistanceMeters>
                        <Time>2022-05-10T17:02:09.080Z</Time>
                    </Trackpoint>
                    <Trackpoint>
                        <DistanceMeters>26.09859848022461</DistanceMeters>
                        <Time>2022-05-10T17:02:24.059Z</Time>
                    </Trackpoint>
                    <Trackpoint>
                        <DistanceMeters>26.09859848022461</DistanceMeters>
                        <Time>2022-05-10T17:02:37.720Z</Time>
                    </Trackpoint>
                    <Trackpoint>
                        <DistanceMeters>46.97747802734375</DistanceMeters>
                        <Time>2022-05-10T17:03:08.960Z</Time>
                    </Trackpoint>
                    <Trackpoint>
                        <DistanceMeters>49.58733797073364</DistanceMeters>
                        <Time>2022-05-10T17:03:11.920Z</Time>
                    </Trackpoint>
                    <Trackpoint>
                        <DistanceMeters>83.6409764289856</DistanceMeters>
                        <Time>2022-05-10T17:03:48.720Z</Time>
                    </Trackpoint>
                    <Trackpoint>
                        <DistanceMeters>107.1973443031311</DistanceMeters>
                        <Time>2022-05-10T17:04:11.880Z</Time>
                    </Trackpoint>
                    <Trackpoint>
                        <DistanceMeters>142.70075845718384</DistanceMeters>
                        <Time>2022-05-10T17:04:49.720Z</Time>
                    </Trackpoint>
                    <Trackpoint>
                        <DistanceMeters>161.6222424507141</DistanceMeters>
                        <Time>2022-05-10T17:05:12.840Z</Time>
                    </Trackpoint>
                    <Trackpoint>
                        <DistanceMeters>194.8979573249817</DistanceMeters>
                        <Time>2022-05-10T17:05:50.080Z</Time>
                    </Trackpoint>
                    <Trackpoint>
                        <DistanceMeters>215.13266801834106</DistanceMeters>
                        <Time>2022-05-10T17:06:12.200Z</Time>
                    </Trackpoint>
                    <Trackpoint>
                        <DistanceMeters>250.74234819412231</DistanceMeters>
                        <Time>2022-05-10T17:06:49.760Z</Time>
                    </Trackpoint>
                    <Trackpoint>
                        <DistanceMeters>272.9261574745178</DistanceMeters>
                        <Time>2022-05-10T17:08:48.000Z</Time>
                    </Trackpoint>
                    <Trackpoint>
                        <DistanceMeters>290.54271173477173</DistanceMeters>
                        <Time>2022-05-10T17:09:27.672Z</Time>
                    </Trackpoint>
                </Track>
                <DistanceMeters>290.54271173477173</DistanceMeters>
                <TotalTimeSeconds>438.591975475</TotalTimeSeconds>
                <Calories>43.37326431274414</Calories>
                <Intensity>Active</Intensity>
                <TriggerMethod>Manual</TriggerMethod>
            </Lap>
        </Activity>
    </Activities>
    <Author xsi:type="Application_t">
        <Name>Google Fit</Name>
        <Build>
            <Version>
                <VersionMajor>0</VersionMajor>
                <VersionMinor>0</VersionMinor>
                <BuildMajor>0</BuildMajor>
                <BuildMinor>0</BuildMinor>
            </Version>
        </Build>
        <LangID>en</LangID>
        <PartNumber>000-00000-00</PartNumber>
    </Author>
</TrainingCenterDatabase>
