<?xml version="1.0" encoding="UTF-8"?>
<TrainingCenterDatabase
    xmlns="http://www.garmin.com/xmlschemas/TrainingCenterDatabase/v2"
    xmlns:ns2="http://www.garmin.com/xmlschemas/UserProfile/v2"
    xmlns:ns3="http://www.garmin.com/xmlschemas/ActivityExtension/v2"
    xmlns:ns4="http://www.garmin.com/xmlschemas/ProfileExtension/v1"
    xmlns:ns5="http://www.garmin.com/xmlschemas/ActivityGoals/v1"
    xmlns:xsi="http://www.w3.org/2001/XMLSchema-instance" xsi:schemaLocation="http://www.garmin.com/xmlschemas/TrainingCenterDatabase/v2 http://www.garmin.com/xmlschemas/TrainingCenterDatabasev2.xsd">
    <Activities>
        <Activity Sport="Walking">
            <Id>2022-12-26T05:37:30.687Z</Id>
            <Lap StartTime="2022-12-26T05:37:30.687Z">
                <Track>
                    <Trackpoint>
                        <DistanceMeters>0.0</DistanceMeters>
                        <Time>2022-12-26T05:37:30.687Z</Time>
                    </Trackpoint>
                    <Trackpoint>
                        <DistanceMeters>0.0</DistanceMeters>
                        <Time>2022-12-26T07:12:10.087Z</Time>
                    </Trackpoint>
                    <Trackpoint>
                        <DistanceMeters>20.878879954357146</DistanceMeters>
                        <Time>2022-12-26T07:13:14.087Z</Time>
                    </Trackpoint>
                    <Trackpoint>
                        <DistanceMeters>76.99086983169198</DistanceMeters>
                        <Time>2022-12-26T07:14:26.967Z</Time>
                    </Trackpoint>
                    <Trackpoint>
                        <DistanceMeters>138.09293027828278</DistanceMeters>
                        <Time>2022-12-26T07:15:27.527Z</Time>
                    </Trackpoint>
                </Track>
                <DistanceMeters>138.09293027828278</DistanceMeters>
                <TotalTimeSeconds>5876.839997278</TotalTimeSeconds>
                <Calories>133.63543498147882</Calories>
                <Intensity>Active</Intensity>
                <TriggerMethod>Manual</TriggerMethod>
            </Lap>
        </Activity>
        <Activity Sport="Walking">
            <Id>2022-12-26T07:14:26.967Z</Id>
            <Lap StartTime="2022-12-26T07:14:26.967Z">
                <Track>
                    <Trackpoint>
                        <DistanceMeters>0.0</DistanceMeters>
                        <Time>2022-12-26T07:14:26.967Z</Time>
                    </Trackpoint>
                    <Trackpoint>
                        <DistanceMeters>61.102060446590784</DistanceMeters>
                        <Time>2022-12-26T07:15:07.428Z</Time>
                    </Trackpoint>
                    <Trackpoint>
                        <DistanceMeters>61.102060446590784</DistanceMeters>
                        <Time>2022-12-26T07:15:27.527Z</Time>
                    </Trackpoint>
                    <Trackpoint>
                        <DistanceMeters>71.54150042376935</DistanceMeters>
                        <Time>2022-12-26T07:15:54.447Z</Time>
                    </Trackpoint>
                    <Trackpoint>
                        <DistanceMeters>100.24996036101042</DistanceMeters>
                        <Time>2022-12-26T07:16:54.367Z</Time>
                    </Trackpoint>
                    <Trackpoint>
                        <DistanceMeters>107.45532099633179</DistanceMeters>
                        <Time>2022-12-26T07:19:14.987Z</Time>
                    </Trackpoint>
                    <Trackpoint>
                        <DistanceMeters>130.9440609449836</DistanceMeters>
                        <Time>2022-12-26T07:20:26.987Z</Time>
                    </Trackpoint>
                    <Trackpoint>
                        <DistanceMeters>139.21758077380858</DistanceMeters>
                        <Time>2022-12-26T07:20:34.487Z</Time>
                    </Trackpoint>
                    <Trackpoint>
                        <DistanceMeters>160.74892572673937</DistanceMeters>
                        <Time>2022-12-26T07:21:53.007Z</Time>
                    </Trackpoint>
                    <Trackpoint>
                        <DistanceMeters>182.28027067967017</DistanceMeters>
                        <Time>2022-12-26T07:22:59.007Z</Time>
                    </Trackpoint>
                    <Trackpoint>
                        <DistanceMeters>205.76901062832195</DistanceMeters>
                        <Time>2022-12-26T07:23:30.967Z</Time>
                    </Trackpoint>
                    <Trackpoint>
                        <DistanceMeters>224.69049558695812</DistanceMeters>
                        <Time>2022-12-26T07:23:59.767Z</Time>
                    </Trackpoint>
                    <Trackpoint>
                        <DistanceMeters>225.34296058553178</DistanceMeters>
                        <Time>2022-12-26T07:24:59.927Z</Time>
                    </Trackpoint>
                    <Trackpoint>
                        <DistanceMeters>259.27114051136215</DistanceMeters>
                        <Time>2022-12-26T07:25:40.207Z</Time>
                    </Trackpoint>
                    <Trackpoint>
                        <DistanceMeters>280.8316253770247</DistanceMeters>
                        <Time>2022-12-26T07:26:01.327Z</Time>
                    </Trackpoint>
                    <Trackpoint>
                        <DistanceMeters>310.19255031283944</DistanceMeters>
                        <Time>2022-12-26T07:26:41.207Z</Time>
                    </Trackpoint>
                    <Trackpoint>
                        <DistanceMeters>325.8517102786073</DistanceMeters>
                        <Time>2022-12-26T07:27:01.567Z</Time>
                    </Trackpoint>
                    <Trackpoint>
                        <DistanceMeters>337.3057182383531</DistanceMeters>
                        <Time>2022-12-26T07:27:12.787Z</Time>
                    </Trackpoint>
                    <Trackpoint>
                        <DistanceMeters>375.8011531541991</DistanceMeters>
                        <Time>2022-12-26T07:29:01.087Z</Time>
                    </Trackpoint>
                    <Trackpoint>
                        <DistanceMeters>377.75854814992005</DistanceMeters>
                        <Time>2022-12-26T07:30:14.207Z</Time>
                    </Trackpoint>
                    <Trackpoint>
                        <DistanceMeters>407.1194730857348</DistanceMeters>
                        <Time>2022-12-26T07:31:44.207Z</Time>
                    </Trackpoint>
                    <Trackpoint>
                        <DistanceMeters>423.43109805007634</DistanceMeters>
                        <Time>2022-12-26T07:32:29.967Z</Time>
                    </Trackpoint>
                    <Trackpoint>
                        <DistanceMeters>441.70011801013885</DistanceMeters>
                        <Time>2022-12-26T07:32:54.167Z</Time>
                    </Trackpoint>
                    <Trackpoint>
                        <DistanceMeters>474.9758329373956</DistanceMeters>
                        <Time>2022-12-26T07:33:37.287Z</Time>
                    </Trackpoint>
                    <Trackpoint>
                        <DistanceMeters>476.93322793311654</DistanceMeters>
                        <Time>2022-12-26T07:34:30.767Z</Time>
                    </Trackpoint>
                    <Trackpoint>
                        <DistanceMeters>484.1103429174268</DistanceMeters>
                        <Time>2022-12-26T07:36:13.667Z</Time>
                    </Trackpoint>
                    <Trackpoint>
                        <DistanceMeters>502.3793628774893</DistanceMeters>
                        <Time>2022-12-26T07:38:25.857Z</Time>
                    </Trackpoint>
                </Track>
                <DistanceMeters>502.3793628774893</DistanceMeters>
                <TotalTimeSeconds>1438.889461162</TotalTimeSeconds>
                <Calories>143.1835915</Calories>
                <Intensity>Active</Intensity>
                <TriggerMethod>Manual</TriggerMethod>
            </Lap>
        </Activity>
        <Activity Sport="Walking">
            <Id>2022-12-26T07:42:28.859Z</Id>
            <Lap StartTime="2022-12-26T07:42:28.859Z">
                <Track>
                    <Trackpoint>
                        <DistanceMeters>0.0</DistanceMeters>
                        <Time>2022-12-26T07:42:28.859Z</Time>
                    </Trackpoint>
                    <Trackpoint>
                        <DistanceMeters>5.829297389742908</DistanceMeters>
                        <Time>2022-12-26T07:42:46.727Z</Time>
                    </Trackpoint>
                    <Trackpoint>
                        <DistanceMeters>27.360642342673714</DistanceMeters>
                        <Time>2022-12-26T07:43:34.287Z</Time>
                    </Trackpoint>
                    <Trackpoint>
                        <DistanceMeters>74.99058723855094</DistanceMeters>
                        <Time>2022-12-26T07:45:25.767Z</Time>
                    </Trackpoint>
                    <Trackpoint>
                        <DistanceMeters>85.43002721572952</DistanceMeters>
                        <Time>2022-12-26T07:47:11.927Z</Time>
                    </Trackpoint>
                    <Trackpoint>
                        <DistanceMeters>89.34481720717149</DistanceMeters>
                        <Time>2022-12-26T07:49:30.187Z</Time>
                    </Trackpoint>
                    <Trackpoint>
                        <DistanceMeters>117.4008121458389</DistanceMeters>
                        <Time>2022-12-26T07:50:56.187Z</Time>
                    </Trackpoint>
                    <Trackpoint>
                        <DistanceMeters>193.08675198038355</DistanceMeters>
                        <Time>2022-12-26T07:53:25.727Z</Time>
                    </Trackpoint>
                </Track>
                <DistanceMeters>193.08675198038355</DistanceMeters>
                <TotalTimeSeconds>656.868538318</TotalTimeSeconds>
                <Calories>57.8508485</Calories>
                <Intensity>Active</Intensity>
                <TriggerMethod>Manual</TriggerMethod>
            </Lap>
        </Activity>
        <Activity Sport="Walking">
            <Id>2022-12-26T07:50:56.187Z</Id>
            <Lap StartTime="2022-12-26T07:50:56.187Z">
                <Track>
                    <Trackpoint>
                        <DistanceMeters>0.0</DistanceMeters>
                        <Time>2022-12-26T07:50:56.187Z</Time>
                    </Trackpoint>
                    <Trackpoint>
                        <DistanceMeters>75.68593983454466</DistanceMeters>
                        <Time>2022-12-26T07:52:55.731Z</Time>
                    </Trackpoint>
                    <Trackpoint>
                        <DistanceMeters>75.68593983454466</DistanceMeters>
                        <Time>2022-12-26T07:53:25.727Z</Time>
                    </Trackpoint>
                    <Trackpoint>
                        <DistanceMeters>99.2236199862018</DistanceMeters>
                        <Time>2022-12-26T07:53:51.307Z</Time>
                    </Trackpoint>
                    <Trackpoint>
                        <DistanceMeters>117.49263994626429</DistanceMeters>
                        <Time>2022-12-26T07:54:56.966Z</Time>
                    </Trackpoint>
                </Track>
                <DistanceMeters>117.49263994626429</DistanceMeters>
                <TotalTimeSeconds>240.778461898</TotalTimeSeconds>
                <Calories>12.413116944444445</Calories>
                <Intensity>Active</Intensity>
                <TriggerMethod>Manual</TriggerMethod>
            </Lap>
        </Activity>
    </Activities>
    <Author xsi:type="Application_t">
        <Name>Google Fit</Name>
        <Build>
            <Version>
                <VersionMajor>0</VersionMajor>
                <VersionMinor>0</VersionMinor>
                <BuildMajor>0</BuildMajor>
                <BuildMinor>0</BuildMinor>
            </Version>
        </Build>
        <LangID>en</LangID>
        <PartNumber>000-00000-00</PartNumber>
    </Author>
</TrainingCenterDatabase>
