<?xml version="1.0" encoding="UTF-8"?>
<TrainingCenterDatabase
    xmlns="http://www.garmin.com/xmlschemas/TrainingCenterDatabase/v2"
    xmlns:ns2="http://www.garmin.com/xmlschemas/UserProfile/v2"
    xmlns:ns3="http://www.garmin.com/xmlschemas/ActivityExtension/v2"
    xmlns:ns4="http://www.garmin.com/xmlschemas/ProfileExtension/v1"
    xmlns:ns5="http://www.garmin.com/xmlschemas/ActivityGoals/v1"
    xmlns:xsi="http://www.w3.org/2001/XMLSchema-instance" xsi:schemaLocation="http://www.garmin.com/xmlschemas/TrainingCenterDatabase/v2 http://www.garmin.com/xmlschemas/TrainingCenterDatabasev2.xsd">
    <Activities>
        <Activity Sport="Walking">
            <Id>2022-03-06T05:45:54.438Z</Id>
            <Lap StartTime="2022-03-06T05:45:54.438Z">
                <Track>
                    <Trackpoint>
                        <DistanceMeters>0.0</DistanceMeters>
                        <Time>2022-03-06T05:45:54.438Z</Time>
                    </Trackpoint>
                    <Trackpoint>
                        <DistanceMeters>18.269020080566406</DistanceMeters>
                        <Time>2022-03-06T05:46:40.778Z</Time>
                    </Trackpoint>
                    <Trackpoint>
                        <DistanceMeters>18.269020080566406</DistanceMeters>
                        <Time>2022-03-06T05:46:54.438Z</Time>
                    </Trackpoint>
                    <Trackpoint>
                        <DistanceMeters>37.01681709289551</DistanceMeters>
                        <Time>2022-03-06T05:47:11.038Z</Time>
                    </Trackpoint>
                    <Trackpoint>
                        <DistanceMeters>57.94620895385742</DistanceMeters>
                        <Time>2022-03-06T05:47:31.398Z</Time>
                    </Trackpoint>
                    <Trackpoint>
                        <DistanceMeters>85.37805938720703</DistanceMeters>
                        <Time>2022-03-06T05:47:54.678Z</Time>
                    </Trackpoint>
                    <Trackpoint>
                        <DistanceMeters>108.73223876953125</DistanceMeters>
                        <Time>2022-03-06T05:48:12.278Z</Time>
                    </Trackpoint>
                    <Trackpoint>
                        <DistanceMeters>130.3861083984375</DistanceMeters>
                        <Time>2022-03-06T05:48:31.078Z</Time>
                    </Trackpoint>
                    <Trackpoint>
                        <DistanceMeters>159.28409576416016</DistanceMeters>
                        <Time>2022-03-06T05:48:55.438Z</Time>
                    </Trackpoint>
                    <Trackpoint>
                        <DistanceMeters>180.12015533447266</DistanceMeters>
                        <Time>2022-03-06T05:49:16.018Z</Time>
                    </Trackpoint>
                </Track>
                <DistanceMeters>180.12015533447266</DistanceMeters>
                <TotalTimeSeconds>201.580000664</TotalTimeSeconds>
                <Calories>14.732824325561523</Calories>
                <Intensity>Active</Intensity>
                <TriggerMethod>Manual</TriggerMethod>
            </Lap>
        </Activity>
        <Activity Sport="Walking">
            <Id>2022-03-06T05:48:55.438Z</Id>
            <Lap StartTime="2022-03-06T05:48:55.438Z">
                <Track>
                    <Trackpoint>
                        <DistanceMeters>0.0</DistanceMeters>
                        <Time>2022-03-06T05:48:55.438Z</Time>
                    </Trackpoint>
                    <Trackpoint>
                        <DistanceMeters>20.8360595703125</DistanceMeters>
                        <Time>2022-03-06T05:49:12.489Z</Time>
                    </Trackpoint>
                    <Trackpoint>
                        <DistanceMeters>20.8360595703125</DistanceMeters>
                        <Time>2022-03-06T05:49:16.018Z</Time>
                    </Trackpoint>
                </Track>
                <DistanceMeters>20.8360595703125</DistanceMeters>
                <TotalTimeSeconds>20.580000604</TotalTimeSeconds>
                <Calories>0.34279194474220276</Calories>
                <Intensity>Active</Intensity>
                <TriggerMethod>Manual</TriggerMethod>
            </Lap>
        </Activity>
        <Activity Sport="Walking">
            <Id>2022-03-06T05:51:05.379Z</Id>
            <Lap StartTime="2022-03-06T05:51:05.379Z">
                <Track>
                    <Trackpoint>
                        <DistanceMeters>0.0</DistanceMeters>
                        <Time>2022-03-06T05:51:05.379Z</Time>
                    </Trackpoint>
                    <Trackpoint>
                        <DistanceMeters>0.0</DistanceMeters>
                        <Time>2022-03-06T05:51:07.958Z</Time>
                    </Trackpoint>
                    <Trackpoint>
                        <DistanceMeters>16.96409034729004</DistanceMeters>
                        <Time>2022-03-06T05:51:45.318Z</Time>
                    </Trackpoint>
                </Track>
                <DistanceMeters>16.96409034729004</DistanceMeters>
                <TotalTimeSeconds>39.93989306</TotalTimeSeconds>
                <Calories>0.4305906593799591</Calories>
                <Intensity>Active</Intensity>
                <TriggerMethod>Manual</TriggerMethod>
            </Lap>
        </Activity>
        <Activity Sport="Walking">
            <Id>2022-03-06T05:51:07.958Z</Id>
            <Lap StartTime="2022-03-06T05:51:07.958Z">
                <Track>
                    <Trackpoint>
                        <DistanceMeters>0.0</DistanceMeters>
                        <Time>2022-03-06T05:51:07.958Z</Time>
                    </Trackpoint>
                    <Trackpoint>
                        <DistanceMeters>16.96409034729004</DistanceMeters>
                        <Time>2022-03-06T05:51:41.645Z</Time>
                    </Trackpoint>
                    <Trackpoint>
                        <DistanceMeters>16.96409034729004</DistanceMeters>
                        <Time>2022-03-06T05:51:45.318Z</Time>
                    </Trackpoint>
                    <Trackpoint>
                        <DistanceMeters>42.887542724609375</DistanceMeters>
                        <Time>2022-03-06T05:52:11.918Z</Time>
                    </Trackpoint>
                    <Trackpoint>
                        <DistanceMeters>60.77749252319336</DistanceMeters>
                        <Time>2022-03-06T05:52:30.478Z</Time>
                    </Trackpoint>
                    <Trackpoint>
                        <DistanceMeters>85.01706504821777</DistanceMeters>
                        <Time>2022-03-06T05:52:56.638Z</Time>
                    </Trackpoint>
                    <Trackpoint>
                        <DistanceMeters>107.20087432861328</DistanceMeters>
                        <Time>2022-03-06T05:53:23.138Z</Time>
                    </Trackpoint>
                    <Trackpoint>
                        <DistanceMeters>127.42728805541992</DistanceMeters>
                        <Time>2022-03-06T05:53:46.198Z</Time>
                    </Trackpoint>
                    <Trackpoint>
                        <DistanceMeters>156.0572509765625</DistanceMeters>
                        <Time>2022-03-06T05:54:13.158Z</Time>
                    </Trackpoint>
                    <Trackpoint>
                        <DistanceMeters>178.19634628295898</DistanceMeters>
                        <Time>2022-03-06T05:54:32.998Z</Time>
                    </Trackpoint>
                    <Trackpoint>
                        <DistanceMeters>204.796724319458</DistanceMeters>
                        <Time>2022-03-06T05:54:57.998Z</Time>
                    </Trackpoint>
                    <Trackpoint>
                        <DistanceMeters>221.15926933288574</DistanceMeters>
                        <Time>2022-03-06T05:55:13.398Z</Time>
                    </Trackpoint>
                    <Trackpoint>
                        <DistanceMeters>253.7568302154541</DistanceMeters>
                        <Time>2022-03-06T05:55:40.398Z</Time>
                    </Trackpoint>
                    <Trackpoint>
                        <DistanceMeters>269.41598987579346</DistanceMeters>
                        <Time>2022-03-06T05:55:58.758Z</Time>
                    </Trackpoint>
                    <Trackpoint>
                        <DistanceMeters>284.75516414642334</DistanceMeters>
                        <Time>2022-03-06T05:56:14.318Z</Time>
                    </Trackpoint>
                    <Trackpoint>
                        <DistanceMeters>299.7618589401245</DistanceMeters>
                        <Time>2022-03-06T05:56:33.958Z</Time>
                    </Trackpoint>
                    <Trackpoint>
                        <DistanceMeters>331.7879514694214</DistanceMeters>
                        <Time>2022-03-06T05:57:00.118Z</Time>
                    </Trackpoint>
                    <Trackpoint>
                        <DistanceMeters>352.75370693206787</DistanceMeters>
                        <Time>2022-03-06T05:57:22.738Z</Time>
                    </Trackpoint>
                    <Trackpoint>
                        <DistanceMeters>369.7177972793579</DistanceMeters>
                        <Time>2022-03-06T05:57:49.118Z</Time>
                    </Trackpoint>
                    <Trackpoint>
                        <DistanceMeters>374.9375171661377</DistanceMeters>
                        <Time>2022-03-06T05:59:00.158Z</Time>
                    </Trackpoint>
                    <Trackpoint>
                        <DistanceMeters>384.0720272064209</DistanceMeters>
                        <Time>2022-03-06T05:59:27.358Z</Time>
                    </Trackpoint>
                    <Trackpoint>
                        <DistanceMeters>430.42957496643066</DistanceMeters>
                        <Time>2022-03-06T06:00:19.483Z</Time>
                    </Trackpoint>
                </Track>
                <DistanceMeters>430.42957496643066</DistanceMeters>
                <TotalTimeSeconds>551.52410694</TotalTimeSeconds>
                <Calories>50.28782272338867</Calories>
                <Intensity>Active</Intensity>
                <TriggerMethod>Manual</TriggerMethod>
            </Lap>
        </Activity>
        <Activity Sport="Walking">
            <Id>2022-03-06T06:00:19.483Z</Id>
            <Lap StartTime="2022-03-06T06:00:19.483Z">
                <Track>
                    <Trackpoint>
                        <DistanceMeters>0.0</DistanceMeters>
                        <Time>2022-03-06T06:00:19.483Z</Time>
                    </Trackpoint>
                    <Trackpoint>
                        <DistanceMeters>0.0</DistanceMeters>
                        <Time>2022-03-06T06:00:30.641Z</Time>
                    </Trackpoint>
                </Track>
                <DistanceMeters>0.0</DistanceMeters>
                <TotalTimeSeconds>11.158</TotalTimeSeconds>
                <Calories>1.083565592765808</Calories>
                <Intensity>Active</Intensity>
                <TriggerMethod>Manual</TriggerMethod>
            </Lap>
        </Activity>
        <Activity Sport="Walking">
            <Id>2022-03-06T06:00:30.641Z</Id>
            <Lap StartTime="2022-03-06T06:00:30.641Z">
                <Track>
                    <Trackpoint>
                        <DistanceMeters>0.0</DistanceMeters>
                        <Time>2022-03-06T06:00:30.641Z</Time>
                    </Trackpoint>
                    <Trackpoint>
                        <DistanceMeters>11.64315414428711</DistanceMeters>
                        <Time>2022-03-06T06:00:40.198Z</Time>
                    </Trackpoint>
                    <Trackpoint>
                        <DistanceMeters>64.13454818725586</DistanceMeters>
                        <Time>2022-03-06T06:01:25.478Z</Time>
                    </Trackpoint>
                    <Trackpoint>
                        <DistanceMeters>82.10336303710938</DistanceMeters>
                        <Time>2022-03-06T06:01:41.638Z</Time>
                    </Trackpoint>
                    <Trackpoint>
                        <DistanceMeters>151.2646484375</DistanceMeters>
                        <Time>2022-03-06T06:03:26.518Z</Time>
                    </Trackpoint>
                    <Trackpoint>
                        <DistanceMeters>153.8745083808899</DistanceMeters>
                        <Time>2022-03-06T06:04:42.578Z</Time>
                    </Trackpoint>
                    <Trackpoint>
                        <DistanceMeters>174.75338792800903</DistanceMeters>
                        <Time>2022-03-06T06:05:46.578Z</Time>
                    </Trackpoint>
                    <Trackpoint>
                        <DistanceMeters>213.59847688674927</DistanceMeters>
                        <Time>2022-03-06T06:06:27.778Z</Time>
                    </Trackpoint>
                    <Trackpoint>
                        <DistanceMeters>239.04461145401</DistanceMeters>
                        <Time>2022-03-06T06:07:17.278Z</Time>
                    </Trackpoint>
                    <Trackpoint>
                        <DistanceMeters>272.49241876602173</DistanceMeters>
                        <Time>2022-03-06T06:07:53.238Z</Time>
                    </Trackpoint>
                    <Trackpoint>
                        <DistanceMeters>282.9318585395813</DistanceMeters>
                        <Time>2022-03-06T06:08:18.478Z</Time>
                    </Trackpoint>
                    <Trackpoint>
                        <DistanceMeters>305.1156678199768</DistanceMeters>
                        <Time>2022-03-06T06:08:47.278Z</Time>
                    </Trackpoint>
                    <Trackpoint>
                        <DistanceMeters>332.56441164016724</DistanceMeters>
                        <Time>2022-03-06T06:09:14.758Z</Time>
                    </Trackpoint>
                    <Trackpoint>
                        <DistanceMeters>345.9232831001282</DistanceMeters>
                        <Time>2022-03-06T06:09:28.238Z</Time>
                    </Trackpoint>
                    <Trackpoint>
                        <DistanceMeters>364.3554139137268</DistanceMeters>
                        <Time>2022-03-06T06:09:47.798Z</Time>
                    </Trackpoint>
                    <Trackpoint>
                        <DistanceMeters>391.3307156562805</DistanceMeters>
                        <Time>2022-03-06T06:10:16.478Z</Time>
                    </Trackpoint>
                    <Trackpoint>
                        <DistanceMeters>402.7094941139221</DistanceMeters>
                        <Time>2022-03-06T06:10:27.878Z</Time>
                    </Trackpoint>
                    <Trackpoint>
                        <DistanceMeters>420.9785141944885</DistanceMeters>
                        <Time>2022-03-06T06:10:49.118Z</Time>
                    </Trackpoint>
                    <Trackpoint>
                        <DistanceMeters>443.81478929519653</DistanceMeters>
                        <Time>2022-03-06T06:11:17.438Z</Time>
                    </Trackpoint>
                    <Trackpoint>
                        <DistanceMeters>455.97676134109497</DistanceMeters>
                        <Time>2022-03-06T06:11:29.238Z</Time>
                    </Trackpoint>
                    <Trackpoint>
                        <DistanceMeters>476.1223168373108</DistanceMeters>
                        <Time>2022-03-06T06:11:49.198Z</Time>
                    </Trackpoint>
                    <Trackpoint>
                        <DistanceMeters>507.24580430984497</DistanceMeters>
                        <Time>2022-03-06T06:12:17.118Z</Time>
                    </Trackpoint>
                    <Trackpoint>
                        <DistanceMeters>521.7079339027405</DistanceMeters>
                        <Time>2022-03-06T06:12:30.278Z</Time>
                    </Trackpoint>
                    <Trackpoint>
                        <DistanceMeters>544.2493042945862</DistanceMeters>
                        <Time>2022-03-06T06:12:51.358Z</Time>
                    </Trackpoint>
                    <Trackpoint>
                        <DistanceMeters>569.0429730415344</DistanceMeters>
                        <Time>2022-03-06T06:13:19.158Z</Time>
                    </Trackpoint>
                    <Trackpoint>
                        <DistanceMeters>576.3557353019714</DistanceMeters>
                        <Time>2022-03-06T06:14:18.238Z</Time>
                    </Trackpoint>
                    <Trackpoint>
                        <DistanceMeters>630.5103297233582</DistanceMeters>
                        <Time>2022-03-06T06:17:04.238Z</Time>
                    </Trackpoint>
                    <Trackpoint>
                        <DistanceMeters>702.3255305290222</DistanceMeters>
                        <Time>2022-03-06T06:18:15.518Z</Time>
                    </Trackpoint>
                    <Trackpoint>
                        <DistanceMeters>764.0173983573914</DistanceMeters>
                        <Time>2022-03-06T06:19:14.698Z</Time>
                    </Trackpoint>
                    <Trackpoint>
                        <DistanceMeters>777.0666975975037</DistanceMeters>
                        <Time>2022-03-06T06:19:43.998Z</Time>
                    </Trackpoint>
                    <Trackpoint>
                        <DistanceMeters>784.2438125610352</DistanceMeters>
                        <Time>2022-03-06T06:19:53.798Z</Time>
                    </Trackpoint>
                    <Trackpoint>
                        <DistanceMeters>831.8737564086914</DistanceMeters>
                        <Time>2022-03-06T06:20:49.598Z</Time>
                    </Trackpoint>
                    <Trackpoint>
                        <DistanceMeters>845.5755214691162</DistanceMeters>
                        <Time>2022-03-06T06:21:07.558Z</Time>
                    </Trackpoint>
                    <Trackpoint>
                        <DistanceMeters>866.4544010162354</DistanceMeters>
                        <Time>2022-03-06T06:21:31.318Z</Time>
                    </Trackpoint>
                    <Trackpoint>
                        <DistanceMeters>900.6349658966064</DistanceMeters>
                        <Time>2022-03-06T06:22:03.198Z</Time>
                    </Trackpoint>
                    <Trackpoint>
                        <DistanceMeters>932.270097732544</DistanceMeters>
                        <Time>2022-03-06T06:22:32.118Z</Time>
                    </Trackpoint>
                    <Trackpoint>
                        <DistanceMeters>958.2174625396729</DistanceMeters>
                        <Time>2022-03-06T06:22:58.658Z</Time>
                    </Trackpoint>
                    <Trackpoint>
                        <DistanceMeters>1011.0671253204346</DistanceMeters>
                        <Time>2022-03-06T06:24:55.758Z</Time>
                    </Trackpoint>
                    <Trackpoint>
                        <DistanceMeters>1033.2643184661865</DistanceMeters>
                        <Time>2022-03-06T06:25:15.478Z</Time>
                    </Trackpoint>
                    <Trackpoint>
                        <DistanceMeters>1065.2351036071777</DistanceMeters>
                        <Time>2022-03-06T06:28:44.678Z</Time>
                    </Trackpoint>
                    <Trackpoint>
                        <DistanceMeters>1117.432300567627</DistanceMeters>
                        <Time>2022-03-06T06:31:24.678Z</Time>
                    </Trackpoint>
                    <Trackpoint>
                        <DistanceMeters>1153.9703407287598</DistanceMeters>
                        <Time>2022-03-06T06:32:07.078Z</Time>
                    </Trackpoint>
                    <Trackpoint>
                        <DistanceMeters>1209.4298629760742</DistanceMeters>
                        <Time>2022-03-06T06:34:28.838Z</Time>
                    </Trackpoint>
                    <Trackpoint>
                        <DistanceMeters>1270.7615699768066</DistanceMeters>
                        <Time>2022-03-06T06:36:26.658Z</Time>
                    </Trackpoint>
                </Track>
                <DistanceMeters>1270.7615699768066</DistanceMeters>
                <TotalTimeSeconds>2156.017892253</TotalTimeSeconds>
                <Calories>199.62362670898438</Calories>
                <Intensity>Active</Intensity>
                <TriggerMethod>Manual</TriggerMethod>
            </Lap>
        </Activity>
    </Activities>
    <Author xsi:type="Application_t">
        <Name>Google Fit</Name>
        <Build>
            <Version>
                <VersionMajor>0</VersionMajor>
                <VersionMinor>0</VersionMinor>
                <BuildMajor>0</BuildMajor>
                <BuildMinor>0</BuildMinor>
            </Version>
        </Build>
        <LangID>en</LangID>
        <PartNumber>000-00000-00</PartNumber>
    </Author>
</TrainingCenterDatabase>
