<?xml version="1.0" encoding="UTF-8"?>
<TrainingCenterDatabase
    xmlns="http://www.garmin.com/xmlschemas/TrainingCenterDatabase/v2"
    xmlns:ns2="http://www.garmin.com/xmlschemas/UserProfile/v2"
    xmlns:ns3="http://www.garmin.com/xmlschemas/ActivityExtension/v2"
    xmlns:ns4="http://www.garmin.com/xmlschemas/ProfileExtension/v1"
    xmlns:ns5="http://www.garmin.com/xmlschemas/ActivityGoals/v1"
    xmlns:xsi="http://www.w3.org/2001/XMLSchema-instance" xsi:schemaLocation="http://www.garmin.com/xmlschemas/TrainingCenterDatabase/v2 http://www.garmin.com/xmlschemas/TrainingCenterDatabasev2.xsd">
    <Activities>
        <Activity Sport="Walking">
            <Id>2022-01-02T11:46:56.685Z</Id>
            <Lap StartTime="2022-01-02T11:46:56.685Z">
                <Track>
                    <Trackpoint>
                        <DistanceMeters>0.0</DistanceMeters>
                        <Time>2022-01-02T11:46:56.685Z</Time>
                    </Trackpoint>
                    <Trackpoint>
                        <DistanceMeters>0.0</DistanceMeters>
                        <Time>2022-01-02T11:47:28.669Z</Time>
                    </Trackpoint>
                    <Trackpoint>
                        <DistanceMeters>27.40353012084961</DistanceMeters>
                        <Time>2022-01-02T11:49:07.175Z</Time>
                    </Trackpoint>
                </Track>
                <DistanceMeters>27.40353012084961</DistanceMeters>
                <TotalTimeSeconds>130.49</TotalTimeSeconds>
                <Calories>12.672028541564941</Calories>
                <Intensity>Active</Intensity>
                <TriggerMethod>Manual</TriggerMethod>
            </Lap>
        </Activity>
        <Activity Sport="Walking">
            <Id>2022-01-02T11:49:07.175Z</Id>
            <Lap StartTime="2022-01-02T11:49:07.175Z">
                <Track>
                    <Trackpoint>
                        <DistanceMeters>0.0</DistanceMeters>
                        <Time>2022-01-02T11:49:07.175Z</Time>
                    </Trackpoint>
                    <Trackpoint>
                        <DistanceMeters>0.0</DistanceMeters>
                        <Time>2022-01-02T11:50:14.369Z</Time>
                    </Trackpoint>
                    <Trackpoint>
                        <DistanceMeters>37.84296798706055</DistanceMeters>
                        <Time>2022-01-02T11:52:10.369Z</Time>
                    </Trackpoint>
                    <Trackpoint>
                        <DistanceMeters>92.65002822875977</DistanceMeters>
                        <Time>2022-01-02T11:53:22.029Z</Time>
                    </Trackpoint>
                    <Trackpoint>
                        <DistanceMeters>129.18806838989258</DistanceMeters>
                        <Time>2022-01-02T11:54:09.589Z</Time>
                    </Trackpoint>
                </Track>
                <DistanceMeters>129.18806838989258</DistanceMeters>
                <TotalTimeSeconds>302.41482855</TotalTimeSeconds>
                <Calories>11.323348045349121</Calories>
                <Intensity>Active</Intensity>
                <TriggerMethod>Manual</TriggerMethod>
            </Lap>
        </Activity>
        <Activity Sport="Walking">
            <Id>2022-01-02T11:53:22.029Z</Id>
            <Lap StartTime="2022-01-02T11:53:22.029Z">
                <Track>
                    <Trackpoint>
                        <DistanceMeters>0.0</DistanceMeters>
                        <Time>2022-01-02T11:53:22.029Z</Time>
                    </Trackpoint>
                    <Trackpoint>
                        <DistanceMeters>36.53804016113281</DistanceMeters>
                        <Time>2022-01-02T11:53:27.982Z</Time>
                    </Trackpoint>
                    <Trackpoint>
                        <DistanceMeters>36.53804016113281</DistanceMeters>
                        <Time>2022-01-02T11:54:33.674Z</Time>
                    </Trackpoint>
                </Track>
                <DistanceMeters>36.53804016113281</DistanceMeters>
                <TotalTimeSeconds>71.644171481</TotalTimeSeconds>
                <Calories>6.379423141479492</Calories>
                <Intensity>Active</Intensity>
                <TriggerMethod>Manual</TriggerMethod>
            </Lap>
        </Activity>
        <Activity Sport="Walking">
            <Id>2022-01-02T11:55:27.829Z</Id>
            <Lap StartTime="2022-01-02T11:55:27.829Z">
                <Track>
                    <Trackpoint>
                        <DistanceMeters>0.0</DistanceMeters>
                        <Time>2022-01-02T11:55:27.829Z</Time>
                    </Trackpoint>
                    <Trackpoint>
                        <DistanceMeters>30.013389587402344</DistanceMeters>
                        <Time>2022-01-02T11:55:32.337Z</Time>
                    </Trackpoint>
                    <Trackpoint>
                        <DistanceMeters>30.013389587402344</DistanceMeters>
                        <Time>2022-01-02T11:56:28.709Z</Time>
                    </Trackpoint>
                    <Trackpoint>
                        <DistanceMeters>64.59403228759766</DistanceMeters>
                        <Time>2022-01-02T11:57:22.069Z</Time>
                    </Trackpoint>
                    <Trackpoint>
                        <DistanceMeters>110.26658248901367</DistanceMeters>
                        <Time>2022-01-02T11:59:00.389Z</Time>
                    </Trackpoint>
                    <Trackpoint>
                        <DistanceMeters>128.53560256958008</DistanceMeters>
                        <Time>2022-01-02T12:01:26.989Z</Time>
                    </Trackpoint>
                    <Trackpoint>
                        <DistanceMeters>174.2081527709961</DistanceMeters>
                        <Time>2022-01-02T12:03:46.989Z</Time>
                    </Trackpoint>
                    <Trackpoint>
                        <DistanceMeters>197.74765014648438</DistanceMeters>
                        <Time>2022-01-02T12:04:10.189Z</Time>
                    </Trackpoint>
                    <Trackpoint>
                        <DistanceMeters>243.4202003479004</DistanceMeters>
                        <Time>2022-01-02T12:05:58.509Z</Time>
                    </Trackpoint>
                    <Trackpoint>
                        <DistanceMeters>278.742977142334</DistanceMeters>
                        <Time>2022-01-02T12:07:09.170Z</Time>
                    </Trackpoint>
                </Track>
                <DistanceMeters>278.742977142334</DistanceMeters>
                <TotalTimeSeconds>701.340171858</TotalTimeSeconds>
                <Calories>67.67022705078125</Calories>
                <Intensity>Active</Intensity>
                <TriggerMethod>Manual</TriggerMethod>
            </Lap>
        </Activity>
        <Activity Sport="Walking">
            <Id>2022-01-02T12:10:36.629Z</Id>
            <Lap StartTime="2022-01-02T12:10:36.629Z">
                <Track>
                    <Trackpoint>
                        <DistanceMeters>0.0</DistanceMeters>
                        <Time>2022-01-02T12:10:36.629Z</Time>
                    </Trackpoint>
                    <Trackpoint>
                        <DistanceMeters>16.31162452697754</DistanceMeters>
                        <Time>2022-01-02T12:10:54.603Z</Time>
                    </Trackpoint>
                    <Trackpoint>
                        <DistanceMeters>16.31162452697754</DistanceMeters>
                        <Time>2022-01-02T12:11:06.069Z</Time>
                    </Trackpoint>
                    <Trackpoint>
                        <DistanceMeters>20.87887954711914</DistanceMeters>
                        <Time>2022-01-02T12:13:26.150Z</Time>
                    </Trackpoint>
                </Track>
                <DistanceMeters>20.87887954711914</DistanceMeters>
                <TotalTimeSeconds>169.520173445</TotalTimeSeconds>
                <Calories>14.716897010803223</Calories>
                <Intensity>Active</Intensity>
                <TriggerMethod>Manual</TriggerMethod>
            </Lap>
        </Activity>
    </Activities>
    <Author xsi:type="Application_t">
        <Name>Google Fit</Name>
        <Build>
            <Version>
                <VersionMajor>0</VersionMajor>
                <VersionMinor>0</VersionMinor>
                <BuildMajor>0</BuildMajor>
                <BuildMinor>0</BuildMinor>
            </Version>
        </Build>
        <LangID>en</LangID>
        <PartNumber>000-00000-00</PartNumber>
    </Author>
</TrainingCenterDatabase>
