<?xml version="1.0" encoding="UTF-8"?>
<TrainingCenterDatabase
    xmlns="http://www.garmin.com/xmlschemas/TrainingCenterDatabase/v2"
    xmlns:ns2="http://www.garmin.com/xmlschemas/UserProfile/v2"
    xmlns:ns3="http://www.garmin.com/xmlschemas/ActivityExtension/v2"
    xmlns:ns4="http://www.garmin.com/xmlschemas/ProfileExtension/v1"
    xmlns:ns5="http://www.garmin.com/xmlschemas/ActivityGoals/v1"
    xmlns:xsi="http://www.w3.org/2001/XMLSchema-instance" xsi:schemaLocation="http://www.garmin.com/xmlschemas/TrainingCenterDatabase/v2 http://www.garmin.com/xmlschemas/TrainingCenterDatabasev2.xsd">
    <Activities>
        <Activity Sport="Walking">
            <Id>2022-11-12T05:40:57.627Z</Id>
            <Lap StartTime="2022-11-12T05:40:57.627Z">
                <Track>
                    <Trackpoint>
                        <DistanceMeters>0.0</DistanceMeters>
                        <Time>2022-11-12T05:40:57.627Z</Time>
                    </Trackpoint>
                    <Trackpoint>
                        <DistanceMeters>0.0</DistanceMeters>
                        <Time>2022-11-12T06:13:29.187Z</Time>
                    </Trackpoint>
                    <Trackpoint>
                        <DistanceMeters>24.79366994579911</DistanceMeters>
                        <Time>2022-11-12T06:14:11.747Z</Time>
                    </Trackpoint>
                    <Trackpoint>
                        <DistanceMeters>81.5581248217076</DistanceMeters>
                        <Time>2022-11-12T06:15:32.407Z</Time>
                    </Trackpoint>
                </Track>
                <DistanceMeters>81.5581248217076</DistanceMeters>
                <TotalTimeSeconds>2074.779996879</TotalTimeSeconds>
                <Calories>44.3530613326339</Calories>
                <Intensity>Active</Intensity>
                <TriggerMethod>Manual</TriggerMethod>
            </Lap>
        </Activity>
        <Activity Sport="Walking">
            <Id>2022-11-12T06:14:11.747Z</Id>
            <Lap StartTime="2022-11-12T06:14:11.747Z">
                <Track>
                    <Trackpoint>
                        <DistanceMeters>0.0</DistanceMeters>
                        <Time>2022-11-12T06:14:11.747Z</Time>
                    </Trackpoint>
                    <Trackpoint>
                        <DistanceMeters>56.76445487590849</DistanceMeters>
                        <Time>2022-11-12T06:14:31.122Z</Time>
                    </Trackpoint>
                    <Trackpoint>
                        <DistanceMeters>56.76445487590849</DistanceMeters>
                        <Time>2022-11-12T06:15:32.407Z</Time>
                    </Trackpoint>
                    <Trackpoint>
                        <DistanceMeters>71.77114984310269</DistanceMeters>
                        <Time>2022-11-12T06:15:56.067Z</Time>
                    </Trackpoint>
                    <Trackpoint>
                        <DistanceMeters>124.90954324771437</DistanceMeters>
                        <Time>2022-11-12T06:16:40.107Z</Time>
                    </Trackpoint>
                    <Trackpoint>
                        <DistanceMeters>141.53163048319308</DistanceMeters>
                        <Time>2022-11-12T06:16:57.147Z</Time>
                    </Trackpoint>
                    <Trackpoint>
                        <DistanceMeters>185.05034656958418</DistanceMeters>
                        <Time>2022-11-12T06:17:40.707Z</Time>
                    </Trackpoint>
                    <Trackpoint>
                        <DistanceMeters>201.8188639396004</DistanceMeters>
                        <Time>2022-11-12T06:17:57.387Z</Time>
                    </Trackpoint>
                    <Trackpoint>
                        <DistanceMeters>243.43259505527604</DistanceMeters>
                        <Time>2022-11-12T06:18:41.027Z</Time>
                    </Trackpoint>
                    <Trackpoint>
                        <DistanceMeters>260.47766286558505</DistanceMeters>
                        <Time>2022-11-12T06:18:57.067Z</Time>
                    </Trackpoint>
                    <Trackpoint>
                        <DistanceMeters>312.2470002836425</DistanceMeters>
                        <Time>2022-11-12T06:19:41.787Z</Time>
                    </Trackpoint>
                    <Trackpoint>
                        <DistanceMeters>323.5528884269065</DistanceMeters>
                        <Time>2022-11-12T06:20:14.597Z</Time>
                    </Trackpoint>
                </Track>
                <DistanceMeters>323.5528884269065</DistanceMeters>
                <TotalTimeSeconds>362.849967722</TotalTimeSeconds>
                <Calories>35.16802361111111</Calories>
                <Intensity>Active</Intensity>
                <TriggerMethod>Manual</TriggerMethod>
            </Lap>
        </Activity>
        <Activity Sport="Walking">
            <Id>2022-11-12T06:20:14.597Z</Id>
            <Lap StartTime="2022-11-12T06:20:14.597Z">
                <Track>
                    <Trackpoint>
                        <DistanceMeters>0.0</DistanceMeters>
                        <Time>2022-11-12T06:20:14.597Z</Time>
                    </Trackpoint>
                    <Trackpoint>
                        <DistanceMeters>0.0</DistanceMeters>
                        <Time>2022-11-12T06:21:55.747Z</Time>
                    </Trackpoint>
                    <Trackpoint>
                        <DistanceMeters>27.403529940093755</DistanceMeters>
                        <Time>2022-11-12T06:23:19.747Z</Time>
                    </Trackpoint>
                    <Trackpoint>
                        <DistanceMeters>54.80705988018751</DistanceMeters>
                        <Time>2022-11-12T06:23:51.107Z</Time>
                    </Trackpoint>
                    <Trackpoint>
                        <DistanceMeters>82.49329038796672</DistanceMeters>
                        <Time>2022-11-12T06:24:20.347Z</Time>
                    </Trackpoint>
                    <Trackpoint>
                        <DistanceMeters>107.28696033376583</DistanceMeters>
                        <Time>2022-11-12T06:24:51.927Z</Time>
                    </Trackpoint>
                    <Trackpoint>
                        <DistanceMeters>130.77570028241763</DistanceMeters>
                        <Time>2022-11-12T06:25:21.907Z</Time>
                    </Trackpoint>
                </Track>
                <DistanceMeters>130.77570028241763</DistanceMeters>
                <TotalTimeSeconds>307.310032175</TotalTimeSeconds>
                <Calories>16.393193456890046</Calories>
                <Intensity>Active</Intensity>
                <TriggerMethod>Manual</TriggerMethod>
            </Lap>
        </Activity>
        <Activity Sport="Walking">
            <Id>2022-11-12T06:24:51.927Z</Id>
            <Lap StartTime="2022-11-12T06:24:51.927Z">
                <Track>
                    <Trackpoint>
                        <DistanceMeters>0.0</DistanceMeters>
                        <Time>2022-11-12T06:24:51.927Z</Time>
                    </Trackpoint>
                    <Trackpoint>
                        <DistanceMeters>23.48873994865179</DistanceMeters>
                        <Time>2022-11-12T06:25:21.433Z</Time>
                    </Trackpoint>
                    <Trackpoint>
                        <DistanceMeters>23.48873994865179</DistanceMeters>
                        <Time>2022-11-12T06:25:21.907Z</Time>
                    </Trackpoint>
                    <Trackpoint>
                        <DistanceMeters>52.67646660267373</DistanceMeters>
                        <Time>2022-11-12T06:25:52.067Z</Time>
                    </Trackpoint>
                    <Trackpoint>
                        <DistanceMeters>68.33562656844158</DistanceMeters>
                        <Time>2022-11-12T06:26:22.270Z</Time>
                    </Trackpoint>
                </Track>
                <DistanceMeters>68.33562656844158</DistanceMeters>
                <TotalTimeSeconds>90.342966397</TotalTimeSeconds>
                <Calories>6.229032833333333</Calories>
                <Intensity>Active</Intensity>
                <TriggerMethod>Manual</TriggerMethod>
            </Lap>
        </Activity>
        <Activity Sport="Walking">
            <Id>2022-11-12T06:27:50.587Z</Id>
            <Lap StartTime="2022-11-12T06:27:50.587Z">
                <Track>
                    <Trackpoint>
                        <DistanceMeters>0.0</DistanceMeters>
                        <Time>2022-11-12T06:27:50.587Z</Time>
                    </Trackpoint>
                    <Trackpoint>
                        <DistanceMeters>19.573949957209823</DistanceMeters>
                        <Time>2022-11-12T06:27:53.470Z</Time>
                    </Trackpoint>
                    <Trackpoint>
                        <DistanceMeters>19.573949957209823</DistanceMeters>
                        <Time>2022-11-12T06:28:24.027Z</Time>
                    </Trackpoint>
                    <Trackpoint>
                        <DistanceMeters>45.672549900156255</DistanceMeters>
                        <Time>2022-11-12T06:28:54.427Z</Time>
                    </Trackpoint>
                    <Trackpoint>
                        <DistanceMeters>61.33170986592411</DistanceMeters>
                        <Time>2022-11-12T06:32:13.755Z</Time>
                    </Trackpoint>
                </Track>
                <DistanceMeters>61.33170986592411</DistanceMeters>
                <TotalTimeSeconds>263.167967398</TotalTimeSeconds>
                <Calories>26.650291944444444</Calories>
                <Intensity>Active</Intensity>
                <TriggerMethod>Manual</TriggerMethod>
            </Lap>
        </Activity>
    </Activities>
    <Author xsi:type="Application_t">
        <Name>Google Fit</Name>
        <Build>
            <Version>
                <VersionMajor>0</VersionMajor>
                <VersionMinor>0</VersionMinor>
                <BuildMajor>0</BuildMajor>
                <BuildMinor>0</BuildMinor>
            </Version>
        </Build>
        <LangID>en</LangID>
        <PartNumber>000-00000-00</PartNumber>
    </Author>
</TrainingCenterDatabase>
