<?xml version="1.0" encoding="UTF-8"?>
<TrainingCenterDatabase
    xmlns="http://www.garmin.com/xmlschemas/TrainingCenterDatabase/v2"
    xmlns:ns2="http://www.garmin.com/xmlschemas/UserProfile/v2"
    xmlns:ns3="http://www.garmin.com/xmlschemas/ActivityExtension/v2"
    xmlns:ns4="http://www.garmin.com/xmlschemas/ProfileExtension/v1"
    xmlns:ns5="http://www.garmin.com/xmlschemas/ActivityGoals/v1"
    xmlns:xsi="http://www.w3.org/2001/XMLSchema-instance" xsi:schemaLocation="http://www.garmin.com/xmlschemas/TrainingCenterDatabase/v2 http://www.garmin.com/xmlschemas/TrainingCenterDatabasev2.xsd">
    <Activities>
        <Activity Sport="Walking">
            <Id>2022-07-05T03:56:06.932Z</Id>
            <Lap StartTime="2022-07-05T03:56:06.932Z">
                <Track>
                    <Trackpoint>
                        <DistanceMeters>0.0</DistanceMeters>
                        <Time>2022-07-05T03:56:06.932Z</Time>
                    </Trackpoint>
                    <Trackpoint>
                        <DistanceMeters>0.0</DistanceMeters>
                        <Time>2022-07-05T03:58:11.436Z</Time>
                    </Trackpoint>
                    <Trackpoint>
                        <DistanceMeters>20.87887954711914</DistanceMeters>
                        <Time>2022-07-05T03:59:15.436Z</Time>
                    </Trackpoint>
                </Track>
                <DistanceMeters>20.87887954711914</DistanceMeters>
                <TotalTimeSeconds>188.504111586</TotalTimeSeconds>
                <Calories>13.734956741333008</Calories>
                <Intensity>Active</Intensity>
                <TriggerMethod>Manual</TriggerMethod>
            </Lap>
        </Activity>
        <Activity Sport="Walking">
            <Id>2022-07-05T04:11:50.776Z</Id>
            <Lap StartTime="2022-07-05T04:11:50.776Z">
                <Track>
                    <Trackpoint>
                        <DistanceMeters>0.0</DistanceMeters>
                        <Time>2022-07-05T04:11:50.776Z</Time>
                    </Trackpoint>
                    <Trackpoint>
                        <DistanceMeters>22.836275100708008</DistanceMeters>
                        <Time>2022-07-05T04:12:21.214Z</Time>
                    </Trackpoint>
                    <Trackpoint>
                        <DistanceMeters>22.836275100708008</DistanceMeters>
                        <Time>2022-07-05T04:12:46.856Z</Time>
                    </Trackpoint>
                    <Trackpoint>
                        <DistanceMeters>39.80036544799805</DistanceMeters>
                        <Time>2022-07-05T04:15:45.216Z</Time>
                    </Trackpoint>
                    <Trackpoint>
                        <DistanceMeters>71.77115058898926</DistanceMeters>
                        <Time>2022-07-05T04:17:23.216Z</Time>
                    </Trackpoint>
                    <Trackpoint>
                        <DistanceMeters>82.86305522918701</DistanceMeters>
                        <Time>2022-07-05T04:17:38.776Z</Time>
                    </Trackpoint>
                </Track>
                <DistanceMeters>82.86305522918701</DistanceMeters>
                <TotalTimeSeconds>347.999890529</TotalTimeSeconds>
                <Calories>32.51481628417969</Calories>
                <Intensity>Active</Intensity>
                <TriggerMethod>Manual</TriggerMethod>
            </Lap>
        </Activity>
        <Activity Sport="Walking">
            <Id>2022-07-05T04:22:25.202Z</Id>
            <Lap StartTime="2022-07-05T04:22:25.202Z">
                <Track>
                    <Trackpoint>
                        <DistanceMeters>0.0</DistanceMeters>
                        <Time>2022-07-05T04:22:25.202Z</Time>
                    </Trackpoint>
                    <Trackpoint>
                        <DistanceMeters>0.0</DistanceMeters>
                        <Time>2022-07-05T04:23:47.616Z</Time>
                    </Trackpoint>
                    <Trackpoint>
                        <DistanceMeters>21.53134536743164</DistanceMeters>
                        <Time>2022-07-05T04:25:54.496Z</Time>
                    </Trackpoint>
                    <Trackpoint>
                        <DistanceMeters>63.94157028198242</DistanceMeters>
                        <Time>2022-07-05T04:26:56.416Z</Time>
                    </Trackpoint>
                    <Trackpoint>
                        <DistanceMeters>70.46621990203857</DistanceMeters>
                        <Time>2022-07-05T04:27:05.856Z</Time>
                    </Trackpoint>
                    <Trackpoint>
                        <DistanceMeters>84.82044982910156</DistanceMeters>
                        <Time>2022-07-05T04:30:01.056Z</Time>
                    </Trackpoint>
                    <Trackpoint>
                        <DistanceMeters>116.79123497009277</DistanceMeters>
                        <Time>2022-07-05T04:31:02.136Z</Time>
                    </Trackpoint>
                    <Trackpoint>
                        <DistanceMeters>133.1028594970703</DistanceMeters>
                        <Time>2022-07-05T04:32:32.016Z</Time>
                    </Trackpoint>
                    <Trackpoint>
                        <DistanceMeters>152.0243434906006</DistanceMeters>
                        <Time>2022-07-05T04:33:32.016Z</Time>
                    </Trackpoint>
                    <Trackpoint>
                        <DistanceMeters>159.85392332077026</DistanceMeters>
                        <Time>2022-07-05T04:35:33.916Z</Time>
                    </Trackpoint>
                    <Trackpoint>
                        <DistanceMeters>192.47717237472534</DistanceMeters>
                        <Time>2022-07-05T04:41:15.016Z</Time>
                    </Trackpoint>
                    <Trackpoint>
                        <DistanceMeters>232.2775378227234</DistanceMeters>
                        <Time>2022-07-05T04:42:09.359Z</Time>
                    </Trackpoint>
                </Track>
                <DistanceMeters>232.2775378227234</DistanceMeters>
                <TotalTimeSeconds>1184.157</TotalTimeSeconds>
                <Calories>121.2445068359375</Calories>
                <Intensity>Active</Intensity>
                <TriggerMethod>Manual</TriggerMethod>
            </Lap>
        </Activity>
        <Activity Sport="Walking">
            <Id>2022-07-05T04:49:32.068Z</Id>
            <Lap StartTime="2022-07-05T04:49:32.068Z">
                <Track>
                    <Trackpoint>
                        <DistanceMeters>0.0</DistanceMeters>
                        <Time>2022-07-05T04:49:32.068Z</Time>
                    </Trackpoint>
                    <Trackpoint>
                        <DistanceMeters>0.0</DistanceMeters>
                        <Time>2022-07-05T04:50:03.056Z</Time>
                    </Trackpoint>
                    <Trackpoint>
                        <DistanceMeters>55.45952224731445</DistanceMeters>
                        <Time>2022-07-05T04:52:35.203Z</Time>
                    </Trackpoint>
                </Track>
                <DistanceMeters>55.45952224731445</DistanceMeters>
                <TotalTimeSeconds>183.135</TotalTimeSeconds>
                <Calories>18.750988006591797</Calories>
                <Intensity>Active</Intensity>
                <TriggerMethod>Manual</TriggerMethod>
            </Lap>
        </Activity>
        <Activity Sport="Walking">
            <Id>2022-07-05T04:53:35.336Z</Id>
            <Lap StartTime="2022-07-05T04:53:35.336Z">
                <Track>
                    <Trackpoint>
                        <DistanceMeters>0.0</DistanceMeters>
                        <Time>2022-07-05T04:53:35.336Z</Time>
                    </Trackpoint>
                    <Trackpoint>
                        <DistanceMeters>25.446134567260742</DistanceMeters>
                        <Time>2022-07-05T04:54:31.388Z</Time>
                    </Trackpoint>
                    <Trackpoint>
                        <DistanceMeters>25.446134567260742</DistanceMeters>
                        <Time>2022-07-05T04:54:53.336Z</Time>
                    </Trackpoint>
                    <Trackpoint>
                        <DistanceMeters>53.68663024902344</DistanceMeters>
                        <Time>2022-07-05T04:55:43.679Z</Time>
                    </Trackpoint>
                </Track>
                <DistanceMeters>53.68663024902344</DistanceMeters>
                <TotalTimeSeconds>128.342886683</TotalTimeSeconds>
                <Calories>7.401794910430908</Calories>
                <Intensity>Active</Intensity>
                <TriggerMethod>Manual</TriggerMethod>
            </Lap>
        </Activity>
    </Activities>
    <Author xsi:type="Application_t">
        <Name>Google Fit</Name>
        <Build>
            <Version>
                <VersionMajor>0</VersionMajor>
                <VersionMinor>0</VersionMinor>
                <BuildMajor>0</BuildMajor>
                <BuildMinor>0</BuildMinor>
            </Version>
        </Build>
        <LangID>en</LangID>
        <PartNumber>000-00000-00</PartNumber>
    </Author>
</TrainingCenterDatabase>
