<?xml version="1.0" encoding="UTF-8"?>
<TrainingCenterDatabase
    xmlns="http://www.garmin.com/xmlschemas/TrainingCenterDatabase/v2"
    xmlns:ns2="http://www.garmin.com/xmlschemas/UserProfile/v2"
    xmlns:ns3="http://www.garmin.com/xmlschemas/ActivityExtension/v2"
    xmlns:ns4="http://www.garmin.com/xmlschemas/ProfileExtension/v1"
    xmlns:ns5="http://www.garmin.com/xmlschemas/ActivityGoals/v1"
    xmlns:xsi="http://www.w3.org/2001/XMLSchema-instance" xsi:schemaLocation="http://www.garmin.com/xmlschemas/TrainingCenterDatabase/v2 http://www.garmin.com/xmlschemas/TrainingCenterDatabasev2.xsd">
    <Activities>
        <Activity Sport="Walking">
            <Id>2022-09-25T16:26:15.959Z</Id>
            <Lap StartTime="2022-09-25T16:26:15.959Z">
                <Track>
                    <Trackpoint>
                        <DistanceMeters>0.0</DistanceMeters>
                        <Time>2022-09-25T16:26:15.959Z</Time>
                    </Trackpoint>
                    <Trackpoint>
                        <DistanceMeters>21.53134536743164</DistanceMeters>
                        <Time>2022-09-25T16:26:37.640Z</Time>
                    </Trackpoint>
                    <Trackpoint>
                        <DistanceMeters>21.53134536743164</DistanceMeters>
                        <Time>2022-09-25T16:27:30.498Z</Time>
                    </Trackpoint>
                </Track>
                <DistanceMeters>21.53134536743164</DistanceMeters>
                <TotalTimeSeconds>74.538104623</TotalTimeSeconds>
                <Calories>5.412071704864502</Calories>
                <Intensity>Active</Intensity>
                <TriggerMethod>Manual</TriggerMethod>
            </Lap>
        </Activity>
        <Activity Sport="Walking">
            <Id>2022-09-25T16:27:30.498Z</Id>
            <Lap StartTime="2022-09-25T16:27:30.498Z">
                <Track>
                    <Trackpoint>
                        <DistanceMeters>0.0</DistanceMeters>
                        <Time>2022-09-25T16:27:30.498Z</Time>
                    </Trackpoint>
                    <Trackpoint>
                        <DistanceMeters>0.0</DistanceMeters>
                        <Time>2022-09-25T16:29:29.139Z</Time>
                    </Trackpoint>
                    <Trackpoint>
                        <DistanceMeters>43.58330535888672</DistanceMeters>
                        <Time>2022-09-25T16:30:02.479Z</Time>
                    </Trackpoint>
                    <Trackpoint>
                        <DistanceMeters>92.06131744384766</DistanceMeters>
                        <Time>2022-09-25T16:30:38.279Z</Time>
                    </Trackpoint>
                    <Trackpoint>
                        <DistanceMeters>126.95267868041992</DistanceMeters>
                        <Time>2022-09-25T16:31:03.199Z</Time>
                    </Trackpoint>
                </Track>
                <DistanceMeters>126.95267868041992</DistanceMeters>
                <TotalTimeSeconds>212.701898151</TotalTimeSeconds>
                <Calories>12.069902660761581</Calories>
                <Intensity>Active</Intensity>
                <TriggerMethod>Manual</TriggerMethod>
            </Lap>
        </Activity>
        <Activity Sport="Walking">
            <Id>2022-09-25T16:30:38.279Z</Id>
            <Lap StartTime="2022-09-25T16:30:38.279Z">
                <Track>
                    <Trackpoint>
                        <DistanceMeters>0.0</DistanceMeters>
                        <Time>2022-09-25T16:30:38.279Z</Time>
                    </Trackpoint>
                    <Trackpoint>
                        <DistanceMeters>34.891361236572266</DistanceMeters>
                        <Time>2022-09-25T16:31:02.403Z</Time>
                    </Trackpoint>
                    <Trackpoint>
                        <DistanceMeters>34.891361236572266</DistanceMeters>
                        <Time>2022-09-25T16:31:03.199Z</Time>
                    </Trackpoint>
                    <Trackpoint>
                        <DistanceMeters>78.88714218139648</DistanceMeters>
                        <Time>2022-09-25T16:31:39.479Z</Time>
                    </Trackpoint>
                    <Trackpoint>
                        <DistanceMeters>90.80734348297119</DistanceMeters>
                        <Time>2022-09-25T16:31:49.699Z</Time>
                    </Trackpoint>
                    <Trackpoint>
                        <DistanceMeters>99.9418535232544</DistanceMeters>
                        <Time>2022-09-25T16:32:26.199Z</Time>
                    </Trackpoint>
                    <Trackpoint>
                        <DistanceMeters>124.73552227020264</DistanceMeters>
                        <Time>2022-09-25T16:33:42.199Z</Time>
                    </Trackpoint>
                </Track>
                <DistanceMeters>124.73552227020264</DistanceMeters>
                <TotalTimeSeconds>183.920000019</TotalTimeSeconds>
                <Calories>10.007591247558594</Calories>
                <Intensity>Active</Intensity>
                <TriggerMethod>Manual</TriggerMethod>
            </Lap>
        </Activity>
        <Activity Sport="Walking">
            <Id>2022-09-25T16:32:26.199Z</Id>
            <Lap StartTime="2022-09-25T16:32:26.199Z">
                <Track>
                    <Trackpoint>
                        <DistanceMeters>0.0</DistanceMeters>
                        <Time>2022-09-25T16:32:26.199Z</Time>
                    </Trackpoint>
                    <Trackpoint>
                        <DistanceMeters>24.793668746948242</DistanceMeters>
                        <Time>2022-09-25T16:33:42.129Z</Time>
                    </Trackpoint>
                    <Trackpoint>
                        <DistanceMeters>24.793668746948242</DistanceMeters>
                        <Time>2022-09-25T16:33:42.199Z</Time>
                    </Trackpoint>
                    <Trackpoint>
                        <DistanceMeters>59.65875053405762</DistanceMeters>
                        <Time>2022-09-25T16:34:07.159Z</Time>
                    </Trackpoint>
                    <Trackpoint>
                        <DistanceMeters>110.14938926696777</DistanceMeters>
                        <Time>2022-09-25T16:34:43.199Z</Time>
                    </Trackpoint>
                    <Trackpoint>
                        <DistanceMeters>143.2587947845459</DistanceMeters>
                        <Time>2022-09-25T16:35:07.519Z</Time>
                    </Trackpoint>
                    <Trackpoint>
                        <DistanceMeters>190.88819313049316</DistanceMeters>
                        <Time>2022-09-25T16:35:42.959Z</Time>
                    </Trackpoint>
                    <Trackpoint>
                        <DistanceMeters>226.634672164917</DistanceMeters>
                        <Time>2022-09-25T16:36:08.239Z</Time>
                    </Trackpoint>
                    <Trackpoint>
                        <DistanceMeters>275.06250190734863</DistanceMeters>
                        <Time>2022-09-25T16:36:44.119Z</Time>
                    </Trackpoint>
                    <Trackpoint>
                        <DistanceMeters>309.7203617095947</DistanceMeters>
                        <Time>2022-09-25T16:37:09.399Z</Time>
                    </Trackpoint>
                    <Trackpoint>
                        <DistanceMeters>358.0237064361572</DistanceMeters>
                        <Time>2022-09-25T16:37:45.479Z</Time>
                    </Trackpoint>
                    <Trackpoint>
                        <DistanceMeters>389.41200256347656</DistanceMeters>
                        <Time>2022-09-25T16:38:09.119Z</Time>
                    </Trackpoint>
                    <Trackpoint>
                        <DistanceMeters>435.6186866760254</DistanceMeters>
                        <Time>2022-09-25T16:38:45.159Z</Time>
                    </Trackpoint>
                    <Trackpoint>
                        <DistanceMeters>468.166690826416</DistanceMeters>
                        <Time>2022-09-25T16:39:10.399Z</Time>
                    </Trackpoint>
                    <Trackpoint>
                        <DistanceMeters>511.5696220397949</DistanceMeters>
                        <Time>2022-09-25T16:39:45.879Z</Time>
                    </Trackpoint>
                    <Trackpoint>
                        <DistanceMeters>538.4846649169922</DistanceMeters>
                        <Time>2022-09-25T16:40:10.199Z</Time>
                    </Trackpoint>
                    <Trackpoint>
                        <DistanceMeters>566.5406589508057</DistanceMeters>
                        <Time>2022-09-25T16:40:47.079Z</Time>
                    </Trackpoint>
                </Track>
                <DistanceMeters>566.5406589508057</DistanceMeters>
                <TotalTimeSeconds>500.880002195</TotalTimeSeconds>
                <Calories>42.68449020385742</Calories>
                <Intensity>Active</Intensity>
                <TriggerMethod>Manual</TriggerMethod>
            </Lap>
        </Activity>
        <Activity Sport="Walking">
            <Id>2022-09-25T16:40:10.199Z</Id>
            <Lap StartTime="2022-09-25T16:40:10.199Z">
                <Track>
                    <Trackpoint>
                        <DistanceMeters>0.0</DistanceMeters>
                        <Time>2022-09-25T16:40:10.199Z</Time>
                    </Trackpoint>
                    <Trackpoint>
                        <DistanceMeters>28.055994033813477</DistanceMeters>
                        <Time>2022-09-25T16:40:39.015Z</Time>
                    </Trackpoint>
                    <Trackpoint>
                        <DistanceMeters>28.055994033813477</DistanceMeters>
                        <Time>2022-09-25T16:40:47.079Z</Time>
                    </Trackpoint>
                    <Trackpoint>
                        <DistanceMeters>43.06268882751465</DistanceMeters>
                        <Time>2022-09-25T16:41:08.339Z</Time>
                    </Trackpoint>
                </Track>
                <DistanceMeters>43.06268882751465</DistanceMeters>
                <TotalTimeSeconds>58.139999875</TotalTimeSeconds>
                <Calories>3.0025434494018555</Calories>
                <Intensity>Active</Intensity>
                <TriggerMethod>Manual</TriggerMethod>
            </Lap>
        </Activity>
        <Activity Sport="Walking">
            <Id>2022-09-25T16:41:08.339Z</Id>
            <Lap StartTime="2022-09-25T16:41:08.339Z">
                <Track>
                    <Trackpoint>
                        <DistanceMeters>0.0</DistanceMeters>
                        <Time>2022-09-25T16:41:08.339Z</Time>
                    </Trackpoint>
                    <Trackpoint>
                        <DistanceMeters>9.786974906921387</DistanceMeters>
                        <Time>2022-09-25T16:41:47.559Z</Time>
                    </Trackpoint>
                    <Trackpoint>
                        <DistanceMeters>56.11198711395264</DistanceMeters>
                        <Time>2022-09-25T16:42:42.479Z</Time>
                    </Trackpoint>
                    <Trackpoint>
                        <DistanceMeters>80.88540172576904</DistanceMeters>
                        <Time>2022-09-25T16:43:05.079Z</Time>
                    </Trackpoint>
                </Track>
                <DistanceMeters>80.88540172576904</DistanceMeters>
                <TotalTimeSeconds>116.740000011</TotalTimeSeconds>
                <Calories>7.764537737120164</Calories>
                <Intensity>Active</Intensity>
                <TriggerMethod>Manual</TriggerMethod>
            </Lap>
        </Activity>
        <Activity Sport="Walking">
            <Id>2022-09-25T16:42:42.479Z</Id>
            <Lap StartTime="2022-09-25T16:42:42.479Z">
                <Track>
                    <Trackpoint>
                        <DistanceMeters>0.0</DistanceMeters>
                        <Time>2022-09-25T16:42:42.479Z</Time>
                    </Trackpoint>
                    <Trackpoint>
                        <DistanceMeters>24.773414611816406</DistanceMeters>
                        <Time>2022-09-25T16:42:55.255Z</Time>
                    </Trackpoint>
                    <Trackpoint>
                        <DistanceMeters>24.773414611816406</DistanceMeters>
                        <Time>2022-09-25T16:43:05.079Z</Time>
                    </Trackpoint>
                    <Trackpoint>
                        <DistanceMeters>65.74290466308594</DistanceMeters>
                        <Time>2022-09-25T16:43:43.439Z</Time>
                    </Trackpoint>
                    <Trackpoint>
                        <DistanceMeters>90.57294082641602</DistanceMeters>
                        <Time>2022-09-25T16:44:05.919Z</Time>
                    </Trackpoint>
                    <Trackpoint>
                        <DistanceMeters>134.5222511291504</DistanceMeters>
                        <Time>2022-09-25T16:44:44.239Z</Time>
                    </Trackpoint>
                    <Trackpoint>
                        <DistanceMeters>161.23158264160156</DistanceMeters>
                        <Time>2022-09-25T16:45:06.959Z</Time>
                    </Trackpoint>
                    <Trackpoint>
                        <DistanceMeters>205.26122665405273</DistanceMeters>
                        <Time>2022-09-25T16:45:45.119Z</Time>
                    </Trackpoint>
                    <Trackpoint>
                        <DistanceMeters>232.77671241760254</DistanceMeters>
                        <Time>2022-09-25T16:46:08.239Z</Time>
                    </Trackpoint>
                    <Trackpoint>
                        <DistanceMeters>274.2875156402588</DistanceMeters>
                        <Time>2022-09-25T16:46:45.439Z</Time>
                    </Trackpoint>
                    <Trackpoint>
                        <DistanceMeters>303.5965633392334</DistanceMeters>
                        <Time>2022-09-25T16:47:09.039Z</Time>
                    </Trackpoint>
                    <Trackpoint>
                        <DistanceMeters>350.2052593231201</DistanceMeters>
                        <Time>2022-09-25T16:47:46.199Z</Time>
                    </Trackpoint>
                    <Trackpoint>
                        <DistanceMeters>378.68019676208496</DistanceMeters>
                        <Time>2022-09-25T16:48:09.439Z</Time>
                    </Trackpoint>
                    <Trackpoint>
                        <DistanceMeters>422.9342632293701</DistanceMeters>
                        <Time>2022-09-25T16:48:47.159Z</Time>
                    </Trackpoint>
                    <Trackpoint>
                        <DistanceMeters>450.42873191833496</DistanceMeters>
                        <Time>2022-09-25T16:49:10.319Z</Time>
                    </Trackpoint>
                    <Trackpoint>
                        <DistanceMeters>494.74491691589355</DistanceMeters>
                        <Time>2022-09-25T16:49:47.919Z</Time>
                    </Trackpoint>
                    <Trackpoint>
                        <DistanceMeters>519.7485122680664</DistanceMeters>
                        <Time>2022-09-25T16:50:10.039Z</Time>
                    </Trackpoint>
                    <Trackpoint>
                        <DistanceMeters>566.4649047851562</DistanceMeters>
                        <Time>2022-09-25T16:50:48.879Z</Time>
                    </Trackpoint>
                    <Trackpoint>
                        <DistanceMeters>592.3698692321777</DistanceMeters>
                        <Time>2022-09-25T16:51:11.199Z</Time>
                    </Trackpoint>
                    <Trackpoint>
                        <DistanceMeters>608.4980335235596</DistanceMeters>
                        <Time>2022-09-25T16:51:57.999Z</Time>
                    </Trackpoint>
                    <Trackpoint>
                        <DistanceMeters>623.5047283172607</DistanceMeters>
                        <Time>2022-09-25T16:52:57.999Z</Time>
                    </Trackpoint>
                </Track>
                <DistanceMeters>623.5047283172607</DistanceMeters>
                <TotalTimeSeconds>615.519998208</TotalTimeSeconds>
                <Calories>58.389923095703125</Calories>
                <Intensity>Active</Intensity>
                <TriggerMethod>Manual</TriggerMethod>
            </Lap>
        </Activity>
    </Activities>
    <Author xsi:type="Application_t">
        <Name>Google Fit</Name>
        <Build>
            <Version>
                <VersionMajor>0</VersionMajor>
                <VersionMinor>0</VersionMinor>
                <BuildMajor>0</BuildMajor>
                <BuildMinor>0</BuildMinor>
            </Version>
        </Build>
        <LangID>en</LangID>
        <PartNumber>000-00000-00</PartNumber>
    </Author>
</TrainingCenterDatabase>
