<?xml version="1.0" encoding="UTF-8"?>
<TrainingCenterDatabase
    xmlns="http://www.garmin.com/xmlschemas/TrainingCenterDatabase/v2"
    xmlns:ns2="http://www.garmin.com/xmlschemas/UserProfile/v2"
    xmlns:ns3="http://www.garmin.com/xmlschemas/ActivityExtension/v2"
    xmlns:ns4="http://www.garmin.com/xmlschemas/ProfileExtension/v1"
    xmlns:ns5="http://www.garmin.com/xmlschemas/ActivityGoals/v1"
    xmlns:xsi="http://www.w3.org/2001/XMLSchema-instance" xsi:schemaLocation="http://www.garmin.com/xmlschemas/TrainingCenterDatabase/v2 http://www.garmin.com/xmlschemas/TrainingCenterDatabasev2.xsd">
    <Activities>
        <Activity Sport="Walking">
            <Id>2022-11-18T07:17:16.212Z</Id>
            <Lap StartTime="2022-11-18T07:17:16.212Z">
                <Track>
                    <Trackpoint>
                        <DistanceMeters>0.0</DistanceMeters>
                        <Time>2022-11-18T07:17:16.212Z</Time>
                    </Trackpoint>
                    <Trackpoint>
                        <DistanceMeters>50.892269888745545</DistanceMeters>
                        <Time>2022-11-18T07:17:59.472Z</Time>
                    </Trackpoint>
                    <Trackpoint>
                        <DistanceMeters>50.892269888745545</DistanceMeters>
                        <Time>2022-11-18T07:18:49.232Z</Time>
                    </Trackpoint>
                    <Trackpoint>
                        <DistanceMeters>100.47960978034376</DistanceMeters>
                        <Time>2022-11-18T07:19:50.312Z</Time>
                    </Trackpoint>
                    <Trackpoint>
                        <DistanceMeters>162.3644892249909</DistanceMeters>
                        <Time>2022-11-18T07:20:51.272Z</Time>
                    </Trackpoint>
                    <Trackpoint>
                        <DistanceMeters>200.20745914226325</DistanceMeters>
                        <Time>2022-11-18T07:21:40.732Z</Time>
                    </Trackpoint>
                </Track>
                <DistanceMeters>200.20745914226325</DistanceMeters>
                <TotalTimeSeconds>264.520000002</TotalTimeSeconds>
                <Calories>21.729379555555553</Calories>
                <Intensity>Active</Intensity>
                <TriggerMethod>Manual</TriggerMethod>
            </Lap>
        </Activity>
        <Activity Sport="Walking">
            <Id>2022-11-18T07:20:51.272Z</Id>
            <Lap StartTime="2022-11-18T07:20:51.272Z">
                <Track>
                    <Trackpoint>
                        <DistanceMeters>0.0</DistanceMeters>
                        <Time>2022-11-18T07:20:51.272Z</Time>
                    </Trackpoint>
                    <Trackpoint>
                        <DistanceMeters>37.84296991727233</DistanceMeters>
                        <Time>2022-11-18T07:21:31.696Z</Time>
                    </Trackpoint>
                    <Trackpoint>
                        <DistanceMeters>37.84296991727233</DistanceMeters>
                        <Time>2022-11-18T07:21:40.732Z</Time>
                    </Trackpoint>
                    <Trackpoint>
                        <DistanceMeters>106.74864379990416</DistanceMeters>
                        <Time>2022-11-18T07:22:52.232Z</Time>
                    </Trackpoint>
                </Track>
                <DistanceMeters>106.74864379990416</DistanceMeters>
                <TotalTimeSeconds>120.959999958</TotalTimeSeconds>
                <Calories>2.0756275555555557</Calories>
                <Intensity>Active</Intensity>
                <TriggerMethod>Manual</TriggerMethod>
            </Lap>
        </Activity>
        <Activity Sport="Walking">
            <Id>2022-11-18T07:21:40.732Z</Id>
            <Lap StartTime="2022-11-18T07:21:40.732Z">
                <Track>
                    <Trackpoint>
                        <DistanceMeters>0.0</DistanceMeters>
                        <Time>2022-11-18T07:21:40.732Z</Time>
                    </Trackpoint>
                    <Trackpoint>
                        <DistanceMeters>68.90567388263183</DistanceMeters>
                        <Time>2022-11-18T07:21:51.968Z</Time>
                    </Trackpoint>
                    <Trackpoint>
                        <DistanceMeters>68.90567388263183</DistanceMeters>
                        <Time>2022-11-18T07:22:52.232Z</Time>
                    </Trackpoint>
                    <Trackpoint>
                        <DistanceMeters>123.77089664312945</DistanceMeters>
                        <Time>2022-11-18T07:23:52.072Z</Time>
                    </Trackpoint>
                    <Trackpoint>
                        <DistanceMeters>186.4395519114809</DistanceMeters>
                        <Time>2022-11-18T07:24:53.432Z</Time>
                    </Trackpoint>
                    <Trackpoint>
                        <DistanceMeters>219.06280184016393</DistanceMeters>
                        <Time>2022-11-18T07:25:54.272Z</Time>
                    </Trackpoint>
                    <Trackpoint>
                        <DistanceMeters>266.68101251773294</DistanceMeters>
                        <Time>2022-11-18T07:26:43.992Z</Time>
                    </Trackpoint>
                    <Trackpoint>
                        <DistanceMeters>328.01272238365704</DistanceMeters>
                        <Time>2022-11-18T07:27:57.032Z</Time>
                    </Trackpoint>
                    <Trackpoint>
                        <DistanceMeters>379.99503645915956</DistanceMeters>
                        <Time>2022-11-18T07:28:51.773Z</Time>
                    </Trackpoint>
                </Track>
                <DistanceMeters>379.99503645915956</DistanceMeters>
                <TotalTimeSeconds>431.040774148</TotalTimeSeconds>
                <Calories>42.98336749999999</Calories>
                <Intensity>Active</Intensity>
                <TriggerMethod>Manual</TriggerMethod>
            </Lap>
        </Activity>
        <Activity Sport="Walking">
            <Id>2022-11-18T07:30:18.894Z</Id>
            <Lap StartTime="2022-11-18T07:30:18.894Z">
                <Track>
                    <Trackpoint>
                        <DistanceMeters>0.0</DistanceMeters>
                        <Time>2022-11-18T07:30:18.894Z</Time>
                    </Trackpoint>
                    <Trackpoint>
                        <DistanceMeters>27.54484199791176</DistanceMeters>
                        <Time>2022-11-18T07:31:07.352Z</Time>
                    </Trackpoint>
                    <Trackpoint>
                        <DistanceMeters>84.86766285335536</DistanceMeters>
                        <Time>2022-11-18T07:32:07.992Z</Time>
                    </Trackpoint>
                    <Trackpoint>
                        <DistanceMeters>115.53351778631742</DistanceMeters>
                        <Time>2022-11-18T07:32:47.312Z</Time>
                    </Trackpoint>
                    <Trackpoint>
                        <DistanceMeters>140.57645032736545</DistanceMeters>
                        <Time>2022-11-18T07:33:09.352Z</Time>
                    </Trackpoint>
                    <Trackpoint>
                        <DistanceMeters>178.5754787399862</DistanceMeters>
                        <Time>2022-11-18T07:33:47.952Z</Time>
                    </Trackpoint>
                    <Trackpoint>
                        <DistanceMeters>195.10333600307203</DistanceMeters>
                        <Time>2022-11-18T07:34:05.232Z</Time>
                    </Trackpoint>
                    <Trackpoint>
                        <DistanceMeters>239.57183603850103</DistanceMeters>
                        <Time>2022-11-18T07:34:48.792Z</Time>
                    </Trackpoint>
                    <Trackpoint>
                        <DistanceMeters>265.31644145504356</DistanceMeters>
                        <Time>2022-11-18T07:35:11.432Z</Time>
                    </Trackpoint>
                    <Trackpoint>
                        <DistanceMeters>308.6443229126157</DistanceMeters>
                        <Time>2022-11-18T07:35:48.992Z</Time>
                    </Trackpoint>
                    <Trackpoint>
                        <DistanceMeters>335.52160489660963</DistanceMeters>
                        <Time>2022-11-18T07:36:11.392Z</Time>
                    </Trackpoint>
                    <Trackpoint>
                        <DistanceMeters>379.2729969024448</DistanceMeters>
                        <Time>2022-11-18T07:36:50.112Z</Time>
                    </Trackpoint>
                    <Trackpoint>
                        <DistanceMeters>405.3012820497189</DistanceMeters>
                        <Time>2022-11-18T07:37:12.192Z</Time>
                    </Trackpoint>
                    <Trackpoint>
                        <DistanceMeters>451.0002909319345</DistanceMeters>
                        <Time>2022-11-18T07:37:51.032Z</Time>
                    </Trackpoint>
                    <Trackpoint>
                        <DistanceMeters>476.4955728531929</DistanceMeters>
                        <Time>2022-11-18T07:38:12.192Z</Time>
                    </Trackpoint>
                    <Trackpoint>
                        <DistanceMeters>517.7036168221697</DistanceMeters>
                        <Time>2022-11-18T07:38:50.032Z</Time>
                    </Trackpoint>
                    <Trackpoint>
                        <DistanceMeters>540.4447491799558</DistanceMeters>
                        <Time>2022-11-18T07:39:12.872Z</Time>
                    </Trackpoint>
                    <Trackpoint>
                        <DistanceMeters>584.7808620817407</DistanceMeters>
                        <Time>2022-11-18T07:39:52.432Z</Time>
                    </Trackpoint>
                    <Trackpoint>
                        <DistanceMeters>605.4928188652839</DistanceMeters>
                        <Time>2022-11-18T07:40:13.312Z</Time>
                    </Trackpoint>
                    <Trackpoint>
                        <DistanceMeters>642.7467830091387</DistanceMeters>
                        <Time>2022-11-18T07:40:53.852Z</Time>
                    </Trackpoint>
                    <Trackpoint>
                        <DistanceMeters>650.5763629920226</DistanceMeters>
                        <Time>2022-11-18T07:41:12.832Z</Time>
                    </Trackpoint>
                    <Trackpoint>
                        <DistanceMeters>687.7668679107213</DistanceMeters>
                        <Time>2022-11-18T07:41:56.432Z</Time>
                    </Trackpoint>
                    <Trackpoint>
                        <DistanceMeters>696.9013778907525</DistanceMeters>
                        <Time>2022-11-18T07:42:14.272Z</Time>
                    </Trackpoint>
                    <Trackpoint>
                        <DistanceMeters>734.7443478080248</DistanceMeters>
                        <Time>2022-11-18T07:42:58.272Z</Time>
                    </Trackpoint>
                    <Trackpoint>
                        <DistanceMeters>751.7714856115354</DistanceMeters>
                        <Time>2022-11-18T07:43:14.352Z</Time>
                    </Trackpoint>
                    <Trackpoint>
                        <DistanceMeters>790.2669205273813</DistanceMeters>
                        <Time>2022-11-18T07:43:59.192Z</Time>
                    </Trackpoint>
                    <Trackpoint>
                        <DistanceMeters>804.6211504960019</DistanceMeters>
                        <Time>2022-11-18T07:44:15.072Z</Time>
                    </Trackpoint>
                    <Trackpoint>
                        <DistanceMeters>833.9820754318166</DistanceMeters>
                        <Time>2022-11-18T07:44:59.552Z</Time>
                    </Trackpoint>
                    <Trackpoint>
                        <DistanceMeters>853.0768500105095</DistanceMeters>
                        <Time>2022-11-18T07:45:15.472Z</Time>
                    </Trackpoint>
                    <Trackpoint>
                        <DistanceMeters>905.8352038973105</DistanceMeters>
                        <Time>2022-11-18T07:46:00.232Z</Time>
                    </Trackpoint>
                    <Trackpoint>
                        <DistanceMeters>923.9009851869243</DistanceMeters>
                        <Time>2022-11-18T07:46:16.192Z</Time>
                    </Trackpoint>
                    <Trackpoint>
                        <DistanceMeters>976.6801307151215</DistanceMeters>
                        <Time>2022-11-18T07:47:00.912Z</Time>
                    </Trackpoint>
                    <Trackpoint>
                        <DistanceMeters>992.0846413809726</DistanceMeters>
                        <Time>2022-11-18T07:47:16.312Z</Time>
                    </Trackpoint>
                    <Trackpoint>
                        <DistanceMeters>1033.8693786924691</DistanceMeters>
                        <Time>2022-11-18T07:48:01.952Z</Time>
                    </Trackpoint>
                    <Trackpoint>
                        <DistanceMeters>1053.9060604758758</DistanceMeters>
                        <Time>2022-11-18T07:48:18.032Z</Time>
                    </Trackpoint>
                    <Trackpoint>
                        <DistanceMeters>1110.4429366212478</DistanceMeters>
                        <Time>2022-11-18T07:49:03.392Z</Time>
                    </Trackpoint>
                    <Trackpoint>
                        <DistanceMeters>1129.6893531147416</DistanceMeters>
                        <Time>2022-11-18T07:49:19.032Z</Time>
                    </Trackpoint>
                    <Trackpoint>
                        <DistanceMeters>1163.8972727554228</DistanceMeters>
                        <Time>2022-11-18T07:49:57.368Z</Time>
                    </Trackpoint>
                </Track>
                <DistanceMeters>1163.8972727554228</DistanceMeters>
                <TotalTimeSeconds>1178.474</TotalTimeSeconds>
                <Calories>120.66264344444444</Calories>
                <Intensity>Active</Intensity>
                <TriggerMethod>Manual</TriggerMethod>
            </Lap>
        </Activity>
        <Activity Sport="Walking">
            <Id>2022-11-18T07:51:21.177Z</Id>
            <Lap StartTime="2022-11-18T07:51:21.177Z">
                <Track>
                    <Trackpoint>
                        <DistanceMeters>0.0</DistanceMeters>
                        <Time>2022-11-18T07:51:21.177Z</Time>
                    </Trackpoint>
                    <Trackpoint>
                        <DistanceMeters>0.0</DistanceMeters>
                        <Time>2022-11-18T07:51:36.351Z</Time>
                    </Trackpoint>
                </Track>
                <DistanceMeters>0.0</DistanceMeters>
                <TotalTimeSeconds>15.174</TotalTimeSeconds>
                <Calories>1.553649</Calories>
                <Intensity>Active</Intensity>
                <TriggerMethod>Manual</TriggerMethod>
            </Lap>
        </Activity>
        <Activity Sport="Walking">
            <Id>2022-11-18T07:53:11.236Z</Id>
            <Lap StartTime="2022-11-18T07:53:11.236Z">
                <Track>
                    <Trackpoint>
                        <DistanceMeters>0.0</DistanceMeters>
                        <Time>2022-11-18T07:53:11.236Z</Time>
                    </Trackpoint>
                    <Trackpoint>
                        <DistanceMeters>0.0</DistanceMeters>
                        <Time>2022-11-18T07:53:13.392Z</Time>
                    </Trackpoint>
                    <Trackpoint>
                        <DistanceMeters>8.482044981457591</DistanceMeters>
                        <Time>2022-11-18T07:53:45.592Z</Time>
                    </Trackpoint>
                </Track>
                <DistanceMeters>8.482044981457591</DistanceMeters>
                <TotalTimeSeconds>34.356225437</TotalTimeSeconds>
                <Calories>1.3945366666666665</Calories>
                <Intensity>Active</Intensity>
                <TriggerMethod>Manual</TriggerMethod>
            </Lap>
        </Activity>
        <Activity Sport="Walking">
            <Id>2022-11-18T07:53:13.392Z</Id>
            <Lap StartTime="2022-11-18T07:53:13.392Z">
                <Track>
                    <Trackpoint>
                        <DistanceMeters>0.0</DistanceMeters>
                        <Time>2022-11-18T07:53:13.392Z</Time>
                    </Trackpoint>
                    <Trackpoint>
                        <DistanceMeters>8.482044981457591</DistanceMeters>
                        <Time>2022-11-18T07:53:40.030Z</Time>
                    </Trackpoint>
                    <Trackpoint>
                        <DistanceMeters>8.482044981457591</DistanceMeters>
                        <Time>2022-11-18T07:53:45.592Z</Time>
                    </Trackpoint>
                    <Trackpoint>
                        <DistanceMeters>33.928179925830364</DistanceMeters>
                        <Time>2022-11-18T07:54:18.072Z</Time>
                    </Trackpoint>
                    <Trackpoint>
                        <DistanceMeters>52.84966488446653</DistanceMeters>
                        <Time>2022-11-18T07:55:12.792Z</Time>
                    </Trackpoint>
                </Track>
                <DistanceMeters>52.84966488446653</DistanceMeters>
                <TotalTimeSeconds>119.399999486</TotalTimeSeconds>
                <Calories>6.7124107777777775</Calories>
                <Intensity>Active</Intensity>
                <TriggerMethod>Manual</TriggerMethod>
            </Lap>
        </Activity>
    </Activities>
    <Author xsi:type="Application_t">
        <Name>Google Fit</Name>
        <Build>
            <Version>
                <VersionMajor>0</VersionMajor>
                <VersionMinor>0</VersionMinor>
                <BuildMajor>0</BuildMajor>
                <BuildMinor>0</BuildMinor>
            </Version>
        </Build>
        <LangID>en</LangID>
        <PartNumber>000-00000-00</PartNumber>
    </Author>
</TrainingCenterDatabase>
