<?xml version="1.0" encoding="UTF-8"?>
<TrainingCenterDatabase
    xmlns="http://www.garmin.com/xmlschemas/TrainingCenterDatabase/v2"
    xmlns:ns2="http://www.garmin.com/xmlschemas/UserProfile/v2"
    xmlns:ns3="http://www.garmin.com/xmlschemas/ActivityExtension/v2"
    xmlns:ns4="http://www.garmin.com/xmlschemas/ProfileExtension/v1"
    xmlns:ns5="http://www.garmin.com/xmlschemas/ActivityGoals/v1"
    xmlns:xsi="http://www.w3.org/2001/XMLSchema-instance" xsi:schemaLocation="http://www.garmin.com/xmlschemas/TrainingCenterDatabase/v2 http://www.garmin.com/xmlschemas/TrainingCenterDatabasev2.xsd">
    <Activities>
        <Activity Sport="Walking">
            <Id>2022-06-20T13:10:46.625Z</Id>
            <Lap StartTime="2022-06-20T13:10:46.625Z">
                <Track>
                    <Trackpoint>
                        <DistanceMeters>0.0</DistanceMeters>
                        <Time>2022-06-20T13:10:46.625Z</Time>
                    </Trackpoint>
                    <Trackpoint>
                        <DistanceMeters>0.0</DistanceMeters>
                        <Time>2022-06-20T13:11:04.204Z</Time>
                    </Trackpoint>
                    <Trackpoint>
                        <DistanceMeters>30.013389587402344</DistanceMeters>
                        <Time>2022-06-20T13:12:36.204Z</Time>
                    </Trackpoint>
                    <Trackpoint>
                        <DistanceMeters>40.63787078857422</DistanceMeters>
                        <Time>2022-06-20T13:12:47.144Z</Time>
                    </Trackpoint>
                    <Trackpoint>
                        <DistanceMeters>66.2086067199707</DistanceMeters>
                        <Time>2022-06-20T13:15:32.010Z</Time>
                    </Trackpoint>
                </Track>
                <DistanceMeters>66.2086067199707</DistanceMeters>
                <TotalTimeSeconds>285.385</TotalTimeSeconds>
                <Calories>29.220251083374023</Calories>
                <Intensity>Active</Intensity>
                <TriggerMethod>Manual</TriggerMethod>
            </Lap>
        </Activity>
        <Activity Sport="Walking">
            <Id>2022-06-20T13:19:02.944Z</Id>
            <Lap StartTime="2022-06-20T13:19:02.944Z">
                <Track>
                    <Trackpoint>
                        <DistanceMeters>0.0</DistanceMeters>
                        <Time>2022-06-20T13:19:02.944Z</Time>
                    </Trackpoint>
                    <Trackpoint>
                        <DistanceMeters>31.31831932067871</DistanceMeters>
                        <Time>2022-06-20T13:19:07.921Z</Time>
                    </Trackpoint>
                    <Trackpoint>
                        <DistanceMeters>31.31831932067871</DistanceMeters>
                        <Time>2022-06-20T13:20:18.444Z</Time>
                    </Trackpoint>
                    <Trackpoint>
                        <DistanceMeters>39.80036449432373</DistanceMeters>
                        <Time>2022-06-20T13:22:55.044Z</Time>
                    </Trackpoint>
                    <Trackpoint>
                        <DistanceMeters>58.721848487854004</DistanceMeters>
                        <Time>2022-06-20T13:24:15.064Z</Time>
                    </Trackpoint>
                    <Trackpoint>
                        <DistanceMeters>75.68593883514404</DistanceMeters>
                        <Time>2022-06-20T13:25:42.426Z</Time>
                    </Trackpoint>
                </Track>
                <DistanceMeters>75.68593883514404</DistanceMeters>
                <TotalTimeSeconds>399.481110681</TotalTimeSeconds>
                <Calories>40.39292526245117</Calories>
                <Intensity>Active</Intensity>
                <TriggerMethod>Manual</TriggerMethod>
            </Lap>
        </Activity>
        <Activity Sport="Walking">
            <Id>2022-06-20T13:26:43.403Z</Id>
            <Lap StartTime="2022-06-20T13:26:43.403Z">
                <Track>
                    <Trackpoint>
                        <DistanceMeters>0.0</DistanceMeters>
                        <Time>2022-06-20T13:26:43.403Z</Time>
                    </Trackpoint>
                    <Trackpoint>
                        <DistanceMeters>0.0</DistanceMeters>
                        <Time>2022-06-20T13:27:01.124Z</Time>
                    </Trackpoint>
                    <Trackpoint>
                        <DistanceMeters>22.836275100708008</DistanceMeters>
                        <Time>2022-06-20T13:27:37.344Z</Time>
                    </Trackpoint>
                    <Trackpoint>
                        <DistanceMeters>34.580644607543945</DistanceMeters>
                        <Time>2022-06-20T13:29:14.912Z</Time>
                    </Trackpoint>
                </Track>
                <DistanceMeters>34.580644607543945</DistanceMeters>
                <TotalTimeSeconds>151.509</TotalTimeSeconds>
                <Calories>15.512836456298828</Calories>
                <Intensity>Active</Intensity>
                <TriggerMethod>Manual</TriggerMethod>
            </Lap>
        </Activity>
        <Activity Sport="Walking">
            <Id>2022-06-20T13:35:18.961Z</Id>
            <Lap StartTime="2022-06-20T13:35:18.961Z">
                <Track>
                    <Trackpoint>
                        <DistanceMeters>0.0</DistanceMeters>
                        <Time>2022-06-20T13:35:18.961Z</Time>
                    </Trackpoint>
                    <Trackpoint>
                        <DistanceMeters>1.613124132156372</DistanceMeters>
                        <Time>2022-06-20T13:35:23.664Z</Time>
                    </Trackpoint>
                    <Trackpoint>
                        <DistanceMeters>155.06690526008606</DistanceMeters>
                        <Time>2022-06-20T13:37:10.464Z</Time>
                    </Trackpoint>
                    <Trackpoint>
                        <DistanceMeters>246.3875687122345</DistanceMeters>
                        <Time>2022-06-20T13:38:06.384Z</Time>
                    </Trackpoint>
                    <Trackpoint>
                        <DistanceMeters>305.18256306648254</DistanceMeters>
                        <Time>2022-06-20T13:38:51.464Z</Time>
                    </Trackpoint>
                    <Trackpoint>
                        <DistanceMeters>418.34623646736145</DistanceMeters>
                        <Time>2022-06-20T13:40:22.024Z</Time>
                    </Trackpoint>
                    <Trackpoint>
                        <DistanceMeters>497.01459431648254</DistanceMeters>
                        <Time>2022-06-20T13:41:19.944Z</Time>
                    </Trackpoint>
                    <Trackpoint>
                        <DistanceMeters>541.0939667224884</DistanceMeters>
                        <Time>2022-06-20T13:42:02.184Z</Time>
                    </Trackpoint>
                    <Trackpoint>
                        <DistanceMeters>568.2698223590851</DistanceMeters>
                        <Time>2022-06-20T13:42:28.064Z</Time>
                    </Trackpoint>
                    <Trackpoint>
                        <DistanceMeters>623.7417805194855</DistanceMeters>
                        <Time>2022-06-20T13:43:28.744Z</Time>
                    </Trackpoint>
                    <Trackpoint>
                        <DistanceMeters>671.6598751544952</DistanceMeters>
                        <Time>2022-06-20T13:44:20.104Z</Time>
                    </Trackpoint>
                    <Trackpoint>
                        <DistanceMeters>685.36164021492</DistanceMeters>
                        <Time>2022-06-20T13:44:36.444Z</Time>
                    </Trackpoint>
                    <Trackpoint>
                        <DistanceMeters>731.6866524219513</DistanceMeters>
                        <Time>2022-06-20T13:48:53.224Z</Time>
                    </Trackpoint>
                    <Trackpoint>
                        <DistanceMeters>759.7426464557648</DistanceMeters>
                        <Time>2022-06-20T13:49:57.897Z</Time>
                    </Trackpoint>
                </Track>
                <DistanceMeters>759.7426464557648</DistanceMeters>
                <TotalTimeSeconds>878.936</TotalTimeSeconds>
                <Calories>89.99327850341797</Calories>
                <Intensity>Active</Intensity>
                <TriggerMethod>Manual</TriggerMethod>
            </Lap>
        </Activity>
        <Activity Sport="Walking">
            <Id>2022-06-20T13:53:29.055Z</Id>
            <Lap StartTime="2022-06-20T13:53:29.055Z">
                <Track>
                    <Trackpoint>
                        <DistanceMeters>0.0</DistanceMeters>
                        <Time>2022-06-20T13:53:29.055Z</Time>
                    </Trackpoint>
                    <Trackpoint>
                        <DistanceMeters>0.0</DistanceMeters>
                        <Time>2022-06-20T13:53:59.480Z</Time>
                    </Trackpoint>
                </Track>
                <DistanceMeters>0.0</DistanceMeters>
                <TotalTimeSeconds>30.425</TotalTimeSeconds>
                <Calories>3.1151819229125977</Calories>
                <Intensity>Active</Intensity>
                <TriggerMethod>Manual</TriggerMethod>
            </Lap>
        </Activity>
    </Activities>
    <Author xsi:type="Application_t">
        <Name>Google Fit</Name>
        <Build>
            <Version>
                <VersionMajor>0</VersionMajor>
                <VersionMinor>0</VersionMinor>
                <BuildMajor>0</BuildMajor>
                <BuildMinor>0</BuildMinor>
            </Version>
        </Build>
        <LangID>en</LangID>
        <PartNumber>000-00000-00</PartNumber>
    </Author>
</TrainingCenterDatabase>
