<?xml version="1.0" encoding="UTF-8"?>
<TrainingCenterDatabase
    xmlns="http://www.garmin.com/xmlschemas/TrainingCenterDatabase/v2"
    xmlns:ns2="http://www.garmin.com/xmlschemas/UserProfile/v2"
    xmlns:ns3="http://www.garmin.com/xmlschemas/ActivityExtension/v2"
    xmlns:ns4="http://www.garmin.com/xmlschemas/ProfileExtension/v1"
    xmlns:ns5="http://www.garmin.com/xmlschemas/ActivityGoals/v1"
    xmlns:xsi="http://www.w3.org/2001/XMLSchema-instance" xsi:schemaLocation="http://www.garmin.com/xmlschemas/TrainingCenterDatabase/v2 http://www.garmin.com/xmlschemas/TrainingCenterDatabasev2.xsd">
    <Activities>
        <Activity Sport="Walking">
            <Id>2022-11-18T04:15:38.889Z</Id>
            <Lap StartTime="2022-11-18T04:15:38.889Z">
                <Track>
                    <Trackpoint>
                        <DistanceMeters>0.0</DistanceMeters>
                        <Time>2022-11-18T04:15:38.889Z</Time>
                    </Trackpoint>
                    <Trackpoint>
                        <DistanceMeters>0.0</DistanceMeters>
                        <Time>2022-11-18T04:40:32.992Z</Time>
                    </Trackpoint>
                    <Trackpoint>
                        <DistanceMeters>1.9573949957209824</DistanceMeters>
                        <Time>2022-11-18T04:40:35.272Z</Time>
                    </Trackpoint>
                    <Trackpoint>
                        <DistanceMeters>26.75106494152009</DistanceMeters>
                        <Time>2022-11-18T04:41:09.112Z</Time>
                    </Trackpoint>
                </Track>
                <DistanceMeters>26.75106494152009</DistanceMeters>
                <TotalTimeSeconds>1530.223230189</TotalTimeSeconds>
                <Calories>33.3632961708619</Calories>
                <Intensity>Active</Intensity>
                <TriggerMethod>Manual</TriggerMethod>
            </Lap>
        </Activity>
        <Activity Sport="Walking">
            <Id>2022-11-18T04:40:35.272Z</Id>
            <Lap StartTime="2022-11-18T04:40:35.272Z">
                <Track>
                    <Trackpoint>
                        <DistanceMeters>0.0</DistanceMeters>
                        <Time>2022-11-18T04:40:35.272Z</Time>
                    </Trackpoint>
                    <Trackpoint>
                        <DistanceMeters>24.79366994579911</DistanceMeters>
                        <Time>2022-11-18T04:40:48.794Z</Time>
                    </Trackpoint>
                    <Trackpoint>
                        <DistanceMeters>24.79366994579911</DistanceMeters>
                        <Time>2022-11-18T04:41:09.112Z</Time>
                    </Trackpoint>
                    <Trackpoint>
                        <DistanceMeters>30.013389934388396</DistanceMeters>
                        <Time>2022-11-18T04:41:19.050Z</Time>
                    </Trackpoint>
                </Track>
                <DistanceMeters>30.013389934388396</DistanceMeters>
                <TotalTimeSeconds>43.777770936</TotalTimeSeconds>
                <Calories>3.097878222222222</Calories>
                <Intensity>Active</Intensity>
                <TriggerMethod>Manual</TriggerMethod>
            </Lap>
        </Activity>
        <Activity Sport="Walking">
            <Id>2022-11-18T04:46:09.532Z</Id>
            <Lap StartTime="2022-11-18T04:46:09.532Z">
                <Track>
                    <Trackpoint>
                        <DistanceMeters>0.0</DistanceMeters>
                        <Time>2022-11-18T04:46:09.532Z</Time>
                    </Trackpoint>
                    <Trackpoint>
                        <DistanceMeters>26.75106494152009</DistanceMeters>
                        <Time>2022-11-18T04:47:21.027Z</Time>
                    </Trackpoint>
                    <Trackpoint>
                        <DistanceMeters>26.75106494152009</DistanceMeters>
                        <Time>2022-11-18T04:47:59.112Z</Time>
                    </Trackpoint>
                    <Trackpoint>
                        <DistanceMeters>44.36761990300893</DistanceMeters>
                        <Time>2022-11-18T04:49:01.392Z</Time>
                    </Trackpoint>
                    <Trackpoint>
                        <DistanceMeters>60.026779868776785</DistanceMeters>
                        <Time>2022-11-18T04:50:01.392Z</Time>
                    </Trackpoint>
                    <Trackpoint>
                        <DistanceMeters>110.26658475894867</DistanceMeters>
                        <Time>2022-11-18T04:51:31.712Z</Time>
                    </Trackpoint>
                    <Trackpoint>
                        <DistanceMeters>125.27327972614286</DistanceMeters>
                        <Time>2022-11-18T04:52:06.832Z</Time>
                    </Trackpoint>
                    <Trackpoint>
                        <DistanceMeters>137.01764970046875</DistanceMeters>
                        <Time>2022-11-18T04:52:31.712Z</Time>
                    </Trackpoint>
                    <Trackpoint>
                        <DistanceMeters>149.4144846733683</DistanceMeters>
                        <Time>2022-11-18T04:52:51.872Z</Time>
                    </Trackpoint>
                    <Trackpoint>
                        <DistanceMeters>158.54899465339955</DistanceMeters>
                        <Time>2022-11-18T04:53:07.672Z</Time>
                    </Trackpoint>
                    <Trackpoint>
                        <DistanceMeters>172.2507596234464</DistanceMeters>
                        <Time>2022-11-18T04:53:32.712Z</Time>
                    </Trackpoint>
                    <Trackpoint>
                        <DistanceMeters>186.60498959206694</DistanceMeters>
                        <Time>2022-11-18T04:53:53.312Z</Time>
                    </Trackpoint>
                    <Trackpoint>
                        <DistanceMeters>197.6968945678192</DistanceMeters>
                        <Time>2022-11-18T04:54:09.752Z</Time>
                    </Trackpoint>
                    <Trackpoint>
                        <DistanceMeters>211.39865953786605</DistanceMeters>
                        <Time>2022-11-18T04:54:34.872Z</Time>
                    </Trackpoint>
                    <Trackpoint>
                        <DistanceMeters>224.44795950933926</DistanceMeters>
                        <Time>2022-11-18T04:55:08.072Z</Time>
                    </Trackpoint>
                    <Trackpoint>
                        <DistanceMeters>232.27753949222318</DistanceMeters>
                        <Time>2022-11-18T04:55:35.072Z</Time>
                    </Trackpoint>
                    <Trackpoint>
                        <DistanceMeters>247.28423445941738</DistanceMeters>
                        <Time>2022-11-18T04:55:57.392Z</Time>
                    </Trackpoint>
                    <Trackpoint>
                        <DistanceMeters>274.03529940093745</DistanceMeters>
                        <Time>2022-11-18T04:56:55.832Z</Time>
                    </Trackpoint>
                    <Trackpoint>
                        <DistanceMeters>297.52403934958926</DistanceMeters>
                        <Time>2022-11-18T04:57:24.272Z</Time>
                    </Trackpoint>
                    <Trackpoint>
                        <DistanceMeters>308.6159443253415</DistanceMeters>
                        <Time>2022-11-18T04:57:37.452Z</Time>
                    </Trackpoint>
                    <Trackpoint>
                        <DistanceMeters>328.18989428255134</DistanceMeters>
                        <Time>2022-11-18T04:58:19.632Z</Time>
                    </Trackpoint>
                    <Trackpoint>
                        <DistanceMeters>330.799754276846</DistanceMeters>
                        <Time>2022-11-18T04:58:23.992Z</Time>
                    </Trackpoint>
                    <Trackpoint>
                        <DistanceMeters>345.1539842454665</DistanceMeters>
                        <Time>2022-11-18T05:02:14.792Z</Time>
                    </Trackpoint>
                    <Trackpoint>
                        <DistanceMeters>366.0328641998237</DistanceMeters>
                        <Time>2022-11-18T05:04:48.310Z</Time>
                    </Trackpoint>
                </Track>
                <DistanceMeters>366.0328641998237</DistanceMeters>
                <TotalTimeSeconds>1118.777773917</TotalTimeSeconds>
                <Calories>107.23014272222223</Calories>
                <Intensity>Active</Intensity>
                <TriggerMethod>Manual</TriggerMethod>
            </Lap>
        </Activity>
        <Activity Sport="Walking">
            <Id>2022-11-18T05:09:49.392Z</Id>
            <Lap StartTime="2022-11-18T05:09:49.392Z">
                <Track>
                    <Trackpoint>
                        <DistanceMeters>0.0</DistanceMeters>
                        <Time>2022-11-18T05:09:49.392Z</Time>
                    </Trackpoint>
                    <Trackpoint>
                        <DistanceMeters>35.885574921551346</DistanceMeters>
                        <Time>2022-11-18T05:09:50.608Z</Time>
                    </Trackpoint>
                    <Trackpoint>
                        <DistanceMeters>35.885574921551346</DistanceMeters>
                        <Time>2022-11-18T05:10:48.112Z</Time>
                    </Trackpoint>
                    <Trackpoint>
                        <DistanceMeters>56.76445487590849</DistanceMeters>
                        <Time>2022-11-18T05:11:31.112Z</Time>
                    </Trackpoint>
                    <Trackpoint>
                        <DistanceMeters>80.90565982313394</DistanceMeters>
                        <Time>2022-11-18T05:12:28.992Z</Time>
                    </Trackpoint>
                    <Trackpoint>
                        <DistanceMeters>119.40109473897994</DistanceMeters>
                        <Time>2022-11-18T05:14:06.912Z</Time>
                    </Trackpoint>
                    <Trackpoint>
                        <DistanceMeters>151.3718796690893</DistanceMeters>
                        <Time>2022-11-18T05:15:08.152Z</Time>
                    </Trackpoint>
                    <Trackpoint>
                        <DistanceMeters>179.42787460775673</DistanceMeters>
                        <Time>2022-11-18T05:16:08.992Z</Time>
                    </Trackpoint>
                    <Trackpoint>
                        <DistanceMeters>215.3134495293081</DistanceMeters>
                        <Time>2022-11-18T05:16:50.092Z</Time>
                    </Trackpoint>
                    <Trackpoint>
                        <DistanceMeters>238.1497244793862</DistanceMeters>
                        <Time>2022-11-18T05:17:44.912Z</Time>
                    </Trackpoint>
                    <Trackpoint>
                        <DistanceMeters>294.9141793552947</DistanceMeters>
                        <Time>2022-11-18T05:19:48.832Z</Time>
                    </Trackpoint>
                    <Trackpoint>
                        <DistanceMeters>309.26840932391525</DistanceMeters>
                        <Time>2022-11-18T05:20:26.316Z</Time>
                    </Trackpoint>
                </Track>
                <DistanceMeters>309.26840932391525</DistanceMeters>
                <TotalTimeSeconds>636.923771388</TotalTimeSeconds>
                <Calories>65.08943577777777</Calories>
                <Intensity>Active</Intensity>
                <TriggerMethod>Manual</TriggerMethod>
            </Lap>
        </Activity>
    </Activities>
    <Author xsi:type="Application_t">
        <Name>Google Fit</Name>
        <Build>
            <Version>
                <VersionMajor>0</VersionMajor>
                <VersionMinor>0</VersionMinor>
                <BuildMajor>0</BuildMajor>
                <BuildMinor>0</BuildMinor>
            </Version>
        </Build>
        <LangID>en</LangID>
        <PartNumber>000-00000-00</PartNumber>
    </Author>
</TrainingCenterDatabase>
