<?xml version="1.0" encoding="UTF-8"?>
<TrainingCenterDatabase
    xmlns="http://www.garmin.com/xmlschemas/TrainingCenterDatabase/v2"
    xmlns:ns2="http://www.garmin.com/xmlschemas/UserProfile/v2"
    xmlns:ns3="http://www.garmin.com/xmlschemas/ActivityExtension/v2"
    xmlns:ns4="http://www.garmin.com/xmlschemas/ProfileExtension/v1"
    xmlns:ns5="http://www.garmin.com/xmlschemas/ActivityGoals/v1"
    xmlns:xsi="http://www.w3.org/2001/XMLSchema-instance" xsi:schemaLocation="http://www.garmin.com/xmlschemas/TrainingCenterDatabase/v2 http://www.garmin.com/xmlschemas/TrainingCenterDatabasev2.xsd">
    <Activities>
        <Activity Sport="Walking">
            <Id>2022-04-05T14:10:39.998Z</Id>
            <Lap StartTime="2022-04-05T14:10:39.998Z">
                <Track>
                    <Trackpoint>
                        <DistanceMeters>0.0</DistanceMeters>
                        <Time>2022-04-05T14:10:39.998Z</Time>
                    </Trackpoint>
                    <Trackpoint>
                        <DistanceMeters>0.0</DistanceMeters>
                        <Time>2022-04-05T14:11:02.024Z</Time>
                    </Trackpoint>
                    <Trackpoint>
                        <DistanceMeters>7.832803249359131</DistanceMeters>
                        <Time>2022-04-05T14:11:11.824Z</Time>
                        <Position>
                            <LatitudeDegrees>19.824594497680664</LatitudeDegrees>
                            <LongitudeDegrees>75.29100036621094</LongitudeDegrees>
                        </Position>
                        <AltitudeMeters>480.29998779296875</AltitudeMeters>
                    </Trackpoint>
                    <Trackpoint>
                        <DistanceMeters>114.3804030418396</DistanceMeters>
                        <Time>2022-04-05T14:12:41.811Z</Time>
                    </Trackpoint>
                </Track>
                <DistanceMeters>114.3804030418396</DistanceMeters>
                <TotalTimeSeconds>121.813</TotalTimeSeconds>
                <Calories>12.472297668457031</Calories>
                <Intensity>Active</Intensity>
                <TriggerMethod>Manual</TriggerMethod>
            </Lap>
        </Activity>
        <Activity Sport="Walking">
            <Id>2022-04-05T14:12:41.811Z</Id>
            <Lap StartTime="2022-04-05T14:12:41.811Z">
                <Track>
                    <Trackpoint>
                        <DistanceMeters>0.0</DistanceMeters>
                        <Time>2022-04-05T14:12:41.811Z</Time>
                    </Trackpoint>
                    <Trackpoint>
                        <DistanceMeters>0.0</DistanceMeters>
                        <Time>2022-04-05T14:14:46.064Z</Time>
                    </Trackpoint>
                    <Trackpoint>
                        <DistanceMeters>45.020084381103516</DistanceMeters>
                        <Time>2022-04-05T14:16:07.504Z</Time>
                    </Trackpoint>
                    <Trackpoint>
                        <DistanceMeters>105.82495880126953</DistanceMeters>
                        <Time>2022-04-05T14:17:08.784Z</Time>
                    </Trackpoint>
                </Track>
                <DistanceMeters>105.82495880126953</DistanceMeters>
                <TotalTimeSeconds>266.973538008</TotalTimeSeconds>
                <Calories>4.998083472251892</Calories>
                <Intensity>Active</Intensity>
                <TriggerMethod>Manual</TriggerMethod>
            </Lap>
        </Activity>
        <Activity Sport="Walking">
            <Id>2022-04-05T14:16:07.504Z</Id>
            <Lap StartTime="2022-04-05T14:16:07.504Z">
                <Track>
                    <Trackpoint>
                        <DistanceMeters>0.0</DistanceMeters>
                        <Time>2022-04-05T14:16:07.504Z</Time>
                    </Trackpoint>
                    <Trackpoint>
                        <DistanceMeters>60.804874420166016</DistanceMeters>
                        <Time>2022-04-05T14:16:13.635Z</Time>
                    </Trackpoint>
                    <Trackpoint>
                        <DistanceMeters>60.804874420166016</DistanceMeters>
                        <Time>2022-04-05T14:18:08.864Z</Time>
                    </Trackpoint>
                    <Trackpoint>
                        <DistanceMeters>131.54262161254883</DistanceMeters>
                        <Time>2022-04-05T14:19:09.744Z</Time>
                    </Trackpoint>
                    <Trackpoint>
                        <DistanceMeters>203.22846603393555</DistanceMeters>
                        <Time>2022-04-05T14:20:10.744Z</Time>
                    </Trackpoint>
                    <Trackpoint>
                        <DistanceMeters>229.32706451416016</DistanceMeters>
                        <Time>2022-04-05T14:21:11.624Z</Time>
                    </Trackpoint>
                    <Trackpoint>
                        <DistanceMeters>310.14827728271484</DistanceMeters>
                        <Time>2022-04-05T14:22:12.984Z</Time>
                    </Trackpoint>
                    <Trackpoint>
                        <DistanceMeters>390.29422760009766</DistanceMeters>
                        <Time>2022-04-05T14:23:13.704Z</Time>
                    </Trackpoint>
                    <Trackpoint>
                        <DistanceMeters>468.77535247802734</DistanceMeters>
                        <Time>2022-04-05T14:24:13.664Z</Time>
                    </Trackpoint>
                    <Trackpoint>
                        <DistanceMeters>470.22297739982605</DistanceMeters>
                        <Time>2022-04-05T14:24:14.784Z</Time>
                    </Trackpoint>
                    <Trackpoint>
                        <DistanceMeters>550.7120597362518</DistanceMeters>
                        <Time>2022-04-05T14:25:14.944Z</Time>
                    </Trackpoint>
                    <Trackpoint>
                        <DistanceMeters>552.1596846580505</DistanceMeters>
                        <Time>2022-04-05T14:25:16.064Z</Time>
                    </Trackpoint>
                    <Trackpoint>
                        <DistanceMeters>631.9251418113708</DistanceMeters>
                        <Time>2022-04-05T14:26:15.664Z</Time>
                    </Trackpoint>
                    <Trackpoint>
                        <DistanceMeters>633.3727667331696</DistanceMeters>
                        <Time>2022-04-05T14:26:16.784Z</Time>
                    </Trackpoint>
                    <Trackpoint>
                        <DistanceMeters>713.5917150974274</DistanceMeters>
                        <Time>2022-04-05T14:27:17.384Z</Time>
                    </Trackpoint>
                    <Trackpoint>
                        <DistanceMeters>793.9084341526031</DistanceMeters>
                        <Time>2022-04-05T14:27:42.792Z</Time>
                        <Position>
                            <LatitudeDegrees>19.82373046875</LatitudeDegrees>
                            <LongitudeDegrees>75.29035949707031</LongitudeDegrees>
                        </Position>
                        <AltitudeMeters>480.0</AltitudeMeters>
                    </Trackpoint>
                    <Trackpoint>
                        <DistanceMeters>793.9084341526031</DistanceMeters>
                        <Time>2022-04-05T14:28:17.824Z</Time>
                    </Trackpoint>
                    <Trackpoint>
                        <DistanceMeters>874.0301229953766</DistanceMeters>
                        <Time>2022-04-05T14:29:18.584Z</Time>
                    </Trackpoint>
                    <Trackpoint>
                        <DistanceMeters>953.8392279148102</DistanceMeters>
                        <Time>2022-04-05T14:30:19.864Z</Time>
                    </Trackpoint>
                    <Trackpoint>
                        <DistanceMeters>1033.2371695041656</DistanceMeters>
                        <Time>2022-04-05T14:31:20.064Z</Time>
                    </Trackpoint>
                    <Trackpoint>
                        <DistanceMeters>1112.4660971164703</DistanceMeters>
                        <Time>2022-04-05T14:31:46.553Z</Time>
                        <Position>
                            <LatitudeDegrees>19.824594497680664</LatitudeDegrees>
                            <LongitudeDegrees>75.29100036621094</LongitudeDegrees>
                        </Position>
                        <AltitudeMeters>480.29998779296875</AltitudeMeters>
                    </Trackpoint>
                    <Trackpoint>
                        <DistanceMeters>1112.4660971164703</DistanceMeters>
                        <Time>2022-04-05T14:32:20.544Z</Time>
                    </Trackpoint>
                    <Trackpoint>
                        <DistanceMeters>1191.6230642795563</DistanceMeters>
                        <Time>2022-04-05T14:33:21.144Z</Time>
                    </Trackpoint>
                    <Trackpoint>
                        <DistanceMeters>1270.6607458591461</DistanceMeters>
                        <Time>2022-04-05T14:34:21.944Z</Time>
                    </Trackpoint>
                    <Trackpoint>
                        <DistanceMeters>1351.7748053073883</DistanceMeters>
                        <Time>2022-04-05T14:35:22.824Z</Time>
                    </Trackpoint>
                    <Trackpoint>
                        <DistanceMeters>1353.222430229187</DistanceMeters>
                        <Time>2022-04-05T14:35:23.944Z</Time>
                    </Trackpoint>
                    <Trackpoint>
                        <DistanceMeters>1430.255976676941</DistanceMeters>
                        <Time>2022-04-05T14:36:22.784Z</Time>
                    </Trackpoint>
                    <Trackpoint>
                        <DistanceMeters>1431.7280691862106</DistanceMeters>
                        <Time>2022-04-05T14:36:23.864Z</Time>
                    </Trackpoint>
                    <Trackpoint>
                        <DistanceMeters>1510.2572668790817</DistanceMeters>
                        <Time>2022-04-05T14:37:23.744Z</Time>
                    </Trackpoint>
                    <Trackpoint>
                        <DistanceMeters>1511.682111620903</DistanceMeters>
                        <Time>2022-04-05T14:37:24.904Z</Time>
                    </Trackpoint>
                    <Trackpoint>
                        <DistanceMeters>1589.7832163572311</DistanceMeters>
                        <Time>2022-04-05T14:38:25.504Z</Time>
                    </Trackpoint>
                    <Trackpoint>
                        <DistanceMeters>1669.205434679985</DistanceMeters>
                        <Time>2022-04-05T14:39:25.664Z</Time>
                    </Trackpoint>
                    <Trackpoint>
                        <DistanceMeters>1748.1482447385788</DistanceMeters>
                        <Time>2022-04-05T14:40:26.624Z</Time>
                    </Trackpoint>
                    <Trackpoint>
                        <DistanceMeters>1826.9027918577194</DistanceMeters>
                        <Time>2022-04-05T14:41:27.904Z</Time>
                    </Trackpoint>
                    <Trackpoint>
                        <DistanceMeters>1905.8219584226608</DistanceMeters>
                        <Time>2022-04-05T14:42:28.904Z</Time>
                    </Trackpoint>
                    <Trackpoint>
                        <DistanceMeters>1984.9072626829147</DistanceMeters>
                        <Time>2022-04-05T14:43:29.624Z</Time>
                    </Trackpoint>
                    <Trackpoint>
                        <DistanceMeters>2014.920652270317</DistanceMeters>
                        <Time>2022-04-05T14:44:30.984Z</Time>
                    </Trackpoint>
                    <Trackpoint>
                        <DistanceMeters>2041.0850313901901</DistanceMeters>
                        <Time>2022-04-05T14:45:56.767Z</Time>
                    </Trackpoint>
                </Track>
                <DistanceMeters>2041.0850313901901</DistanceMeters>
                <TotalTimeSeconds>1789.262462023</TotalTimeSeconds>
                <Calories>182.57290649414062</Calories>
                <Intensity>Active</Intensity>
                <TriggerMethod>Manual</TriggerMethod>
            </Lap>
        </Activity>
        <Activity Sport="Walking">
            <Id>2022-04-05T14:54:53.184Z</Id>
            <Lap StartTime="2022-04-05T14:54:53.184Z">
                <Track>
                    <Trackpoint>
                        <DistanceMeters>0.0</DistanceMeters>
                        <Time>2022-04-05T14:54:53.184Z</Time>
                    </Trackpoint>
                    <Trackpoint>
                        <DistanceMeters>30.66585350036621</DistanceMeters>
                        <Time>2022-04-05T14:56:00.020Z</Time>
                    </Trackpoint>
                    <Trackpoint>
                        <DistanceMeters>30.66585350036621</DistanceMeters>
                        <Time>2022-04-05T14:56:30.147Z</Time>
                    </Trackpoint>
                </Track>
                <DistanceMeters>30.66585350036621</DistanceMeters>
                <TotalTimeSeconds>96.962461657</TotalTimeSeconds>
                <Calories>3.084669828414917</Calories>
                <Intensity>Active</Intensity>
                <TriggerMethod>Manual</TriggerMethod>
            </Lap>
        </Activity>
    </Activities>
    <Author xsi:type="Application_t">
        <Name>Google Fit</Name>
        <Build>
            <Version>
                <VersionMajor>0</VersionMajor>
                <VersionMinor>0</VersionMinor>
                <BuildMajor>0</BuildMajor>
                <BuildMinor>0</BuildMinor>
            </Version>
        </Build>
        <LangID>en</LangID>
        <PartNumber>000-00000-00</PartNumber>
    </Author>
</TrainingCenterDatabase>
