<?xml version="1.0" encoding="UTF-8"?>
<TrainingCenterDatabase
    xmlns="http://www.garmin.com/xmlschemas/TrainingCenterDatabase/v2"
    xmlns:ns2="http://www.garmin.com/xmlschemas/UserProfile/v2"
    xmlns:ns3="http://www.garmin.com/xmlschemas/ActivityExtension/v2"
    xmlns:ns4="http://www.garmin.com/xmlschemas/ProfileExtension/v1"
    xmlns:ns5="http://www.garmin.com/xmlschemas/ActivityGoals/v1"
    xmlns:xsi="http://www.w3.org/2001/XMLSchema-instance" xsi:schemaLocation="http://www.garmin.com/xmlschemas/TrainingCenterDatabase/v2 http://www.garmin.com/xmlschemas/TrainingCenterDatabasev2.xsd">
    <Activities>
        <Activity Sport="Walking">
            <Id>2022-06-12T14:28:50.072Z</Id>
            <Lap StartTime="2022-06-12T14:28:50.072Z">
                <Track>
                    <Trackpoint>
                        <DistanceMeters>0.0</DistanceMeters>
                        <Time>2022-06-12T14:28:50.072Z</Time>
                    </Trackpoint>
                    <Trackpoint>
                        <DistanceMeters>10.43943977355957</DistanceMeters>
                        <Time>2022-06-12T14:29:21.264Z</Time>
                    </Trackpoint>
                    <Trackpoint>
                        <DistanceMeters>65.89896202087402</DistanceMeters>
                        <Time>2022-06-12T14:30:22.144Z</Time>
                    </Trackpoint>
                    <Trackpoint>
                        <DistanceMeters>101.78453636169434</DistanceMeters>
                        <Time>2022-06-12T14:31:03.584Z</Time>
                    </Trackpoint>
                    <Trackpoint>
                        <DistanceMeters>160.50638389587402</DistanceMeters>
                        <Time>2022-06-12T14:32:36.464Z</Time>
                    </Trackpoint>
                </Track>
                <DistanceMeters>160.50638389587402</DistanceMeters>
                <TotalTimeSeconds>226.392409736</TotalTimeSeconds>
                <Calories>15.19369125366211</Calories>
                <Intensity>Active</Intensity>
                <TriggerMethod>Manual</TriggerMethod>
            </Lap>
        </Activity>
        <Activity Sport="Walking">
            <Id>2022-06-12T14:31:18.464Z</Id>
            <Lap StartTime="2022-06-12T14:31:18.464Z">
                <Track>
                    <Trackpoint>
                        <DistanceMeters>0.0</DistanceMeters>
                        <Time>2022-06-12T14:31:18.464Z</Time>
                    </Trackpoint>
                    <Trackpoint>
                        <DistanceMeters>0.0</DistanceMeters>
                        <Time>2022-06-12T14:37:41.464Z</Time>
                    </Trackpoint>
                    <Trackpoint>
                        <DistanceMeters>44.367618560791016</DistanceMeters>
                        <Time>2022-06-12T14:39:57.464Z</Time>
                    </Trackpoint>
                    <Trackpoint>
                        <DistanceMeters>44.367618560791016</DistanceMeters>
                        <Time>2022-06-12T14:40:24.558Z</Time>
                    </Trackpoint>
                </Track>
                <DistanceMeters>44.367618560791016</DistanceMeters>
                <TotalTimeSeconds>546.094</TotalTimeSeconds>
                <Calories>13.801339149475098</Calories>
                <Intensity>Active</Intensity>
                <TriggerMethod>Manual</TriggerMethod>
            </Lap>
        </Activity>
        <Activity Sport="Walking">
            <Id>2022-06-12T14:40:24.558Z</Id>
            <Lap StartTime="2022-06-12T14:40:24.558Z">
                <Track>
                    <Trackpoint>
                        <DistanceMeters>0.0</DistanceMeters>
                        <Time>2022-06-12T14:40:24.558Z</Time>
                    </Trackpoint>
                    <Trackpoint>
                        <DistanceMeters>24.065359115600586</DistanceMeters>
                        <Time>2022-06-12T14:42:28.104Z</Time>
                    </Trackpoint>
                    <Trackpoint>
                        <DistanceMeters>80.82981300354004</DistanceMeters>
                        <Time>2022-06-12T14:45:22.104Z</Time>
                    </Trackpoint>
                    <Trackpoint>
                        <DistanceMeters>142.16152000427246</DistanceMeters>
                        <Time>2022-06-12T14:46:32.184Z</Time>
                    </Trackpoint>
                    <Trackpoint>
                        <DistanceMeters>199.87859535217285</DistanceMeters>
                        <Time>2022-06-12T14:47:34.224Z</Time>
                    </Trackpoint>
                    <Trackpoint>
                        <DistanceMeters>208.98143768310547</DistanceMeters>
                        <Time>2022-06-12T14:47:42.064Z</Time>
                    </Trackpoint>
                    <Trackpoint>
                        <DistanceMeters>228.55538749694824</DistanceMeters>
                        <Time>2022-06-12T14:48:36.704Z</Time>
                    </Trackpoint>
                    <Trackpoint>
                        <DistanceMeters>248.12933731079102</DistanceMeters>
                        <Time>2022-06-12T14:49:01.704Z</Time>
                    </Trackpoint>
                    <Trackpoint>
                        <DistanceMeters>287.92970275878906</DistanceMeters>
                        <Time>2022-06-12T14:50:01.764Z</Time>
                    </Trackpoint>
                    <Trackpoint>
                        <DistanceMeters>310.14699935913086</DistanceMeters>
                        <Time>2022-06-12T14:50:23.584Z</Time>
                    </Trackpoint>
                    <Trackpoint>
                        <DistanceMeters>360.49254989624023</DistanceMeters>
                        <Time>2022-06-12T14:51:07.144Z</Time>
                    </Trackpoint>
                    <Trackpoint>
                        <DistanceMeters>379.4204216003418</DistanceMeters>
                        <Time>2022-06-12T14:51:23.384Z</Time>
                    </Trackpoint>
                    <Trackpoint>
                        <DistanceMeters>426.4425392150879</DistanceMeters>
                        <Time>2022-06-12T14:52:07.704Z</Time>
                    </Trackpoint>
                </Track>
                <DistanceMeters>426.4425392150879</DistanceMeters>
                <TotalTimeSeconds>703.146409257</TotalTimeSeconds>
                <Calories>68.57556915283203</Calories>
                <Intensity>Active</Intensity>
                <TriggerMethod>Manual</TriggerMethod>
            </Lap>
        </Activity>
        <Activity Sport="Walking">
            <Id>2022-06-12T14:51:23.384Z</Id>
            <Lap StartTime="2022-06-12T14:51:23.384Z">
                <Track>
                    <Trackpoint>
                        <DistanceMeters>0.0</DistanceMeters>
                        <Time>2022-06-12T14:51:23.384Z</Time>
                    </Trackpoint>
                    <Trackpoint>
                        <DistanceMeters>47.022117614746094</DistanceMeters>
                        <Time>2022-06-12T14:51:34.314Z</Time>
                    </Trackpoint>
                    <Trackpoint>
                        <DistanceMeters>47.022117614746094</DistanceMeters>
                        <Time>2022-06-12T14:52:07.704Z</Time>
                    </Trackpoint>
                    <Trackpoint>
                        <DistanceMeters>56.80909252166748</DistanceMeters>
                        <Time>2022-06-12T14:52:18.764Z</Time>
                    </Trackpoint>
                    <Trackpoint>
                        <DistanceMeters>112.92108058929443</DistanceMeters>
                        <Time>2022-06-12T14:53:20.224Z</Time>
                    </Trackpoint>
                </Track>
                <DistanceMeters>112.92108058929443</DistanceMeters>
                <TotalTimeSeconds>116.840001518</TotalTimeSeconds>
                <Calories>10.844048500061035</Calories>
                <Intensity>Active</Intensity>
                <TriggerMethod>Manual</TriggerMethod>
            </Lap>
        </Activity>
    </Activities>
    <Author xsi:type="Application_t">
        <Name>Google Fit</Name>
        <Build>
            <Version>
                <VersionMajor>0</VersionMajor>
                <VersionMinor>0</VersionMinor>
                <BuildMajor>0</BuildMajor>
                <BuildMinor>0</BuildMinor>
            </Version>
        </Build>
        <LangID>en</LangID>
        <PartNumber>000-00000-00</PartNumber>
    </Author>
</TrainingCenterDatabase>
