<?xml version="1.0" encoding="UTF-8"?>
<TrainingCenterDatabase
    xmlns="http://www.garmin.com/xmlschemas/TrainingCenterDatabase/v2"
    xmlns:ns2="http://www.garmin.com/xmlschemas/UserProfile/v2"
    xmlns:ns3="http://www.garmin.com/xmlschemas/ActivityExtension/v2"
    xmlns:ns4="http://www.garmin.com/xmlschemas/ProfileExtension/v1"
    xmlns:ns5="http://www.garmin.com/xmlschemas/ActivityGoals/v1"
    xmlns:xsi="http://www.w3.org/2001/XMLSchema-instance" xsi:schemaLocation="http://www.garmin.com/xmlschemas/TrainingCenterDatabase/v2 http://www.garmin.com/xmlschemas/TrainingCenterDatabasev2.xsd">
    <Activities>
        <Activity Sport="Walking">
            <Id>2022-04-01T14:30:21.824Z</Id>
            <Lap StartTime="2022-04-01T14:30:21.824Z">
                <Track>
                    <Trackpoint>
                        <DistanceMeters>0.0</DistanceMeters>
                        <Time>2022-04-01T14:30:21.824Z</Time>
                    </Trackpoint>
                    <Trackpoint>
                        <DistanceMeters>15.006694793701172</DistanceMeters>
                        <Time>2022-04-01T14:30:39.215Z</Time>
                    </Trackpoint>
                    <Trackpoint>
                        <DistanceMeters>15.006694793701172</DistanceMeters>
                        <Time>2022-04-01T14:31:21.824Z</Time>
                    </Trackpoint>
                    <Trackpoint>
                        <DistanceMeters>57.05061721801758</DistanceMeters>
                        <Time>2022-04-01T14:31:56.024Z</Time>
                    </Trackpoint>
                    <Trackpoint>
                        <DistanceMeters>94.24112319946289</DistanceMeters>
                        <Time>2022-04-01T14:33:46.024Z</Time>
                    </Trackpoint>
                    <Trackpoint>
                        <DistanceMeters>104.02809810638428</DistanceMeters>
                        <Time>2022-04-01T14:34:25.824Z</Time>
                    </Trackpoint>
                </Track>
                <DistanceMeters>104.02809810638428</DistanceMeters>
                <TotalTimeSeconds>244.000000561</TotalTimeSeconds>
                <Calories>19.784297943115234</Calories>
                <Intensity>Active</Intensity>
                <TriggerMethod>Manual</TriggerMethod>
            </Lap>
        </Activity>
        <Activity Sport="Walking">
            <Id>2022-04-01T14:36:05.004Z</Id>
            <Lap StartTime="2022-04-01T14:36:05.004Z">
                <Track>
                    <Trackpoint>
                        <DistanceMeters>0.0</DistanceMeters>
                        <Time>2022-04-01T14:36:05.004Z</Time>
                    </Trackpoint>
                    <Trackpoint>
                        <DistanceMeters>5.33128023147583</DistanceMeters>
                        <Time>2022-04-01T14:36:19.784Z</Time>
                    </Trackpoint>
                    <Trackpoint>
                        <DistanceMeters>61.526833057403564</DistanceMeters>
                        <Time>2022-04-01T14:37:16.184Z</Time>
                    </Trackpoint>
                    <Trackpoint>
                        <DistanceMeters>129.38319444656372</DistanceMeters>
                        <Time>2022-04-01T14:38:54.824Z</Time>
                    </Trackpoint>
                    <Trackpoint>
                        <DistanceMeters>195.9539647102356</DistanceMeters>
                        <Time>2022-04-01T14:39:56.104Z</Time>
                    </Trackpoint>
                    <Trackpoint>
                        <DistanceMeters>262.1042866706848</DistanceMeters>
                        <Time>2022-04-01T14:40:56.184Z</Time>
                    </Trackpoint>
                    <Trackpoint>
                        <DistanceMeters>330.91815996170044</DistanceMeters>
                        <Time>2022-04-01T14:41:56.904Z</Time>
                    </Trackpoint>
                    <Trackpoint>
                        <DistanceMeters>401.24186754226685</DistanceMeters>
                        <Time>2022-04-01T14:42:56.624Z</Time>
                    </Trackpoint>
                    <Trackpoint>
                        <DistanceMeters>402.6454508304596</DistanceMeters>
                        <Time>2022-04-01T14:42:57.824Z</Time>
                    </Trackpoint>
                    <Trackpoint>
                        <DistanceMeters>473.42398476600647</DistanceMeters>
                        <Time>2022-04-01T14:43:58.624Z</Time>
                    </Trackpoint>
                    <Trackpoint>
                        <DistanceMeters>545.4654886722565</DistanceMeters>
                        <Time>2022-04-01T14:44:58.944Z</Time>
                    </Trackpoint>
                    <Trackpoint>
                        <DistanceMeters>546.9375811815262</DistanceMeters>
                        <Time>2022-04-01T14:45:00.024Z</Time>
                    </Trackpoint>
                    <Trackpoint>
                        <DistanceMeters>616.2310916185379</DistanceMeters>
                        <Time>2022-04-01T14:45:59.784Z</Time>
                    </Trackpoint>
                    <Trackpoint>
                        <DistanceMeters>617.6346749067307</DistanceMeters>
                        <Time>2022-04-01T14:46:00.984Z</Time>
                    </Trackpoint>
                    <Trackpoint>
                        <DistanceMeters>685.9647606611252</DistanceMeters>
                        <Time>2022-04-01T14:47:00.664Z</Time>
                    </Trackpoint>
                    <Trackpoint>
                        <DistanceMeters>687.3683439493179</DistanceMeters>
                        <Time>2022-04-01T14:47:01.864Z</Time>
                    </Trackpoint>
                    <Trackpoint>
                        <DistanceMeters>757.6092878580093</DistanceMeters>
                        <Time>2022-04-01T14:48:01.744Z</Time>
                    </Trackpoint>
                    <Trackpoint>
                        <DistanceMeters>758.9929813146591</DistanceMeters>
                        <Time>2022-04-01T14:48:02.984Z</Time>
                    </Trackpoint>
                    <Trackpoint>
                        <DistanceMeters>829.8328860998154</DistanceMeters>
                        <Time>2022-04-01T14:49:03.664Z</Time>
                    </Trackpoint>
                    <Trackpoint>
                        <DistanceMeters>902.9830631017685</DistanceMeters>
                        <Time>2022-04-01T14:50:03.824Z</Time>
                    </Trackpoint>
                    <Trackpoint>
                        <DistanceMeters>904.4815053939819</DistanceMeters>
                        <Time>2022-04-01T14:50:04.864Z</Time>
                    </Trackpoint>
                    <Trackpoint>
                        <DistanceMeters>951.7678785324097</DistanceMeters>
                        <Time>2022-04-01T14:50:40.864Z</Time>
                    </Trackpoint>
                    <Trackpoint>
                        <DistanceMeters>985.550253868103</DistanceMeters>
                        <Time>2022-04-01T14:51:05.824Z</Time>
                    </Trackpoint>
                    <Trackpoint>
                        <DistanceMeters>1032.7884855270386</DistanceMeters>
                        <Time>2022-04-01T14:51:41.904Z</Time>
                    </Trackpoint>
                    <Trackpoint>
                        <DistanceMeters>1066.4462041854858</DistanceMeters>
                        <Time>2022-04-01T14:52:07.064Z</Time>
                    </Trackpoint>
                    <Trackpoint>
                        <DistanceMeters>1113.6844358444214</DistanceMeters>
                        <Time>2022-04-01T14:52:43.144Z</Time>
                    </Trackpoint>
                    <Trackpoint>
                        <DistanceMeters>1147.416708946228</DistanceMeters>
                        <Time>2022-04-01T14:53:08.184Z</Time>
                    </Trackpoint>
                    <Trackpoint>
                        <DistanceMeters>1195.9957647323608</DistanceMeters>
                        <Time>2022-04-01T14:53:43.824Z</Time>
                    </Trackpoint>
                    <Trackpoint>
                        <DistanceMeters>1230.217318534851</DistanceMeters>
                        <Time>2022-04-01T14:54:08.104Z</Time>
                    </Trackpoint>
                    <Trackpoint>
                        <DistanceMeters>1282.4457998275757</DistanceMeters>
                        <Time>2022-04-01T14:54:44.824Z</Time>
                    </Trackpoint>
                    <Trackpoint>
                        <DistanceMeters>1316.801245689392</DistanceMeters>
                        <Time>2022-04-01T14:55:08.904Z</Time>
                    </Trackpoint>
                    <Trackpoint>
                        <DistanceMeters>1368.3885374069214</DistanceMeters>
                        <Time>2022-04-01T14:55:44.944Z</Time>
                    </Trackpoint>
                    <Trackpoint>
                        <DistanceMeters>1401.7293539047241</DistanceMeters>
                        <Time>2022-04-01T14:56:08.904Z</Time>
                    </Trackpoint>
                    <Trackpoint>
                        <DistanceMeters>1454.869444847107</DistanceMeters>
                        <Time>2022-04-01T14:56:45.904Z</Time>
                    </Trackpoint>
                    <Trackpoint>
                        <DistanceMeters>1488.1582403182983</DistanceMeters>
                        <Time>2022-04-01T14:57:09.944Z</Time>
                    </Trackpoint>
                    <Trackpoint>
                        <DistanceMeters>1540.7910985946655</DistanceMeters>
                        <Time>2022-04-01T14:57:47.704Z</Time>
                    </Trackpoint>
                    <Trackpoint>
                        <DistanceMeters>1572.5819787979126</DistanceMeters>
                        <Time>2022-04-01T14:58:10.704Z</Time>
                    </Trackpoint>
                    <Trackpoint>
                        <DistanceMeters>1623.9275941848755</DistanceMeters>
                        <Time>2022-04-01T14:58:47.104Z</Time>
                    </Trackpoint>
                    <Trackpoint>
                        <DistanceMeters>1657.9136209487915</DistanceMeters>
                        <Time>2022-04-01T14:59:11.744Z</Time>
                    </Trackpoint>
                    <Trackpoint>
                        <DistanceMeters>1706.749291419983</DistanceMeters>
                        <Time>2022-04-01T14:59:46.984Z</Time>
                    </Trackpoint>
                    <Trackpoint>
                        <DistanceMeters>1744.1557893753052</DistanceMeters>
                        <Time>2022-04-01T15:00:13.064Z</Time>
                    </Trackpoint>
                    <Trackpoint>
                        <DistanceMeters>1774.8216428756714</DistanceMeters>
                        <Time>2022-04-01T15:00:47.984Z</Time>
                    </Trackpoint>
                    <Trackpoint>
                        <DistanceMeters>1786.2926959991455</DistanceMeters>
                        <Time>2022-04-01T15:00:59.164Z</Time>
                    </Trackpoint>
                    <Trackpoint>
                        <DistanceMeters>1798.6895303726196</DistanceMeters>
                        <Time>2022-04-01T15:01:46.144Z</Time>
                    </Trackpoint>
                </Track>
                <DistanceMeters>1798.6895303726196</DistanceMeters>
                <TotalTimeSeconds>1541.140400669</TotalTimeSeconds>
                <Calories>155.04470825195312</Calories>
                <Intensity>Active</Intensity>
                <TriggerMethod>Manual</TriggerMethod>
            </Lap>
        </Activity>
        <Activity Sport="Walking">
            <Id>2022-04-01T15:08:44.544Z</Id>
            <Lap StartTime="2022-04-01T15:08:44.544Z">
                <Track>
                    <Trackpoint>
                        <DistanceMeters>0.0</DistanceMeters>
                        <Time>2022-04-01T15:08:44.544Z</Time>
                    </Trackpoint>
                    <Trackpoint>
                        <DistanceMeters>16.96409034729004</DistanceMeters>
                        <Time>2022-04-01T15:09:24.723Z</Time>
                    </Trackpoint>
                    <Trackpoint>
                        <DistanceMeters>16.96409034729004</DistanceMeters>
                        <Time>2022-04-01T15:09:44.544Z</Time>
                    </Trackpoint>
                    <Trackpoint>
                        <DistanceMeters>32.623250007629395</DistanceMeters>
                        <Time>2022-04-01T15:11:25.338Z</Time>
                    </Trackpoint>
                </Track>
                <DistanceMeters>32.623250007629395</DistanceMeters>
                <TotalTimeSeconds>160.793599814</TotalTimeSeconds>
                <Calories>12.34963607788086</Calories>
                <Intensity>Active</Intensity>
                <TriggerMethod>Manual</TriggerMethod>
            </Lap>
        </Activity>
    </Activities>
    <Author xsi:type="Application_t">
        <Name>Google Fit</Name>
        <Build>
            <Version>
                <VersionMajor>0</VersionMajor>
                <VersionMinor>0</VersionMinor>
                <BuildMajor>0</BuildMajor>
                <BuildMinor>0</BuildMinor>
            </Version>
        </Build>
        <LangID>en</LangID>
        <PartNumber>000-00000-00</PartNumber>
    </Author>
</TrainingCenterDatabase>
