<?xml version="1.0" encoding="UTF-8"?>
<TrainingCenterDatabase
    xmlns="http://www.garmin.com/xmlschemas/TrainingCenterDatabase/v2"
    xmlns:ns2="http://www.garmin.com/xmlschemas/UserProfile/v2"
    xmlns:ns3="http://www.garmin.com/xmlschemas/ActivityExtension/v2"
    xmlns:ns4="http://www.garmin.com/xmlschemas/ProfileExtension/v1"
    xmlns:ns5="http://www.garmin.com/xmlschemas/ActivityGoals/v1"
    xmlns:xsi="http://www.w3.org/2001/XMLSchema-instance" xsi:schemaLocation="http://www.garmin.com/xmlschemas/TrainingCenterDatabase/v2 http://www.garmin.com/xmlschemas/TrainingCenterDatabasev2.xsd">
    <Activities>
        <Activity Sport="Walking">
            <Id>2022-03-06T04:38:21.278Z</Id>
            <Lap StartTime="2022-03-06T04:38:21.278Z">
                <Track>
                    <Trackpoint>
                        <DistanceMeters>0.0</DistanceMeters>
                        <Time>2022-03-06T04:38:21.278Z</Time>
                    </Trackpoint>
                    <Trackpoint>
                        <DistanceMeters>51.544734954833984</DistanceMeters>
                        <Time>2022-03-06T04:40:36.763Z</Time>
                    </Trackpoint>
                    <Trackpoint>
                        <DistanceMeters>51.544734954833984</DistanceMeters>
                        <Time>2022-03-06T04:40:59.278Z</Time>
                    </Trackpoint>
                    <Trackpoint>
                        <DistanceMeters>112.5303840637207</DistanceMeters>
                        <Time>2022-03-06T04:42:00.118Z</Time>
                    </Trackpoint>
                    <Trackpoint>
                        <DistanceMeters>187.27983474731445</DistanceMeters>
                        <Time>2022-03-06T04:43:01.118Z</Time>
                    </Trackpoint>
                    <Trackpoint>
                        <DistanceMeters>261.4599723815918</DistanceMeters>
                        <Time>2022-03-06T04:44:01.278Z</Time>
                    </Trackpoint>
                    <Trackpoint>
                        <DistanceMeters>336.99875259399414</DistanceMeters>
                        <Time>2022-03-06T04:45:02.718Z</Time>
                    </Trackpoint>
                    <Trackpoint>
                        <DistanceMeters>385.2042007446289</DistanceMeters>
                        <Time>2022-03-06T04:45:42.598Z</Time>
                    </Trackpoint>
                    <Trackpoint>
                        <DistanceMeters>453.5528259277344</DistanceMeters>
                        <Time>2022-03-06T04:46:38.358Z</Time>
                    </Trackpoint>
                    <Trackpoint>
                        <DistanceMeters>474.7473258972168</DistanceMeters>
                        <Time>2022-03-06T04:47:36.096Z</Time>
                    </Trackpoint>
                </Track>
                <DistanceMeters>474.7473258972168</DistanceMeters>
                <TotalTimeSeconds>554.81711019</TotalTimeSeconds>
                <Calories>40.721893310546875</Calories>
                <Intensity>Active</Intensity>
                <TriggerMethod>Manual</TriggerMethod>
            </Lap>
        </Activity>
        <Activity Sport="Walking">
            <Id>2022-03-06T04:47:36.096Z</Id>
            <Lap StartTime="2022-03-06T04:47:36.096Z">
                <Track>
                    <Trackpoint>
                        <DistanceMeters>0.0</DistanceMeters>
                        <Time>2022-03-06T04:47:36.096Z</Time>
                    </Trackpoint>
                    <Trackpoint>
                        <DistanceMeters>0.0</DistanceMeters>
                        <Time>2022-03-06T04:50:01.138Z</Time>
                    </Trackpoint>
                    <Trackpoint>
                        <DistanceMeters>24.141204833984375</DistanceMeters>
                        <Time>2022-03-06T04:51:15.138Z</Time>
                    </Trackpoint>
                    <Trackpoint>
                        <DistanceMeters>50.892269134521484</DistanceMeters>
                        <Time>2022-03-06T04:51:44.438Z</Time>
                    </Trackpoint>
                    <Trackpoint>
                        <DistanceMeters>61.72405433654785</DistanceMeters>
                        <Time>2022-03-06T04:51:54.878Z</Time>
                    </Trackpoint>
                </Track>
                <DistanceMeters>61.72405433654785</DistanceMeters>
                <TotalTimeSeconds>258.782894462</TotalTimeSeconds>
                <Calories>7.527038812637329</Calories>
                <Intensity>Active</Intensity>
                <TriggerMethod>Manual</TriggerMethod>
            </Lap>
        </Activity>
        <Activity Sport="Walking">
            <Id>2022-03-06T04:51:44.438Z</Id>
            <Lap StartTime="2022-03-06T04:51:44.438Z">
                <Track>
                    <Trackpoint>
                        <DistanceMeters>0.0</DistanceMeters>
                        <Time>2022-03-06T04:51:44.438Z</Time>
                    </Trackpoint>
                    <Trackpoint>
                        <DistanceMeters>10.831785202026367</DistanceMeters>
                        <Time>2022-03-06T04:51:46.029Z</Time>
                    </Trackpoint>
                    <Trackpoint>
                        <DistanceMeters>10.831785202026367</DistanceMeters>
                        <Time>2022-03-06T04:51:54.878Z</Time>
                    </Trackpoint>
                    <Trackpoint>
                        <DistanceMeters>56.69795036315918</DistanceMeters>
                        <Time>2022-03-06T04:52:33.398Z</Time>
                    </Trackpoint>
                    <Trackpoint>
                        <DistanceMeters>80.9644775390625</DistanceMeters>
                        <Time>2022-03-06T04:52:53.038Z</Time>
                    </Trackpoint>
                    <Trackpoint>
                        <DistanceMeters>93.7880802154541</DistanceMeters>
                        <Time>2022-03-06T04:53:03.478Z</Time>
                    </Trackpoint>
                    <Trackpoint>
                        <DistanceMeters>144.62586402893066</DistanceMeters>
                        <Time>2022-03-06T04:53:44.198Z</Time>
                    </Trackpoint>
                    <Trackpoint>
                        <DistanceMeters>146.69188261032104</DistanceMeters>
                        <Time>2022-03-06T04:53:46.078Z</Time>
                    </Trackpoint>
                    <Trackpoint>
                        <DistanceMeters>181.76729536056519</DistanceMeters>
                        <Time>2022-03-06T04:54:14.198Z</Time>
                    </Trackpoint>
                    <Trackpoint>
                        <DistanceMeters>207.45865964889526</DistanceMeters>
                        <Time>2022-03-06T04:54:34.998Z</Time>
                    </Trackpoint>
                    <Trackpoint>
                        <DistanceMeters>280.7306475639343</DistanceMeters>
                        <Time>2022-03-06T04:55:33.078Z</Time>
                    </Trackpoint>
                    <Trackpoint>
                        <DistanceMeters>311.69219160079956</DistanceMeters>
                        <Time>2022-03-06T04:55:59.318Z</Time>
                    </Trackpoint>
                    <Trackpoint>
                        <DistanceMeters>325.91871976852417</DistanceMeters>
                        <Time>2022-03-06T04:56:10.958Z</Time>
                    </Trackpoint>
                    <Trackpoint>
                        <DistanceMeters>367.68891859054565</DistanceMeters>
                        <Time>2022-03-06T04:56:56.638Z</Time>
                    </Trackpoint>
                    <Trackpoint>
                        <DistanceMeters>384.6530089378357</DistanceMeters>
                        <Time>2022-03-06T04:57:45.278Z</Time>
                    </Trackpoint>
                    <Trackpoint>
                        <DistanceMeters>409.44667768478394</DistanceMeters>
                        <Time>2022-03-06T04:58:43.118Z</Time>
                    </Trackpoint>
                    <Trackpoint>
                        <DistanceMeters>463.60127210617065</DistanceMeters>
                        <Time>2022-03-06T05:00:24.378Z</Time>
                    </Trackpoint>
                    <Trackpoint>
                        <DistanceMeters>492.9621958732605</DistanceMeters>
                        <Time>2022-03-06T05:01:08.398Z</Time>
                    </Trackpoint>
                    <Trackpoint>
                        <DistanceMeters>496.2245206832886</DistanceMeters>
                        <Time>2022-03-06T05:01:12.158Z</Time>
                    </Trackpoint>
                    <Trackpoint>
                        <DistanceMeters>529.5002355575562</DistanceMeters>
                        <Time>2022-03-06T05:01:51.318Z</Time>
                    </Trackpoint>
                    <Trackpoint>
                        <DistanceMeters>559.5136251449585</DistanceMeters>
                        <Time>2022-03-06T05:02:55.258Z</Time>
                    </Trackpoint>
                    <Trackpoint>
                        <DistanceMeters>570.5544738769531</DistanceMeters>
                        <Time>2022-03-06T05:03:25.590Z</Time>
                    </Trackpoint>
                </Track>
                <DistanceMeters>570.5544738769531</DistanceMeters>
                <TotalTimeSeconds>701.151105538</TotalTimeSeconds>
                <Calories>67.93514251708984</Calories>
                <Intensity>Active</Intensity>
                <TriggerMethod>Manual</TriggerMethod>
            </Lap>
        </Activity>
        <Activity Sport="Walking">
            <Id>2022-03-06T05:16:33.078Z</Id>
            <Lap StartTime="2022-03-06T05:16:33.078Z">
                <Track>
                    <Trackpoint>
                        <DistanceMeters>0.0</DistanceMeters>
                        <Time>2022-03-06T05:16:33.078Z</Time>
                    </Trackpoint>
                    <Trackpoint>
                        <DistanceMeters>59.37431335449219</DistanceMeters>
                        <Time>2022-03-06T05:17:25.958Z</Time>
                    </Trackpoint>
                    <Trackpoint>
                        <DistanceMeters>59.37431335449219</DistanceMeters>
                        <Time>2022-03-06T05:18:07.958Z</Time>
                    </Trackpoint>
                    <Trackpoint>
                        <DistanceMeters>108.00766372680664</DistanceMeters>
                        <Time>2022-03-06T05:18:50.938Z</Time>
                    </Trackpoint>
                    <Trackpoint>
                        <DistanceMeters>179.77881240844727</DistanceMeters>
                        <Time>2022-03-06T05:20:12.358Z</Time>
                    </Trackpoint>
                    <Trackpoint>
                        <DistanceMeters>193.42026329040527</DistanceMeters>
                        <Time>2022-03-06T05:22:33.918Z</Time>
                    </Trackpoint>
                    <Trackpoint>
                        <DistanceMeters>278.89317893981934</DistanceMeters>
                        <Time>2022-03-06T05:24:29.518Z</Time>
                    </Trackpoint>
                    <Trackpoint>
                        <DistanceMeters>299.119592666626</DistanceMeters>
                        <Time>2022-03-06T05:25:25.898Z</Time>
                    </Trackpoint>
                    <Trackpoint>
                        <DistanceMeters>306.29670763015747</DistanceMeters>
                        <Time>2022-03-06T05:25:46.278Z</Time>
                    </Trackpoint>
                    <Trackpoint>
                        <DistanceMeters>314.7787528038025</DistanceMeters>
                        <Time>2022-03-06T05:26:25.553Z</Time>
                    </Trackpoint>
                </Track>
                <DistanceMeters>314.7787528038025</DistanceMeters>
                <TotalTimeSeconds>592.474104393</TotalTimeSeconds>
                <Calories>52.40066909790039</Calories>
                <Intensity>Active</Intensity>
                <TriggerMethod>Manual</TriggerMethod>
            </Lap>
        </Activity>
    </Activities>
    <Author xsi:type="Application_t">
        <Name>Google Fit</Name>
        <Build>
            <Version>
                <VersionMajor>0</VersionMajor>
                <VersionMinor>0</VersionMinor>
                <BuildMajor>0</BuildMajor>
                <BuildMinor>0</BuildMinor>
            </Version>
        </Build>
        <LangID>en</LangID>
        <PartNumber>000-00000-00</PartNumber>
    </Author>
</TrainingCenterDatabase>
