<?xml version="1.0" encoding="UTF-8"?>
<TrainingCenterDatabase
    xmlns="http://www.garmin.com/xmlschemas/TrainingCenterDatabase/v2"
    xmlns:ns2="http://www.garmin.com/xmlschemas/UserProfile/v2"
    xmlns:ns3="http://www.garmin.com/xmlschemas/ActivityExtension/v2"
    xmlns:ns4="http://www.garmin.com/xmlschemas/ProfileExtension/v1"
    xmlns:ns5="http://www.garmin.com/xmlschemas/ActivityGoals/v1"
    xmlns:xsi="http://www.w3.org/2001/XMLSchema-instance" xsi:schemaLocation="http://www.garmin.com/xmlschemas/TrainingCenterDatabase/v2 http://www.garmin.com/xmlschemas/TrainingCenterDatabasev2.xsd">
    <Activities>
        <Activity Sport="Walking">
            <Id>2022-11-20T07:23:16.924Z</Id>
            <Lap StartTime="2022-11-20T07:23:16.924Z">
                <Track>
                    <Trackpoint>
                        <DistanceMeters>0.0</DistanceMeters>
                        <Time>2022-11-20T07:23:16.924Z</Time>
                    </Trackpoint>
                    <Trackpoint>
                        <DistanceMeters>0.0</DistanceMeters>
                        <Time>2022-11-20T07:23:37.173Z</Time>
                    </Trackpoint>
                    <Trackpoint>
                        <DistanceMeters>18.099376169123975</DistanceMeters>
                        <Time>2022-11-20T07:23:55.213Z</Time>
                    </Trackpoint>
                    <Trackpoint>
                        <DistanceMeters>38.32579112490746</DistanceMeters>
                        <Time>2022-11-20T07:24:38.153Z</Time>
                    </Trackpoint>
                    <Trackpoint>
                        <DistanceMeters>107.4870809737155</DistanceMeters>
                        <Time>2022-11-20T07:25:55.953Z</Time>
                    </Trackpoint>
                    <Trackpoint>
                        <DistanceMeters>166.20893084534498</DistanceMeters>
                        <Time>2022-11-20T07:27:22.753Z</Time>
                    </Trackpoint>
                    <Trackpoint>
                        <DistanceMeters>241.0708259117701</DistanceMeters>
                        <Time>2022-11-20T07:28:38.113Z</Time>
                    </Trackpoint>
                    <Trackpoint>
                        <DistanceMeters>271.7366808447322</DistanceMeters>
                        <Time>2022-11-20T07:29:55.453Z</Time>
                    </Trackpoint>
                </Track>
                <DistanceMeters>271.7366808447322</DistanceMeters>
                <TotalTimeSeconds>398.529815568</TotalTimeSeconds>
                <Calories>39.149108388888884</Calories>
                <Intensity>Active</Intensity>
                <TriggerMethod>Manual</TriggerMethod>
            </Lap>
        </Activity>
        <Activity Sport="Walking">
            <Id>2022-11-20T07:40:20.333Z</Id>
            <Lap StartTime="2022-11-20T07:40:20.333Z">
                <Track>
                    <Trackpoint>
                        <DistanceMeters>0.0</DistanceMeters>
                        <Time>2022-11-20T07:40:20.333Z</Time>
                    </Trackpoint>
                    <Trackpoint>
                        <DistanceMeters>0.0</DistanceMeters>
                        <Time>2022-11-20T07:42:06.253Z</Time>
                    </Trackpoint>
                    <Trackpoint>
                        <DistanceMeters>0.6524649985736608</DistanceMeters>
                        <Time>2022-11-20T07:42:07.693Z</Time>
                    </Trackpoint>
                    <Trackpoint>
                        <DistanceMeters>0.6524649985736608</DistanceMeters>
                        <Time>2022-11-20T07:42:45.536Z</Time>
                    </Trackpoint>
                </Track>
                <DistanceMeters>0.6524649985736608</DistanceMeters>
                <TotalTimeSeconds>145.202184262</TotalTimeSeconds>
                <Calories>6.155708597492879</Calories>
                <Intensity>Active</Intensity>
                <TriggerMethod>Manual</TriggerMethod>
            </Lap>
        </Activity>
        <Activity Sport="Walking">
            <Id>2022-11-20T07:42:45.536Z</Id>
            <Lap StartTime="2022-11-20T07:42:45.536Z">
                <Track>
                    <Trackpoint>
                        <DistanceMeters>0.0</DistanceMeters>
                        <Time>2022-11-20T07:42:45.536Z</Time>
                    </Trackpoint>
                    <Trackpoint>
                        <DistanceMeters>25.322841356180874</DistanceMeters>
                        <Time>2022-11-20T07:43:16.013Z</Time>
                    </Trackpoint>
                    <Trackpoint>
                        <DistanceMeters>38.71448389509136</DistanceMeters>
                        <Time>2022-11-20T07:43:29.413Z</Time>
                    </Trackpoint>
                    <Trackpoint>
                        <DistanceMeters>60.24582884802217</DistanceMeters>
                        <Time>2022-11-20T07:43:55.173Z</Time>
                    </Trackpoint>
                    <Trackpoint>
                        <DistanceMeters>94.17400877385253</DistanceMeters>
                        <Time>2022-11-20T07:45:22.053Z</Time>
                    </Trackpoint>
                    <Trackpoint>
                        <DistanceMeters>132.66944368969854</DistanceMeters>
                        <Time>2022-11-20T07:46:13.053Z</Time>
                    </Trackpoint>
                    <Trackpoint>
                        <DistanceMeters>235.60439895794855</DistanceMeters>
                        <Time>2022-11-20T07:47:49.973Z</Time>
                    </Trackpoint>
                    <Trackpoint>
                        <DistanceMeters>253.13931819834508</DistanceMeters>
                        <Time>2022-11-20T07:48:07.093Z</Time>
                    </Trackpoint>
                    <Trackpoint>
                        <DistanceMeters>274.19045564982076</DistanceMeters>
                        <Time>2022-11-20T07:48:27.173Z</Time>
                    </Trackpoint>
                    <Trackpoint>
                        <DistanceMeters>301.0166306770314</DistanceMeters>
                        <Time>2022-11-20T07:48:56.253Z</Time>
                    </Trackpoint>
                    <Trackpoint>
                        <DistanceMeters>325.8103006228305</DistanceMeters>
                        <Time>2022-11-20T07:49:54.133Z</Time>
                    </Trackpoint>
                    <Trackpoint>
                        <DistanceMeters>370.1779205258394</DistanceMeters>
                        <Time>2022-11-20T07:51:27.213Z</Time>
                    </Trackpoint>
                    <Trackpoint>
                        <DistanceMeters>404.3507873542238</DistanceMeters>
                        <Time>2022-11-20T07:52:03.693Z</Time>
                    </Trackpoint>
                    <Trackpoint>
                        <DistanceMeters>421.96734231571264</DistanceMeters>
                        <Time>2022-11-20T07:52:26.973Z</Time>
                    </Trackpoint>
                    <Trackpoint>
                        <DistanceMeters>439.58389727720146</DistanceMeters>
                        <Time>2022-11-20T07:53:22.433Z</Time>
                    </Trackpoint>
                    <Trackpoint>
                        <DistanceMeters>463.5187479229049</DistanceMeters>
                        <Time>2022-11-20T07:53:46.973Z</Time>
                    </Trackpoint>
                    <Trackpoint>
                        <DistanceMeters>476.05010209741477</DistanceMeters>
                        <Time>2022-11-20T07:53:57.973Z</Time>
                    </Trackpoint>
                    <Trackpoint>
                        <DistanceMeters>498.0203380268796</DistanceMeters>
                        <Time>2022-11-20T07:54:20.393Z</Time>
                    </Trackpoint>
                    <Trackpoint>
                        <DistanceMeters>505.84991800976354</DistanceMeters>
                        <Time>2022-11-20T07:54:52.213Z</Time>
                    </Trackpoint>
                    <Trackpoint>
                        <DistanceMeters>512.3745679955001</DistanceMeters>
                        <Time>2022-11-20T07:55:02.213Z</Time>
                    </Trackpoint>
                    <Trackpoint>
                        <DistanceMeters>527.3812629626943</DistanceMeters>
                        <Time>2022-11-20T07:55:38.533Z</Time>
                    </Trackpoint>
                    <Trackpoint>
                        <DistanceMeters>541.0830279327412</DistanceMeters>
                        <Time>2022-11-20T07:55:58.933Z</Time>
                    </Trackpoint>
                    <Trackpoint>
                        <DistanceMeters>579.4158969037144</DistanceMeters>
                        <Time>2022-11-20T07:56:39.053Z</Time>
                    </Trackpoint>
                    <Trackpoint>
                        <DistanceMeters>606.4693520406234</DistanceMeters>
                        <Time>2022-11-20T07:57:05.213Z</Time>
                    </Trackpoint>
                    <Trackpoint>
                        <DistanceMeters>631.9154869849963</DistanceMeters>
                        <Time>2022-11-20T07:57:40.413Z</Time>
                    </Trackpoint>
                    <Trackpoint>
                        <DistanceMeters>653.4468319379271</DistanceMeters>
                        <Time>2022-11-20T07:58:04.973Z</Time>
                    </Trackpoint>
                    <Trackpoint>
                        <DistanceMeters>698.2964774739924</DistanceMeters>
                        <Time>2022-11-20T07:58:49.893Z</Time>
                    </Trackpoint>
                    <Trackpoint>
                        <DistanceMeters>700.3351089121004</DistanceMeters>
                        <Time>2022-11-20T07:59:32.713Z</Time>
                    </Trackpoint>
                </Track>
                <DistanceMeters>700.3351089121004</DistanceMeters>
                <TotalTimeSeconds>1007.177</TotalTimeSeconds>
                <Calories>103.12373394444444</Calories>
                <Intensity>Active</Intensity>
                <TriggerMethod>Manual</TriggerMethod>
            </Lap>
        </Activity>
        <Activity Sport="Walking">
            <Id>2022-11-20T08:05:04.613Z</Id>
            <Lap StartTime="2022-11-20T08:05:04.613Z">
                <Track>
                    <Trackpoint>
                        <DistanceMeters>0.0</DistanceMeters>
                        <Time>2022-11-20T08:05:04.613Z</Time>
                    </Trackpoint>
                    <Trackpoint>
                        <DistanceMeters>31.970784930109378</DistanceMeters>
                        <Time>2022-11-20T08:06:42.180Z</Time>
                    </Trackpoint>
                    <Trackpoint>
                        <DistanceMeters>31.970784930109378</DistanceMeters>
                        <Time>2022-11-20T08:06:42.613Z</Time>
                    </Trackpoint>
                    <Trackpoint>
                        <DistanceMeters>76.33840483311832</DistanceMeters>
                        <Time>2022-11-20T08:08:09.093Z</Time>
                    </Trackpoint>
                    <Trackpoint>
                        <DistanceMeters>125.27327972614287</DistanceMeters>
                        <Time>2022-11-20T08:09:07.973Z</Time>
                    </Trackpoint>
                    <Trackpoint>
                        <DistanceMeters>152.81391770677587</DistanceMeters>
                        <Time>2022-11-20T08:09:33.053Z</Time>
                    </Trackpoint>
                    <Trackpoint>
                        <DistanceMeters>189.12959593854492</DistanceMeters>
                        <Time>2022-11-20T08:10:08.853Z</Time>
                    </Trackpoint>
                    <Trackpoint>
                        <DistanceMeters>200.87396591287083</DistanceMeters>
                        <Time>2022-11-20T08:10:22.073Z</Time>
                    </Trackpoint>
                    <Trackpoint>
                        <DistanceMeters>234.14968084012753</DistanceMeters>
                        <Time>2022-11-20T08:11:09.933Z</Time>
                    </Trackpoint>
                    <Trackpoint>
                        <DistanceMeters>260.90074578164763</DistanceMeters>
                        <Time>2022-11-20T08:11:42.453Z</Time>
                    </Trackpoint>
                    <Trackpoint>
                        <DistanceMeters>286.99934572459404</DistanceMeters>
                        <Time>2022-11-20T08:12:11.333Z</Time>
                    </Trackpoint>
                    <Trackpoint>
                        <DistanceMeters>318.42453486332994</DistanceMeters>
                        <Time>2022-11-20T08:12:42.933Z</Time>
                    </Trackpoint>
                    <Trackpoint>
                        <DistanceMeters>347.52519000254284</DistanceMeters>
                        <Time>2022-11-20T08:13:11.013Z</Time>
                    </Trackpoint>
                    <Trackpoint>
                        <DistanceMeters>380.0879398210007</DistanceMeters>
                        <Time>2022-11-20T08:13:44.453Z</Time>
                    </Trackpoint>
                    <Trackpoint>
                        <DistanceMeters>408.3691150436848</DistanceMeters>
                        <Time>2022-11-20T08:14:12.213Z</Time>
                    </Trackpoint>
                    <Trackpoint>
                        <DistanceMeters>440.2504813563212</DistanceMeters>
                        <Time>2022-11-20T08:14:45.013Z</Time>
                    </Trackpoint>
                    <Trackpoint>
                        <DistanceMeters>463.0867563063993</DistanceMeters>
                        <Time>2022-11-20T08:15:12.893Z</Time>
                    </Trackpoint>
                    <Trackpoint>
                        <DistanceMeters>495.8102954357415</DistanceMeters>
                        <Time>2022-11-20T08:15:45.933Z</Time>
                    </Trackpoint>
                    <Trackpoint>
                        <DistanceMeters>523.2098463140786</DistanceMeters>
                        <Time>2022-11-20T08:16:13.533Z</Time>
                    </Trackpoint>
                    <Trackpoint>
                        <DistanceMeters>553.3171980618282</DistanceMeters>
                        <Time>2022-11-20T08:16:46.133Z</Time>
                    </Trackpoint>
                    <Trackpoint>
                        <DistanceMeters>581.6494040298384</DistanceMeters>
                        <Time>2022-11-20T08:17:13.773Z</Time>
                    </Trackpoint>
                    <Trackpoint>
                        <DistanceMeters>618.2311381099621</DistanceMeters>
                        <Time>2022-11-20T08:17:46.813Z</Time>
                    </Trackpoint>
                    <Trackpoint>
                        <DistanceMeters>635.847693071451</DistanceMeters>
                        <Time>2022-11-20T08:18:09.253Z</Time>
                    </Trackpoint>
                    <Trackpoint>
                        <DistanceMeters>666.513548004413</DistanceMeters>
                        <Time>2022-11-20T08:18:48.453Z</Time>
                    </Trackpoint>
                    <Trackpoint>
                        <DistanceMeters>703.3467465903002</DistanceMeters>
                        <Time>2022-11-20T08:19:20.973Z</Time>
                    </Trackpoint>
                    <Trackpoint>
                        <DistanceMeters>736.7758145898443</DistanceMeters>
                        <Time>2022-11-20T08:19:48.333Z</Time>
                    </Trackpoint>
                    <Trackpoint>
                        <DistanceMeters>762.8744145327908</DistanceMeters>
                        <Time>2022-11-20T08:20:22.253Z</Time>
                    </Trackpoint>
                    <Trackpoint>
                        <DistanceMeters>787.0156194800162</DistanceMeters>
                        <Time>2022-11-20T08:20:49.453Z</Time>
                    </Trackpoint>
                    <Trackpoint>
                        <DistanceMeters>792.93536936562</DistanceMeters>
                        <Time>2022-11-20T08:21:20.490Z</Time>
                    </Trackpoint>
                </Track>
                <DistanceMeters>792.93536936562</DistanceMeters>
                <TotalTimeSeconds>975.876188384</TotalTimeSeconds>
                <Calories>89.92918499999999</Calories>
                <Intensity>Active</Intensity>
                <TriggerMethod>Manual</TriggerMethod>
            </Lap>
        </Activity>
    </Activities>
    <Author xsi:type="Application_t">
        <Name>Google Fit</Name>
        <Build>
            <Version>
                <VersionMajor>0</VersionMajor>
                <VersionMinor>0</VersionMinor>
                <BuildMajor>0</BuildMajor>
                <BuildMinor>0</BuildMinor>
            </Version>
        </Build>
        <LangID>en</LangID>
        <PartNumber>000-00000-00</PartNumber>
    </Author>
</TrainingCenterDatabase>
