<?xml version="1.0" encoding="UTF-8"?>
<TrainingCenterDatabase
    xmlns="http://www.garmin.com/xmlschemas/TrainingCenterDatabase/v2"
    xmlns:ns2="http://www.garmin.com/xmlschemas/UserProfile/v2"
    xmlns:ns3="http://www.garmin.com/xmlschemas/ActivityExtension/v2"
    xmlns:ns4="http://www.garmin.com/xmlschemas/ProfileExtension/v1"
    xmlns:ns5="http://www.garmin.com/xmlschemas/ActivityGoals/v1"
    xmlns:xsi="http://www.w3.org/2001/XMLSchema-instance" xsi:schemaLocation="http://www.garmin.com/xmlschemas/TrainingCenterDatabase/v2 http://www.garmin.com/xmlschemas/TrainingCenterDatabasev2.xsd">
    <Activities>
        <Activity Sport="Walking">
            <Id>2022-10-18T14:58:59.430Z</Id>
            <Lap StartTime="2022-10-18T14:58:59.430Z">
                <Track>
                    <Trackpoint>
                        <DistanceMeters>0.0</DistanceMeters>
                        <Time>2022-10-18T14:58:59.430Z</Time>
                    </Trackpoint>
                    <Trackpoint>
                        <DistanceMeters>0.0</DistanceMeters>
                        <Time>2022-10-18T16:17:52.830Z</Time>
                    </Trackpoint>
                    <Trackpoint>
                        <DistanceMeters>2.1956067085266113</DistanceMeters>
                        <Time>2022-10-18T16:17:54.470Z</Time>
                    </Trackpoint>
                    <Trackpoint>
                        <DistanceMeters>67.11418581008911</DistanceMeters>
                        <Time>2022-10-18T16:18:52.990Z</Time>
                    </Trackpoint>
                </Track>
                <DistanceMeters>67.11418581008911</DistanceMeters>
                <TotalTimeSeconds>4793.559999812</TotalTimeSeconds>
                <Calories>102.08004781972613</Calories>
                <Intensity>Active</Intensity>
                <TriggerMethod>Manual</TriggerMethod>
            </Lap>
        </Activity>
        <Activity Sport="Walking">
            <Id>2022-10-18T16:17:54.470Z</Id>
            <Lap StartTime="2022-10-18T16:17:54.470Z">
                <Track>
                    <Trackpoint>
                        <DistanceMeters>0.0</DistanceMeters>
                        <Time>2022-10-18T16:17:54.470Z</Time>
                    </Trackpoint>
                    <Trackpoint>
                        <DistanceMeters>64.9185791015625</DistanceMeters>
                        <Time>2022-10-18T16:18:08.868Z</Time>
                    </Trackpoint>
                    <Trackpoint>
                        <DistanceMeters>64.9185791015625</DistanceMeters>
                        <Time>2022-10-18T16:18:52.990Z</Time>
                    </Trackpoint>
                    <Trackpoint>
                        <DistanceMeters>67.66702342033386</DistanceMeters>
                        <Time>2022-10-18T16:18:55.510Z</Time>
                    </Trackpoint>
                    <Trackpoint>
                        <DistanceMeters>138.347473859787</DistanceMeters>
                        <Time>2022-10-18T16:19:54.550Z</Time>
                    </Trackpoint>
                    <Trackpoint>
                        <DistanceMeters>140.5951373577118</DistanceMeters>
                        <Time>2022-10-18T16:19:56.110Z</Time>
                    </Trackpoint>
                    <Trackpoint>
                        <DistanceMeters>214.364111661911</DistanceMeters>
                        <Time>2022-10-18T16:20:55.150Z</Time>
                    </Trackpoint>
                    <Trackpoint>
                        <DistanceMeters>217.11255598068237</DistanceMeters>
                        <Time>2022-10-18T16:20:57.670Z</Time>
                    </Trackpoint>
                    <Trackpoint>
                        <DistanceMeters>289.70649671554565</DistanceMeters>
                        <Time>2022-10-18T16:21:55.110Z</Time>
                    </Trackpoint>
                    <Trackpoint>
                        <DistanceMeters>293.95928621292114</DistanceMeters>
                        <Time>2022-10-18T16:21:58.630Z</Time>
                    </Trackpoint>
                    <Trackpoint>
                        <DistanceMeters>365.1575970649719</DistanceMeters>
                        <Time>2022-10-18T16:22:56.710Z</Time>
                    </Trackpoint>
                    <Trackpoint>
                        <DistanceMeters>369.79911041259766</DistanceMeters>
                        <Time>2022-10-18T16:22:59.630Z</Time>
                    </Trackpoint>
                    <Trackpoint>
                        <DistanceMeters>437.9760208129883</DistanceMeters>
                        <Time>2022-10-18T16:23:57.630Z</Time>
                    </Trackpoint>
                    <Trackpoint>
                        <DistanceMeters>440.1716275215149</DistanceMeters>
                        <Time>2022-10-18T16:23:59.270Z</Time>
                    </Trackpoint>
                    <Trackpoint>
                        <DistanceMeters>512.5385937690735</DistanceMeters>
                        <Time>2022-10-18T16:25:00.910Z</Time>
                    </Trackpoint>
                    <Trackpoint>
                        <DistanceMeters>588.3885388374329</DistanceMeters>
                        <Time>2022-10-18T16:26:01.790Z</Time>
                    </Trackpoint>
                    <Trackpoint>
                        <DistanceMeters>603.1605906486511</DistanceMeters>
                        <Time>2022-10-18T16:26:12.510Z</Time>
                    </Trackpoint>
                    <Trackpoint>
                        <DistanceMeters>643.1627154350281</DistanceMeters>
                        <Time>2022-10-18T16:26:46.710Z</Time>
                    </Trackpoint>
                    <Trackpoint>
                        <DistanceMeters>679.9063639640808</DistanceMeters>
                        <Time>2022-10-18T16:27:17.430Z</Time>
                    </Trackpoint>
                    <Trackpoint>
                        <DistanceMeters>726.1130480766296</DistanceMeters>
                        <Time>2022-10-18T16:27:53.470Z</Time>
                    </Trackpoint>
                    <Trackpoint>
                        <DistanceMeters>736.5991778373718</DistanceMeters>
                        <Time>2022-10-18T16:28:02.550Z</Time>
                    </Trackpoint>
                    <Trackpoint>
                        <DistanceMeters>760.7403826713562</DistanceMeters>
                        <Time>2022-10-18T16:28:45.754Z</Time>
                    </Trackpoint>
                </Track>
                <DistanceMeters>760.7403826713562</DistanceMeters>
                <TotalTimeSeconds>651.283545827</TotalTimeSeconds>
                <Calories>65.21005249023438</Calories>
                <Intensity>Active</Intensity>
                <TriggerMethod>Manual</TriggerMethod>
            </Lap>
        </Activity>
        <Activity Sport="Walking">
            <Id>2022-10-18T16:39:41.310Z</Id>
            <Lap StartTime="2022-10-18T16:39:41.310Z">
                <Track>
                    <Trackpoint>
                        <DistanceMeters>0.0</DistanceMeters>
                        <Time>2022-10-18T16:39:41.310Z</Time>
                    </Trackpoint>
                    <Trackpoint>
                        <DistanceMeters>20.22641372680664</DistanceMeters>
                        <Time>2022-10-18T16:40:35.153Z</Time>
                    </Trackpoint>
                    <Trackpoint>
                        <DistanceMeters>20.22641372680664</DistanceMeters>
                        <Time>2022-10-18T16:40:43.310Z</Time>
                    </Trackpoint>
                    <Trackpoint>
                        <DistanceMeters>53.50212860107422</DistanceMeters>
                        <Time>2022-10-18T16:41:32.790Z</Time>
                    </Trackpoint>
                </Track>
                <DistanceMeters>53.50212860107422</DistanceMeters>
                <TotalTimeSeconds>111.480000577</TotalTimeSeconds>
                <Calories>5.635791778564453</Calories>
                <Intensity>Active</Intensity>
                <TriggerMethod>Manual</TriggerMethod>
            </Lap>
        </Activity>
        <Activity Sport="Walking">
            <Id>2022-10-18T16:40:43.310Z</Id>
            <Lap StartTime="2022-10-18T16:40:43.310Z">
                <Track>
                    <Trackpoint>
                        <DistanceMeters>0.0</DistanceMeters>
                        <Time>2022-10-18T16:40:43.310Z</Time>
                    </Trackpoint>
                    <Trackpoint>
                        <DistanceMeters>33.27571487426758</DistanceMeters>
                        <Time>2022-10-18T16:41:30.196Z</Time>
                    </Trackpoint>
                    <Trackpoint>
                        <DistanceMeters>33.27571487426758</DistanceMeters>
                        <Time>2022-10-18T16:41:32.790Z</Time>
                    </Trackpoint>
                    <Trackpoint>
                        <DistanceMeters>45.020084381103516</DistanceMeters>
                        <Time>2022-10-18T16:41:48.230Z</Time>
                    </Trackpoint>
                    <Trackpoint>
                        <DistanceMeters>86.7778434753418</DistanceMeters>
                        <Time>2022-10-18T16:42:47.670Z</Time>
                    </Trackpoint>
                    <Trackpoint>
                        <DistanceMeters>95.912353515625</DistanceMeters>
                        <Time>2022-10-18T16:43:02.470Z</Time>
                    </Trackpoint>
                    <Trackpoint>
                        <DistanceMeters>131.7979278564453</DistanceMeters>
                        <Time>2022-10-18T16:43:52.150Z</Time>
                    </Trackpoint>
                    <Trackpoint>
                        <DistanceMeters>150.1275749206543</DistanceMeters>
                        <Time>2022-10-18T16:44:07.590Z</Time>
                    </Trackpoint>
                    <Trackpoint>
                        <DistanceMeters>185.3618392944336</DistanceMeters>
                        <Time>2022-10-18T16:44:35.430Z</Time>
                    </Trackpoint>
                    <Trackpoint>
                        <DistanceMeters>233.87063598632812</DistanceMeters>
                        <Time>2022-10-18T16:45:27.670Z</Time>
                    </Trackpoint>
                    <Trackpoint>
                        <DistanceMeters>264.76737213134766</DistanceMeters>
                        <Time>2022-10-18T16:45:56.070Z</Time>
                    </Trackpoint>
                    <Trackpoint>
                        <DistanceMeters>331.35894775390625</DistanceMeters>
                        <Time>2022-10-18T16:46:55.230Z</Time>
                    </Trackpoint>
                    <Trackpoint>
                        <DistanceMeters>395.12579345703125</DistanceMeters>
                        <Time>2022-10-18T16:47:54.110Z</Time>
                    </Trackpoint>
                </Track>
                <DistanceMeters>395.12579345703125</DistanceMeters>
                <TotalTimeSeconds>430.799999855</TotalTimeSeconds>
                <Calories>33.74195098876953</Calories>
                <Intensity>Active</Intensity>
                <TriggerMethod>Manual</TriggerMethod>
            </Lap>
        </Activity>
        <Activity Sport="Walking">
            <Id>2022-10-18T16:46:55.230Z</Id>
            <Lap StartTime="2022-10-18T16:46:55.230Z">
                <Track>
                    <Trackpoint>
                        <DistanceMeters>0.0</DistanceMeters>
                        <Time>2022-10-18T16:46:55.230Z</Time>
                    </Trackpoint>
                    <Trackpoint>
                        <DistanceMeters>63.766845703125</DistanceMeters>
                        <Time>2022-10-18T16:46:59.743Z</Time>
                    </Trackpoint>
                    <Trackpoint>
                        <DistanceMeters>63.766845703125</DistanceMeters>
                        <Time>2022-10-18T16:47:54.110Z</Time>
                    </Trackpoint>
                    <Trackpoint>
                        <DistanceMeters>90.33305931091309</DistanceMeters>
                        <Time>2022-10-18T16:48:17.110Z</Time>
                    </Trackpoint>
                    <Trackpoint>
                        <DistanceMeters>136.04408073425293</DistanceMeters>
                        <Time>2022-10-18T16:49:00.030Z</Time>
                    </Trackpoint>
                    <Trackpoint>
                        <DistanceMeters>171.510892868042</DistanceMeters>
                        <Time>2022-10-18T16:49:27.470Z</Time>
                    </Trackpoint>
                    <Trackpoint>
                        <DistanceMeters>234.5952434539795</DistanceMeters>
                        <Time>2022-10-18T16:50:25.710Z</Time>
                    </Trackpoint>
                    <Trackpoint>
                        <DistanceMeters>259.3821563720703</DistanceMeters>
                        <Time>2022-10-18T16:50:50.470Z</Time>
                    </Trackpoint>
                    <Trackpoint>
                        <DistanceMeters>286.07082748413086</DistanceMeters>
                        <Time>2022-10-18T16:51:13.230Z</Time>
                    </Trackpoint>
                    <Trackpoint>
                        <DistanceMeters>332.04686737060547</DistanceMeters>
                        <Time>2022-10-18T16:51:55.570Z</Time>
                    </Trackpoint>
                    <Trackpoint>
                        <DistanceMeters>361.4077911376953</DistanceMeters>
                        <Time>2022-10-18T16:53:39.638Z</Time>
                    </Trackpoint>
                </Track>
                <DistanceMeters>361.4077911376953</DistanceMeters>
                <TotalTimeSeconds>404.40754549</TotalTimeSeconds>
                <Calories>40.94480514526367</Calories>
                <Intensity>Active</Intensity>
                <TriggerMethod>Manual</TriggerMethod>
            </Lap>
        </Activity>
        <Activity Sport="Walking">
            <Id>2022-10-18T16:53:39.638Z</Id>
            <Lap StartTime="2022-10-18T16:53:39.638Z">
                <Track>
                    <Trackpoint>
                        <DistanceMeters>0.0</DistanceMeters>
                        <Time>2022-10-18T16:53:39.638Z</Time>
                    </Trackpoint>
                    <Trackpoint>
                        <DistanceMeters>0.0</DistanceMeters>
                        <Time>2022-10-18T16:56:40.830Z</Time>
                    </Trackpoint>
                    <Trackpoint>
                        <DistanceMeters>53.50212860107422</DistanceMeters>
                        <Time>2022-10-18T16:59:24.830Z</Time>
                    </Trackpoint>
                    <Trackpoint>
                        <DistanceMeters>147.99375915527344</DistanceMeters>
                        <Time>2022-10-18T17:00:38.750Z</Time>
                    </Trackpoint>
                </Track>
                <DistanceMeters>147.99375915527344</DistanceMeters>
                <TotalTimeSeconds>419.112451462</TotalTimeSeconds>
                <Calories>9.984016408501702</Calories>
                <Intensity>Active</Intensity>
                <TriggerMethod>Manual</TriggerMethod>
            </Lap>
        </Activity>
        <Activity Sport="Walking">
            <Id>2022-10-18T16:59:24.830Z</Id>
            <Lap StartTime="2022-10-18T16:59:24.830Z">
                <Track>
                    <Trackpoint>
                        <DistanceMeters>0.0</DistanceMeters>
                        <Time>2022-10-18T16:59:24.830Z</Time>
                    </Trackpoint>
                    <Trackpoint>
                        <DistanceMeters>94.49163055419922</DistanceMeters>
                        <Time>2022-10-18T16:59:50.709Z</Time>
                    </Trackpoint>
                    <Trackpoint>
                        <DistanceMeters>94.49163055419922</DistanceMeters>
                        <Time>2022-10-18T17:00:38.750Z</Time>
                    </Trackpoint>
                    <Trackpoint>
                        <DistanceMeters>146.25945663452148</DistanceMeters>
                        <Time>2022-10-18T17:01:08.590Z</Time>
                    </Trackpoint>
                    <Trackpoint>
                        <DistanceMeters>167.10268783569336</DistanceMeters>
                        <Time>2022-10-18T17:01:23.350Z</Time>
                    </Trackpoint>
                    <Trackpoint>
                        <DistanceMeters>200.23746871948242</DistanceMeters>
                        <Time>2022-10-18T17:01:47.630Z</Time>
                    </Trackpoint>
                    <Trackpoint>
                        <DistanceMeters>248.34722518920898</DistanceMeters>
                        <Time>2022-10-18T17:03:18.510Z</Time>
                    </Trackpoint>
                    <Trackpoint>
                        <DistanceMeters>270.5310344696045</DistanceMeters>
                        <Time>2022-10-18T17:04:38.779Z</Time>
                    </Trackpoint>
                </Track>
                <DistanceMeters>270.5310344696045</DistanceMeters>
                <TotalTimeSeconds>313.94854722</TotalTimeSeconds>
                <Calories>29.495166778564453</Calories>
                <Intensity>Active</Intensity>
                <TriggerMethod>Manual</TriggerMethod>
            </Lap>
        </Activity>
    </Activities>
    <Author xsi:type="Application_t">
        <Name>Google Fit</Name>
        <Build>
            <Version>
                <VersionMajor>0</VersionMajor>
                <VersionMinor>0</VersionMinor>
                <BuildMajor>0</BuildMajor>
                <BuildMinor>0</BuildMinor>
            </Version>
        </Build>
        <LangID>en</LangID>
        <PartNumber>000-00000-00</PartNumber>
    </Author>
</TrainingCenterDatabase>
