<?xml version="1.0" encoding="UTF-8"?>
<TrainingCenterDatabase
    xmlns="http://www.garmin.com/xmlschemas/TrainingCenterDatabase/v2"
    xmlns:ns2="http://www.garmin.com/xmlschemas/UserProfile/v2"
    xmlns:ns3="http://www.garmin.com/xmlschemas/ActivityExtension/v2"
    xmlns:ns4="http://www.garmin.com/xmlschemas/ProfileExtension/v1"
    xmlns:ns5="http://www.garmin.com/xmlschemas/ActivityGoals/v1"
    xmlns:xsi="http://www.w3.org/2001/XMLSchema-instance" xsi:schemaLocation="http://www.garmin.com/xmlschemas/TrainingCenterDatabase/v2 http://www.garmin.com/xmlschemas/TrainingCenterDatabasev2.xsd">
    <Activities>
        <Activity Sport="Walking">
            <Id>2022-03-01T08:57:00.114Z</Id>
            <Lap StartTime="2022-03-01T08:57:00.114Z">
                <Track>
                    <Trackpoint>
                        <DistanceMeters>0.0</DistanceMeters>
                        <Time>2022-03-01T08:57:00.114Z</Time>
                    </Trackpoint>
                    <Trackpoint>
                        <DistanceMeters>0.0</DistanceMeters>
                        <Time>2022-03-01T12:12:04.428Z</Time>
                    </Trackpoint>
                    <Trackpoint>
                        <DistanceMeters>30.013389587402344</DistanceMeters>
                        <Time>2022-03-01T12:12:45.028Z</Time>
                    </Trackpoint>
                </Track>
                <DistanceMeters>30.013389587402344</DistanceMeters>
                <TotalTimeSeconds>11744.914404367</TotalTimeSeconds>
                <Calories>243.72569942474365</Calories>
                <Intensity>Active</Intensity>
                <TriggerMethod>Manual</TriggerMethod>
            </Lap>
        </Activity>
        <Activity Sport="Walking">
            <Id>2022-03-01T12:12:04.428Z</Id>
            <Lap StartTime="2022-03-01T12:12:04.428Z">
                <Track>
                    <Trackpoint>
                        <DistanceMeters>0.0</DistanceMeters>
                        <Time>2022-03-01T12:12:04.428Z</Time>
                    </Trackpoint>
                    <Trackpoint>
                        <DistanceMeters>30.013389587402344</DistanceMeters>
                        <Time>2022-03-01T12:12:23.131Z</Time>
                    </Trackpoint>
                    <Trackpoint>
                        <DistanceMeters>30.013389587402344</DistanceMeters>
                        <Time>2022-03-01T12:12:45.028Z</Time>
                    </Trackpoint>
                    <Trackpoint>
                        <DistanceMeters>52.84966468811035</DistanceMeters>
                        <Time>2022-03-01T12:15:39.208Z</Time>
                    </Trackpoint>
                    <Trackpoint>
                        <DistanceMeters>99.1746768951416</DistanceMeters>
                        <Time>2022-03-01T12:18:01.208Z</Time>
                    </Trackpoint>
                    <Trackpoint>
                        <DistanceMeters>110.17779350280762</DistanceMeters>
                        <Time>2022-03-01T12:18:11.268Z</Time>
                    </Trackpoint>
                    <Trackpoint>
                        <DistanceMeters>176.23397636413574</DistanceMeters>
                        <Time>2022-03-01T12:19:11.548Z</Time>
                    </Trackpoint>
                    <Trackpoint>
                        <DistanceMeters>187.34233379364014</DistanceMeters>
                        <Time>2022-03-01T12:19:21.388Z</Time>
                    </Trackpoint>
                    <Trackpoint>
                        <DistanceMeters>258.4531583786011</DistanceMeters>
                        <Time>2022-03-01T12:20:19.628Z</Time>
                    </Trackpoint>
                    <Trackpoint>
                        <DistanceMeters>276.7221784591675</DistanceMeters>
                        <Time>2022-03-01T12:21:56.068Z</Time>
                    </Trackpoint>
                    <Trackpoint>
                        <DistanceMeters>340.0112829208374</DistanceMeters>
                        <Time>2022-03-01T12:23:19.908Z</Time>
                    </Trackpoint>
                    <Trackpoint>
                        <DistanceMeters>372.6347532272339</DistanceMeters>
                        <Time>2022-03-01T12:23:48.828Z</Time>
                    </Trackpoint>
                    <Trackpoint>
                        <DistanceMeters>406.9438467025757</DistanceMeters>
                        <Time>2022-03-01T12:24:20.428Z</Time>
                    </Trackpoint>
                    <Trackpoint>
                        <DistanceMeters>421.89373683929443</DistanceMeters>
                        <Time>2022-03-01T12:24:32.628Z</Time>
                    </Trackpoint>
                    <Trackpoint>
                        <DistanceMeters>469.5236806869507</DistanceMeters>
                        <Time>2022-03-01T12:26:26.188Z</Time>
                    </Trackpoint>
                    <Trackpoint>
                        <DistanceMeters>523.4710416793823</DistanceMeters>
                        <Time>2022-03-01T12:27:42.808Z</Time>
                    </Trackpoint>
                    <Trackpoint>
                        <DistanceMeters>542.3925256729126</DistanceMeters>
                        <Time>2022-03-01T12:28:42.808Z</Time>
                    </Trackpoint>
                    <Trackpoint>
                        <DistanceMeters>553.3038854598999</DistanceMeters>
                        <Time>2022-03-01T12:28:53.068Z</Time>
                    </Trackpoint>
                    <Trackpoint>
                        <DistanceMeters>607.4584798812866</DistanceMeters>
                        <Time>2022-03-01T12:29:56.868Z</Time>
                    </Trackpoint>
                    <Trackpoint>
                        <DistanceMeters>624.328179359436</DistanceMeters>
                        <Time>2022-03-01T12:30:13.308Z</Time>
                    </Trackpoint>
                    <Trackpoint>
                        <DistanceMeters>684.2823114395142</DistanceMeters>
                        <Time>2022-03-01T12:31:09.868Z</Time>
                    </Trackpoint>
                    <Trackpoint>
                        <DistanceMeters>703.0301084518433</DistanceMeters>
                        <Time>2022-03-01T12:31:26.468Z</Time>
                    </Trackpoint>
                    <Trackpoint>
                        <DistanceMeters>752.747260093689</DistanceMeters>
                        <Time>2022-03-01T12:32:11.308Z</Time>
                    </Trackpoint>
                    <Trackpoint>
                        <DistanceMeters>769.8284559249878</DistanceMeters>
                        <Time>2022-03-01T12:32:27.268Z</Time>
                    </Trackpoint>
                    <Trackpoint>
                        <DistanceMeters>814.8107328414917</DistanceMeters>
                        <Time>2022-03-01T12:33:11.868Z</Time>
                    </Trackpoint>
                    <Trackpoint>
                        <DistanceMeters>832.6109285354614</DistanceMeters>
                        <Time>2022-03-01T12:33:28.388Z</Time>
                    </Trackpoint>
                    <Trackpoint>
                        <DistanceMeters>881.5507555007935</DistanceMeters>
                        <Time>2022-03-01T12:34:12.788Z</Time>
                    </Trackpoint>
                    <Trackpoint>
                        <DistanceMeters>900.2595949172974</DistanceMeters>
                        <Time>2022-03-01T12:34:29.468Z</Time>
                    </Trackpoint>
                    <Trackpoint>
                        <DistanceMeters>930.9254484176636</DistanceMeters>
                        <Time>2022-03-01T12:35:40.488Z</Time>
                    </Trackpoint>
                    <Trackpoint>
                        <DistanceMeters>961.5596113204956</DistanceMeters>
                        <Time>2022-03-01T12:36:05.428Z</Time>
                    </Trackpoint>
                    <Trackpoint>
                        <DistanceMeters>991.3722734451294</DistanceMeters>
                        <Time>2022-03-01T12:36:34.256Z</Time>
                    </Trackpoint>
                </Track>
                <DistanceMeters>991.3722734451294</DistanceMeters>
                <TotalTimeSeconds>1469.827595453</TotalTimeSeconds>
                <Calories>140.92034912109375</Calories>
                <Intensity>Active</Intensity>
                <TriggerMethod>Manual</TriggerMethod>
            </Lap>
        </Activity>
        <Activity Sport="Walking">
            <Id>2022-03-01T12:36:34.256Z</Id>
            <Lap StartTime="2022-03-01T12:36:34.256Z">
                <Track>
                    <Trackpoint>
                        <DistanceMeters>0.0</DistanceMeters>
                        <Time>2022-03-01T12:36:34.256Z</Time>
                    </Trackpoint>
                    <Trackpoint>
                        <DistanceMeters>0.0</DistanceMeters>
                        <Time>2022-03-01T12:39:15.528Z</Time>
                    </Trackpoint>
                    <Trackpoint>
                        <DistanceMeters>8.48204517364502</DistanceMeters>
                        <Time>2022-03-01T12:39:43.788Z</Time>
                    </Trackpoint>
                    <Trackpoint>
                        <DistanceMeters>68.5088243484497</DistanceMeters>
                        <Time>2022-03-01T12:40:59.028Z</Time>
                    </Trackpoint>
                    <Trackpoint>
                        <DistanceMeters>84.577073097229</DistanceMeters>
                        <Time>2022-03-01T12:41:11.108Z</Time>
                    </Trackpoint>
                    <Trackpoint>
                        <DistanceMeters>149.50034427642822</DistanceMeters>
                        <Time>2022-03-01T12:42:00.108Z</Time>
                    </Trackpoint>
                    <Trackpoint>
                        <DistanceMeters>165.64295482635498</DistanceMeters>
                        <Time>2022-03-01T12:42:12.068Z</Time>
                    </Trackpoint>
                    <Trackpoint>
                        <DistanceMeters>230.44467449188232</DistanceMeters>
                        <Time>2022-03-01T12:43:01.268Z</Time>
                    </Trackpoint>
                    <Trackpoint>
                        <DistanceMeters>245.71624851226807</DistanceMeters>
                        <Time>2022-03-01T12:43:12.908Z</Time>
                    </Trackpoint>
                    <Trackpoint>
                        <DistanceMeters>310.5179681777954</DistanceMeters>
                        <Time>2022-03-01T12:44:02.108Z</Time>
                    </Trackpoint>
                </Track>
                <DistanceMeters>310.5179681777954</DistanceMeters>
                <TotalTimeSeconds>447.852404994</TotalTimeSeconds>
                <Calories>26.324320077896118</Calories>
                <Intensity>Active</Intensity>
                <TriggerMethod>Manual</TriggerMethod>
            </Lap>
        </Activity>
        <Activity Sport="Walking">
            <Id>2022-03-01T12:43:12.908Z</Id>
            <Lap StartTime="2022-03-01T12:43:12.908Z">
                <Track>
                    <Trackpoint>
                        <DistanceMeters>0.0</DistanceMeters>
                        <Time>2022-03-01T12:43:12.908Z</Time>
                    </Trackpoint>
                    <Trackpoint>
                        <DistanceMeters>64.80171966552734</DistanceMeters>
                        <Time>2022-03-01T12:43:34.524Z</Time>
                    </Trackpoint>
                    <Trackpoint>
                        <DistanceMeters>64.80171966552734</DistanceMeters>
                        <Time>2022-03-01T12:44:02.108Z</Time>
                    </Trackpoint>
                    <Trackpoint>
                        <DistanceMeters>79.42263221740723</DistanceMeters>
                        <Time>2022-03-01T12:44:13.068Z</Time>
                    </Trackpoint>
                    <Trackpoint>
                        <DistanceMeters>122.5370922088623</DistanceMeters>
                        <Time>2022-03-01T12:44:45.428Z</Time>
                    </Trackpoint>
                    <Trackpoint>
                        <DistanceMeters>138.19625186920166</DistanceMeters>
                        <Time>2022-03-01T12:45:06.028Z</Time>
                    </Trackpoint>
                    <Trackpoint>
                        <DistanceMeters>146.02583169937134</DistanceMeters>
                        <Time>2022-03-01T12:50:49.244Z</Time>
                    </Trackpoint>
                </Track>
                <DistanceMeters>146.02583169937134</DistanceMeters>
                <TotalTimeSeconds>456.335596339</TotalTimeSeconds>
                <Calories>42.21614074707031</Calories>
                <Intensity>Active</Intensity>
                <TriggerMethod>Manual</TriggerMethod>
            </Lap>
        </Activity>
    </Activities>
    <Author xsi:type="Application_t">
        <Name>Google Fit</Name>
        <Build>
            <Version>
                <VersionMajor>0</VersionMajor>
                <VersionMinor>0</VersionMinor>
                <BuildMajor>0</BuildMajor>
                <BuildMinor>0</BuildMinor>
            </Version>
        </Build>
        <LangID>en</LangID>
        <PartNumber>000-00000-00</PartNumber>
    </Author>
</TrainingCenterDatabase>
