<?xml version="1.0" encoding="UTF-8"?>
<TrainingCenterDatabase
    xmlns="http://www.garmin.com/xmlschemas/TrainingCenterDatabase/v2"
    xmlns:ns2="http://www.garmin.com/xmlschemas/UserProfile/v2"
    xmlns:ns3="http://www.garmin.com/xmlschemas/ActivityExtension/v2"
    xmlns:ns4="http://www.garmin.com/xmlschemas/ProfileExtension/v1"
    xmlns:ns5="http://www.garmin.com/xmlschemas/ActivityGoals/v1"
    xmlns:xsi="http://www.w3.org/2001/XMLSchema-instance" xsi:schemaLocation="http://www.garmin.com/xmlschemas/TrainingCenterDatabase/v2 http://www.garmin.com/xmlschemas/TrainingCenterDatabasev2.xsd">
    <Activities>
        <Activity Sport="Walking">
            <Id>2022-11-07T11:03:49.305Z</Id>
            <Lap StartTime="2022-11-07T11:03:49.305Z">
                <Track>
                    <Trackpoint>
                        <DistanceMeters>0.0</DistanceMeters>
                        <Time>2022-11-07T11:03:49.305Z</Time>
                    </Trackpoint>
                    <Trackpoint>
                        <DistanceMeters>0.0</DistanceMeters>
                        <Time>2022-11-07T14:41:39.808Z</Time>
                    </Trackpoint>
                    <Trackpoint>
                        <DistanceMeters>29.047947804099273</DistanceMeters>
                        <Time>2022-11-07T14:42:05.868Z</Time>
                    </Trackpoint>
                    <Trackpoint>
                        <DistanceMeters>103.70994315915189</DistanceMeters>
                        <Time>2022-11-07T14:43:07.028Z</Time>
                    </Trackpoint>
                    <Trackpoint>
                        <DistanceMeters>157.75166250912582</DistanceMeters>
                        <Time>2022-11-07T14:44:04.148Z</Time>
                    </Trackpoint>
                    <Trackpoint>
                        <DistanceMeters>225.33062649142246</DistanceMeters>
                        <Time>2022-11-07T14:45:01.348Z</Time>
                    </Trackpoint>
                    <Trackpoint>
                        <DistanceMeters>254.70392227054137</DistanceMeters>
                        <Time>2022-11-07T14:45:26.748Z</Time>
                    </Trackpoint>
                    <Trackpoint>
                        <DistanceMeters>286.67470720065074</DistanceMeters>
                        <Time>2022-11-07T14:46:18.115Z</Time>
                    </Trackpoint>
                </Track>
                <DistanceMeters>286.67470720065074</DistanceMeters>
                <TotalTimeSeconds>13348.81</TotalTimeSeconds>
                <Calories>306.2059052187278</Calories>
                <Intensity>Active</Intensity>
                <TriggerMethod>Manual</TriggerMethod>
            </Lap>
        </Activity>
        <Activity Sport="Walking">
            <Id>2022-11-07T14:46:18.115Z</Id>
            <Lap StartTime="2022-11-07T14:46:18.115Z">
                <Track>
                    <Trackpoint>
                        <DistanceMeters>0.0</DistanceMeters>
                        <Time>2022-11-07T14:46:18.115Z</Time>
                    </Trackpoint>
                    <Trackpoint>
                        <DistanceMeters>10.384171028338024</DistanceMeters>
                        <Time>2022-11-07T14:46:27.188Z</Time>
                    </Trackpoint>
                    <Trackpoint>
                        <DistanceMeters>27.105875291812136</DistanceMeters>
                        <Time>2022-11-07T14:46:41.828Z</Time>
                    </Trackpoint>
                    <Trackpoint>
                        <DistanceMeters>52.04130942390364</DistanceMeters>
                        <Time>2022-11-07T14:47:04.088Z</Time>
                    </Trackpoint>
                    <Trackpoint>
                        <DistanceMeters>69.00539938681882</DistanceMeters>
                        <Time>2022-11-07T14:47:26.788Z</Time>
                    </Trackpoint>
                    <Trackpoint>
                        <DistanceMeters>87.83225808727525</DistanceMeters>
                        <Time>2022-11-07T14:47:43.228Z</Time>
                    </Trackpoint>
                    <Trackpoint>
                        <DistanceMeters>122.59888662861385</DistanceMeters>
                        <Time>2022-11-07T14:48:10.068Z</Time>
                    </Trackpoint>
                    <Trackpoint>
                        <DistanceMeters>153.6105850989704</DistanceMeters>
                        <Time>2022-11-07T14:48:28.028Z</Time>
                    </Trackpoint>
                    <Trackpoint>
                        <DistanceMeters>171.89848572735926</DistanceMeters>
                        <Time>2022-11-07T14:48:43.548Z</Time>
                    </Trackpoint>
                    <Trackpoint>
                        <DistanceMeters>204.8212974132818</DistanceMeters>
                        <Time>2022-11-07T14:49:11.868Z</Time>
                    </Trackpoint>
                    <Trackpoint>
                        <DistanceMeters>220.2813294954878</DistanceMeters>
                        <Time>2022-11-07T14:49:25.028Z</Time>
                    </Trackpoint>
                    <Trackpoint>
                        <DistanceMeters>254.44637550432594</DistanceMeters>
                        <Time>2022-11-07T14:49:54.868Z</Time>
                    </Trackpoint>
                    <Trackpoint>
                        <DistanceMeters>271.9706692596002</DistanceMeters>
                        <Time>2022-11-07T14:50:09.908Z</Time>
                    </Trackpoint>
                    <Trackpoint>
                        <DistanceMeters>303.4089014423368</DistanceMeters>
                        <Time>2022-11-07T14:50:37.188Z</Time>
                    </Trackpoint>
                    <Trackpoint>
                        <DistanceMeters>326.9741159143343</DistanceMeters>
                        <Time>2022-11-07T14:50:56.228Z</Time>
                    </Trackpoint>
                    <Trackpoint>
                        <DistanceMeters>343.79662027801146</DistanceMeters>
                        <Time>2022-11-07T14:51:10.668Z</Time>
                    </Trackpoint>
                    <Trackpoint>
                        <DistanceMeters>375.13491961609293</DistanceMeters>
                        <Time>2022-11-07T14:51:38.148Z</Time>
                    </Trackpoint>
                    <Trackpoint>
                        <DistanceMeters>446.1804307508022</DistanceMeters>
                        <Time>2022-11-07T14:52:36.508Z</Time>
                    </Trackpoint>
                    <Trackpoint>
                        <DistanceMeters>456.8124050258514</DistanceMeters>
                        <Time>2022-11-07T14:52:45.308Z</Time>
                    </Trackpoint>
                    <Trackpoint>
                        <DistanceMeters>485.5429459492922</DistanceMeters>
                        <Time>2022-11-07T14:53:14.268Z</Time>
                    </Trackpoint>
                    <Trackpoint>
                        <DistanceMeters>513.5989408879595</DistanceMeters>
                        <Time>2022-11-07T14:53:55.108Z</Time>
                    </Trackpoint>
                    <Trackpoint>
                        <DistanceMeters>535.2663524631665</DistanceMeters>
                        <Time>2022-11-07T14:54:11.988Z</Time>
                    </Trackpoint>
                    <Trackpoint>
                        <DistanceMeters>569.9688593149922</DistanceMeters>
                        <Time>2022-11-07T14:54:40.788Z</Time>
                    </Trackpoint>
                    <Trackpoint>
                        <DistanceMeters>574.7833080898776</DistanceMeters>
                        <Time>2022-11-07T14:54:45.188Z</Time>
                    </Trackpoint>
                    <Trackpoint>
                        <DistanceMeters>610.6688830114289</DistanceMeters>
                        <Time>2022-11-07T14:55:27.028Z</Time>
                    </Trackpoint>
                    <Trackpoint>
                        <DistanceMeters>620.4558579900338</DistanceMeters>
                        <Time>2022-11-07T14:55:52.668Z</Time>
                    </Trackpoint>
                    <Trackpoint>
                        <DistanceMeters>634.1576229600806</DistanceMeters>
                        <Time>2022-11-07T14:56:21.628Z</Time>
                    </Trackpoint>
                    <Trackpoint>
                        <DistanceMeters>638.7248779500962</DistanceMeters>
                        <Time>2022-11-07T14:56:28.188Z</Time>
                    </Trackpoint>
                    <Trackpoint>
                        <DistanceMeters>681.0052769110428</DistanceMeters>
                        <Time>2022-11-07T14:57:07.948Z</Time>
                    </Trackpoint>
                    <Trackpoint>
                        <DistanceMeters>683.9886103526737</DistanceMeters>
                        <Time>2022-11-07T14:57:10.048Z</Time>
                    </Trackpoint>
                    <Trackpoint>
                        <DistanceMeters>698.3428403212943</DistanceMeters>
                        <Time>2022-11-07T14:57:47.788Z</Time>
                    </Trackpoint>
                    <Trackpoint>
                        <DistanceMeters>707.1501778362327</DistanceMeters>
                        <Time>2022-11-07T14:57:54.308Z</Time>
                    </Trackpoint>
                    <Trackpoint>
                        <DistanceMeters>738.0655194219983</DistanceMeters>
                        <Time>2022-11-07T14:58:22.668Z</Time>
                    </Trackpoint>
                    <Trackpoint>
                        <DistanceMeters>749.8098893963241</DistanceMeters>
                        <Time>2022-11-07T14:58:37.468Z</Time>
                    </Trackpoint>
                    <Trackpoint>
                        <DistanceMeters>768.7313743549603</DistanceMeters>
                        <Time>2022-11-07T14:59:18.848Z</Time>
                    </Trackpoint>
                    <Trackpoint>
                        <DistanceMeters>807.2268092708063</DistanceMeters>
                        <Time>2022-11-07T15:00:03.188Z</Time>
                    </Trackpoint>
                    <Trackpoint>
                        <DistanceMeters>828.9077913676084</DistanceMeters>
                        <Time>2022-11-07T15:00:24.028Z</Time>
                    </Trackpoint>
                    <Trackpoint>
                        <DistanceMeters>858.9211813019969</DistanceMeters>
                        <Time>2022-11-07T15:01:59.628Z</Time>
                    </Trackpoint>
                    <Trackpoint>
                        <DistanceMeters>925.4726111565103</DistanceMeters>
                        <Time>2022-11-07T15:05:23.628Z</Time>
                    </Trackpoint>
                </Track>
                <DistanceMeters>925.4726111565103</DistanceMeters>
                <TotalTimeSeconds>1145.513103799</TotalTimeSeconds>
                <Calories>96.53101577777777</Calories>
                <Intensity>Active</Intensity>
                <TriggerMethod>Manual</TriggerMethod>
            </Lap>
        </Activity>
    </Activities>
    <Author xsi:type="Application_t">
        <Name>Google Fit</Name>
        <Build>
            <Version>
                <VersionMajor>0</VersionMajor>
                <VersionMinor>0</VersionMinor>
                <BuildMajor>0</BuildMajor>
                <BuildMinor>0</BuildMinor>
            </Version>
        </Build>
        <LangID>en</LangID>
        <PartNumber>000-00000-00</PartNumber>
    </Author>
</TrainingCenterDatabase>
