<?xml version="1.0" encoding="UTF-8"?>
<TrainingCenterDatabase
    xmlns="http://www.garmin.com/xmlschemas/TrainingCenterDatabase/v2"
    xmlns:ns2="http://www.garmin.com/xmlschemas/UserProfile/v2"
    xmlns:ns3="http://www.garmin.com/xmlschemas/ActivityExtension/v2"
    xmlns:ns4="http://www.garmin.com/xmlschemas/ProfileExtension/v1"
    xmlns:ns5="http://www.garmin.com/xmlschemas/ActivityGoals/v1"
    xmlns:xsi="http://www.w3.org/2001/XMLSchema-instance" xsi:schemaLocation="http://www.garmin.com/xmlschemas/TrainingCenterDatabase/v2 http://www.garmin.com/xmlschemas/TrainingCenterDatabasev2.xsd">
    <Activities>
        <Activity Sport="Walking">
            <Id>2022-11-07T10:25:44.053Z</Id>
            <Lap StartTime="2022-11-07T10:25:44.053Z">
                <Track>
                    <Trackpoint>
                        <DistanceMeters>0.0</DistanceMeters>
                        <Time>2022-11-07T10:25:44.053Z</Time>
                    </Trackpoint>
                    <Trackpoint>
                        <DistanceMeters>50.14741718895687</DistanceMeters>
                        <Time>2022-11-07T10:26:30.068Z</Time>
                    </Trackpoint>
                    <Trackpoint>
                        <DistanceMeters>119.74185742143243</DistanceMeters>
                        <Time>2022-11-07T10:27:31.228Z</Time>
                    </Trackpoint>
                    <Trackpoint>
                        <DistanceMeters>191.44841063647834</DistanceMeters>
                        <Time>2022-11-07T10:28:32.188Z</Time>
                    </Trackpoint>
                    <Trackpoint>
                        <DistanceMeters>226.68152055945603</DistanceMeters>
                        <Time>2022-11-07T10:29:32.988Z</Time>
                    </Trackpoint>
                    <Trackpoint>
                        <DistanceMeters>274.9639304539069</DistanceMeters>
                        <Time>2022-11-07T10:30:33.908Z</Time>
                    </Trackpoint>
                    <Trackpoint>
                        <DistanceMeters>339.64666421834363</DistanceMeters>
                        <Time>2022-11-07T10:31:30.868Z</Time>
                    </Trackpoint>
                    <Trackpoint>
                        <DistanceMeters>391.8438641042365</DistanceMeters>
                        <Time>2022-11-07T10:32:35.388Z</Time>
                    </Trackpoint>
                    <Trackpoint>
                        <DistanceMeters>451.39379360044296</DistanceMeters>
                        <Time>2022-11-07T10:33:26.588Z</Time>
                    </Trackpoint>
                    <Trackpoint>
                        <DistanceMeters>508.15824847635145</DistanceMeters>
                        <Time>2022-11-07T10:34:41.708Z</Time>
                    </Trackpoint>
                    <Trackpoint>
                        <DistanceMeters>521.8600134463983</DistanceMeters>
                        <Time>2022-11-07T10:35:10.148Z</Time>
                    </Trackpoint>
                    <Trackpoint>
                        <DistanceMeters>539.4765684078872</DistanceMeters>
                        <Time>2022-11-07T10:36:16.490Z</Time>
                    </Trackpoint>
                </Track>
                <DistanceMeters>539.4765684078872</DistanceMeters>
                <TotalTimeSeconds>632.437</TotalTimeSeconds>
                <Calories>64.75452172222222</Calories>
                <Intensity>Active</Intensity>
                <TriggerMethod>Manual</TriggerMethod>
            </Lap>
        </Activity>
        <Activity Sport="Walking">
            <Id>2022-11-07T10:36:16.490Z</Id>
            <Lap StartTime="2022-11-07T10:36:16.490Z">
                <Track>
                    <Trackpoint>
                        <DistanceMeters>0.0</DistanceMeters>
                        <Time>2022-11-07T10:36:16.490Z</Time>
                    </Trackpoint>
                    <Trackpoint>
                        <DistanceMeters>0.0</DistanceMeters>
                        <Time>2022-11-07T10:42:10.748Z</Time>
                    </Trackpoint>
                    <Trackpoint>
                        <DistanceMeters>11.091904975752234</DistanceMeters>
                        <Time>2022-11-07T10:42:39.668Z</Time>
                    </Trackpoint>
                    <Trackpoint>
                        <DistanceMeters>11.091904975752234</DistanceMeters>
                        <Time>2022-11-07T10:43:03.639Z</Time>
                    </Trackpoint>
                </Track>
                <DistanceMeters>11.091904975752234</DistanceMeters>
                <TotalTimeSeconds>407.149</TotalTimeSeconds>
                <Calories>10.595778897401743</Calories>
                <Intensity>Active</Intensity>
                <TriggerMethod>Manual</TriggerMethod>
            </Lap>
        </Activity>
        <Activity Sport="Walking">
            <Id>2022-11-07T10:43:03.639Z</Id>
            <Lap StartTime="2022-11-07T10:43:03.639Z">
                <Track>
                    <Trackpoint>
                        <DistanceMeters>0.0</DistanceMeters>
                        <Time>2022-11-07T10:43:03.639Z</Time>
                    </Trackpoint>
                    <Trackpoint>
                        <DistanceMeters>3.4596665325908207</DistanceMeters>
                        <Time>2022-11-07T10:43:08.068Z</Time>
                    </Trackpoint>
                    <Trackpoint>
                        <DistanceMeters>13.899106509769393</DistanceMeters>
                        <Time>2022-11-07T10:43:38.028Z</Time>
                    </Trackpoint>
                    <Trackpoint>
                        <DistanceMeters>17.542104758674768</DistanceMeters>
                        <Time>2022-11-07T10:43:40.788Z</Time>
                    </Trackpoint>
                    <Trackpoint>
                        <DistanceMeters>48.20795969163683</DistanceMeters>
                        <Time>2022-11-07T10:44:31.588Z</Time>
                    </Trackpoint>
                    <Trackpoint>
                        <DistanceMeters>98.44776458180871</DistanceMeters>
                        <Time>2022-11-07T10:45:56.508Z</Time>
                    </Trackpoint>
                    <Trackpoint>
                        <DistanceMeters>108.23473956041363</DistanceMeters>
                        <Time>2022-11-07T10:46:36.308Z</Time>
                    </Trackpoint>
                    <Trackpoint>
                        <DistanceMeters>125.19882952332881</DistanceMeters>
                        <Time>2022-11-07T10:47:36.308Z</Time>
                    </Trackpoint>
                    <Trackpoint>
                        <DistanceMeters>153.90728946056987</DistanceMeters>
                        <Time>2022-11-07T10:48:10.048Z</Time>
                    </Trackpoint>
                    <Trackpoint>
                        <DistanceMeters>169.56644942633773</DistanceMeters>
                        <Time>2022-11-07T10:48:47.948Z</Time>
                    </Trackpoint>
                    <Trackpoint>
                        <DistanceMeters>196.31751436785783</DistanceMeters>
                        <Time>2022-11-07T10:49:25.828Z</Time>
                    </Trackpoint>
                    <Trackpoint>
                        <DistanceMeters>206.10448934646274</DistanceMeters>
                        <Time>2022-11-07T10:49:49.868Z</Time>
                    </Trackpoint>
                    <Trackpoint>
                        <DistanceMeters>275.11693561560645</DistanceMeters>
                        <Time>2022-11-07T10:50:52.228Z</Time>
                    </Trackpoint>
                    <Trackpoint>
                        <DistanceMeters>303.1729305542739</DistanceMeters>
                        <Time>2022-11-07T10:51:26.828Z</Time>
                    </Trackpoint>
                    <Trackpoint>
                        <DistanceMeters>352.83694178214625</DistanceMeters>
                        <Time>2022-11-07T10:52:09.748Z</Time>
                    </Trackpoint>
                    <Trackpoint>
                        <DistanceMeters>398.6932114440932</DistanceMeters>
                        <Time>2022-11-07T10:52:50.268Z</Time>
                    </Trackpoint>
                    <Trackpoint>
                        <DistanceMeters>440.4125279550236</DistanceMeters>
                        <Time>2022-11-07T10:53:25.068Z</Time>
                    </Trackpoint>
                    <Trackpoint>
                        <DistanceMeters>508.74261781172754</DistanceMeters>
                        <Time>2022-11-07T10:54:24.748Z</Time>
                    </Trackpoint>
                    <Trackpoint>
                        <DistanceMeters>544.6281927332789</DistanceMeters>
                        <Time>2022-11-07T10:55:12.548Z</Time>
                    </Trackpoint>
                    <Trackpoint>
                        <DistanceMeters>555.0676327104575</DistanceMeters>
                        <Time>2022-11-07T10:55:38.828Z</Time>
                    </Trackpoint>
                    <Trackpoint>
                        <DistanceMeters>570.7267926762254</DistanceMeters>
                        <Time>2022-11-07T10:56:38.828Z</Time>
                    </Trackpoint>
                </Track>
                <DistanceMeters>570.7267926762254</DistanceMeters>
                <TotalTimeSeconds>815.189106903</TotalTimeSeconds>
                <Calories>83.44202977777778</Calories>
                <Intensity>Active</Intensity>
                <TriggerMethod>Manual</TriggerMethod>
            </Lap>
        </Activity>
        <Activity Sport="Walking">
            <Id>2022-11-07T11:03:14.738Z</Id>
            <Lap StartTime="2022-11-07T11:03:14.738Z">
                <Track>
                    <Trackpoint>
                        <DistanceMeters>0.0</DistanceMeters>
                        <Time>2022-11-07T11:03:14.738Z</Time>
                    </Trackpoint>
                    <Trackpoint>
                        <DistanceMeters>0.0</DistanceMeters>
                        <Time>2022-11-07T11:03:49.305Z</Time>
                    </Trackpoint>
                </Track>
                <DistanceMeters>0.0</DistanceMeters>
                <TotalTimeSeconds>34.567</TotalTimeSeconds>
                <Calories>3.539276722222222</Calories>
                <Intensity>Active</Intensity>
                <TriggerMethod>Manual</TriggerMethod>
            </Lap>
        </Activity>
    </Activities>
    <Author xsi:type="Application_t">
        <Name>Google Fit</Name>
        <Build>
            <Version>
                <VersionMajor>0</VersionMajor>
                <VersionMinor>0</VersionMinor>
                <BuildMajor>0</BuildMajor>
                <BuildMinor>0</BuildMinor>
            </Version>
        </Build>
        <LangID>en</LangID>
        <PartNumber>000-00000-00</PartNumber>
    </Author>
</TrainingCenterDatabase>
