<?xml version="1.0" encoding="UTF-8"?>
<TrainingCenterDatabase
    xmlns="http://www.garmin.com/xmlschemas/TrainingCenterDatabase/v2"
    xmlns:ns2="http://www.garmin.com/xmlschemas/UserProfile/v2"
    xmlns:ns3="http://www.garmin.com/xmlschemas/ActivityExtension/v2"
    xmlns:ns4="http://www.garmin.com/xmlschemas/ProfileExtension/v1"
    xmlns:ns5="http://www.garmin.com/xmlschemas/ActivityGoals/v1"
    xmlns:xsi="http://www.w3.org/2001/XMLSchema-instance" xsi:schemaLocation="http://www.garmin.com/xmlschemas/TrainingCenterDatabase/v2 http://www.garmin.com/xmlschemas/TrainingCenterDatabasev2.xsd">
    <Activities>
        <Activity Sport="Walking">
            <Id>2022-01-11T02:35:00.000Z</Id>
            <Lap StartTime="2022-01-11T02:35:00.000Z">
                <Track>
                    <Trackpoint>
                        <DistanceMeters>0.0</DistanceMeters>
                        <Time>2022-01-11T02:35:00.000Z</Time>
                    </Trackpoint>
                    <Trackpoint>
                        <DistanceMeters>23.0</DistanceMeters>
                        <Time>2022-01-11T02:36:00.000Z</Time>
                    </Trackpoint>
                </Track>
                <DistanceMeters>23.0</DistanceMeters>
                <TotalTimeSeconds>60.0</TotalTimeSeconds>
                <Calories>5.826666831970215</Calories>
                <Intensity>Active</Intensity>
                <TriggerMethod>Manual</TriggerMethod>
            </Lap>
        </Activity>
        <Activity Sport="Walking">
            <Id>2022-01-11T02:36:00.000Z</Id>
            <Lap StartTime="2022-01-11T02:36:00.000Z">
                <Track>
                    <Trackpoint>
                        <DistanceMeters>0.0</DistanceMeters>
                        <Time>2022-01-11T02:36:00.000Z</Time>
                    </Trackpoint>
                    <Trackpoint>
                        <DistanceMeters>16.0</DistanceMeters>
                        <Time>2022-01-11T02:37:00.000Z</Time>
                    </Trackpoint>
                </Track>
                <DistanceMeters>16.0</DistanceMeters>
                <TotalTimeSeconds>60.0</TotalTimeSeconds>
                <Calories>5.826666831970215</Calories>
                <Intensity>Active</Intensity>
                <TriggerMethod>Manual</TriggerMethod>
            </Lap>
        </Activity>
        <Activity Sport="Walking">
            <Id>2022-01-11T02:37:00.000Z</Id>
            <Lap StartTime="2022-01-11T02:37:00.000Z">
                <Track>
                    <Trackpoint>
                        <DistanceMeters>0.0</DistanceMeters>
                        <Time>2022-01-11T02:37:00.000Z</Time>
                    </Trackpoint>
                    <Trackpoint>
                        <DistanceMeters>0.0</DistanceMeters>
                        <Time>2022-01-11T02:38:00.000Z</Time>
                    </Trackpoint>
                </Track>
                <DistanceMeters>0.0</DistanceMeters>
                <TotalTimeSeconds>60.0</TotalTimeSeconds>
                <Calories>5.826666831970215</Calories>
                <Intensity>Active</Intensity>
                <TriggerMethod>Manual</TriggerMethod>
            </Lap>
        </Activity>
        <Activity Sport="Walking">
            <Id>2022-01-11T02:40:00.000Z</Id>
            <Lap StartTime="2022-01-11T02:40:00.000Z">
                <Track>
                    <Trackpoint>
                        <DistanceMeters>0.0</DistanceMeters>
                        <Time>2022-01-11T02:40:00.000Z</Time>
                    </Trackpoint>
                    <Trackpoint>
                        <DistanceMeters>63.0</DistanceMeters>
                        <Time>2022-01-11T02:41:00.000Z</Time>
                    </Trackpoint>
                </Track>
                <DistanceMeters>63.0</DistanceMeters>
                <TotalTimeSeconds>60.0</TotalTimeSeconds>
                <Calories>5.826666831970215</Calories>
                <Intensity>Active</Intensity>
                <TriggerMethod>Manual</TriggerMethod>
            </Lap>
        </Activity>
        <Activity Sport="Walking">
            <Id>2022-01-11T02:41:00.000Z</Id>
            <Lap StartTime="2022-01-11T02:41:00.000Z">
                <Track>
                    <Trackpoint>
                        <DistanceMeters>0.0</DistanceMeters>
                        <Time>2022-01-11T02:41:00.000Z</Time>
                    </Trackpoint>
                    <Trackpoint>
                        <DistanceMeters>111.0</DistanceMeters>
                        <Time>2022-01-11T02:42:00.000Z</Time>
                    </Trackpoint>
                </Track>
                <DistanceMeters>111.0</DistanceMeters>
                <TotalTimeSeconds>60.0</TotalTimeSeconds>
                <Calories>5.826666831970215</Calories>
                <Intensity>Active</Intensity>
                <TriggerMethod>Manual</TriggerMethod>
            </Lap>
        </Activity>
        <Activity Sport="Walking">
            <Id>2022-01-11T02:42:00.000Z</Id>
            <Lap StartTime="2022-01-11T02:42:00.000Z">
                <Track>
                    <Trackpoint>
                        <DistanceMeters>0.0</DistanceMeters>
                        <Time>2022-01-11T02:42:00.000Z</Time>
                    </Trackpoint>
                    <Trackpoint>
                        <DistanceMeters>72.0</DistanceMeters>
                        <Time>2022-01-11T02:43:00.000Z</Time>
                    </Trackpoint>
                </Track>
                <DistanceMeters>72.0</DistanceMeters>
                <TotalTimeSeconds>60.0</TotalTimeSeconds>
                <Calories>5.826666831970215</Calories>
                <Intensity>Active</Intensity>
                <TriggerMethod>Manual</TriggerMethod>
            </Lap>
        </Activity>
        <Activity Sport="Walking">
            <Id>2022-01-11T02:43:00.000Z</Id>
            <Lap StartTime="2022-01-11T02:43:00.000Z">
                <Track>
                    <Trackpoint>
                        <DistanceMeters>0.0</DistanceMeters>
                        <Time>2022-01-11T02:43:00.000Z</Time>
                    </Trackpoint>
                    <Trackpoint>
                        <DistanceMeters>47.0</DistanceMeters>
                        <Time>2022-01-11T02:44:00.000Z</Time>
                    </Trackpoint>
                </Track>
                <DistanceMeters>47.0</DistanceMeters>
                <TotalTimeSeconds>60.0</TotalTimeSeconds>
                <Calories>5.826666831970215</Calories>
                <Intensity>Active</Intensity>
                <TriggerMethod>Manual</TriggerMethod>
            </Lap>
        </Activity>
        <Activity Sport="Walking">
            <Id>2022-01-11T02:44:00.000Z</Id>
            <Lap StartTime="2022-01-11T02:44:00.000Z">
                <Track>
                    <Trackpoint>
                        <DistanceMeters>0.0</DistanceMeters>
                        <Time>2022-01-11T02:44:00.000Z</Time>
                    </Trackpoint>
                    <Trackpoint>
                        <DistanceMeters>36.0</DistanceMeters>
                        <Time>2022-01-11T02:45:00.000Z</Time>
                    </Trackpoint>
                </Track>
                <DistanceMeters>36.0</DistanceMeters>
                <TotalTimeSeconds>60.0</TotalTimeSeconds>
                <Calories>5.826666831970215</Calories>
                <Intensity>Active</Intensity>
                <TriggerMethod>Manual</TriggerMethod>
            </Lap>
        </Activity>
        <Activity Sport="Walking">
            <Id>2022-01-11T02:45:00.000Z</Id>
            <Lap StartTime="2022-01-11T02:45:00.000Z">
                <Track>
                    <Trackpoint>
                        <DistanceMeters>0.0</DistanceMeters>
                        <Time>2022-01-11T02:45:00.000Z</Time>
                    </Trackpoint>
                    <Trackpoint>
                        <DistanceMeters>37.0</DistanceMeters>
                        <Time>2022-01-11T02:46:00.000Z</Time>
                    </Trackpoint>
                </Track>
                <DistanceMeters>37.0</DistanceMeters>
                <TotalTimeSeconds>60.0</TotalTimeSeconds>
                <Calories>5.826666831970215</Calories>
                <Intensity>Active</Intensity>
                <TriggerMethod>Manual</TriggerMethod>
            </Lap>
        </Activity>
        <Activity Sport="Walking">
            <Id>2022-01-11T02:46:00.000Z</Id>
            <Lap StartTime="2022-01-11T02:46:00.000Z">
                <Track>
                    <Trackpoint>
                        <DistanceMeters>0.0</DistanceMeters>
                        <Time>2022-01-11T02:46:00.000Z</Time>
                    </Trackpoint>
                    <Trackpoint>
                        <DistanceMeters>27.0</DistanceMeters>
                        <Time>2022-01-11T02:47:00.000Z</Time>
                    </Trackpoint>
                </Track>
                <DistanceMeters>27.0</DistanceMeters>
                <TotalTimeSeconds>60.0</TotalTimeSeconds>
                <Calories>5.826666831970215</Calories>
                <Intensity>Active</Intensity>
                <TriggerMethod>Manual</TriggerMethod>
            </Lap>
        </Activity>
        <Activity Sport="Walking">
            <Id>2022-01-11T02:47:00.000Z</Id>
            <Lap StartTime="2022-01-11T02:47:00.000Z">
                <Track>
                    <Trackpoint>
                        <DistanceMeters>0.0</DistanceMeters>
                        <Time>2022-01-11T02:47:00.000Z</Time>
                    </Trackpoint>
                    <Trackpoint>
                        <DistanceMeters>24.0</DistanceMeters>
                        <Time>2022-01-11T02:48:00.000Z</Time>
                    </Trackpoint>
                </Track>
                <DistanceMeters>24.0</DistanceMeters>
                <TotalTimeSeconds>60.0</TotalTimeSeconds>
                <Calories>5.826666831970215</Calories>
                <Intensity>Active</Intensity>
                <TriggerMethod>Manual</TriggerMethod>
            </Lap>
        </Activity>
        <Activity Sport="Walking">
            <Id>2022-01-11T02:48:00.000Z</Id>
            <Lap StartTime="2022-01-11T02:48:00.000Z">
                <Track>
                    <Trackpoint>
                        <DistanceMeters>0.0</DistanceMeters>
                        <Time>2022-01-11T02:48:00.000Z</Time>
                    </Trackpoint>
                    <Trackpoint>
                        <DistanceMeters>38.0</DistanceMeters>
                        <Time>2022-01-11T02:49:00.000Z</Time>
                    </Trackpoint>
                </Track>
                <DistanceMeters>38.0</DistanceMeters>
                <TotalTimeSeconds>60.0</TotalTimeSeconds>
                <Calories>5.826666831970215</Calories>
                <Intensity>Active</Intensity>
                <TriggerMethod>Manual</TriggerMethod>
            </Lap>
        </Activity>
        <Activity Sport="Walking">
            <Id>2022-01-11T02:49:00.000Z</Id>
            <Lap StartTime="2022-01-11T02:49:00.000Z">
                <Track>
                    <Trackpoint>
                        <DistanceMeters>0.0</DistanceMeters>
                        <Time>2022-01-11T02:49:00.000Z</Time>
                    </Trackpoint>
                    <Trackpoint>
                        <DistanceMeters>30.0</DistanceMeters>
                        <Time>2022-01-11T02:50:00.000Z</Time>
                    </Trackpoint>
                </Track>
                <DistanceMeters>30.0</DistanceMeters>
                <TotalTimeSeconds>60.0</TotalTimeSeconds>
                <Calories>5.826666831970215</Calories>
                <Intensity>Active</Intensity>
                <TriggerMethod>Manual</TriggerMethod>
            </Lap>
        </Activity>
        <Activity Sport="Walking">
            <Id>2022-01-11T02:50:00.000Z</Id>
            <Lap StartTime="2022-01-11T02:50:00.000Z">
                <Track>
                    <Trackpoint>
                        <DistanceMeters>0.0</DistanceMeters>
                        <Time>2022-01-11T02:50:00.000Z</Time>
                    </Trackpoint>
                    <Trackpoint>
                        <DistanceMeters>10.0</DistanceMeters>
                        <Time>2022-01-11T02:51:00.000Z</Time>
                    </Trackpoint>
                </Track>
                <DistanceMeters>10.0</DistanceMeters>
                <TotalTimeSeconds>60.0</TotalTimeSeconds>
                <Calories>5.826666831970215</Calories>
                <Intensity>Active</Intensity>
                <TriggerMethod>Manual</TriggerMethod>
            </Lap>
        </Activity>
        <Activity Sport="Walking">
            <Id>2022-01-11T02:51:00.000Z</Id>
            <Lap StartTime="2022-01-11T02:51:00.000Z">
                <Track>
                    <Trackpoint>
                        <DistanceMeters>0.0</DistanceMeters>
                        <Time>2022-01-11T02:51:00.000Z</Time>
                    </Trackpoint>
                    <Trackpoint>
                        <DistanceMeters>37.0</DistanceMeters>
                        <Time>2022-01-11T02:52:00.000Z</Time>
                    </Trackpoint>
                </Track>
                <DistanceMeters>37.0</DistanceMeters>
                <TotalTimeSeconds>60.0</TotalTimeSeconds>
                <Calories>5.826666831970215</Calories>
                <Intensity>Active</Intensity>
                <TriggerMethod>Manual</TriggerMethod>
            </Lap>
        </Activity>
        <Activity Sport="Walking">
            <Id>2022-01-11T02:52:00.000Z</Id>
            <Lap StartTime="2022-01-11T02:52:00.000Z">
                <Track>
                    <Trackpoint>
                        <DistanceMeters>0.0</DistanceMeters>
                        <Time>2022-01-11T02:52:00.000Z</Time>
                    </Trackpoint>
                    <Trackpoint>
                        <DistanceMeters>26.0</DistanceMeters>
                        <Time>2022-01-11T02:53:00.000Z</Time>
                    </Trackpoint>
                </Track>
                <DistanceMeters>26.0</DistanceMeters>
                <TotalTimeSeconds>60.0</TotalTimeSeconds>
                <Calories>5.826666831970215</Calories>
                <Intensity>Active</Intensity>
                <TriggerMethod>Manual</TriggerMethod>
            </Lap>
        </Activity>
        <Activity Sport="Walking">
            <Id>2022-01-11T02:53:00.000Z</Id>
            <Lap StartTime="2022-01-11T02:53:00.000Z">
                <Track>
                    <Trackpoint>
                        <DistanceMeters>0.0</DistanceMeters>
                        <Time>2022-01-11T02:53:00.000Z</Time>
                    </Trackpoint>
                    <Trackpoint>
                        <DistanceMeters>46.0</DistanceMeters>
                        <Time>2022-01-11T02:54:00.000Z</Time>
                    </Trackpoint>
                </Track>
                <DistanceMeters>46.0</DistanceMeters>
                <TotalTimeSeconds>60.0</TotalTimeSeconds>
                <Calories>5.826666831970215</Calories>
                <Intensity>Active</Intensity>
                <TriggerMethod>Manual</TriggerMethod>
            </Lap>
        </Activity>
        <Activity Sport="Walking">
            <Id>2022-01-11T02:54:00.000Z</Id>
            <Lap StartTime="2022-01-11T02:54:00.000Z">
                <Track>
                    <Trackpoint>
                        <DistanceMeters>0.0</DistanceMeters>
                        <Time>2022-01-11T02:54:00.000Z</Time>
                    </Trackpoint>
                    <Trackpoint>
                        <DistanceMeters>0.0</DistanceMeters>
                        <Time>2022-01-11T02:55:00.000Z</Time>
                    </Trackpoint>
                </Track>
                <DistanceMeters>0.0</DistanceMeters>
                <TotalTimeSeconds>60.0</TotalTimeSeconds>
                <Calories>5.826666831970215</Calories>
                <Intensity>Active</Intensity>
                <TriggerMethod>Manual</TriggerMethod>
            </Lap>
        </Activity>
        <Activity Sport="Walking">
            <Id>2022-01-11T02:57:00.000Z</Id>
            <Lap StartTime="2022-01-11T02:57:00.000Z">
                <Track>
                    <Trackpoint>
                        <DistanceMeters>0.0</DistanceMeters>
                        <Time>2022-01-11T02:57:00.000Z</Time>
                    </Trackpoint>
                    <Trackpoint>
                        <DistanceMeters>16.0</DistanceMeters>
                        <Time>2022-01-11T02:58:00.000Z</Time>
                    </Trackpoint>
                </Track>
                <DistanceMeters>16.0</DistanceMeters>
                <TotalTimeSeconds>60.0</TotalTimeSeconds>
                <Calories>5.826666831970215</Calories>
                <Intensity>Active</Intensity>
                <TriggerMethod>Manual</TriggerMethod>
            </Lap>
        </Activity>
        <Activity Sport="Walking">
            <Id>2022-01-11T02:58:00.000Z</Id>
            <Lap StartTime="2022-01-11T02:58:00.000Z">
                <Track>
                    <Trackpoint>
                        <DistanceMeters>0.0</DistanceMeters>
                        <Time>2022-01-11T02:58:00.000Z</Time>
                    </Trackpoint>
                    <Trackpoint>
                        <DistanceMeters>17.0</DistanceMeters>
                        <Time>2022-01-11T02:59:00.000Z</Time>
                    </Trackpoint>
                </Track>
                <DistanceMeters>17.0</DistanceMeters>
                <TotalTimeSeconds>60.0</TotalTimeSeconds>
                <Calories>5.826666831970215</Calories>
                <Intensity>Active</Intensity>
                <TriggerMethod>Manual</TriggerMethod>
            </Lap>
        </Activity>
        <Activity Sport="Walking">
            <Id>2022-01-11T02:59:00.000Z</Id>
            <Lap StartTime="2022-01-11T02:59:00.000Z">
                <Track>
                    <Trackpoint>
                        <DistanceMeters>0.0</DistanceMeters>
                        <Time>2022-01-11T02:59:00.000Z</Time>
                    </Trackpoint>
                    <Trackpoint>
                        <DistanceMeters>17.0</DistanceMeters>
                        <Time>2022-01-11T03:00:00.000Z</Time>
                    </Trackpoint>
                </Track>
                <DistanceMeters>17.0</DistanceMeters>
                <TotalTimeSeconds>60.0</TotalTimeSeconds>
                <Calories>5.826666831970215</Calories>
                <Intensity>Active</Intensity>
                <TriggerMethod>Manual</TriggerMethod>
            </Lap>
        </Activity>
        <Activity Sport="Walking">
            <Id>2022-01-11T03:00:00.000Z</Id>
            <Lap StartTime="2022-01-11T03:00:00.000Z">
                <Track>
                    <Trackpoint>
                        <DistanceMeters>0.0</DistanceMeters>
                        <Time>2022-01-11T03:00:00.000Z</Time>
                    </Trackpoint>
                    <Trackpoint>
                        <DistanceMeters>0.0</DistanceMeters>
                        <Time>2022-01-11T03:01:00.000Z</Time>
                    </Trackpoint>
                </Track>
                <DistanceMeters>0.0</DistanceMeters>
                <TotalTimeSeconds>60.0</TotalTimeSeconds>
                <Calories>5.826666831970215</Calories>
                <Intensity>Active</Intensity>
                <TriggerMethod>Manual</TriggerMethod>
            </Lap>
        </Activity>
    </Activities>
    <Author xsi:type="Application_t">
        <Name>Google Fit</Name>
        <Build>
            <Version>
                <VersionMajor>0</VersionMajor>
                <VersionMinor>0</VersionMinor>
                <BuildMajor>0</BuildMajor>
                <BuildMinor>0</BuildMinor>
            </Version>
        </Build>
        <LangID>en</LangID>
        <PartNumber>000-00000-00</PartNumber>
    </Author>
</TrainingCenterDatabase>
