<?xml version="1.0" encoding="UTF-8"?>
<TrainingCenterDatabase
    xmlns="http://www.garmin.com/xmlschemas/TrainingCenterDatabase/v2"
    xmlns:ns2="http://www.garmin.com/xmlschemas/UserProfile/v2"
    xmlns:ns3="http://www.garmin.com/xmlschemas/ActivityExtension/v2"
    xmlns:ns4="http://www.garmin.com/xmlschemas/ProfileExtension/v1"
    xmlns:ns5="http://www.garmin.com/xmlschemas/ActivityGoals/v1"
    xmlns:xsi="http://www.w3.org/2001/XMLSchema-instance" xsi:schemaLocation="http://www.garmin.com/xmlschemas/TrainingCenterDatabase/v2 http://www.garmin.com/xmlschemas/TrainingCenterDatabasev2.xsd">
    <Activities>
        <Activity Sport="Walking">
            <Id>2022-06-06T11:07:29.454Z</Id>
            <Lap StartTime="2022-06-06T11:07:29.454Z">
                <Track>
                    <Trackpoint>
                        <DistanceMeters>0.0</DistanceMeters>
                        <Time>2022-06-06T11:07:29.454Z</Time>
                    </Trackpoint>
                    <Trackpoint>
                        <DistanceMeters>35.253883361816406</DistanceMeters>
                        <Time>2022-06-06T11:07:57.259Z</Time>
                    </Trackpoint>
                    <Trackpoint>
                        <DistanceMeters>72.9157600402832</DistanceMeters>
                        <Time>2022-06-06T11:10:35.439Z</Time>
                    </Trackpoint>
                    <Trackpoint>
                        <DistanceMeters>161.88975143432617</DistanceMeters>
                        <Time>2022-06-06T11:11:51.939Z</Time>
                    </Trackpoint>
                    <Trackpoint>
                        <DistanceMeters>164.49961137771606</DistanceMeters>
                        <Time>2022-06-06T11:14:05.059Z</Time>
                    </Trackpoint>
                    <Trackpoint>
                        <DistanceMeters>169.71933126449585</DistanceMeters>
                        <Time>2022-06-06T11:14:43.819Z</Time>
                    </Trackpoint>
                    <Trackpoint>
                        <DistanceMeters>221.91652822494507</DistanceMeters>
                        <Time>2022-06-06T11:16:35.099Z</Time>
                    </Trackpoint>
                    <Trackpoint>
                        <DistanceMeters>253.23484754562378</DistanceMeters>
                        <Time>2022-06-06T11:17:33.739Z</Time>
                    </Trackpoint>
                    <Trackpoint>
                        <DistanceMeters>257.1496374607086</DistanceMeters>
                        <Time>2022-06-06T11:21:39.370Z</Time>
                    </Trackpoint>
                </Track>
                <DistanceMeters>257.1496374607086</DistanceMeters>
                <TotalTimeSeconds>849.916</TotalTimeSeconds>
                <Calories>87.0219497680664</Calories>
                <Intensity>Active</Intensity>
                <TriggerMethod>Manual</TriggerMethod>
            </Lap>
        </Activity>
        <Activity Sport="Walking">
            <Id>2022-06-06T11:35:46.139Z</Id>
            <Lap StartTime="2022-06-06T11:35:46.139Z">
                <Track>
                    <Trackpoint>
                        <DistanceMeters>0.0</DistanceMeters>
                        <Time>2022-06-06T11:35:46.139Z</Time>
                    </Trackpoint>
                    <Trackpoint>
                        <DistanceMeters>39.80036544799805</DistanceMeters>
                        <Time>2022-06-06T11:36:05.136Z</Time>
                    </Trackpoint>
                    <Trackpoint>
                        <DistanceMeters>39.80036544799805</DistanceMeters>
                        <Time>2022-06-06T11:37:48.139Z</Time>
                    </Trackpoint>
                    <Trackpoint>
                        <DistanceMeters>49.587340354919434</DistanceMeters>
                        <Time>2022-06-06T11:38:01.979Z</Time>
                    </Trackpoint>
                    <Trackpoint>
                        <DistanceMeters>85.47291469573975</DistanceMeters>
                        <Time>2022-06-06T11:38:59.299Z</Time>
                    </Trackpoint>
                    <Trackpoint>
                        <DistanceMeters>99.12338161468506</DistanceMeters>
                        <Time>2022-06-06T11:39:12.099Z</Time>
                    </Trackpoint>
                    <Trackpoint>
                        <DistanceMeters>124.5695161819458</DistanceMeters>
                        <Time>2022-06-06T11:39:58.838Z</Time>
                    </Trackpoint>
                </Track>
                <DistanceMeters>124.5695161819458</DistanceMeters>
                <TotalTimeSeconds>252.698203679</TotalTimeSeconds>
                <Calories>23.92848777770996</Calories>
                <Intensity>Active</Intensity>
                <TriggerMethod>Manual</TriggerMethod>
            </Lap>
        </Activity>
        <Activity Sport="Walking">
            <Id>2022-06-06T11:39:58.838Z</Id>
            <Lap StartTime="2022-06-06T11:39:58.838Z">
                <Track>
                    <Trackpoint>
                        <DistanceMeters>0.0</DistanceMeters>
                        <Time>2022-06-06T11:39:58.838Z</Time>
                    </Trackpoint>
                    <Trackpoint>
                        <DistanceMeters>0.0</DistanceMeters>
                        <Time>2022-06-06T11:43:51.899Z</Time>
                    </Trackpoint>
                    <Trackpoint>
                        <DistanceMeters>21.53134536743164</DistanceMeters>
                        <Time>2022-06-06T11:44:27.899Z</Time>
                    </Trackpoint>
                    <Trackpoint>
                        <DistanceMeters>51.544734954833984</DistanceMeters>
                        <Time>2022-06-06T11:45:01.259Z</Time>
                    </Trackpoint>
                    <Trackpoint>
                        <DistanceMeters>117.31837844848633</DistanceMeters>
                        <Time>2022-06-06T11:46:00.059Z</Time>
                    </Trackpoint>
                </Track>
                <DistanceMeters>117.31837844848633</DistanceMeters>
                <TotalTimeSeconds>361.221793328</TotalTimeSeconds>
                <Calories>9.443351745605469</Calories>
                <Intensity>Active</Intensity>
                <TriggerMethod>Manual</TriggerMethod>
            </Lap>
        </Activity>
        <Activity Sport="Walking">
            <Id>2022-06-06T11:45:01.259Z</Id>
            <Lap StartTime="2022-06-06T11:45:01.259Z">
                <Track>
                    <Trackpoint>
                        <DistanceMeters>0.0</DistanceMeters>
                        <Time>2022-06-06T11:45:01.259Z</Time>
                    </Trackpoint>
                    <Trackpoint>
                        <DistanceMeters>65.77364349365234</DistanceMeters>
                        <Time>2022-06-06T11:45:04.296Z</Time>
                    </Trackpoint>
                    <Trackpoint>
                        <DistanceMeters>65.77364349365234</DistanceMeters>
                        <Time>2022-06-06T11:46:00.059Z</Time>
                    </Trackpoint>
                    <Trackpoint>
                        <DistanceMeters>129.87676239013672</DistanceMeters>
                        <Time>2022-06-06T11:47:00.339Z</Time>
                    </Trackpoint>
                    <Trackpoint>
                        <DistanceMeters>187.04723739624023</DistanceMeters>
                        <Time>2022-06-06T11:47:54.459Z</Time>
                    </Trackpoint>
                    <Trackpoint>
                        <DistanceMeters>253.3113670349121</DistanceMeters>
                        <Time>2022-06-06T11:48:54.299Z</Time>
                    </Trackpoint>
                    <Trackpoint>
                        <DistanceMeters>306.4941291809082</DistanceMeters>
                        <Time>2022-06-06T11:49:44.339Z</Time>
                    </Trackpoint>
                    <Trackpoint>
                        <DistanceMeters>323.45821952819824</DistanceMeters>
                        <Time>2022-06-06T11:51:07.714Z</Time>
                    </Trackpoint>
                </Track>
                <DistanceMeters>323.45821952819824</DistanceMeters>
                <TotalTimeSeconds>366.454206702</TotalTimeSeconds>
                <Calories>37.209964752197266</Calories>
                <Intensity>Active</Intensity>
                <TriggerMethod>Manual</TriggerMethod>
            </Lap>
        </Activity>
    </Activities>
    <Author xsi:type="Application_t">
        <Name>Google Fit</Name>
        <Build>
            <Version>
                <VersionMajor>0</VersionMajor>
                <VersionMinor>0</VersionMinor>
                <BuildMajor>0</BuildMajor>
                <BuildMinor>0</BuildMinor>
            </Version>
        </Build>
        <LangID>en</LangID>
        <PartNumber>000-00000-00</PartNumber>
    </Author>
</TrainingCenterDatabase>
