<?xml version="1.0" encoding="UTF-8"?>
<TrainingCenterDatabase
    xmlns="http://www.garmin.com/xmlschemas/TrainingCenterDatabase/v2"
    xmlns:ns2="http://www.garmin.com/xmlschemas/UserProfile/v2"
    xmlns:ns3="http://www.garmin.com/xmlschemas/ActivityExtension/v2"
    xmlns:ns4="http://www.garmin.com/xmlschemas/ProfileExtension/v1"
    xmlns:ns5="http://www.garmin.com/xmlschemas/ActivityGoals/v1"
    xmlns:xsi="http://www.w3.org/2001/XMLSchema-instance" xsi:schemaLocation="http://www.garmin.com/xmlschemas/TrainingCenterDatabase/v2 http://www.garmin.com/xmlschemas/TrainingCenterDatabasev2.xsd">
    <Activities>
        <Activity Sport="Walking">
            <Id>2022-09-23T15:36:15.441Z</Id>
            <Lap StartTime="2022-09-23T15:36:15.441Z">
                <Track>
                    <Trackpoint>
                        <DistanceMeters>0.0</DistanceMeters>
                        <Time>2022-09-23T15:36:15.441Z</Time>
                    </Trackpoint>
                    <Trackpoint>
                        <DistanceMeters>21.53134536743164</DistanceMeters>
                        <Time>2022-09-23T15:36:59.329Z</Time>
                    </Trackpoint>
                    <Trackpoint>
                        <DistanceMeters>21.53134536743164</DistanceMeters>
                        <Time>2022-09-23T15:37:21.441Z</Time>
                    </Trackpoint>
                    <Trackpoint>
                        <DistanceMeters>35.88557529449463</DistanceMeters>
                        <Time>2022-09-23T15:38:21.726Z</Time>
                    </Trackpoint>
                </Track>
                <DistanceMeters>35.88557529449463</DistanceMeters>
                <TotalTimeSeconds>126.284917187</TotalTimeSeconds>
                <Calories>8.43653678894043</Calories>
                <Intensity>Active</Intensity>
                <TriggerMethod>Manual</TriggerMethod>
            </Lap>
        </Activity>
        <Activity Sport="Walking">
            <Id>2022-09-23T15:38:21.726Z</Id>
            <Lap StartTime="2022-09-23T15:38:21.726Z">
                <Track>
                    <Trackpoint>
                        <DistanceMeters>0.0</DistanceMeters>
                        <Time>2022-09-23T15:38:21.726Z</Time>
                    </Trackpoint>
                    <Trackpoint>
                        <DistanceMeters>0.0</DistanceMeters>
                        <Time>2022-09-23T15:42:26.601Z</Time>
                    </Trackpoint>
                    <Trackpoint>
                        <DistanceMeters>58.50609588623047</DistanceMeters>
                        <Time>2022-09-23T15:43:17.881Z</Time>
                    </Trackpoint>
                    <Trackpoint>
                        <DistanceMeters>74.26848316192627</DistanceMeters>
                        <Time>2022-09-23T15:43:30.481Z</Time>
                    </Trackpoint>
                    <Trackpoint>
                        <DistanceMeters>150.6205186843872</DistanceMeters>
                        <Time>2022-09-23T15:44:36.161Z</Time>
                    </Trackpoint>
                </Track>
                <DistanceMeters>150.6205186843872</DistanceMeters>
                <TotalTimeSeconds>374.435084234</TotalTimeSeconds>
                <Calories>12.264025640584476</Calories>
                <Intensity>Active</Intensity>
                <TriggerMethod>Manual</TriggerMethod>
            </Lap>
        </Activity>
        <Activity Sport="Walking">
            <Id>2022-09-23T15:43:30.481Z</Id>
            <Lap StartTime="2022-09-23T15:43:30.481Z">
                <Track>
                    <Trackpoint>
                        <DistanceMeters>0.0</DistanceMeters>
                        <Time>2022-09-23T15:43:30.481Z</Time>
                    </Trackpoint>
                    <Trackpoint>
                        <DistanceMeters>76.35203552246094</DistanceMeters>
                        <Time>2022-09-23T15:43:35.565Z</Time>
                    </Trackpoint>
                    <Trackpoint>
                        <DistanceMeters>76.35203552246094</DistanceMeters>
                        <Time>2022-09-23T15:44:36.161Z</Time>
                    </Trackpoint>
                    <Trackpoint>
                        <DistanceMeters>111.14068984985352</DistanceMeters>
                        <Time>2022-09-23T15:45:04.801Z</Time>
                    </Trackpoint>
                    <Trackpoint>
                        <DistanceMeters>179.01034927368164</DistanceMeters>
                        <Time>2022-09-23T15:46:03.401Z</Time>
                    </Trackpoint>
                    <Trackpoint>
                        <DistanceMeters>212.2030372619629</DistanceMeters>
                        <Time>2022-09-23T15:46:31.201Z</Time>
                    </Trackpoint>
                    <Trackpoint>
                        <DistanceMeters>270.8815116882324</DistanceMeters>
                        <Time>2022-09-23T15:47:30.761Z</Time>
                    </Trackpoint>
                    <Trackpoint>
                        <DistanceMeters>280.0160217285156</DistanceMeters>
                        <Time>2022-09-23T15:47:43.801Z</Time>
                    </Trackpoint>
                </Track>
                <DistanceMeters>280.0160217285156</DistanceMeters>
                <TotalTimeSeconds>253.319997443</TotalTimeSeconds>
                <Calories>24.107666015625</Calories>
                <Intensity>Active</Intensity>
                <TriggerMethod>Manual</TriggerMethod>
            </Lap>
        </Activity>
        <Activity Sport="Walking">
            <Id>2022-09-23T15:47:30.761Z</Id>
            <Lap StartTime="2022-09-23T15:47:30.761Z">
                <Track>
                    <Trackpoint>
                        <DistanceMeters>0.0</DistanceMeters>
                        <Time>2022-09-23T15:47:30.761Z</Time>
                    </Trackpoint>
                    <Trackpoint>
                        <DistanceMeters>9.134510040283203</DistanceMeters>
                        <Time>2022-09-23T15:47:31.017Z</Time>
                    </Trackpoint>
                    <Trackpoint>
                        <DistanceMeters>9.134510040283203</DistanceMeters>
                        <Time>2022-09-23T15:47:43.801Z</Time>
                    </Trackpoint>
                </Track>
                <DistanceMeters>9.134510040283203</DistanceMeters>
                <TotalTimeSeconds>13.04</TotalTimeSeconds>
                <Calories>1.308948278427124</Calories>
                <Intensity>Active</Intensity>
                <TriggerMethod>Manual</TriggerMethod>
            </Lap>
        </Activity>
        <Activity Sport="Walking">
            <Id>2022-09-23T15:54:20.761Z</Id>
            <Lap StartTime="2022-09-23T15:54:20.761Z">
                <Track>
                    <Trackpoint>
                        <DistanceMeters>0.0</DistanceMeters>
                        <Time>2022-09-23T15:54:20.761Z</Time>
                    </Trackpoint>
                    <Trackpoint>
                        <DistanceMeters>18.269020080566406</DistanceMeters>
                        <Time>2022-09-23T15:54:38.084Z</Time>
                    </Trackpoint>
                    <Trackpoint>
                        <DistanceMeters>18.269020080566406</DistanceMeters>
                        <Time>2022-09-23T15:55:20.761Z</Time>
                    </Trackpoint>
                    <Trackpoint>
                        <DistanceMeters>93.302490234375</DistanceMeters>
                        <Time>2022-09-23T15:57:11.361Z</Time>
                    </Trackpoint>
                    <Trackpoint>
                        <DistanceMeters>146.02174377441406</DistanceMeters>
                        <Time>2022-09-23T15:57:54.281Z</Time>
                    </Trackpoint>
                    <Trackpoint>
                        <DistanceMeters>189.44657135009766</DistanceMeters>
                        <Time>2022-09-23T15:58:29.721Z</Time>
                    </Trackpoint>
                    <Trackpoint>
                        <DistanceMeters>264.52813720703125</DistanceMeters>
                        <Time>2022-09-23T15:59:30.121Z</Time>
                    </Trackpoint>
                    <Trackpoint>
                        <DistanceMeters>297.99048233032227</DistanceMeters>
                        <Time>2022-09-23T15:59:55.601Z</Time>
                    </Trackpoint>
                    <Trackpoint>
                        <DistanceMeters>361.15327072143555</DistanceMeters>
                        <Time>2022-09-23T16:00:45.801Z</Time>
                    </Trackpoint>
                    <Trackpoint>
                        <DistanceMeters>378.3855628967285</DistanceMeters>
                        <Time>2022-09-23T16:02:08.505Z</Time>
                    </Trackpoint>
                </Track>
                <DistanceMeters>378.3855628967285</DistanceMeters>
                <TotalTimeSeconds>467.743915902</TotalTimeSeconds>
                <Calories>46.11810302734375</Calories>
                <Intensity>Active</Intensity>
                <TriggerMethod>Manual</TriggerMethod>
            </Lap>
        </Activity>
        <Activity Sport="Walking">
            <Id>2022-09-23T16:09:11.601Z</Id>
            <Lap StartTime="2022-09-23T16:09:11.601Z">
                <Track>
                    <Trackpoint>
                        <DistanceMeters>0.0</DistanceMeters>
                        <Time>2022-09-23T16:09:11.601Z</Time>
                    </Trackpoint>
                    <Trackpoint>
                        <DistanceMeters>29.360923767089844</DistanceMeters>
                        <Time>2022-09-23T16:09:51.176Z</Time>
                    </Trackpoint>
                    <Trackpoint>
                        <DistanceMeters>29.360923767089844</DistanceMeters>
                        <Time>2022-09-23T16:10:33.001Z</Time>
                    </Trackpoint>
                    <Trackpoint>
                        <DistanceMeters>101.25972747802734</DistanceMeters>
                        <Time>2022-09-23T16:11:44.081Z</Time>
                    </Trackpoint>
                    <Trackpoint>
                        <DistanceMeters>109.34490871429443</DistanceMeters>
                        <Time>2022-09-23T16:11:52.001Z</Time>
                    </Trackpoint>
                    <Trackpoint>
                        <DistanceMeters>147.72408199310303</DistanceMeters>
                        <Time>2022-09-23T16:12:29.681Z</Time>
                    </Trackpoint>
                    <Trackpoint>
                        <DistanceMeters>210.6149320602417</DistanceMeters>
                        <Time>2022-09-23T16:13:26.241Z</Time>
                    </Trackpoint>
                    <Trackpoint>
                        <DistanceMeters>242.4784860610962</DistanceMeters>
                        <Time>2022-09-23T16:13:54.681Z</Time>
                    </Trackpoint>
                    <Trackpoint>
                        <DistanceMeters>268.5608148574829</DistanceMeters>
                        <Time>2022-09-23T16:14:18.681Z</Time>
                    </Trackpoint>
                    <Trackpoint>
                        <DistanceMeters>286.8298349380493</DistanceMeters>
                        <Time>2022-09-23T16:14:42.121Z</Time>
                    </Trackpoint>
                    <Trackpoint>
                        <DistanceMeters>300.1402750015259</DistanceMeters>
                        <Time>2022-09-23T16:14:55.721Z</Time>
                    </Trackpoint>
                    <Trackpoint>
                        <DistanceMeters>325.18117809295654</DistanceMeters>
                        <Time>2022-09-23T16:15:19.881Z</Time>
                    </Trackpoint>
                    <Trackpoint>
                        <DistanceMeters>351.4329843521118</DistanceMeters>
                        <Time>2022-09-23T16:15:43.521Z</Time>
                    </Trackpoint>
                    <Trackpoint>
                        <DistanceMeters>366.95562076568604</DistanceMeters>
                        <Time>2022-09-23T16:15:56.561Z</Time>
                    </Trackpoint>
                    <Trackpoint>
                        <DistanceMeters>393.18834400177</DistanceMeters>
                        <Time>2022-09-23T16:16:20.241Z</Time>
                    </Trackpoint>
                    <Trackpoint>
                        <DistanceMeters>421.96180057525635</DistanceMeters>
                        <Time>2022-09-23T16:16:44.841Z</Time>
                    </Trackpoint>
                    <Trackpoint>
                        <DistanceMeters>438.03004932403564</DistanceMeters>
                        <Time>2022-09-23T16:16:56.921Z</Time>
                    </Trackpoint>
                    <Trackpoint>
                        <DistanceMeters>465.70391941070557</DistanceMeters>
                        <Time>2022-09-23T16:17:21.721Z</Time>
                    </Trackpoint>
                    <Trackpoint>
                        <DistanceMeters>493.81682682037354</DistanceMeters>
                        <Time>2022-09-23T16:17:45.641Z</Time>
                    </Trackpoint>
                    <Trackpoint>
                        <DistanceMeters>507.08985233306885</DistanceMeters>
                        <Time>2022-09-23T16:17:57.161Z</Time>
                    </Trackpoint>
                    <Trackpoint>
                        <DistanceMeters>532.5753393173218</DistanceMeters>
                        <Time>2022-09-23T16:18:22.521Z</Time>
                    </Trackpoint>
                    <Trackpoint>
                        <DistanceMeters>559.5669946670532</DistanceMeters>
                        <Time>2022-09-23T16:18:46.681Z</Time>
                    </Trackpoint>
                    <Trackpoint>
                        <DistanceMeters>574.8385667800903</DistanceMeters>
                        <Time>2022-09-23T16:18:58.321Z</Time>
                    </Trackpoint>
                    <Trackpoint>
                        <DistanceMeters>611.7706346511841</DistanceMeters>
                        <Time>2022-09-23T16:19:30.641Z</Time>
                    </Trackpoint>
                    <Trackpoint>
                        <DistanceMeters>633.3019800186157</DistanceMeters>
                        <Time>2022-09-23T16:19:59.321Z</Time>
                    </Trackpoint>
                    <Trackpoint>
                        <DistanceMeters>646.4956007003784</DistanceMeters>
                        <Time>2022-09-23T16:20:11.001Z</Time>
                    </Trackpoint>
                    <Trackpoint>
                        <DistanceMeters>681.7907094955444</DistanceMeters>
                        <Time>2022-09-23T16:20:44.721Z</Time>
                    </Trackpoint>
                    <Trackpoint>
                        <DistanceMeters>722.0641393661499</DistanceMeters>
                        <Time>2022-09-23T16:21:18.401Z</Time>
                    </Trackpoint>
                    <Trackpoint>
                        <DistanceMeters>741.3642778396606</DistanceMeters>
                        <Time>2022-09-23T16:21:38.121Z</Time>
                    </Trackpoint>
                    <Trackpoint>
                        <DistanceMeters>763.0549535751343</DistanceMeters>
                        <Time>2022-09-23T16:22:19.514Z</Time>
                    </Trackpoint>
                </Track>
                <DistanceMeters>763.0549535751343</DistanceMeters>
                <TotalTimeSeconds>787.912915537</TotalTimeSeconds>
                <Calories>76.62149047851562</Calories>
                <Intensity>Active</Intensity>
                <TriggerMethod>Manual</TriggerMethod>
            </Lap>
        </Activity>
    </Activities>
    <Author xsi:type="Application_t">
        <Name>Google Fit</Name>
        <Build>
            <Version>
                <VersionMajor>0</VersionMajor>
                <VersionMinor>0</VersionMinor>
                <BuildMajor>0</BuildMajor>
                <BuildMinor>0</BuildMinor>
            </Version>
        </Build>
        <LangID>en</LangID>
        <PartNumber>000-00000-00</PartNumber>
    </Author>
</TrainingCenterDatabase>
