<?xml version="1.0" encoding="UTF-8"?>
<TrainingCenterDatabase
    xmlns="http://www.garmin.com/xmlschemas/TrainingCenterDatabase/v2"
    xmlns:ns2="http://www.garmin.com/xmlschemas/UserProfile/v2"
    xmlns:ns3="http://www.garmin.com/xmlschemas/ActivityExtension/v2"
    xmlns:ns4="http://www.garmin.com/xmlschemas/ProfileExtension/v1"
    xmlns:ns5="http://www.garmin.com/xmlschemas/ActivityGoals/v1"
    xmlns:xsi="http://www.w3.org/2001/XMLSchema-instance" xsi:schemaLocation="http://www.garmin.com/xmlschemas/TrainingCenterDatabase/v2 http://www.garmin.com/xmlschemas/TrainingCenterDatabasev2.xsd">
    <Activities>
        <Activity Sport="Walking">
            <Id>2022-01-25T04:48:00.000Z</Id>
            <Lap StartTime="2022-01-25T04:48:00.000Z">
                <Track>
                    <Trackpoint>
                        <DistanceMeters>0.0</DistanceMeters>
                        <Time>2022-01-25T04:48:00.000Z</Time>
                    </Trackpoint>
                    <Trackpoint>
                        <DistanceMeters>28.0</DistanceMeters>
                        <Time>2022-01-25T04:48:31.096Z</Time>
                    </Trackpoint>
                    <Trackpoint>
                        <DistanceMeters>28.0</DistanceMeters>
                        <Time>2022-01-25T04:49:00.000Z</Time>
                    </Trackpoint>
                    <Trackpoint>
                        <DistanceMeters>35.0</DistanceMeters>
                        <Time>2022-01-25T04:50:00.000Z</Time>
                    </Trackpoint>
                    <Trackpoint>
                        <DistanceMeters>58.0</DistanceMeters>
                        <Time>2022-01-25T04:51:00.000Z</Time>
                    </Trackpoint>
                    <Trackpoint>
                        <DistanceMeters>75.0</DistanceMeters>
                        <Time>2022-01-25T04:52:00.000Z</Time>
                    </Trackpoint>
                    <Trackpoint>
                        <DistanceMeters>106.0</DistanceMeters>
                        <Time>2022-01-25T04:53:00.000Z</Time>
                    </Trackpoint>
                    <Trackpoint>
                        <DistanceMeters>132.0</DistanceMeters>
                        <Time>2022-01-25T04:54:00.000Z</Time>
                    </Trackpoint>
                    <Trackpoint>
                        <DistanceMeters>148.0</DistanceMeters>
                        <Time>2022-01-25T04:55:00.000Z</Time>
                    </Trackpoint>
                    <Trackpoint>
                        <DistanceMeters>170.0</DistanceMeters>
                        <Time>2022-01-25T04:56:00.000Z</Time>
                    </Trackpoint>
                    <Trackpoint>
                        <DistanceMeters>179.44260501861572</DistanceMeters>
                        <Time>2022-01-25T04:56:09.979Z</Time>
                    </Trackpoint>
                    <Trackpoint>
                        <DistanceMeters>221.24348545074463</DistanceMeters>
                        <Time>2022-01-25T04:57:00.000Z</Time>
                    </Trackpoint>
                    <Trackpoint>
                        <DistanceMeters>241.24348545074463</DistanceMeters>
                        <Time>2022-01-25T04:58:00.000Z</Time>
                    </Trackpoint>
                    <Trackpoint>
                        <DistanceMeters>268.24348545074463</DistanceMeters>
                        <Time>2022-01-25T04:59:00.000Z</Time>
                    </Trackpoint>
                </Track>
                <DistanceMeters>268.24348545074463</DistanceMeters>
                <TotalTimeSeconds>660.0</TotalTimeSeconds>
                <Calories>59.75236892700195</Calories>
                <Intensity>Active</Intensity>
                <TriggerMethod>Manual</TriggerMethod>
            </Lap>
        </Activity>
    </Activities>
    <Author xsi:type="Application_t">
        <Name>Google Fit</Name>
        <Build>
            <Version>
                <VersionMajor>0</VersionMajor>
                <VersionMinor>0</VersionMinor>
                <BuildMajor>0</BuildMajor>
                <BuildMinor>0</BuildMinor>
            </Version>
        </Build>
        <LangID>en</LangID>
        <PartNumber>000-00000-00</PartNumber>
    </Author>
</TrainingCenterDatabase>
