<?xml version="1.0" encoding="UTF-8"?>
<TrainingCenterDatabase
    xmlns="http://www.garmin.com/xmlschemas/TrainingCenterDatabase/v2"
    xmlns:ns2="http://www.garmin.com/xmlschemas/UserProfile/v2"
    xmlns:ns3="http://www.garmin.com/xmlschemas/ActivityExtension/v2"
    xmlns:ns4="http://www.garmin.com/xmlschemas/ProfileExtension/v1"
    xmlns:ns5="http://www.garmin.com/xmlschemas/ActivityGoals/v1"
    xmlns:xsi="http://www.w3.org/2001/XMLSchema-instance" xsi:schemaLocation="http://www.garmin.com/xmlschemas/TrainingCenterDatabase/v2 http://www.garmin.com/xmlschemas/TrainingCenterDatabasev2.xsd">
    <Activities>
        <Activity Sport="Walking">
            <Id>2022-07-01T12:32:44.952Z</Id>
            <Lap StartTime="2022-07-01T12:32:44.952Z">
                <Track>
                    <Trackpoint>
                        <DistanceMeters>0.0</DistanceMeters>
                        <Time>2022-07-01T12:32:44.952Z</Time>
                    </Trackpoint>
                    <Trackpoint>
                        <DistanceMeters>30.66585350036621</DistanceMeters>
                        <Time>2022-07-01T12:33:52.482Z</Time>
                    </Trackpoint>
                    <Trackpoint>
                        <DistanceMeters>30.66585350036621</DistanceMeters>
                        <Time>2022-07-01T12:34:18.952Z</Time>
                    </Trackpoint>
                    <Trackpoint>
                        <DistanceMeters>48.28240776062012</DistanceMeters>
                        <Time>2022-07-01T12:35:31.500Z</Time>
                    </Trackpoint>
                </Track>
                <DistanceMeters>48.28240776062012</DistanceMeters>
                <TotalTimeSeconds>166.547524061</TotalTimeSeconds>
                <Calories>10.138341903686523</Calories>
                <Intensity>Active</Intensity>
                <TriggerMethod>Manual</TriggerMethod>
            </Lap>
        </Activity>
        <Activity Sport="Walking">
            <Id>2022-07-01T12:35:31.500Z</Id>
            <Lap StartTime="2022-07-01T12:35:31.500Z">
                <Track>
                    <Trackpoint>
                        <DistanceMeters>0.0</DistanceMeters>
                        <Time>2022-07-01T12:35:31.500Z</Time>
                    </Trackpoint>
                    <Trackpoint>
                        <DistanceMeters>0.0</DistanceMeters>
                        <Time>2022-07-01T12:49:45.272Z</Time>
                    </Trackpoint>
                    <Trackpoint>
                        <DistanceMeters>28.055994033813477</DistanceMeters>
                        <Time>2022-07-01T12:50:19.232Z</Time>
                    </Trackpoint>
                </Track>
                <DistanceMeters>28.055994033813477</DistanceMeters>
                <TotalTimeSeconds>887.732479678</TotalTimeSeconds>
                <Calories>19.100450217723846</Calories>
                <Intensity>Active</Intensity>
                <TriggerMethod>Manual</TriggerMethod>
            </Lap>
        </Activity>
        <Activity Sport="Walking">
            <Id>2022-07-01T12:49:45.272Z</Id>
            <Lap StartTime="2022-07-01T12:49:45.272Z">
                <Track>
                    <Trackpoint>
                        <DistanceMeters>0.0</DistanceMeters>
                        <Time>2022-07-01T12:49:45.272Z</Time>
                    </Trackpoint>
                    <Trackpoint>
                        <DistanceMeters>28.055994033813477</DistanceMeters>
                        <Time>2022-07-01T12:49:54.651Z</Time>
                    </Trackpoint>
                    <Trackpoint>
                        <DistanceMeters>28.055994033813477</DistanceMeters>
                        <Time>2022-07-01T12:50:19.232Z</Time>
                    </Trackpoint>
                    <Trackpoint>
                        <DistanceMeters>54.154592514038086</DistanceMeters>
                        <Time>2022-07-01T12:50:59.832Z</Time>
                    </Trackpoint>
                    <Trackpoint>
                        <DistanceMeters>55.45952248573303</DistanceMeters>
                        <Time>2022-07-01T12:51:02.392Z</Time>
                    </Trackpoint>
                    <Trackpoint>
                        <DistanceMeters>70.4662172794342</DistanceMeters>
                        <Time>2022-07-01T12:51:56.569Z</Time>
                    </Trackpoint>
                </Track>
                <DistanceMeters>70.4662172794342</DistanceMeters>
                <TotalTimeSeconds>131.296520322</TotalTimeSeconds>
                <Calories>12.483048439025879</Calories>
                <Intensity>Active</Intensity>
                <TriggerMethod>Manual</TriggerMethod>
            </Lap>
        </Activity>
        <Activity Sport="Walking">
            <Id>2022-07-01T12:56:52.352Z</Id>
            <Lap StartTime="2022-07-01T12:56:52.352Z">
                <Track>
                    <Trackpoint>
                        <DistanceMeters>0.0</DistanceMeters>
                        <Time>2022-07-01T12:56:52.352Z</Time>
                    </Trackpoint>
                    <Trackpoint>
                        <DistanceMeters>0.0</DistanceMeters>
                        <Time>2022-07-01T12:56:58.672Z</Time>
                    </Trackpoint>
                    <Trackpoint>
                        <DistanceMeters>7.177114963531494</DistanceMeters>
                        <Time>2022-07-01T12:57:15.392Z</Time>
                    </Trackpoint>
                    <Trackpoint>
                        <DistanceMeters>20.8788800239563</DistanceMeters>
                        <Time>2022-07-01T12:57:51.432Z</Time>
                    </Trackpoint>
                    <Trackpoint>
                        <DistanceMeters>38.495434284210205</DistanceMeters>
                        <Time>2022-07-01T12:58:19.632Z</Time>
                    </Trackpoint>
                    <Trackpoint>
                        <DistanceMeters>51.54473352432251</DistanceMeters>
                        <Time>2022-07-01T12:58:52.712Z</Time>
                    </Trackpoint>
                    <Trackpoint>
                        <DistanceMeters>78.29579782485962</DistanceMeters>
                        <Time>2022-07-01T13:00:05.232Z</Time>
                    </Trackpoint>
                    <Trackpoint>
                        <DistanceMeters>112.87644052505493</DistanceMeters>
                        <Time>2022-07-01T13:01:19.752Z</Time>
                    </Trackpoint>
                    <Trackpoint>
                        <DistanceMeters>132.83540964126587</DistanceMeters>
                        <Time>2022-07-01T13:01:37.952Z</Time>
                    </Trackpoint>
                    <Trackpoint>
                        <DistanceMeters>173.32099771499634</DistanceMeters>
                        <Time>2022-07-01T13:02:19.712Z</Time>
                    </Trackpoint>
                    <Trackpoint>
                        <DistanceMeters>187.67522764205933</DistanceMeters>
                        <Time>2022-07-01T13:02:39.352Z</Time>
                    </Trackpoint>
                    <Trackpoint>
                        <DistanceMeters>223.56080198287964</DistanceMeters>
                        <Time>2022-07-01T13:03:21.032Z</Time>
                    </Trackpoint>
                    <Trackpoint>
                        <DistanceMeters>235.30517148971558</DistanceMeters>
                        <Time>2022-07-01T13:03:39.752Z</Time>
                    </Trackpoint>
                    <Trackpoint>
                        <DistanceMeters>268.58088636398315</DistanceMeters>
                        <Time>2022-07-01T13:04:21.072Z</Time>
                    </Trackpoint>
                    <Trackpoint>
                        <DistanceMeters>289.5794348716736</DistanceMeters>
                        <Time>2022-07-01T13:04:41.272Z</Time>
                    </Trackpoint>
                    <Trackpoint>
                        <DistanceMeters>316.9829649925232</DistanceMeters>
                        <Time>2022-07-01T13:05:21.952Z</Time>
                    </Trackpoint>
                    <Trackpoint>
                        <DistanceMeters>331.98965978622437</DistanceMeters>
                        <Time>2022-07-01T13:05:42.032Z</Time>
                    </Trackpoint>
                    <Trackpoint>
                        <DistanceMeters>367.8752341270447</DistanceMeters>
                        <Time>2022-07-01T13:06:23.352Z</Time>
                    </Trackpoint>
                    <Trackpoint>
                        <DistanceMeters>383.07220220565796</DistanceMeters>
                        <Time>2022-07-01T13:06:39.272Z</Time>
                    </Trackpoint>
                    <Trackpoint>
                        <DistanceMeters>420.26270818710327</DistanceMeters>
                        <Time>2022-07-01T13:07:23.592Z</Time>
                    </Trackpoint>
                    <Trackpoint>
                        <DistanceMeters>441.7940535545349</DistanceMeters>
                        <Time>2022-07-01T13:07:50.392Z</Time>
                    </Trackpoint>
                    <Trackpoint>
                        <DistanceMeters>475.7356734275818</DistanceMeters>
                        <Time>2022-07-01T13:08:25.072Z</Time>
                    </Trackpoint>
                    <Trackpoint>
                        <DistanceMeters>503.82851552963257</DistanceMeters>
                        <Time>2022-07-01T13:08:51.072Z</Time>
                    </Trackpoint>
                    <Trackpoint>
                        <DistanceMeters>539.7012038230896</DistanceMeters>
                        <Time>2022-07-01T13:09:25.672Z</Time>
                    </Trackpoint>
                    <Trackpoint>
                        <DistanceMeters>562.5374789237976</DistanceMeters>
                        <Time>2022-07-01T13:09:51.712Z</Time>
                    </Trackpoint>
                    <Trackpoint>
                        <DistanceMeters>567.7571988105774</DistanceMeters>
                        <Time>2022-07-01T13:10:30.248Z</Time>
                    </Trackpoint>
                </Track>
                <DistanceMeters>567.7571988105774</DistanceMeters>
                <TotalTimeSeconds>817.896</TotalTimeSeconds>
                <Calories>83.74346160888672</Calories>
                <Intensity>Active</Intensity>
                <TriggerMethod>Manual</TriggerMethod>
            </Lap>
        </Activity>
    </Activities>
    <Author xsi:type="Application_t">
        <Name>Google Fit</Name>
        <Build>
            <Version>
                <VersionMajor>0</VersionMajor>
                <VersionMinor>0</VersionMinor>
                <BuildMajor>0</BuildMajor>
                <BuildMinor>0</BuildMinor>
            </Version>
        </Build>
        <LangID>en</LangID>
        <PartNumber>000-00000-00</PartNumber>
    </Author>
</TrainingCenterDatabase>
