<?xml version="1.0" encoding="UTF-8"?>
<TrainingCenterDatabase
    xmlns="http://www.garmin.com/xmlschemas/TrainingCenterDatabase/v2"
    xmlns:ns2="http://www.garmin.com/xmlschemas/UserProfile/v2"
    xmlns:ns3="http://www.garmin.com/xmlschemas/ActivityExtension/v2"
    xmlns:ns4="http://www.garmin.com/xmlschemas/ProfileExtension/v1"
    xmlns:ns5="http://www.garmin.com/xmlschemas/ActivityGoals/v1"
    xmlns:xsi="http://www.w3.org/2001/XMLSchema-instance" xsi:schemaLocation="http://www.garmin.com/xmlschemas/TrainingCenterDatabase/v2 http://www.garmin.com/xmlschemas/TrainingCenterDatabasev2.xsd">
    <Activities>
        <Activity Sport="Walking">
            <Id>2022-07-10T13:33:01.775Z</Id>
            <Lap StartTime="2022-07-10T13:33:01.775Z">
                <Track>
                    <Trackpoint>
                        <DistanceMeters>0.0</DistanceMeters>
                        <Time>2022-07-10T13:33:01.775Z</Time>
                    </Trackpoint>
                    <Trackpoint>
                        <DistanceMeters>82.86305236816406</DistanceMeters>
                        <Time>2022-07-10T13:36:08.126Z</Time>
                    </Trackpoint>
                    <Trackpoint>
                        <DistanceMeters>82.86305236816406</DistanceMeters>
                        <Time>2022-07-10T13:37:15.775Z</Time>
                    </Trackpoint>
                    <Trackpoint>
                        <DistanceMeters>108.3091869354248</DistanceMeters>
                        <Time>2022-07-10T13:37:43.895Z</Time>
                    </Trackpoint>
                    <Trackpoint>
                        <DistanceMeters>140.93243598937988</DistanceMeters>
                        <Time>2022-07-10T13:38:19.895Z</Time>
                    </Trackpoint>
                    <Trackpoint>
                        <DistanceMeters>156.59159564971924</DistanceMeters>
                        <Time>2022-07-10T13:39:13.775Z</Time>
                    </Trackpoint>
                    <Trackpoint>
                        <DistanceMeters>195.08702945709229</DistanceMeters>
                        <Time>2022-07-10T13:40:06.035Z</Time>
                    </Trackpoint>
                    <Trackpoint>
                        <DistanceMeters>219.22823429107666</DistanceMeters>
                        <Time>2022-07-10T13:41:34.721Z</Time>
                    </Trackpoint>
                </Track>
                <DistanceMeters>219.22823429107666</DistanceMeters>
                <TotalTimeSeconds>512.945063205</TotalTimeSeconds>
                <Calories>33.439697265625</Calories>
                <Intensity>Active</Intensity>
                <TriggerMethod>Manual</TriggerMethod>
            </Lap>
        </Activity>
        <Activity Sport="Walking">
            <Id>2022-07-10T13:46:09.975Z</Id>
            <Lap StartTime="2022-07-10T13:46:09.975Z">
                <Track>
                    <Trackpoint>
                        <DistanceMeters>0.0</DistanceMeters>
                        <Time>2022-07-10T13:46:09.975Z</Time>
                    </Trackpoint>
                    <Trackpoint>
                        <DistanceMeters>26.75106430053711</DistanceMeters>
                        <Time>2022-07-10T13:46:32.715Z</Time>
                    </Trackpoint>
                    <Trackpoint>
                        <DistanceMeters>26.75106430053711</DistanceMeters>
                        <Time>2022-07-10T13:46:58.575Z</Time>
                    </Trackpoint>
                    <Trackpoint>
                        <DistanceMeters>64.77381134033203</DistanceMeters>
                        <Time>2022-07-10T13:47:32.735Z</Time>
                    </Trackpoint>
                    <Trackpoint>
                        <DistanceMeters>88.2625503540039</DistanceMeters>
                        <Time>2022-07-10T13:48:00.535Z</Time>
                    </Trackpoint>
                    <Trackpoint>
                        <DistanceMeters>108.48896408081055</DistanceMeters>
                        <Time>2022-07-10T13:48:38.935Z</Time>
                    </Trackpoint>
                    <Trackpoint>
                        <DistanceMeters>171.75922775268555</DistanceMeters>
                        <Time>2022-07-10T13:49:36.775Z</Time>
                    </Trackpoint>
                    <Trackpoint>
                        <DistanceMeters>173.71662271022797</DistanceMeters>
                        <Time>2022-07-10T13:50:26.055Z</Time>
                    </Trackpoint>
                    <Trackpoint>
                        <DistanceMeters>183.50359761714935</DistanceMeters>
                        <Time>2022-07-10T13:50:57.575Z</Time>
                    </Trackpoint>
                    <Trackpoint>
                        <DistanceMeters>241.5729831457138</DistanceMeters>
                        <Time>2022-07-10T13:52:24.175Z</Time>
                    </Trackpoint>
                    <Trackpoint>
                        <DistanceMeters>269.26613080501556</DistanceMeters>
                        <Time>2022-07-10T13:52:48.935Z</Time>
                    </Trackpoint>
                    <Trackpoint>
                        <DistanceMeters>288.8652194738388</DistanceMeters>
                        <Time>2022-07-10T13:53:05.835Z</Time>
                    </Trackpoint>
                    <Trackpoint>
                        <DistanceMeters>299.3046592473984</DistanceMeters>
                        <Time>2022-07-10T13:53:36.895Z</Time>
                    </Trackpoint>
                </Track>
                <DistanceMeters>299.3046592473984</DistanceMeters>
                <TotalTimeSeconds>446.919999492</TotalTimeSeconds>
                <Calories>40.30036544799805</Calories>
                <Intensity>Active</Intensity>
                <TriggerMethod>Manual</TriggerMethod>
            </Lap>
        </Activity>
        <Activity Sport="Walking">
            <Id>2022-07-10T13:53:06.316Z</Id>
            <Lap StartTime="2022-07-10T13:53:06.316Z">
                <Track>
                    <Trackpoint>
                        <DistanceMeters>0.0</DistanceMeters>
                        <Time>2022-07-10T13:53:06.316Z</Time>
                    </Trackpoint>
                    <Trackpoint>
                        <DistanceMeters>0.0</DistanceMeters>
                        <Time>2022-07-10T13:57:07.055Z</Time>
                    </Trackpoint>
                    <Trackpoint>
                        <DistanceMeters>48.28240966796875</DistanceMeters>
                        <Time>2022-07-10T13:59:35.055Z</Time>
                    </Trackpoint>
                    <Trackpoint>
                        <DistanceMeters>69.81375503540039</DistanceMeters>
                        <Time>2022-07-10T13:59:59.735Z</Time>
                    </Trackpoint>
                </Track>
                <DistanceMeters>69.81375503540039</DistanceMeters>
                <TotalTimeSeconds>413.419924741</TotalTimeSeconds>
                <Calories>9.122743844985962</Calories>
                <Intensity>Active</Intensity>
                <TriggerMethod>Manual</TriggerMethod>
            </Lap>
        </Activity>
        <Activity Sport="Walking">
            <Id>2022-07-10T13:59:35.055Z</Id>
            <Lap StartTime="2022-07-10T13:59:35.055Z">
                <Track>
                    <Trackpoint>
                        <DistanceMeters>0.0</DistanceMeters>
                        <Time>2022-07-10T13:59:35.055Z</Time>
                    </Trackpoint>
                    <Trackpoint>
                        <DistanceMeters>21.53134536743164</DistanceMeters>
                        <Time>2022-07-10T13:59:43.486Z</Time>
                    </Trackpoint>
                    <Trackpoint>
                        <DistanceMeters>21.53134536743164</DistanceMeters>
                        <Time>2022-07-10T13:59:59.735Z</Time>
                    </Trackpoint>
                    <Trackpoint>
                        <DistanceMeters>90.0401725769043</DistanceMeters>
                        <Time>2022-07-10T14:01:36.015Z</Time>
                    </Trackpoint>
                    <Trackpoint>
                        <DistanceMeters>112.8764476776123</DistanceMeters>
                        <Time>2022-07-10T14:02:04.855Z</Time>
                    </Trackpoint>
                    <Trackpoint>
                        <DistanceMeters>121.35849285125732</DistanceMeters>
                        <Time>2022-07-10T14:02:16.855Z</Time>
                    </Trackpoint>
                    <Trackpoint>
                        <DistanceMeters>134.40779209136963</DistanceMeters>
                        <Time>2022-07-10T14:03:02.055Z</Time>
                    </Trackpoint>
                    <Trackpoint>
                        <DistanceMeters>146.80462646484375</DistanceMeters>
                        <Time>2022-07-10T14:03:17.055Z</Time>
                    </Trackpoint>
                    <Trackpoint>
                        <DistanceMeters>165.07364654541016</DistanceMeters>
                        <Time>2022-07-10T14:03:49.255Z</Time>
                    </Trackpoint>
                    <Trackpoint>
                        <DistanceMeters>185.3000602722168</DistanceMeters>
                        <Time>2022-07-10T14:04:12.875Z</Time>
                    </Trackpoint>
                    <Trackpoint>
                        <DistanceMeters>214.66098403930664</DistanceMeters>
                        <Time>2022-07-10T14:05:12.695Z</Time>
                    </Trackpoint>
                    <Trackpoint>
                        <DistanceMeters>258.37613677978516</DistanceMeters>
                        <Time>2022-07-10T14:06:13.975Z</Time>
                    </Trackpoint>
                    <Trackpoint>
                        <DistanceMeters>271.42543601989746</DistanceMeters>
                        <Time>2022-07-10T14:07:37.554Z</Time>
                    </Trackpoint>
                </Track>
                <DistanceMeters>271.42543601989746</DistanceMeters>
                <TotalTimeSeconds>482.498076337</TotalTimeSeconds>
                <Calories>48.53929138183594</Calories>
                <Intensity>Active</Intensity>
                <TriggerMethod>Manual</TriggerMethod>
            </Lap>
        </Activity>
        <Activity Sport="Walking">
            <Id>2022-07-10T14:15:31.815Z</Id>
            <Lap StartTime="2022-07-10T14:15:31.815Z">
                <Track>
                    <Trackpoint>
                        <DistanceMeters>0.0</DistanceMeters>
                        <Time>2022-07-10T14:15:31.815Z</Time>
                    </Trackpoint>
                    <Trackpoint>
                        <DistanceMeters>26.09859848022461</DistanceMeters>
                        <Time>2022-07-10T14:15:42.201Z</Time>
                    </Trackpoint>
                    <Trackpoint>
                        <DistanceMeters>26.09859848022461</DistanceMeters>
                        <Time>2022-07-10T14:16:49.975Z</Time>
                    </Trackpoint>
                    <Trackpoint>
                        <DistanceMeters>35.23310852050781</DistanceMeters>
                        <Time>2022-07-10T14:17:17.535Z</Time>
                    </Trackpoint>
                </Track>
                <DistanceMeters>35.23310852050781</DistanceMeters>
                <TotalTimeSeconds>105.719998906</TotalTimeSeconds>
                <Calories>7.275242328643799</Calories>
                <Intensity>Active</Intensity>
                <TriggerMethod>Manual</TriggerMethod>
            </Lap>
        </Activity>
    </Activities>
    <Author xsi:type="Application_t">
        <Name>Google Fit</Name>
        <Build>
            <Version>
                <VersionMajor>0</VersionMajor>
                <VersionMinor>0</VersionMinor>
                <BuildMajor>0</BuildMajor>
                <BuildMinor>0</BuildMinor>
            </Version>
        </Build>
        <LangID>en</LangID>
        <PartNumber>000-00000-00</PartNumber>
    </Author>
</TrainingCenterDatabase>
