<?xml version="1.0" encoding="UTF-8"?>
<TrainingCenterDatabase
    xmlns="http://www.garmin.com/xmlschemas/TrainingCenterDatabase/v2"
    xmlns:ns2="http://www.garmin.com/xmlschemas/UserProfile/v2"
    xmlns:ns3="http://www.garmin.com/xmlschemas/ActivityExtension/v2"
    xmlns:ns4="http://www.garmin.com/xmlschemas/ProfileExtension/v1"
    xmlns:ns5="http://www.garmin.com/xmlschemas/ActivityGoals/v1"
    xmlns:xsi="http://www.w3.org/2001/XMLSchema-instance" xsi:schemaLocation="http://www.garmin.com/xmlschemas/TrainingCenterDatabase/v2 http://www.garmin.com/xmlschemas/TrainingCenterDatabasev2.xsd">
    <Activities>
        <Activity Sport="Walking">
            <Id>2022-08-11T00:31:29.893Z</Id>
            <Lap StartTime="2022-08-11T00:31:29.893Z">
                <Track>
                    <Trackpoint>
                        <DistanceMeters>0.0</DistanceMeters>
                        <Time>2022-08-11T00:31:29.893Z</Time>
                    </Trackpoint>
                    <Trackpoint>
                        <DistanceMeters>28.708459854125977</DistanceMeters>
                        <Time>2022-08-11T00:32:56.989Z</Time>
                    </Trackpoint>
                    <Trackpoint>
                        <DistanceMeters>51.1702938079834</DistanceMeters>
                        <Time>2022-08-11T00:33:14.309Z</Time>
                    </Trackpoint>
                    <Trackpoint>
                        <DistanceMeters>71.9737434387207</DistanceMeters>
                        <Time>2022-08-11T00:36:29.669Z</Time>
                    </Trackpoint>
                    <Trackpoint>
                        <DistanceMeters>141.78749465942383</DistanceMeters>
                        <Time>2022-08-11T00:38:49.029Z</Time>
                    </Trackpoint>
                </Track>
                <DistanceMeters>141.78749465942383</DistanceMeters>
                <TotalTimeSeconds>439.136365333</TotalTimeSeconds>
                <Calories>30.908031463623047</Calories>
                <Intensity>Active</Intensity>
                <TriggerMethod>Manual</TriggerMethod>
            </Lap>
        </Activity>
        <Activity Sport="Walking">
            <Id>2022-08-11T00:36:29.669Z</Id>
            <Lap StartTime="2022-08-11T00:36:29.669Z">
                <Track>
                    <Trackpoint>
                        <DistanceMeters>0.0</DistanceMeters>
                        <Time>2022-08-11T00:36:29.669Z</Time>
                    </Trackpoint>
                    <Trackpoint>
                        <DistanceMeters>69.81375122070312</DistanceMeters>
                        <Time>2022-08-11T00:36:31.762Z</Time>
                    </Trackpoint>
                    <Trackpoint>
                        <DistanceMeters>69.81375122070312</DistanceMeters>
                        <Time>2022-08-11T00:38:49.029Z</Time>
                    </Trackpoint>
                    <Trackpoint>
                        <DistanceMeters>100.47960472106934</DistanceMeters>
                        <Time>2022-08-11T00:39:29.589Z</Time>
                    </Trackpoint>
                    <Trackpoint>
                        <DistanceMeters>156.5915927886963</DistanceMeters>
                        <Time>2022-08-11T00:40:37.669Z</Time>
                    </Trackpoint>
                </Track>
                <DistanceMeters>156.5915927886963</DistanceMeters>
                <TotalTimeSeconds>247.999998585</TotalTimeSeconds>
                <Calories>10.731225728988647</Calories>
                <Intensity>Active</Intensity>
                <TriggerMethod>Manual</TriggerMethod>
            </Lap>
        </Activity>
        <Activity Sport="Walking">
            <Id>2022-08-11T00:39:29.589Z</Id>
            <Lap StartTime="2022-08-11T00:39:29.589Z">
                <Track>
                    <Trackpoint>
                        <DistanceMeters>0.0</DistanceMeters>
                        <Time>2022-08-11T00:39:29.589Z</Time>
                    </Trackpoint>
                    <Trackpoint>
                        <DistanceMeters>56.11198806762695</DistanceMeters>
                        <Time>2022-08-11T00:40:05.353Z</Time>
                    </Trackpoint>
                    <Trackpoint>
                        <DistanceMeters>56.11198806762695</DistanceMeters>
                        <Time>2022-08-11T00:40:37.669Z</Time>
                    </Trackpoint>
                    <Trackpoint>
                        <DistanceMeters>101.13207244873047</DistanceMeters>
                        <Time>2022-08-11T00:42:10.549Z</Time>
                    </Trackpoint>
                    <Trackpoint>
                        <DistanceMeters>146.15215682983398</DistanceMeters>
                        <Time>2022-08-11T00:43:31.109Z</Time>
                    </Trackpoint>
                    <Trackpoint>
                        <DistanceMeters>165.07364082336426</DistanceMeters>
                        <Time>2022-08-11T00:44:11.189Z</Time>
                    </Trackpoint>
                </Track>
                <DistanceMeters>165.07364082336426</DistanceMeters>
                <TotalTimeSeconds>281.600000467</TotalTimeSeconds>
                <Calories>24.806060791015625</Calories>
                <Intensity>Active</Intensity>
                <TriggerMethod>Manual</TriggerMethod>
            </Lap>
        </Activity>
        <Activity Sport="Walking">
            <Id>2022-08-11T00:47:31.869Z</Id>
            <Lap StartTime="2022-08-11T00:47:31.869Z">
                <Track>
                    <Trackpoint>
                        <DistanceMeters>0.0</DistanceMeters>
                        <Time>2022-08-11T00:47:31.869Z</Time>
                    </Trackpoint>
                    <Trackpoint>
                        <DistanceMeters>31.31831932067871</DistanceMeters>
                        <Time>2022-08-11T00:48:23.396Z</Time>
                    </Trackpoint>
                    <Trackpoint>
                        <DistanceMeters>31.31831932067871</DistanceMeters>
                        <Time>2022-08-11T00:48:37.509Z</Time>
                    </Trackpoint>
                    <Trackpoint>
                        <DistanceMeters>57.41691780090332</DistanceMeters>
                        <Time>2022-08-11T00:49:57.509Z</Time>
                    </Trackpoint>
                    <Trackpoint>
                        <DistanceMeters>103.08946800231934</DistanceMeters>
                        <Time>2022-08-11T00:50:49.469Z</Time>
                    </Trackpoint>
                    <Trackpoint>
                        <DistanceMeters>148.76201820373535</DistanceMeters>
                        <Time>2022-08-11T00:52:21.029Z</Time>
                    </Trackpoint>
                    <Trackpoint>
                        <DistanceMeters>187.9099178314209</DistanceMeters>
                        <Time>2022-08-11T00:53:12.729Z</Time>
                    </Trackpoint>
                </Track>
                <DistanceMeters>187.9099178314209</DistanceMeters>
                <TotalTimeSeconds>340.859999541</TotalTimeSeconds>
                <Calories>24.773296356201172</Calories>
                <Intensity>Active</Intensity>
                <TriggerMethod>Manual</TriggerMethod>
            </Lap>
        </Activity>
        <Activity Sport="Walking">
            <Id>2022-08-11T00:52:21.029Z</Id>
            <Lap StartTime="2022-08-11T00:52:21.029Z">
                <Track>
                    <Trackpoint>
                        <DistanceMeters>0.0</DistanceMeters>
                        <Time>2022-08-11T00:52:21.029Z</Time>
                    </Trackpoint>
                    <Trackpoint>
                        <DistanceMeters>39.14789962768555</DistanceMeters>
                        <Time>2022-08-11T00:52:25.349Z</Time>
                    </Trackpoint>
                    <Trackpoint>
                        <DistanceMeters>39.14789962768555</DistanceMeters>
                        <Time>2022-08-11T00:53:12.729Z</Time>
                    </Trackpoint>
                    <Trackpoint>
                        <DistanceMeters>69.16128921508789</DistanceMeters>
                        <Time>2022-08-11T00:53:51.749Z</Time>
                    </Trackpoint>
                    <Trackpoint>
                        <DistanceMeters>72.42361402511597</DistanceMeters>
                        <Time>2022-08-11T00:53:55.589Z</Time>
                    </Trackpoint>
                    <Trackpoint>
                        <DistanceMeters>106.35179471969604</DistanceMeters>
                        <Time>2022-08-11T00:54:39.229Z</Time>
                    </Trackpoint>
                </Track>
                <DistanceMeters>106.35179471969604</DistanceMeters>
                <TotalTimeSeconds>138.199997453</TotalTimeSeconds>
                <Calories>13.707860946655273</Calories>
                <Intensity>Active</Intensity>
                <TriggerMethod>Manual</TriggerMethod>
            </Lap>
        </Activity>
    </Activities>
    <Author xsi:type="Application_t">
        <Name>Google Fit</Name>
        <Build>
            <Version>
                <VersionMajor>0</VersionMajor>
                <VersionMinor>0</VersionMinor>
                <BuildMajor>0</BuildMajor>
                <BuildMinor>0</BuildMinor>
            </Version>
        </Build>
        <LangID>en</LangID>
        <PartNumber>000-00000-00</PartNumber>
    </Author>
</TrainingCenterDatabase>
