<?xml version="1.0" encoding="UTF-8"?>
<TrainingCenterDatabase
    xmlns="http://www.garmin.com/xmlschemas/TrainingCenterDatabase/v2"
    xmlns:ns2="http://www.garmin.com/xmlschemas/UserProfile/v2"
    xmlns:ns3="http://www.garmin.com/xmlschemas/ActivityExtension/v2"
    xmlns:ns4="http://www.garmin.com/xmlschemas/ProfileExtension/v1"
    xmlns:ns5="http://www.garmin.com/xmlschemas/ActivityGoals/v1"
    xmlns:xsi="http://www.w3.org/2001/XMLSchema-instance" xsi:schemaLocation="http://www.garmin.com/xmlschemas/TrainingCenterDatabase/v2 http://www.garmin.com/xmlschemas/TrainingCenterDatabasev2.xsd">
    <Activities>
        <Activity Sport="Walking">
            <Id>2022-04-28T09:11:32.596Z</Id>
            <Lap StartTime="2022-04-28T09:11:32.596Z">
                <Track>
                    <Trackpoint>
                        <DistanceMeters>0.0</DistanceMeters>
                        <Time>2022-04-28T09:11:32.596Z</Time>
                    </Trackpoint>
                    <Trackpoint>
                        <DistanceMeters>46.97747802734375</DistanceMeters>
                        <Time>2022-04-28T09:12:20.723Z</Time>
                    </Trackpoint>
                    <Trackpoint>
                        <DistanceMeters>46.97747802734375</DistanceMeters>
                        <Time>2022-04-28T09:12:48.076Z</Time>
                    </Trackpoint>
                    <Trackpoint>
                        <DistanceMeters>86.7778434753418</DistanceMeters>
                        <Time>2022-04-28T09:13:35.676Z</Time>
                    </Trackpoint>
                    <Trackpoint>
                        <DistanceMeters>143.54229736328125</DistanceMeters>
                        <Time>2022-04-28T09:14:53.876Z</Time>
                    </Trackpoint>
                    <Trackpoint>
                        <DistanceMeters>174.20815086364746</DistanceMeters>
                        <Time>2022-04-28T09:15:53.916Z</Time>
                    </Trackpoint>
                    <Trackpoint>
                        <DistanceMeters>190.56988143920898</DistanceMeters>
                        <Time>2022-04-28T09:16:30.310Z</Time>
                    </Trackpoint>
                </Track>
                <DistanceMeters>190.56988143920898</DistanceMeters>
                <TotalTimeSeconds>297.713296442</TotalTimeSeconds>
                <Calories>25.554935455322266</Calories>
                <Intensity>Active</Intensity>
                <TriggerMethod>Manual</TriggerMethod>
            </Lap>
        </Activity>
        <Activity Sport="Walking">
            <Id>2022-04-28T09:16:30.310Z</Id>
            <Lap StartTime="2022-04-28T09:16:30.310Z">
                <Track>
                    <Trackpoint>
                        <DistanceMeters>0.0</DistanceMeters>
                        <Time>2022-04-28T09:16:30.310Z</Time>
                    </Trackpoint>
                    <Trackpoint>
                        <DistanceMeters>0.0</DistanceMeters>
                        <Time>2022-04-28T09:22:27.636Z</Time>
                    </Trackpoint>
                    <Trackpoint>
                        <DistanceMeters>15.006694793701172</DistanceMeters>
                        <Time>2022-04-28T09:23:27.636Z</Time>
                    </Trackpoint>
                    <Trackpoint>
                        <DistanceMeters>67.85635757446289</DistanceMeters>
                        <Time>2022-04-28T09:24:38.836Z</Time>
                    </Trackpoint>
                </Track>
                <DistanceMeters>67.85635757446289</DistanceMeters>
                <TotalTimeSeconds>488.526704399</TotalTimeSeconds>
                <Calories>10.481380224227905</Calories>
                <Intensity>Active</Intensity>
                <TriggerMethod>Manual</TriggerMethod>
            </Lap>
        </Activity>
        <Activity Sport="Walking">
            <Id>2022-04-28T09:23:27.636Z</Id>
            <Lap StartTime="2022-04-28T09:23:27.636Z">
                <Track>
                    <Trackpoint>
                        <DistanceMeters>0.0</DistanceMeters>
                        <Time>2022-04-28T09:23:27.636Z</Time>
                    </Trackpoint>
                    <Trackpoint>
                        <DistanceMeters>52.84966278076172</DistanceMeters>
                        <Time>2022-04-28T09:23:43.404Z</Time>
                    </Trackpoint>
                    <Trackpoint>
                        <DistanceMeters>52.84966278076172</DistanceMeters>
                        <Time>2022-04-28T09:24:38.836Z</Time>
                    </Trackpoint>
                    <Trackpoint>
                        <DistanceMeters>79.60072708129883</DistanceMeters>
                        <Time>2022-04-28T09:25:25.716Z</Time>
                    </Trackpoint>
                    <Trackpoint>
                        <DistanceMeters>112.2239761352539</DistanceMeters>
                        <Time>2022-04-28T09:26:42.756Z</Time>
                    </Trackpoint>
                </Track>
                <DistanceMeters>112.2239761352539</DistanceMeters>
                <TotalTimeSeconds>195.120002047</TotalTimeSeconds>
                <Calories>12.723150253295898</Calories>
                <Intensity>Active</Intensity>
                <TriggerMethod>Manual</TriggerMethod>
            </Lap>
        </Activity>
        <Activity Sport="Walking">
            <Id>2022-04-28T09:29:50.676Z</Id>
            <Lap StartTime="2022-04-28T09:29:50.676Z">
                <Track>
                    <Trackpoint>
                        <DistanceMeters>0.0</DistanceMeters>
                        <Time>2022-04-28T09:29:50.676Z</Time>
                    </Trackpoint>
                    <Trackpoint>
                        <DistanceMeters>36.53804016113281</DistanceMeters>
                        <Time>2022-04-28T09:30:01.036Z</Time>
                    </Trackpoint>
                    <Trackpoint>
                        <DistanceMeters>36.53804016113281</DistanceMeters>
                        <Time>2022-04-28T09:30:51.596Z</Time>
                    </Trackpoint>
                    <Trackpoint>
                        <DistanceMeters>47.629944801330566</DistanceMeters>
                        <Time>2022-04-28T09:32:03.525Z</Time>
                    </Trackpoint>
                </Track>
                <DistanceMeters>47.629944801330566</DistanceMeters>
                <TotalTimeSeconds>132.848294459</TotalTimeSeconds>
                <Calories>12.541511535644531</Calories>
                <Intensity>Active</Intensity>
                <TriggerMethod>Manual</TriggerMethod>
            </Lap>
        </Activity>
        <Activity Sport="Walking">
            <Id>2022-04-28T09:32:03.525Z</Id>
            <Lap StartTime="2022-04-28T09:32:03.525Z">
                <Track>
                    <Trackpoint>
                        <DistanceMeters>0.0</DistanceMeters>
                        <Time>2022-04-28T09:32:03.525Z</Time>
                    </Trackpoint>
                    <Trackpoint>
                        <DistanceMeters>0.0</DistanceMeters>
                        <Time>2022-04-28T09:34:32.876Z</Time>
                    </Trackpoint>
                    <Trackpoint>
                        <DistanceMeters>43.715152740478516</DistanceMeters>
                        <Time>2022-04-28T09:36:00.396Z</Time>
                    </Trackpoint>
                    <Trackpoint>
                        <DistanceMeters>92.65002822875977</DistanceMeters>
                        <Time>2022-04-28T09:36:57.836Z</Time>
                    </Trackpoint>
                    <Trackpoint>
                        <DistanceMeters>125.92574310302734</DistanceMeters>
                        <Time>2022-04-28T09:37:39.576Z</Time>
                    </Trackpoint>
                </Track>
                <DistanceMeters>125.92574310302734</DistanceMeters>
                <TotalTimeSeconds>336.051705872</TotalTimeSeconds>
                <Calories>11.813265323638916</Calories>
                <Intensity>Active</Intensity>
                <TriggerMethod>Manual</TriggerMethod>
            </Lap>
        </Activity>
        <Activity Sport="Walking">
            <Id>2022-04-28T09:36:57.836Z</Id>
            <Lap StartTime="2022-04-28T09:36:57.836Z">
                <Track>
                    <Trackpoint>
                        <DistanceMeters>0.0</DistanceMeters>
                        <Time>2022-04-28T09:36:57.836Z</Time>
                    </Trackpoint>
                    <Trackpoint>
                        <DistanceMeters>33.27571487426758</DistanceMeters>
                        <Time>2022-04-28T09:37:06.619Z</Time>
                    </Trackpoint>
                    <Trackpoint>
                        <DistanceMeters>33.27571487426758</DistanceMeters>
                        <Time>2022-04-28T09:38:40.556Z</Time>
                    </Trackpoint>
                    <Trackpoint>
                        <DistanceMeters>49.58733940124512</DistanceMeters>
                        <Time>2022-04-28T09:40:07.558Z</Time>
                    </Trackpoint>
                </Track>
                <DistanceMeters>49.58733940124512</DistanceMeters>
                <TotalTimeSeconds>189.721293742</TotalTimeSeconds>
                <Calories>18.526142120361328</Calories>
                <Intensity>Active</Intensity>
                <TriggerMethod>Manual</TriggerMethod>
            </Lap>
        </Activity>
    </Activities>
    <Author xsi:type="Application_t">
        <Name>Google Fit</Name>
        <Build>
            <Version>
                <VersionMajor>0</VersionMajor>
                <VersionMinor>0</VersionMinor>
                <BuildMajor>0</BuildMajor>
                <BuildMinor>0</BuildMinor>
            </Version>
        </Build>
        <LangID>en</LangID>
        <PartNumber>000-00000-00</PartNumber>
    </Author>
</TrainingCenterDatabase>
