<?xml version="1.0" encoding="UTF-8"?>
<TrainingCenterDatabase
    xmlns="http://www.garmin.com/xmlschemas/TrainingCenterDatabase/v2"
    xmlns:ns2="http://www.garmin.com/xmlschemas/UserProfile/v2"
    xmlns:ns3="http://www.garmin.com/xmlschemas/ActivityExtension/v2"
    xmlns:ns4="http://www.garmin.com/xmlschemas/ProfileExtension/v1"
    xmlns:ns5="http://www.garmin.com/xmlschemas/ActivityGoals/v1"
    xmlns:xsi="http://www.w3.org/2001/XMLSchema-instance" xsi:schemaLocation="http://www.garmin.com/xmlschemas/TrainingCenterDatabase/v2 http://www.garmin.com/xmlschemas/TrainingCenterDatabasev2.xsd">
    <Activities>
        <Activity Sport="Walking">
            <Id>2022-03-16T05:51:18.425Z</Id>
            <Lap StartTime="2022-03-16T05:51:18.425Z">
                <Track>
                    <Trackpoint>
                        <DistanceMeters>0.0</DistanceMeters>
                        <Time>2022-03-16T05:51:18.425Z</Time>
                    </Trackpoint>
                    <Trackpoint>
                        <DistanceMeters>36.53804016113281</DistanceMeters>
                        <Time>2022-03-16T05:52:04.138Z</Time>
                    </Trackpoint>
                    <Trackpoint>
                        <DistanceMeters>36.53804016113281</DistanceMeters>
                        <Time>2022-03-16T05:52:19.425Z</Time>
                    </Trackpoint>
                    <Trackpoint>
                        <DistanceMeters>80.90565872192383</DistanceMeters>
                        <Time>2022-03-16T05:53:19.705Z</Time>
                    </Trackpoint>
                    <Trackpoint>
                        <DistanceMeters>128.53560256958008</DistanceMeters>
                        <Time>2022-03-16T05:54:20.665Z</Time>
                    </Trackpoint>
                    <Trackpoint>
                        <DistanceMeters>140.9324369430542</DistanceMeters>
                        <Time>2022-03-16T05:55:37.571Z</Time>
                    </Trackpoint>
                </Track>
                <DistanceMeters>140.9324369430542</DistanceMeters>
                <TotalTimeSeconds>259.145883931</TotalTimeSeconds>
                <Calories>20.726716995239258</Calories>
                <Intensity>Active</Intensity>
                <TriggerMethod>Manual</TriggerMethod>
            </Lap>
        </Activity>
        <Activity Sport="Walking">
            <Id>2022-03-16T06:02:55.545Z</Id>
            <Lap StartTime="2022-03-16T06:02:55.545Z">
                <Track>
                    <Trackpoint>
                        <DistanceMeters>0.0</DistanceMeters>
                        <Time>2022-03-16T06:02:55.545Z</Time>
                    </Trackpoint>
                    <Trackpoint>
                        <DistanceMeters>20.22641372680664</DistanceMeters>
                        <Time>2022-03-16T06:03:32.932Z</Time>
                    </Trackpoint>
                    <Trackpoint>
                        <DistanceMeters>20.22641372680664</DistanceMeters>
                        <Time>2022-03-16T06:03:57.545Z</Time>
                    </Trackpoint>
                    <Trackpoint>
                        <DistanceMeters>33.928178787231445</DistanceMeters>
                        <Time>2022-03-16T06:04:34.568Z</Time>
                    </Trackpoint>
                </Track>
                <DistanceMeters>33.928178787231445</DistanceMeters>
                <TotalTimeSeconds>99.022883694</TotalTimeSeconds>
                <Calories>5.985540390014648</Calories>
                <Intensity>Active</Intensity>
                <TriggerMethod>Manual</TriggerMethod>
            </Lap>
        </Activity>
        <Activity Sport="Walking">
            <Id>2022-03-16T06:04:34.568Z</Id>
            <Lap StartTime="2022-03-16T06:04:34.568Z">
                <Track>
                    <Trackpoint>
                        <DistanceMeters>0.0</DistanceMeters>
                        <Time>2022-03-16T06:04:34.568Z</Time>
                    </Trackpoint>
                    <Trackpoint>
                        <DistanceMeters>0.0</DistanceMeters>
                        <Time>2022-03-16T06:09:15.625Z</Time>
                    </Trackpoint>
                    <Trackpoint>
                        <DistanceMeters>15.006694793701172</DistanceMeters>
                        <Time>2022-03-16T06:10:15.625Z</Time>
                    </Trackpoint>
                    <Trackpoint>
                        <DistanceMeters>29.36092472076416</DistanceMeters>
                        <Time>2022-03-16T06:10:32.225Z</Time>
                    </Trackpoint>
                    <Trackpoint>
                        <DistanceMeters>71.11868381500244</DistanceMeters>
                        <Time>2022-03-16T06:11:25.385Z</Time>
                    </Trackpoint>
                </Track>
                <DistanceMeters>71.11868381500244</DistanceMeters>
                <TotalTimeSeconds>410.817115963</TotalTimeSeconds>
                <Calories>10.468084812164307</Calories>
                <Intensity>Active</Intensity>
                <TriggerMethod>Manual</TriggerMethod>
            </Lap>
        </Activity>
        <Activity Sport="Walking">
            <Id>2022-03-16T06:10:32.225Z</Id>
            <Lap StartTime="2022-03-16T06:10:32.225Z">
                <Track>
                    <Trackpoint>
                        <DistanceMeters>0.0</DistanceMeters>
                        <Time>2022-03-16T06:10:32.225Z</Time>
                    </Trackpoint>
                    <Trackpoint>
                        <DistanceMeters>41.75775909423828</DistanceMeters>
                        <Time>2022-03-16T06:10:50.832Z</Time>
                    </Trackpoint>
                    <Trackpoint>
                        <DistanceMeters>41.75775909423828</DistanceMeters>
                        <Time>2022-03-16T06:11:25.385Z</Time>
                    </Trackpoint>
                    <Trackpoint>
                        <DistanceMeters>50.328948974609375</DistanceMeters>
                        <Time>2022-03-16T06:11:32.305Z</Time>
                    </Trackpoint>
                    <Trackpoint>
                        <DistanceMeters>70.55536270141602</DistanceMeters>
                        <Time>2022-03-16T06:12:21.025Z</Time>
                    </Trackpoint>
                    <Trackpoint>
                        <DistanceMeters>77.73247766494751</DistanceMeters>
                        <Time>2022-03-16T06:12:33.705Z</Time>
                    </Trackpoint>
                    <Trackpoint>
                        <DistanceMeters>99.91628694534302</DistanceMeters>
                        <Time>2022-03-16T06:13:32.305Z</Time>
                    </Trackpoint>
                    <Trackpoint>
                        <DistanceMeters>129.27721071243286</DistanceMeters>
                        <Time>2022-03-16T06:14:33.785Z</Time>
                    </Trackpoint>
                    <Trackpoint>
                        <DistanceMeters>169.0775761604309</DistanceMeters>
                        <Time>2022-03-16T06:15:34.305Z</Time>
                    </Trackpoint>
                    <Trackpoint>
                        <DistanceMeters>216.05505418777466</DistanceMeters>
                        <Time>2022-03-16T06:16:34.865Z</Time>
                    </Trackpoint>
                </Track>
                <DistanceMeters>216.05505418777466</DistanceMeters>
                <TotalTimeSeconds>362.6399976</TotalTimeSeconds>
                <Calories>32.78519821166992</Calories>
                <Intensity>Active</Intensity>
                <TriggerMethod>Manual</TriggerMethod>
            </Lap>
        </Activity>
        <Activity Sport="Walking">
            <Id>2022-03-16T06:15:34.305Z</Id>
            <Lap StartTime="2022-03-16T06:15:34.305Z">
                <Track>
                    <Trackpoint>
                        <DistanceMeters>0.0</DistanceMeters>
                        <Time>2022-03-16T06:15:34.305Z</Time>
                    </Trackpoint>
                    <Trackpoint>
                        <DistanceMeters>46.97747802734375</DistanceMeters>
                        <Time>2022-03-16T06:16:28.437Z</Time>
                    </Trackpoint>
                    <Trackpoint>
                        <DistanceMeters>46.97747802734375</DistanceMeters>
                        <Time>2022-03-16T06:16:34.865Z</Time>
                    </Trackpoint>
                    <Trackpoint>
                        <DistanceMeters>48.93487298488617</DistanceMeters>
                        <Time>2022-03-16T06:16:38.385Z</Time>
                    </Trackpoint>
                </Track>
                <DistanceMeters>48.93487298488617</DistanceMeters>
                <TotalTimeSeconds>64.079999875</TotalTimeSeconds>
                <Calories>0.9660726189613342</Calories>
                <Intensity>Active</Intensity>
                <TriggerMethod>Manual</TriggerMethod>
            </Lap>
        </Activity>
    </Activities>
    <Author xsi:type="Application_t">
        <Name>Google Fit</Name>
        <Build>
            <Version>
                <VersionMajor>0</VersionMajor>
                <VersionMinor>0</VersionMinor>
                <BuildMajor>0</BuildMajor>
                <BuildMinor>0</BuildMinor>
            </Version>
        </Build>
        <LangID>en</LangID>
        <PartNumber>000-00000-00</PartNumber>
    </Author>
</TrainingCenterDatabase>
