<?xml version="1.0" encoding="UTF-8"?>
<TrainingCenterDatabase
    xmlns="http://www.garmin.com/xmlschemas/TrainingCenterDatabase/v2"
    xmlns:ns2="http://www.garmin.com/xmlschemas/UserProfile/v2"
    xmlns:ns3="http://www.garmin.com/xmlschemas/ActivityExtension/v2"
    xmlns:ns4="http://www.garmin.com/xmlschemas/ProfileExtension/v1"
    xmlns:ns5="http://www.garmin.com/xmlschemas/ActivityGoals/v1"
    xmlns:xsi="http://www.w3.org/2001/XMLSchema-instance" xsi:schemaLocation="http://www.garmin.com/xmlschemas/TrainingCenterDatabase/v2 http://www.garmin.com/xmlschemas/TrainingCenterDatabasev2.xsd">
    <Activities>
        <Activity Sport="Walking">
            <Id>2022-11-17T14:37:26.801Z</Id>
            <Lap StartTime="2022-11-17T14:37:26.801Z">
                <Track>
                    <Trackpoint>
                        <DistanceMeters>0.0</DistanceMeters>
                        <Time>2022-11-17T14:37:26.801Z</Time>
                    </Trackpoint>
                    <Trackpoint>
                        <DistanceMeters>0.0</DistanceMeters>
                        <Time>2022-11-17T15:27:16.694Z</Time>
                    </Trackpoint>
                    <Trackpoint>
                        <DistanceMeters>110.74366273431106</DistanceMeters>
                        <Time>2022-11-17T15:28:24.674Z</Time>
                    </Trackpoint>
                    <Trackpoint>
                        <DistanceMeters>122.15137129758918</DistanceMeters>
                        <Time>2022-11-17T15:28:32.234Z</Time>
                    </Trackpoint>
                    <Trackpoint>
                        <DistanceMeters>195.50412838629768</DistanceMeters>
                        <Time>2022-11-17T15:29:26.634Z</Time>
                    </Trackpoint>
                </Track>
                <DistanceMeters>195.50412838629768</DistanceMeters>
                <TotalTimeSeconds>3119.833259839</TotalTimeSeconds>
                <Calories>74.86843849259378</Calories>
                <Intensity>Active</Intensity>
                <TriggerMethod>Manual</TriggerMethod>
            </Lap>
        </Activity>
        <Activity Sport="Walking">
            <Id>2022-11-17T15:28:32.234Z</Id>
            <Lap StartTime="2022-11-17T15:28:32.234Z">
                <Track>
                    <Trackpoint>
                        <DistanceMeters>0.0</DistanceMeters>
                        <Time>2022-11-17T15:28:32.234Z</Time>
                    </Trackpoint>
                    <Trackpoint>
                        <DistanceMeters>73.35275708870851</DistanceMeters>
                        <Time>2022-11-17T15:29:07.006Z</Time>
                    </Trackpoint>
                    <Trackpoint>
                        <DistanceMeters>73.35275708870851</DistanceMeters>
                        <Time>2022-11-17T15:29:26.634Z</Time>
                    </Trackpoint>
                    <Trackpoint>
                        <DistanceMeters>107.86454385709257</DistanceMeters>
                        <Time>2022-11-17T15:30:02.234Z</Time>
                    </Trackpoint>
                    <Trackpoint>
                        <DistanceMeters>137.43366715769906</DistanceMeters>
                        <Time>2022-11-17T15:30:29.274Z</Time>
                    </Trackpoint>
                    <Trackpoint>
                        <DistanceMeters>188.3403494895166</DistanceMeters>
                        <Time>2022-11-17T15:31:13.714Z</Time>
                    </Trackpoint>
                    <Trackpoint>
                        <DistanceMeters>275.0379190733988</DistanceMeters>
                        <Time>2022-11-17T15:32:32.834Z</Time>
                    </Trackpoint>
                    <Trackpoint>
                        <DistanceMeters>288.43427486349333</DistanceMeters>
                        <Time>2022-11-17T15:32:44.114Z</Time>
                    </Trackpoint>
                    <Trackpoint>
                        <DistanceMeters>343.4123707262951</DistanceMeters>
                        <Time>2022-11-17T15:33:28.554Z</Time>
                    </Trackpoint>
                    <Trackpoint>
                        <DistanceMeters>439.46876250092276</DistanceMeters>
                        <Time>2022-11-17T15:34:47.074Z</Time>
                    </Trackpoint>
                    <Trackpoint>
                        <DistanceMeters>458.6523257295384</DistanceMeters>
                        <Time>2022-11-17T15:35:04.834Z</Time>
                    </Trackpoint>
                    <Trackpoint>
                        <DistanceMeters>479.644826600756</DistanceMeters>
                        <Time>2022-11-17T15:35:22.954Z</Time>
                    </Trackpoint>
                    <Trackpoint>
                        <DistanceMeters>508.11733453246467</DistanceMeters>
                        <Time>2022-11-17T15:37:13.894Z</Time>
                    </Trackpoint>
                    <Trackpoint>
                        <DistanceMeters>545.5099063094725</DistanceMeters>
                        <Time>2022-11-17T15:37:45.314Z</Time>
                    </Trackpoint>
                    <Trackpoint>
                        <DistanceMeters>578.6604241533953</DistanceMeters>
                        <Time>2022-11-17T15:38:13.194Z</Time>
                    </Trackpoint>
                </Track>
                <DistanceMeters>578.6604241533953</DistanceMeters>
                <TotalTimeSeconds>580.960001987</TotalTimeSeconds>
                <Calories>54.74150272222222</Calories>
                <Intensity>Active</Intensity>
                <TriggerMethod>Manual</TriggerMethod>
            </Lap>
        </Activity>
        <Activity Sport="Walking">
            <Id>2022-11-17T15:37:45.314Z</Id>
            <Lap StartTime="2022-11-17T15:37:45.314Z">
                <Track>
                    <Trackpoint>
                        <DistanceMeters>0.0</DistanceMeters>
                        <Time>2022-11-17T15:37:45.314Z</Time>
                    </Trackpoint>
                    <Trackpoint>
                        <DistanceMeters>33.15051784392278</DistanceMeters>
                        <Time>2022-11-17T15:38:01.649Z</Time>
                    </Trackpoint>
                    <Trackpoint>
                        <DistanceMeters>33.15051784392278</DistanceMeters>
                        <Time>2022-11-17T15:38:13.194Z</Time>
                    </Trackpoint>
                    <Trackpoint>
                        <DistanceMeters>51.22511590682775</DistanceMeters>
                        <Time>2022-11-17T15:38:31.294Z</Time>
                    </Trackpoint>
                </Track>
                <DistanceMeters>51.22511590682775</DistanceMeters>
                <TotalTimeSeconds>45.980002019</TotalTimeSeconds>
                <Calories>3.0353454432457223</Calories>
                <Intensity>Active</Intensity>
                <TriggerMethod>Manual</TriggerMethod>
            </Lap>
        </Activity>
    </Activities>
    <Author xsi:type="Application_t">
        <Name>Google Fit</Name>
        <Build>
            <Version>
                <VersionMajor>0</VersionMajor>
                <VersionMinor>0</VersionMinor>
                <BuildMajor>0</BuildMajor>
                <BuildMinor>0</BuildMinor>
            </Version>
        </Build>
        <LangID>en</LangID>
        <PartNumber>000-00000-00</PartNumber>
    </Author>
</TrainingCenterDatabase>
