<?xml version="1.0" encoding="UTF-8"?>
<TrainingCenterDatabase
    xmlns="http://www.garmin.com/xmlschemas/TrainingCenterDatabase/v2"
    xmlns:ns2="http://www.garmin.com/xmlschemas/UserProfile/v2"
    xmlns:ns3="http://www.garmin.com/xmlschemas/ActivityExtension/v2"
    xmlns:ns4="http://www.garmin.com/xmlschemas/ProfileExtension/v1"
    xmlns:ns5="http://www.garmin.com/xmlschemas/ActivityGoals/v1"
    xmlns:xsi="http://www.w3.org/2001/XMLSchema-instance" xsi:schemaLocation="http://www.garmin.com/xmlschemas/TrainingCenterDatabase/v2 http://www.garmin.com/xmlschemas/TrainingCenterDatabasev2.xsd">
    <Activities>
        <Activity Sport="Walking">
            <Id>2022-05-13T12:41:46.591Z</Id>
            <Lap StartTime="2022-05-13T12:41:46.591Z">
                <Track>
                    <Trackpoint>
                        <DistanceMeters>0.0</DistanceMeters>
                        <Time>2022-05-13T12:41:46.591Z</Time>
                    </Trackpoint>
                    <Trackpoint>
                        <DistanceMeters>0.0</DistanceMeters>
                        <Time>2022-05-13T12:41:58.505Z</Time>
                    </Trackpoint>
                    <Trackpoint>
                        <DistanceMeters>8.48204517364502</DistanceMeters>
                        <Time>2022-05-13T12:42:17.345Z</Time>
                    </Trackpoint>
                    <Trackpoint>
                        <DistanceMeters>45.67255115509033</DistanceMeters>
                        <Time>2022-05-13T12:44:11.345Z</Time>
                    </Trackpoint>
                </Track>
                <DistanceMeters>45.67255115509033</DistanceMeters>
                <TotalTimeSeconds>144.754983491</TotalTimeSeconds>
                <Calories>6.315551280975342</Calories>
                <Intensity>Active</Intensity>
                <TriggerMethod>Manual</TriggerMethod>
            </Lap>
        </Activity>
        <Activity Sport="Walking">
            <Id>2022-05-13T12:48:15.302Z</Id>
            <Lap StartTime="2022-05-13T12:48:15.302Z">
                <Track>
                    <Trackpoint>
                        <DistanceMeters>0.0</DistanceMeters>
                        <Time>2022-05-13T12:48:15.302Z</Time>
                    </Trackpoint>
                    <Trackpoint>
                        <DistanceMeters>0.0</DistanceMeters>
                        <Time>2022-05-13T12:49:15.675Z</Time>
                    </Trackpoint>
                </Track>
                <DistanceMeters>0.0</DistanceMeters>
                <TotalTimeSeconds>60.373</TotalTimeSeconds>
                <Calories>6.18152379989624</Calories>
                <Intensity>Active</Intensity>
                <TriggerMethod>Manual</TriggerMethod>
            </Lap>
        </Activity>
        <Activity Sport="Walking">
            <Id>2022-05-13T12:49:15.675Z</Id>
            <Lap StartTime="2022-05-13T12:49:15.675Z">
                <Track>
                    <Trackpoint>
                        <DistanceMeters>0.0</DistanceMeters>
                        <Time>2022-05-13T12:49:15.675Z</Time>
                    </Trackpoint>
                    <Trackpoint>
                        <DistanceMeters>0.0</DistanceMeters>
                        <Time>2022-05-13T13:03:59.646Z</Time>
                    </Trackpoint>
                    <Trackpoint>
                        <DistanceMeters>17.616554260253906</DistanceMeters>
                        <Time>2022-05-13T13:04:26.826Z</Time>
                    </Trackpoint>
                </Track>
                <DistanceMeters>17.616554260253906</DistanceMeters>
                <TotalTimeSeconds>911.151843217</TotalTimeSeconds>
                <Calories>21.49168348312378</Calories>
                <Intensity>Active</Intensity>
                <TriggerMethod>Manual</TriggerMethod>
            </Lap>
        </Activity>
        <Activity Sport="Walking">
            <Id>2022-05-13T13:03:59.646Z</Id>
            <Lap StartTime="2022-05-13T13:03:59.646Z">
                <Track>
                    <Trackpoint>
                        <DistanceMeters>0.0</DistanceMeters>
                        <Time>2022-05-13T13:03:59.646Z</Time>
                    </Trackpoint>
                    <Trackpoint>
                        <DistanceMeters>17.616554260253906</DistanceMeters>
                        <Time>2022-05-13T13:04:26.113Z</Time>
                    </Trackpoint>
                    <Trackpoint>
                        <DistanceMeters>17.616554260253906</DistanceMeters>
                        <Time>2022-05-13T13:04:56.264Z</Time>
                    </Trackpoint>
                </Track>
                <DistanceMeters>17.616554260253906</DistanceMeters>
                <TotalTimeSeconds>56.617157384</TotalTimeSeconds>
                <Calories>3.087127208709717</Calories>
                <Intensity>Active</Intensity>
                <TriggerMethod>Manual</TriggerMethod>
            </Lap>
        </Activity>
        <Activity Sport="Walking">
            <Id>2022-05-13T13:04:56.264Z</Id>
            <Lap StartTime="2022-05-13T13:04:56.264Z">
                <Track>
                    <Trackpoint>
                        <DistanceMeters>0.0</DistanceMeters>
                        <Time>2022-05-13T13:04:56.264Z</Time>
                    </Trackpoint>
                    <Trackpoint>
                        <DistanceMeters>0.0</DistanceMeters>
                        <Time>2022-05-13T13:08:47.186Z</Time>
                    </Trackpoint>
                    <Trackpoint>
                        <DistanceMeters>52.19719696044922</DistanceMeters>
                        <Time>2022-05-13T13:11:27.186Z</Time>
                    </Trackpoint>
                    <Trackpoint>
                        <DistanceMeters>93.302490234375</DistanceMeters>
                        <Time>2022-05-13T13:12:27.066Z</Time>
                    </Trackpoint>
                </Track>
                <DistanceMeters>93.302490234375</DistanceMeters>
                <TotalTimeSeconds>450.802843612</TotalTimeSeconds>
                <Calories>9.06223875284195</Calories>
                <Intensity>Active</Intensity>
                <TriggerMethod>Manual</TriggerMethod>
            </Lap>
        </Activity>
        <Activity Sport="Walking">
            <Id>2022-05-13T13:11:27.186Z</Id>
            <Lap StartTime="2022-05-13T13:11:27.186Z">
                <Track>
                    <Trackpoint>
                        <DistanceMeters>0.0</DistanceMeters>
                        <Time>2022-05-13T13:11:27.186Z</Time>
                    </Trackpoint>
                    <Trackpoint>
                        <DistanceMeters>41.10529327392578</DistanceMeters>
                        <Time>2022-05-13T13:11:34.573Z</Time>
                    </Trackpoint>
                    <Trackpoint>
                        <DistanceMeters>41.10529327392578</DistanceMeters>
                        <Time>2022-05-13T13:12:27.066Z</Time>
                    </Trackpoint>
                    <Trackpoint>
                        <DistanceMeters>67.85635757446289</DistanceMeters>
                        <Time>2022-05-13T13:15:34.626Z</Time>
                    </Trackpoint>
                    <Trackpoint>
                        <DistanceMeters>88.08277130126953</DistanceMeters>
                        <Time>2022-05-13T13:16:36.626Z</Time>
                    </Trackpoint>
                    <Trackpoint>
                        <DistanceMeters>97.86974620819092</DistanceMeters>
                        <Time>2022-05-13T13:17:59.106Z</Time>
                    </Trackpoint>
                    <Trackpoint>
                        <DistanceMeters>127.88313579559326</DistanceMeters>
                        <Time>2022-05-13T13:19:31.106Z</Time>
                    </Trackpoint>
                    <Trackpoint>
                        <DistanceMeters>144.1947603225708</DistanceMeters>
                        <Time>2022-05-13T13:20:31.466Z</Time>
                    </Trackpoint>
                    <Trackpoint>
                        <DistanceMeters>162.4637804031372</DistanceMeters>
                        <Time>2022-05-13T13:21:31.466Z</Time>
                    </Trackpoint>
                    <Trackpoint>
                        <DistanceMeters>175.5130796432495</DistanceMeters>
                        <Time>2022-05-13T13:22:03.026Z</Time>
                    </Trackpoint>
                    <Trackpoint>
                        <DistanceMeters>208.7887945175171</DistanceMeters>
                        <Time>2022-05-13T13:23:29.746Z</Time>
                    </Trackpoint>
                    <Trackpoint>
                        <DistanceMeters>229.01520824432373</DistanceMeters>
                        <Time>2022-05-13T13:24:26.786Z</Time>
                    </Trackpoint>
                </Track>
                <DistanceMeters>229.01520824432373</DistanceMeters>
                <TotalTimeSeconds>779.599995214</TotalTimeSeconds>
                <Calories>74.63494873046875</Calories>
                <Intensity>Active</Intensity>
                <TriggerMethod>Manual</TriggerMethod>
            </Lap>
        </Activity>
        <Activity Sport="Walking">
            <Id>2022-05-13T13:27:35.986Z</Id>
            <Lap StartTime="2022-05-13T13:27:35.986Z">
                <Track>
                    <Trackpoint>
                        <DistanceMeters>0.0</DistanceMeters>
                        <Time>2022-05-13T13:27:35.986Z</Time>
                    </Trackpoint>
                    <Trackpoint>
                        <DistanceMeters>31.31831932067871</DistanceMeters>
                        <Time>2022-05-13T13:27:44.445Z</Time>
                    </Trackpoint>
                    <Trackpoint>
                        <DistanceMeters>31.31831932067871</DistanceMeters>
                        <Time>2022-05-13T13:28:35.306Z</Time>
                    </Trackpoint>
                    <Trackpoint>
                        <DistanceMeters>47.62994384765625</DistanceMeters>
                        <Time>2022-05-13T13:29:08.426Z</Time>
                    </Trackpoint>
                    <Trackpoint>
                        <DistanceMeters>94.607421875</DistanceMeters>
                        <Time>2022-05-13T13:30:37.146Z</Time>
                    </Trackpoint>
                    <Trackpoint>
                        <DistanceMeters>129.1880645751953</DistanceMeters>
                        <Time>2022-05-13T13:31:38.026Z</Time>
                    </Trackpoint>
                    <Trackpoint>
                        <DistanceMeters>145.56279754638672</DistanceMeters>
                        <Time>2022-05-13T13:33:01.657Z</Time>
                    </Trackpoint>
                </Track>
                <DistanceMeters>145.56279754638672</DistanceMeters>
                <TotalTimeSeconds>325.670158251</TotalTimeSeconds>
                <Calories>32.478981018066406</Calories>
                <Intensity>Active</Intensity>
                <TriggerMethod>Manual</TriggerMethod>
            </Lap>
        </Activity>
        <Activity Sport="Walking">
            <Id>2022-05-13T13:33:01.657Z</Id>
            <Lap StartTime="2022-05-13T13:33:01.657Z">
                <Track>
                    <Trackpoint>
                        <DistanceMeters>0.0</DistanceMeters>
                        <Time>2022-05-13T13:33:01.657Z</Time>
                    </Trackpoint>
                    <Trackpoint>
                        <DistanceMeters>0.0</DistanceMeters>
                        <Time>2022-05-13T13:40:03.746Z</Time>
                    </Trackpoint>
                    <Trackpoint>
                        <DistanceMeters>38.49543380737305</DistanceMeters>
                        <Time>2022-05-13T13:41:06.186Z</Time>
                    </Trackpoint>
                    <Trackpoint>
                        <DistanceMeters>56.17997360229492</DistanceMeters>
                        <Time>2022-05-13T13:41:25.286Z</Time>
                    </Trackpoint>
                </Track>
                <DistanceMeters>56.17997360229492</DistanceMeters>
                <TotalTimeSeconds>503.629843084</TotalTimeSeconds>
                <Calories>11.726678967475891</Calories>
                <Intensity>Active</Intensity>
                <TriggerMethod>Manual</TriggerMethod>
            </Lap>
        </Activity>
        <Activity Sport="Walking">
            <Id>2022-05-13T13:41:06.186Z</Id>
            <Lap StartTime="2022-05-13T13:41:06.186Z">
                <Track>
                    <Trackpoint>
                        <DistanceMeters>0.0</DistanceMeters>
                        <Time>2022-05-13T13:41:06.186Z</Time>
                    </Trackpoint>
                    <Trackpoint>
                        <DistanceMeters>17.684539794921875</DistanceMeters>
                        <Time>2022-05-13T13:41:20.171Z</Time>
                    </Trackpoint>
                    <Trackpoint>
                        <DistanceMeters>17.684539794921875</DistanceMeters>
                        <Time>2022-05-13T13:42:20.396Z</Time>
                    </Trackpoint>
                </Track>
                <DistanceMeters>17.684539794921875</DistanceMeters>
                <TotalTimeSeconds>74.209154188</TotalTimeSeconds>
                <Calories>6.166370391845703</Calories>
                <Intensity>Active</Intensity>
                <TriggerMethod>Manual</TriggerMethod>
            </Lap>
        </Activity>
        <Activity Sport="Walking">
            <Id>2022-05-13T13:54:20.046Z</Id>
            <Lap StartTime="2022-05-13T13:54:20.046Z">
                <Track>
                    <Trackpoint>
                        <DistanceMeters>0.0</DistanceMeters>
                        <Time>2022-05-13T13:54:20.046Z</Time>
                    </Trackpoint>
                    <Trackpoint>
                        <DistanceMeters>50.892269134521484</DistanceMeters>
                        <Time>2022-05-13T13:54:30.366Z</Time>
                    </Trackpoint>
                    <Trackpoint>
                        <DistanceMeters>50.892269134521484</DistanceMeters>
                        <Time>2022-05-13T13:56:01.306Z</Time>
                    </Trackpoint>
                    <Trackpoint>
                        <DistanceMeters>82.2105884552002</DistanceMeters>
                        <Time>2022-05-13T13:56:40.046Z</Time>
                    </Trackpoint>
                    <Trackpoint>
                        <DistanceMeters>123.31588172912598</DistanceMeters>
                        <Time>2022-05-13T13:58:04.746Z</Time>
                    </Trackpoint>
                    <Trackpoint>
                        <DistanceMeters>170.94582557678223</DistanceMeters>
                        <Time>2022-05-13T13:59:06.986Z</Time>
                    </Trackpoint>
                    <Trackpoint>
                        <DistanceMeters>185.30005550384521</DistanceMeters>
                        <Time>2022-05-13T14:01:11.466Z</Time>
                    </Trackpoint>
                    <Trackpoint>
                        <DistanceMeters>214.66097927093506</DistanceMeters>
                        <Time>2022-05-13T14:02:28.066Z</Time>
                    </Trackpoint>
                    <Trackpoint>
                        <DistanceMeters>259.0285978317261</DistanceMeters>
                        <Time>2022-05-13T14:03:29.146Z</Time>
                    </Trackpoint>
                    <Trackpoint>
                        <DistanceMeters>284.4747323989868</DistanceMeters>
                        <Time>2022-05-13T14:04:14.906Z</Time>
                    </Trackpoint>
                    <Trackpoint>
                        <DistanceMeters>309.26840114593506</DistanceMeters>
                        <Time>2022-05-13T14:04:57.586Z</Time>
                    </Trackpoint>
                    <Trackpoint>
                        <DistanceMeters>353.6360197067261</DistanceMeters>
                        <Time>2022-05-13T14:06:57.266Z</Time>
                    </Trackpoint>
                </Track>
                <DistanceMeters>353.6360197067261</DistanceMeters>
                <TotalTimeSeconds>757.219996543</TotalTimeSeconds>
                <Calories>66.72315216064453</Calories>
                <Intensity>Active</Intensity>
                <TriggerMethod>Manual</TriggerMethod>
            </Lap>
        </Activity>
        <Activity Sport="Walking">
            <Id>2022-05-13T14:12:49.815Z</Id>
            <Lap StartTime="2022-05-13T14:12:49.815Z">
                <Track>
                    <Trackpoint>
                        <DistanceMeters>0.0</DistanceMeters>
                        <Time>2022-05-13T14:12:49.815Z</Time>
                    </Trackpoint>
                    <Trackpoint>
                        <DistanceMeters>0.0</DistanceMeters>
                        <Time>2022-05-13T14:14:26.546Z</Time>
                    </Trackpoint>
                    <Trackpoint>
                        <DistanceMeters>20.22641372680664</DistanceMeters>
                        <Time>2022-05-13T14:15:28.546Z</Time>
                    </Trackpoint>
                    <Trackpoint>
                        <DistanceMeters>73.72854232788086</DistanceMeters>
                        <Time>2022-05-13T14:17:03.686Z</Time>
                    </Trackpoint>
                    <Trackpoint>
                        <DistanceMeters>110.91904830932617</DistanceMeters>
                        <Time>2022-05-13T14:18:06.386Z</Time>
                    </Trackpoint>
                    <Trackpoint>
                        <DistanceMeters>172.9032211303711</DistanceMeters>
                        <Time>2022-05-13T14:19:19.906Z</Time>
                    </Trackpoint>
                    <Trackpoint>
                        <DistanceMeters>228.75923919677734</DistanceMeters>
                        <Time>2022-05-13T14:20:19.546Z</Time>
                    </Trackpoint>
                    <Trackpoint>
                        <DistanceMeters>233.97895908355713</DistanceMeters>
                        <Time>2022-05-13T14:20:57.471Z</Time>
                    </Trackpoint>
                </Track>
                <DistanceMeters>233.97895908355713</DistanceMeters>
                <TotalTimeSeconds>487.656</TotalTimeSeconds>
                <Calories>49.93054962158203</Calories>
                <Intensity>Active</Intensity>
                <TriggerMethod>Manual</TriggerMethod>
            </Lap>
        </Activity>
        <Activity Sport="Walking">
            <Id>2022-05-13T14:20:57.471Z</Id>
            <Lap StartTime="2022-05-13T14:20:57.471Z">
                <Track>
                    <Trackpoint>
                        <DistanceMeters>0.0</DistanceMeters>
                        <Time>2022-05-13T14:20:57.471Z</Time>
                    </Trackpoint>
                    <Trackpoint>
                        <DistanceMeters>0.0</DistanceMeters>
                        <Time>2022-05-13T14:31:26.269Z</Time>
                    </Trackpoint>
                    <Trackpoint>
                        <DistanceMeters>19.573949813842773</DistanceMeters>
                        <Time>2022-05-13T14:31:57.949Z</Time>
                    </Trackpoint>
                    <Trackpoint>
                        <DistanceMeters>24.79366970062256</DistanceMeters>
                        <Time>2022-05-13T14:32:05.909Z</Time>
                    </Trackpoint>
                </Track>
                <DistanceMeters>24.79366970062256</DistanceMeters>
                <TotalTimeSeconds>668.438253465</TotalTimeSeconds>
                <Calories>14.833189189434052</Calories>
                <Intensity>Active</Intensity>
                <TriggerMethod>Manual</TriggerMethod>
            </Lap>
        </Activity>
        <Activity Sport="Walking">
            <Id>2022-05-13T14:31:57.949Z</Id>
            <Lap StartTime="2022-05-13T14:31:57.949Z">
                <Track>
                    <Trackpoint>
                        <DistanceMeters>0.0</DistanceMeters>
                        <Time>2022-05-13T14:31:57.949Z</Time>
                    </Trackpoint>
                    <Trackpoint>
                        <DistanceMeters>5.219719886779785</DistanceMeters>
                        <Time>2022-05-13T14:32:05.762Z</Time>
                    </Trackpoint>
                    <Trackpoint>
                        <DistanceMeters>5.219719886779785</DistanceMeters>
                        <Time>2022-05-13T14:32:05.909Z</Time>
                    </Trackpoint>
                    <Trackpoint>
                        <DistanceMeters>22.83627414703369</DistanceMeters>
                        <Time>2022-05-13T14:32:31.489Z</Time>
                    </Trackpoint>
                    <Trackpoint>
                        <DistanceMeters>35.23310852050781</DistanceMeters>
                        <Time>2022-05-13T14:34:57.869Z</Time>
                    </Trackpoint>
                    <Trackpoint>
                        <DistanceMeters>54.807058334350586</DistanceMeters>
                        <Time>2022-05-13T14:35:44.609Z</Time>
                    </Trackpoint>
                    <Trackpoint>
                        <DistanceMeters>78.94826316833496</DistanceMeters>
                        <Time>2022-05-13T14:36:58.609Z</Time>
                    </Trackpoint>
                </Track>
                <DistanceMeters>78.94826316833496</DistanceMeters>
                <TotalTimeSeconds>300.659997388</TotalTimeSeconds>
                <Calories>25.089271545410156</Calories>
                <Intensity>Active</Intensity>
                <TriggerMethod>Manual</TriggerMethod>
            </Lap>
        </Activity>
    </Activities>
    <Author xsi:type="Application_t">
        <Name>Google Fit</Name>
        <Build>
            <Version>
                <VersionMajor>0</VersionMajor>
                <VersionMinor>0</VersionMinor>
                <BuildMajor>0</BuildMajor>
                <BuildMinor>0</BuildMinor>
            </Version>
        </Build>
        <LangID>en</LangID>
        <PartNumber>000-00000-00</PartNumber>
    </Author>
</TrainingCenterDatabase>
