<?xml version="1.0" encoding="UTF-8"?>
<TrainingCenterDatabase
    xmlns="http://www.garmin.com/xmlschemas/TrainingCenterDatabase/v2"
    xmlns:ns2="http://www.garmin.com/xmlschemas/UserProfile/v2"
    xmlns:ns3="http://www.garmin.com/xmlschemas/ActivityExtension/v2"
    xmlns:ns4="http://www.garmin.com/xmlschemas/ProfileExtension/v1"
    xmlns:ns5="http://www.garmin.com/xmlschemas/ActivityGoals/v1"
    xmlns:xsi="http://www.w3.org/2001/XMLSchema-instance" xsi:schemaLocation="http://www.garmin.com/xmlschemas/TrainingCenterDatabase/v2 http://www.garmin.com/xmlschemas/TrainingCenterDatabasev2.xsd">
    <Activities>
        <Activity Sport="Walking">
            <Id>2022-07-26T12:09:40.937Z</Id>
            <Lap StartTime="2022-07-26T12:09:40.937Z">
                <Track>
                    <Trackpoint>
                        <DistanceMeters>0.0</DistanceMeters>
                        <Time>2022-07-26T12:09:40.937Z</Time>
                    </Trackpoint>
                    <Trackpoint>
                        <DistanceMeters>50.892269134521484</DistanceMeters>
                        <Time>2022-07-26T12:11:32.949Z</Time>
                    </Trackpoint>
                    <Trackpoint>
                        <DistanceMeters>50.892269134521484</DistanceMeters>
                        <Time>2022-07-26T12:12:16.937Z</Time>
                    </Trackpoint>
                    <Trackpoint>
                        <DistanceMeters>91.34509658813477</DistanceMeters>
                        <Time>2022-07-26T12:13:38.767Z</Time>
                    </Trackpoint>
                </Track>
                <DistanceMeters>91.34509658813477</DistanceMeters>
                <TotalTimeSeconds>237.82940612</TotalTimeSeconds>
                <Calories>12.882364273071289</Calories>
                <Intensity>Active</Intensity>
                <TriggerMethod>Manual</TriggerMethod>
            </Lap>
        </Activity>
        <Activity Sport="Walking">
            <Id>2022-07-26T12:15:02.017Z</Id>
            <Lap StartTime="2022-07-26T12:15:02.017Z">
                <Track>
                    <Trackpoint>
                        <DistanceMeters>0.0</DistanceMeters>
                        <Time>2022-07-26T12:15:02.017Z</Time>
                    </Trackpoint>
                    <Trackpoint>
                        <DistanceMeters>22.183809280395508</DistanceMeters>
                        <Time>2022-07-26T12:15:44.225Z</Time>
                    </Trackpoint>
                    <Trackpoint>
                        <DistanceMeters>22.183809280395508</DistanceMeters>
                        <Time>2022-07-26T12:16:06.657Z</Time>
                    </Trackpoint>
                    <Trackpoint>
                        <DistanceMeters>60.679243087768555</DistanceMeters>
                        <Time>2022-07-26T12:17:07.737Z</Time>
                    </Trackpoint>
                    <Trackpoint>
                        <DistanceMeters>91.99756240844727</DistanceMeters>
                        <Time>2022-07-26T12:18:02.777Z</Time>
                    </Trackpoint>
                </Track>
                <DistanceMeters>91.99756240844727</DistanceMeters>
                <TotalTimeSeconds>180.759999453</TotalTimeSeconds>
                <Calories>12.591068267822266</Calories>
                <Intensity>Active</Intensity>
                <TriggerMethod>Manual</TriggerMethod>
            </Lap>
        </Activity>
        <Activity Sport="Walking">
            <Id>2022-07-26T12:22:24.669Z</Id>
            <Lap StartTime="2022-07-26T12:22:24.669Z">
                <Track>
                    <Trackpoint>
                        <DistanceMeters>0.0</DistanceMeters>
                        <Time>2022-07-26T12:22:24.669Z</Time>
                    </Trackpoint>
                    <Trackpoint>
                        <DistanceMeters>0.0</DistanceMeters>
                        <Time>2022-07-26T12:22:49.597Z</Time>
                    </Trackpoint>
                    <Trackpoint>
                        <DistanceMeters>29.360923767089844</DistanceMeters>
                        <Time>2022-07-26T12:25:19.337Z</Time>
                    </Trackpoint>
                    <Trackpoint>
                        <DistanceMeters>77.6433334350586</DistanceMeters>
                        <Time>2022-07-26T12:26:19.657Z</Time>
                    </Trackpoint>
                </Track>
                <DistanceMeters>77.6433334350586</DistanceMeters>
                <TotalTimeSeconds>234.988587108</TotalTimeSeconds>
                <Calories>21.810367584228516</Calories>
                <Intensity>Active</Intensity>
                <TriggerMethod>Manual</TriggerMethod>
            </Lap>
        </Activity>
        <Activity Sport="Walking">
            <Id>2022-07-26T12:25:19.337Z</Id>
            <Lap StartTime="2022-07-26T12:25:19.337Z">
                <Track>
                    <Trackpoint>
                        <DistanceMeters>0.0</DistanceMeters>
                        <Time>2022-07-26T12:25:19.337Z</Time>
                    </Trackpoint>
                    <Trackpoint>
                        <DistanceMeters>48.28240966796875</DistanceMeters>
                        <Time>2022-07-26T12:25:57.684Z</Time>
                    </Trackpoint>
                    <Trackpoint>
                        <DistanceMeters>48.28240966796875</DistanceMeters>
                        <Time>2022-07-26T12:26:19.657Z</Time>
                    </Trackpoint>
                    <Trackpoint>
                        <DistanceMeters>54.15459442138672</DistanceMeters>
                        <Time>2022-07-26T12:26:28.257Z</Time>
                    </Trackpoint>
                </Track>
                <DistanceMeters>54.15459442138672</DistanceMeters>
                <TotalTimeSeconds>68.919999352</TotalTimeSeconds>
                <Calories>3.1303951740264893</Calories>
                <Intensity>Active</Intensity>
                <TriggerMethod>Manual</TriggerMethod>
            </Lap>
        </Activity>
    </Activities>
    <Author xsi:type="Application_t">
        <Name>Google Fit</Name>
        <Build>
            <Version>
                <VersionMajor>0</VersionMajor>
                <VersionMinor>0</VersionMinor>
                <BuildMajor>0</BuildMajor>
                <BuildMinor>0</BuildMinor>
            </Version>
        </Build>
        <LangID>en</LangID>
        <PartNumber>000-00000-00</PartNumber>
    </Author>
</TrainingCenterDatabase>
