<?xml version="1.0" encoding="UTF-8"?>
<TrainingCenterDatabase
    xmlns="http://www.garmin.com/xmlschemas/TrainingCenterDatabase/v2"
    xmlns:ns2="http://www.garmin.com/xmlschemas/UserProfile/v2"
    xmlns:ns3="http://www.garmin.com/xmlschemas/ActivityExtension/v2"
    xmlns:ns4="http://www.garmin.com/xmlschemas/ProfileExtension/v1"
    xmlns:ns5="http://www.garmin.com/xmlschemas/ActivityGoals/v1"
    xmlns:xsi="http://www.w3.org/2001/XMLSchema-instance" xsi:schemaLocation="http://www.garmin.com/xmlschemas/TrainingCenterDatabase/v2 http://www.garmin.com/xmlschemas/TrainingCenterDatabasev2.xsd">
    <Activities>
        <Activity Sport="Walking">
            <Id>2022-02-22T12:43:17.272Z</Id>
            <Lap StartTime="2022-02-22T12:43:17.272Z">
                <Track>
                    <Trackpoint>
                        <DistanceMeters>0.0</DistanceMeters>
                        <Time>2022-02-22T12:43:17.272Z</Time>
                    </Trackpoint>
                    <Trackpoint>
                        <DistanceMeters>0.0</DistanceMeters>
                        <Time>2022-02-22T12:43:38.639Z</Time>
                    </Trackpoint>
                    <Trackpoint>
                        <DistanceMeters>16.203405380249023</DistanceMeters>
                        <Time>2022-02-22T12:43:52.319Z</Time>
                    </Trackpoint>
                    <Trackpoint>
                        <DistanceMeters>42.95446968078613</DistanceMeters>
                        <Time>2022-02-22T12:45:11.658Z</Time>
                    </Trackpoint>
                </Track>
                <DistanceMeters>42.95446968078613</DistanceMeters>
                <TotalTimeSeconds>114.386</TotalTimeSeconds>
                <Calories>11.10815143585205</Calories>
                <Intensity>Active</Intensity>
                <TriggerMethod>Manual</TriggerMethod>
            </Lap>
        </Activity>
        <Activity Sport="Walking">
            <Id>2022-02-22T12:51:31.039Z</Id>
            <Lap StartTime="2022-02-22T12:51:31.039Z">
                <Track>
                    <Trackpoint>
                        <DistanceMeters>0.0</DistanceMeters>
                        <Time>2022-02-22T12:51:31.039Z</Time>
                    </Trackpoint>
                    <Trackpoint>
                        <DistanceMeters>43.715152740478516</DistanceMeters>
                        <Time>2022-02-22T12:51:53.932Z</Time>
                    </Trackpoint>
                    <Trackpoint>
                        <DistanceMeters>43.715152740478516</DistanceMeters>
                        <Time>2022-02-22T12:52:49.439Z</Time>
                    </Trackpoint>
                    <Trackpoint>
                        <DistanceMeters>72.42361259460449</DistanceMeters>
                        <Time>2022-02-22T12:53:40.799Z</Time>
                    </Trackpoint>
                    <Trackpoint>
                        <DistanceMeters>105.04686164855957</DistanceMeters>
                        <Time>2022-02-22T12:55:15.199Z</Time>
                    </Trackpoint>
                    <Trackpoint>
                        <DistanceMeters>118.09616088867188</DistanceMeters>
                        <Time>2022-02-22T12:55:33.799Z</Time>
                    </Trackpoint>
                    <Trackpoint>
                        <DistanceMeters>131.79792594909668</DistanceMeters>
                        <Time>2022-02-22T12:55:49.219Z</Time>
                    </Trackpoint>
                    <Trackpoint>
                        <DistanceMeters>157.8965244293213</DistanceMeters>
                        <Time>2022-02-22T12:56:47.059Z</Time>
                    </Trackpoint>
                </Track>
                <DistanceMeters>157.8965244293213</DistanceMeters>
                <TotalTimeSeconds>316.020000789</TotalTimeSeconds>
                <Calories>23.989744186401367</Calories>
                <Intensity>Active</Intensity>
                <TriggerMethod>Manual</TriggerMethod>
            </Lap>
        </Activity>
        <Activity Sport="Walking">
            <Id>2022-02-22T13:10:08.479Z</Id>
            <Lap StartTime="2022-02-22T13:10:08.479Z">
                <Track>
                    <Trackpoint>
                        <DistanceMeters>0.0</DistanceMeters>
                        <Time>2022-02-22T13:10:08.479Z</Time>
                    </Trackpoint>
                    <Trackpoint>
                        <DistanceMeters>30.66585350036621</DistanceMeters>
                        <Time>2022-02-22T13:10:17.993Z</Time>
                    </Trackpoint>
                    <Trackpoint>
                        <DistanceMeters>30.66585350036621</DistanceMeters>
                        <Time>2022-02-22T13:11:42.479Z</Time>
                    </Trackpoint>
                </Track>
                <DistanceMeters>30.66585350036621</DistanceMeters>
                <TotalTimeSeconds>94.00000512</TotalTimeSeconds>
                <Calories>6.157718658447266</Calories>
                <Intensity>Active</Intensity>
                <TriggerMethod>Manual</TriggerMethod>
            </Lap>
        </Activity>
        <Activity Sport="Walking">
            <Id>2022-02-22T13:21:02.559Z</Id>
            <Lap StartTime="2022-02-22T13:21:02.559Z">
                <Track>
                    <Trackpoint>
                        <DistanceMeters>0.0</DistanceMeters>
                        <Time>2022-02-22T13:21:02.559Z</Time>
                    </Trackpoint>
                    <Trackpoint>
                        <DistanceMeters>16.96409034729004</DistanceMeters>
                        <Time>2022-02-22T13:21:52.193Z</Time>
                    </Trackpoint>
                    <Trackpoint>
                        <DistanceMeters>16.96409034729004</DistanceMeters>
                        <Time>2022-02-22T13:23:54.532Z</Time>
                    </Trackpoint>
                </Track>
                <DistanceMeters>16.96409034729004</DistanceMeters>
                <TotalTimeSeconds>171.97257169</TotalTimeSeconds>
                <Calories>11.880475997924805</Calories>
                <Intensity>Active</Intensity>
                <TriggerMethod>Manual</TriggerMethod>
            </Lap>
        </Activity>
        <Activity Sport="Walking">
            <Id>2022-02-22T13:30:28.679Z</Id>
            <Lap StartTime="2022-02-22T13:30:28.679Z">
                <Track>
                    <Trackpoint>
                        <DistanceMeters>0.0</DistanceMeters>
                        <Time>2022-02-22T13:30:28.679Z</Time>
                    </Trackpoint>
                    <Trackpoint>
                        <DistanceMeters>29.360923767089844</DistanceMeters>
                        <Time>2022-02-22T13:31:26.818Z</Time>
                    </Trackpoint>
                    <Trackpoint>
                        <DistanceMeters>29.360923767089844</DistanceMeters>
                        <Time>2022-02-22T13:31:59.353Z</Time>
                    </Trackpoint>
                </Track>
                <DistanceMeters>29.360923767089844</DistanceMeters>
                <TotalTimeSeconds>90.673571788</TotalTimeSeconds>
                <Calories>3.1595096588134766</Calories>
                <Intensity>Active</Intensity>
                <TriggerMethod>Manual</TriggerMethod>
            </Lap>
        </Activity>
    </Activities>
    <Author xsi:type="Application_t">
        <Name>Google Fit</Name>
        <Build>
            <Version>
                <VersionMajor>0</VersionMajor>
                <VersionMinor>0</VersionMinor>
                <BuildMajor>0</BuildMajor>
                <BuildMinor>0</BuildMinor>
            </Version>
        </Build>
        <LangID>en</LangID>
        <PartNumber>000-00000-00</PartNumber>
    </Author>
</TrainingCenterDatabase>
