<?xml version="1.0" encoding="UTF-8"?>
<TrainingCenterDatabase
    xmlns="http://www.garmin.com/xmlschemas/TrainingCenterDatabase/v2"
    xmlns:ns2="http://www.garmin.com/xmlschemas/UserProfile/v2"
    xmlns:ns3="http://www.garmin.com/xmlschemas/ActivityExtension/v2"
    xmlns:ns4="http://www.garmin.com/xmlschemas/ProfileExtension/v1"
    xmlns:ns5="http://www.garmin.com/xmlschemas/ActivityGoals/v1"
    xmlns:xsi="http://www.w3.org/2001/XMLSchema-instance" xsi:schemaLocation="http://www.garmin.com/xmlschemas/TrainingCenterDatabase/v2 http://www.garmin.com/xmlschemas/TrainingCenterDatabasev2.xsd">
    <Activities>
        <Activity Sport="Walking">
            <Id>2022-10-29T10:42:19.882Z</Id>
            <Lap StartTime="2022-10-29T10:42:19.882Z">
                <Track>
                    <Trackpoint>
                        <DistanceMeters>0.0</DistanceMeters>
                        <Time>2022-10-29T10:42:19.882Z</Time>
                    </Trackpoint>
                    <Trackpoint>
                        <DistanceMeters>0.0</DistanceMeters>
                        <Time>2022-10-29T12:20:10.028Z</Time>
                    </Trackpoint>
                    <Trackpoint>
                        <DistanceMeters>43.71515490443527</DistanceMeters>
                        <Time>2022-10-29T12:21:25.888Z</Time>
                    </Trackpoint>
                    <Trackpoint>
                        <DistanceMeters>102.20135637108291</DistanceMeters>
                        <Time>2022-10-29T12:22:25.928Z</Time>
                    </Trackpoint>
                </Track>
                <DistanceMeters>102.20135637108291</DistanceMeters>
                <TotalTimeSeconds>6006.046679471</TotalTimeSeconds>
                <Calories>126.88632220723173</Calories>
                <Intensity>Active</Intensity>
                <TriggerMethod>Manual</TriggerMethod>
            </Lap>
        </Activity>
        <Activity Sport="Walking">
            <Id>2022-10-29T12:21:25.888Z</Id>
            <Lap StartTime="2022-10-29T12:21:25.888Z">
                <Track>
                    <Trackpoint>
                        <DistanceMeters>0.0</DistanceMeters>
                        <Time>2022-10-29T12:21:25.888Z</Time>
                    </Trackpoint>
                    <Trackpoint>
                        <DistanceMeters>58.48620146664764</DistanceMeters>
                        <Time>2022-10-29T12:21:31.269Z</Time>
                    </Trackpoint>
                    <Trackpoint>
                        <DistanceMeters>58.48620146664764</DistanceMeters>
                        <Time>2022-10-29T12:22:25.928Z</Time>
                    </Trackpoint>
                    <Trackpoint>
                        <DistanceMeters>110.03093635396684</DistanceMeters>
                        <Time>2022-10-29T12:23:26.928Z</Time>
                    </Trackpoint>
                    <Trackpoint>
                        <DistanceMeters>157.66088124984407</DistanceMeters>
                        <Time>2022-10-29T12:24:26.728Z</Time>
                    </Trackpoint>
                </Track>
                <DistanceMeters>157.66088124984407</DistanceMeters>
                <TotalTimeSeconds>180.840001062</TotalTimeSeconds>
                <Calories>15.509049777777777</Calories>
                <Intensity>Active</Intensity>
                <TriggerMethod>Manual</TriggerMethod>
            </Lap>
        </Activity>
        <Activity Sport="Walking">
            <Id>2022-10-29T12:23:26.928Z</Id>
            <Lap StartTime="2022-10-29T12:23:26.928Z">
                <Track>
                    <Trackpoint>
                        <DistanceMeters>0.0</DistanceMeters>
                        <Time>2022-10-29T12:23:26.928Z</Time>
                    </Trackpoint>
                    <Trackpoint>
                        <DistanceMeters>47.62994489587724</DistanceMeters>
                        <Time>2022-10-29T12:24:02.741Z</Time>
                    </Trackpoint>
                    <Trackpoint>
                        <DistanceMeters>47.62994489587724</DistanceMeters>
                        <Time>2022-10-29T12:24:26.728Z</Time>
                    </Trackpoint>
                    <Trackpoint>
                        <DistanceMeters>99.17467978319644</DistanceMeters>
                        <Time>2022-10-29T12:25:27.408Z</Time>
                    </Trackpoint>
                    <Trackpoint>
                        <DistanceMeters>150.71941467051565</DistanceMeters>
                        <Time>2022-10-29T12:26:28.328Z</Time>
                    </Trackpoint>
                    <Trackpoint>
                        <DistanceMeters>201.6116845592612</DistanceMeters>
                        <Time>2022-10-29T12:27:28.408Z</Time>
                    </Trackpoint>
                    <Trackpoint>
                        <DistanceMeters>255.11381444230136</DistanceMeters>
                        <Time>2022-10-29T12:28:29.528Z</Time>
                    </Trackpoint>
                    <Trackpoint>
                        <DistanceMeters>306.65854932962054</DistanceMeters>
                        <Time>2022-10-29T12:29:29.508Z</Time>
                    </Trackpoint>
                    <Trackpoint>
                        <DistanceMeters>348.41630923833486</DistanceMeters>
                        <Time>2022-10-29T12:30:33.408Z</Time>
                    </Trackpoint>
                    <Trackpoint>
                        <DistanceMeters>399.3085791270804</DistanceMeters>
                        <Time>2022-10-29T12:31:33.848Z</Time>
                    </Trackpoint>
                    <Trackpoint>
                        <DistanceMeters>453.46317400869424</DistanceMeters>
                        <Time>2022-10-29T12:32:34.368Z</Time>
                    </Trackpoint>
                    <Trackpoint>
                        <DistanceMeters>505.0079088960134</DistanceMeters>
                        <Time>2022-10-29T12:33:34.808Z</Time>
                    </Trackpoint>
                    <Trackpoint>
                        <DistanceMeters>553.942783789038</DistanceMeters>
                        <Time>2022-10-29T12:34:34.368Z</Time>
                    </Trackpoint>
                    <Trackpoint>
                        <DistanceMeters>555.2477137861853</DistanceMeters>
                        <Time>2022-10-29T12:34:35.928Z</Time>
                    </Trackpoint>
                    <Trackpoint>
                        <DistanceMeters>606.1399836749308</DistanceMeters>
                        <Time>2022-10-29T12:35:35.488Z</Time>
                    </Trackpoint>
                    <Trackpoint>
                        <DistanceMeters>651.8125335750871</DistanceMeters>
                        <Time>2022-10-29T12:36:35.208Z</Time>
                    </Trackpoint>
                </Track>
                <DistanceMeters>651.8125335750871</DistanceMeters>
                <TotalTimeSeconds>788.28000007</TotalTimeSeconds>
                <Calories>77.04432959665544</Calories>
                <Intensity>Active</Intensity>
                <TriggerMethod>Manual</TriggerMethod>
            </Lap>
        </Activity>
        <Activity Sport="Walking">
            <Id>2022-10-29T12:36:35.208Z</Id>
            <Lap StartTime="2022-10-29T12:36:35.208Z">
                <Track>
                    <Trackpoint>
                        <DistanceMeters>0.0</DistanceMeters>
                        <Time>2022-10-29T12:36:35.208Z</Time>
                    </Trackpoint>
                    <Trackpoint>
                        <DistanceMeters>0.6524649985736608</DistanceMeters>
                        <Time>2022-10-29T12:36:36.528Z</Time>
                    </Trackpoint>
                    <Trackpoint>
                        <DistanceMeters>52.84966488446653</DistanceMeters>
                        <Time>2022-10-29T12:37:36.888Z</Time>
                    </Trackpoint>
                    <Trackpoint>
                        <DistanceMeters>112.20981990503542</DistanceMeters>
                        <Time>2022-10-29T12:38:37.088Z</Time>
                    </Trackpoint>
                    <Trackpoint>
                        <DistanceMeters>161.14469479806</DistanceMeters>
                        <Time>2022-10-29T12:39:37.648Z</Time>
                    </Trackpoint>
                    <Trackpoint>
                        <DistanceMeters>215.29928967967385</DistanceMeters>
                        <Time>2022-10-29T12:40:37.448Z</Time>
                    </Trackpoint>
                </Track>
                <DistanceMeters>215.29928967967385</DistanceMeters>
                <TotalTimeSeconds>242.240000176</TotalTimeSeconds>
                <Calories>23.309571750566775</Calories>
                <Intensity>Active</Intensity>
                <TriggerMethod>Manual</TriggerMethod>
            </Lap>
        </Activity>
        <Activity Sport="Walking">
            <Id>2022-10-29T12:39:37.648Z</Id>
            <Lap StartTime="2022-10-29T12:39:37.648Z">
                <Track>
                    <Trackpoint>
                        <DistanceMeters>0.0</DistanceMeters>
                        <Time>2022-10-29T12:39:37.648Z</Time>
                    </Trackpoint>
                    <Trackpoint>
                        <DistanceMeters>54.154594881613846</DistanceMeters>
                        <Time>2022-10-29T12:40:23.912Z</Time>
                    </Trackpoint>
                    <Trackpoint>
                        <DistanceMeters>54.154594881613846</DistanceMeters>
                        <Time>2022-10-29T12:40:37.448Z</Time>
                    </Trackpoint>
                    <Trackpoint>
                        <DistanceMeters>93.95495979460716</DistanceMeters>
                        <Time>2022-10-29T12:41:30.248Z</Time>
                    </Trackpoint>
                    <Trackpoint>
                        <DistanceMeters>134.40778970617413</DistanceMeters>
                        <Time>2022-10-29T12:42:45.248Z</Time>
                    </Trackpoint>
                    <Trackpoint>
                        <DistanceMeters>137.01764970046878</DistanceMeters>
                        <Time>2022-10-29T12:42:48.368Z</Time>
                    </Trackpoint>
                    <Trackpoint>
                        <DistanceMeters>170.94582962629914</DistanceMeters>
                        <Time>2022-10-29T12:43:56.283Z</Time>
                    </Trackpoint>
                </Track>
                <DistanceMeters>170.94582962629914</DistanceMeters>
                <TotalTimeSeconds>258.634320825</TotalTimeSeconds>
                <Calories>21.74443072222222</Calories>
                <Intensity>Active</Intensity>
                <TriggerMethod>Manual</TriggerMethod>
            </Lap>
        </Activity>
    </Activities>
    <Author xsi:type="Application_t">
        <Name>Google Fit</Name>
        <Build>
            <Version>
                <VersionMajor>0</VersionMajor>
                <VersionMinor>0</VersionMinor>
                <BuildMajor>0</BuildMajor>
                <BuildMinor>0</BuildMinor>
            </Version>
        </Build>
        <LangID>en</LangID>
        <PartNumber>000-00000-00</PartNumber>
    </Author>
</TrainingCenterDatabase>
