<?xml version="1.0" encoding="UTF-8"?>
<TrainingCenterDatabase
    xmlns="http://www.garmin.com/xmlschemas/TrainingCenterDatabase/v2"
    xmlns:ns2="http://www.garmin.com/xmlschemas/UserProfile/v2"
    xmlns:ns3="http://www.garmin.com/xmlschemas/ActivityExtension/v2"
    xmlns:ns4="http://www.garmin.com/xmlschemas/ProfileExtension/v1"
    xmlns:ns5="http://www.garmin.com/xmlschemas/ActivityGoals/v1"
    xmlns:xsi="http://www.w3.org/2001/XMLSchema-instance" xsi:schemaLocation="http://www.garmin.com/xmlschemas/TrainingCenterDatabase/v2 http://www.garmin.com/xmlschemas/TrainingCenterDatabasev2.xsd">
    <Activities>
        <Activity Sport="Walking">
            <Id>2022-01-02T14:03:55.335Z</Id>
            <Lap StartTime="2022-01-02T14:03:55.335Z">
                <Track>
                    <Trackpoint>
                        <DistanceMeters>0.0</DistanceMeters>
                        <Time>2022-01-02T14:03:55.335Z</Time>
                    </Trackpoint>
                    <Trackpoint>
                        <DistanceMeters>5.872184753417969</DistanceMeters>
                        <Time>2022-01-02T14:04:00.969Z</Time>
                    </Trackpoint>
                    <Trackpoint>
                        <DistanceMeters>5.872184753417969</DistanceMeters>
                        <Time>2022-01-02T14:05:26.395Z</Time>
                    </Trackpoint>
                    <Trackpoint>
                        <DistanceMeters>30.66585350036621</DistanceMeters>
                        <Time>2022-01-02T14:06:42.395Z</Time>
                    </Trackpoint>
                    <Trackpoint>
                        <DistanceMeters>45.67254829406738</DistanceMeters>
                        <Time>2022-01-02T14:07:00.135Z</Time>
                    </Trackpoint>
                    <Trackpoint>
                        <DistanceMeters>63.28910255432129</DistanceMeters>
                        <Time>2022-01-02T14:08:57.249Z</Time>
                    </Trackpoint>
                </Track>
                <DistanceMeters>63.28910255432129</DistanceMeters>
                <TotalTimeSeconds>301.913030042</TotalTimeSeconds>
                <Calories>28.772077560424805</Calories>
                <Intensity>Active</Intensity>
                <TriggerMethod>Manual</TriggerMethod>
            </Lap>
        </Activity>
        <Activity Sport="Walking">
            <Id>2022-01-02T14:18:15.315Z</Id>
            <Lap StartTime="2022-01-02T14:18:15.315Z">
                <Track>
                    <Trackpoint>
                        <DistanceMeters>0.0</DistanceMeters>
                        <Time>2022-01-02T14:18:15.315Z</Time>
                    </Trackpoint>
                    <Trackpoint>
                        <DistanceMeters>31.31831932067871</DistanceMeters>
                        <Time>2022-01-02T14:19:41.948Z</Time>
                    </Trackpoint>
                    <Trackpoint>
                        <DistanceMeters>31.31831932067871</DistanceMeters>
                        <Time>2022-01-02T14:19:47.095Z</Time>
                    </Trackpoint>
                    <Trackpoint>
                        <DistanceMeters>83.20480918884277</DistanceMeters>
                        <Time>2022-01-02T14:20:29.655Z</Time>
                    </Trackpoint>
                    <Trackpoint>
                        <DistanceMeters>118.46948051452637</DistanceMeters>
                        <Time>2022-01-02T14:21:05.715Z</Time>
                    </Trackpoint>
                </Track>
                <DistanceMeters>118.46948051452637</DistanceMeters>
                <TotalTimeSeconds>170.399998156</TotalTimeSeconds>
                <Calories>5.9483466148376465</Calories>
                <Intensity>Active</Intensity>
                <TriggerMethod>Manual</TriggerMethod>
            </Lap>
        </Activity>
        <Activity Sport="Walking">
            <Id>2022-01-02T14:20:29.655Z</Id>
            <Lap StartTime="2022-01-02T14:20:29.655Z">
                <Track>
                    <Trackpoint>
                        <DistanceMeters>0.0</DistanceMeters>
                        <Time>2022-01-02T14:20:29.655Z</Time>
                    </Trackpoint>
                    <Trackpoint>
                        <DistanceMeters>35.264671325683594</DistanceMeters>
                        <Time>2022-01-02T14:20:43.201Z</Time>
                    </Trackpoint>
                    <Trackpoint>
                        <DistanceMeters>35.264671325683594</DistanceMeters>
                        <Time>2022-01-02T14:21:05.715Z</Time>
                    </Trackpoint>
                </Track>
                <DistanceMeters>35.264671325683594</DistanceMeters>
                <TotalTimeSeconds>36.060000242</TotalTimeSeconds>
                <Calories>2.1864535808563232</Calories>
                <Intensity>Active</Intensity>
                <TriggerMethod>Manual</TriggerMethod>
            </Lap>
        </Activity>
        <Activity Sport="Walking">
            <Id>2022-01-02T14:21:05.715Z</Id>
            <Lap StartTime="2022-01-02T14:21:05.715Z">
                <Track>
                    <Trackpoint>
                        <DistanceMeters>0.0</DistanceMeters>
                        <Time>2022-01-02T14:21:05.715Z</Time>
                    </Trackpoint>
                    <Trackpoint>
                        <DistanceMeters>60.02677917480469</DistanceMeters>
                        <Time>2022-01-02T14:22:43.566Z</Time>
                    </Trackpoint>
                    <Trackpoint>
                        <DistanceMeters>60.02677917480469</DistanceMeters>
                        <Time>2022-01-02T14:23:07.215Z</Time>
                    </Trackpoint>
                    <Trackpoint>
                        <DistanceMeters>73.36082077026367</DistanceMeters>
                        <Time>2022-01-02T14:23:18.615Z</Time>
                    </Trackpoint>
                    <Trackpoint>
                        <DistanceMeters>101.10533332824707</DistanceMeters>
                        <Time>2022-01-02T14:25:13.573Z</Time>
                    </Trackpoint>
                </Track>
                <DistanceMeters>101.10533332824707</DistanceMeters>
                <TotalTimeSeconds>247.857032286</TotalTimeSeconds>
                <Calories>14.567346572875977</Calories>
                <Intensity>Active</Intensity>
                <TriggerMethod>Manual</TriggerMethod>
            </Lap>
        </Activity>
        <Activity Sport="Walking">
            <Id>2022-01-02T14:28:15.875Z</Id>
            <Lap StartTime="2022-01-02T14:28:15.875Z">
                <Track>
                    <Trackpoint>
                        <DistanceMeters>0.0</DistanceMeters>
                        <Time>2022-01-02T14:28:15.875Z</Time>
                    </Trackpoint>
                    <Trackpoint>
                        <DistanceMeters>29.360923767089844</DistanceMeters>
                        <Time>2022-01-02T14:28:23.217Z</Time>
                    </Trackpoint>
                    <Trackpoint>
                        <DistanceMeters>29.360923767089844</DistanceMeters>
                        <Time>2022-01-02T14:32:26.040Z</Time>
                    </Trackpoint>
                </Track>
                <DistanceMeters>29.360923767089844</DistanceMeters>
                <TotalTimeSeconds>250.164032713</TotalTimeSeconds>
                <Calories>23.580810546875</Calories>
                <Intensity>Active</Intensity>
                <TriggerMethod>Manual</TriggerMethod>
            </Lap>
        </Activity>
    </Activities>
    <Author xsi:type="Application_t">
        <Name>Google Fit</Name>
        <Build>
            <Version>
                <VersionMajor>0</VersionMajor>
                <VersionMinor>0</VersionMinor>
                <BuildMajor>0</BuildMajor>
                <BuildMinor>0</BuildMinor>
            </Version>
        </Build>
        <LangID>en</LangID>
        <PartNumber>000-00000-00</PartNumber>
    </Author>
</TrainingCenterDatabase>
