<?xml version="1.0" encoding="UTF-8"?>
<TrainingCenterDatabase
    xmlns="http://www.garmin.com/xmlschemas/TrainingCenterDatabase/v2"
    xmlns:ns2="http://www.garmin.com/xmlschemas/UserProfile/v2"
    xmlns:ns3="http://www.garmin.com/xmlschemas/ActivityExtension/v2"
    xmlns:ns4="http://www.garmin.com/xmlschemas/ProfileExtension/v1"
    xmlns:ns5="http://www.garmin.com/xmlschemas/ActivityGoals/v1"
    xmlns:xsi="http://www.w3.org/2001/XMLSchema-instance" xsi:schemaLocation="http://www.garmin.com/xmlschemas/TrainingCenterDatabase/v2 http://www.garmin.com/xmlschemas/TrainingCenterDatabasev2.xsd">
    <Activities>
        <Activity Sport="Walking">
            <Id>2022-01-09T17:12:39.306Z</Id>
            <Lap StartTime="2022-01-09T17:12:39.306Z">
                <Track>
                    <Trackpoint>
                        <DistanceMeters>0.0</DistanceMeters>
                        <Time>2022-01-09T17:12:39.306Z</Time>
                    </Trackpoint>
                    <Trackpoint>
                        <DistanceMeters>0.0</DistanceMeters>
                        <Time>2022-01-09T17:13:29.714Z</Time>
                    </Trackpoint>
                    <Trackpoint>
                        <DistanceMeters>22.183809280395508</DistanceMeters>
                        <Time>2022-01-09T17:14:37.714Z</Time>
                    </Trackpoint>
                    <Trackpoint>
                        <DistanceMeters>85.88092994689941</DistanceMeters>
                        <Time>2022-01-09T17:15:41.154Z</Time>
                    </Trackpoint>
                    <Trackpoint>
                        <DistanceMeters>102.83723258972168</DistanceMeters>
                        <Time>2022-01-09T17:15:57.394Z</Time>
                    </Trackpoint>
                    <Trackpoint>
                        <DistanceMeters>210.21144676208496</DistanceMeters>
                        <Time>2022-01-09T17:17:46.314Z</Time>
                    </Trackpoint>
                    <Trackpoint>
                        <DistanceMeters>266.73200035095215</DistanceMeters>
                        <Time>2022-01-09T17:18:35.554Z</Time>
                    </Trackpoint>
                    <Trackpoint>
                        <DistanceMeters>338.5007839202881</DistanceMeters>
                        <Time>2022-01-09T17:19:34.474Z</Time>
                    </Trackpoint>
                    <Trackpoint>
                        <DistanceMeters>369.48316192626953</DistanceMeters>
                        <Time>2022-01-09T17:20:00.674Z</Time>
                    </Trackpoint>
                    <Trackpoint>
                        <DistanceMeters>401.5437202453613</DistanceMeters>
                        <Time>2022-01-09T17:20:30.794Z</Time>
                    </Trackpoint>
                    <Trackpoint>
                        <DistanceMeters>434.27128982543945</DistanceMeters>
                        <Time>2022-01-09T17:20:57.554Z</Time>
                    </Trackpoint>
                    <Trackpoint>
                        <DistanceMeters>438.5458240509033</DistanceMeters>
                        <Time>2022-01-09T17:21:01.034Z</Time>
                    </Trackpoint>
                    <Trackpoint>
                        <DistanceMeters>475.18416023254395</DistanceMeters>
                        <Time>2022-01-09T17:21:31.954Z</Time>
                    </Trackpoint>
                    <Trackpoint>
                        <DistanceMeters>511.2899913787842</DistanceMeters>
                        <Time>2022-01-09T17:22:01.954Z</Time>
                    </Trackpoint>
                    <Trackpoint>
                        <DistanceMeters>516.0637083053589</DistanceMeters>
                        <Time>2022-01-09T17:22:04.714Z</Time>
                    </Trackpoint>
                    <Trackpoint>
                        <DistanceMeters>576.1336050033569</DistanceMeters>
                        <Time>2022-01-09T17:22:54.914Z</Time>
                    </Trackpoint>
                    <Trackpoint>
                        <DistanceMeters>641.6468420028687</DistanceMeters>
                        <Time>2022-01-09T17:23:52.214Z</Time>
                    </Trackpoint>
                    <Trackpoint>
                        <DistanceMeters>706.8933401107788</DistanceMeters>
                        <Time>2022-01-09T17:25:22.634Z</Time>
                    </Trackpoint>
                    <Trackpoint>
                        <DistanceMeters>743.575098991394</DistanceMeters>
                        <Time>2022-01-09T17:25:51.594Z</Time>
                    </Trackpoint>
                    <Trackpoint>
                        <DistanceMeters>778.6505155563354</DistanceMeters>
                        <Time>2022-01-09T17:26:19.714Z</Time>
                    </Trackpoint>
                    <Trackpoint>
                        <DistanceMeters>833.4001607894897</DistanceMeters>
                        <Time>2022-01-09T17:26:59.234Z</Time>
                    </Trackpoint>
                    <Trackpoint>
                        <DistanceMeters>873.3399114608765</DistanceMeters>
                        <Time>2022-01-09T17:27:31.634Z</Time>
                    </Trackpoint>
                    <Trackpoint>
                        <DistanceMeters>903.5999040603638</DistanceMeters>
                        <Time>2022-01-09T17:27:55.394Z</Time>
                    </Trackpoint>
                    <Trackpoint>
                        <DistanceMeters>919.4306125640869</DistanceMeters>
                        <Time>2022-01-09T17:28:07.874Z</Time>
                    </Trackpoint>
                    <Trackpoint>
                        <DistanceMeters>951.7016544342041</DistanceMeters>
                        <Time>2022-01-09T17:28:33.594Z</Time>
                    </Trackpoint>
                    <Trackpoint>
                        <DistanceMeters>958.916353225708</DistanceMeters>
                        <Time>2022-01-09T17:28:39.234Z</Time>
                    </Trackpoint>
                    <Trackpoint>
                        <DistanceMeters>1020.9302349090576</DistanceMeters>
                        <Time>2022-01-09T17:29:27.794Z</Time>
                    </Trackpoint>
                    <Trackpoint>
                        <DistanceMeters>1054.7629375457764</DistanceMeters>
                        <Time>2022-01-09T17:29:54.434Z</Time>
                    </Trackpoint>
                    <Trackpoint>
                        <DistanceMeters>1091.9643077850342</DistanceMeters>
                        <Time>2022-01-09T17:30:24.314Z</Time>
                    </Trackpoint>
                    <Trackpoint>
                        <DistanceMeters>1114.171869277954</DistanceMeters>
                        <Time>2022-01-09T17:30:42.074Z</Time>
                    </Trackpoint>
                    <Trackpoint>
                        <DistanceMeters>1169.2391338348389</DistanceMeters>
                        <Time>2022-01-09T17:31:26.354Z</Time>
                    </Trackpoint>
                    <Trackpoint>
                        <DistanceMeters>1202.279333114624</DistanceMeters>
                        <Time>2022-01-09T17:31:52.554Z</Time>
                    </Trackpoint>
                    <Trackpoint>
                        <DistanceMeters>1252.0394687652588</DistanceMeters>
                        <Time>2022-01-09T17:32:33.354Z</Time>
                    </Trackpoint>
                    <Trackpoint>
                        <DistanceMeters>1264.7764205932617</DistanceMeters>
                        <Time>2022-01-09T17:32:43.954Z</Time>
                    </Trackpoint>
                    <Trackpoint>
                        <DistanceMeters>1287.2190895080566</DistanceMeters>
                        <Time>2022-01-09T17:36:05.312Z</Time>
                    </Trackpoint>
                </Track>
                <DistanceMeters>1287.2190895080566</DistanceMeters>
                <TotalTimeSeconds>1406.006</TotalTimeSeconds>
                <Calories>136.53878784179688</Calories>
                <Intensity>Active</Intensity>
                <TriggerMethod>Manual</TriggerMethod>
            </Lap>
        </Activity>
    </Activities>
    <Author xsi:type="Application_t">
        <Name>Google Fit</Name>
        <Build>
            <Version>
                <VersionMajor>0</VersionMajor>
                <VersionMinor>0</VersionMinor>
                <BuildMajor>0</BuildMajor>
                <BuildMinor>0</BuildMinor>
            </Version>
        </Build>
        <LangID>en</LangID>
        <PartNumber>000-00000-00</PartNumber>
    </Author>
</TrainingCenterDatabase>
