<?xml version="1.0" encoding="UTF-8"?>
<TrainingCenterDatabase
    xmlns="http://www.garmin.com/xmlschemas/TrainingCenterDatabase/v2"
    xmlns:ns2="http://www.garmin.com/xmlschemas/UserProfile/v2"
    xmlns:ns3="http://www.garmin.com/xmlschemas/ActivityExtension/v2"
    xmlns:ns4="http://www.garmin.com/xmlschemas/ProfileExtension/v1"
    xmlns:ns5="http://www.garmin.com/xmlschemas/ActivityGoals/v1"
    xmlns:xsi="http://www.w3.org/2001/XMLSchema-instance" xsi:schemaLocation="http://www.garmin.com/xmlschemas/TrainingCenterDatabase/v2 http://www.garmin.com/xmlschemas/TrainingCenterDatabasev2.xsd">
    <Activities>
        <Activity Sport="Walking">
            <Id>2022-10-22T16:19:24.810Z</Id>
            <Lap StartTime="2022-10-22T16:19:24.810Z">
                <Track>
                    <Trackpoint>
                        <DistanceMeters>0.0</DistanceMeters>
                        <Time>2022-10-22T16:19:24.810Z</Time>
                    </Trackpoint>
                    <Trackpoint>
                        <DistanceMeters>0.0</DistanceMeters>
                        <Time>2022-10-22T17:33:08.810Z</Time>
                    </Trackpoint>
                    <Trackpoint>
                        <DistanceMeters>26.098599942946432</DistanceMeters>
                        <Time>2022-10-22T17:33:54.310Z</Time>
                    </Trackpoint>
                    <Trackpoint>
                        <DistanceMeters>94.60742479318083</DistanceMeters>
                        <Time>2022-10-22T17:35:10.570Z</Time>
                    </Trackpoint>
                    <Trackpoint>
                        <DistanceMeters>152.59376709605965</DistanceMeters>
                        <Time>2022-10-22T17:36:07.230Z</Time>
                    </Trackpoint>
                    <Trackpoint>
                        <DistanceMeters>214.07027601945808</DistanceMeters>
                        <Time>2022-10-22T17:37:11.530Z</Time>
                    </Trackpoint>
                    <Trackpoint>
                        <DistanceMeters>270.29470508243605</DistanceMeters>
                        <Time>2022-10-22T17:38:12.650Z</Time>
                    </Trackpoint>
                    <Trackpoint>
                        <DistanceMeters>323.79683496547625</DistanceMeters>
                        <Time>2022-10-22T17:39:13.290Z</Time>
                    </Trackpoint>
                </Track>
                <DistanceMeters>323.79683496547625</DistanceMeters>
                <TotalTimeSeconds>4788.479996849</TotalTimeSeconds>
                <Calories>123.24841083804888</Calories>
                <Intensity>Active</Intensity>
                <TriggerMethod>Manual</TriggerMethod>
            </Lap>
        </Activity>
        <Activity Sport="Walking">
            <Id>2022-10-22T17:38:12.650Z</Id>
            <Lap StartTime="2022-10-22T17:38:12.650Z">
                <Track>
                    <Trackpoint>
                        <DistanceMeters>0.0</DistanceMeters>
                        <Time>2022-10-22T17:38:12.650Z</Time>
                    </Trackpoint>
                    <Trackpoint>
                        <DistanceMeters>53.50212988304018</DistanceMeters>
                        <Time>2022-10-22T17:38:30.556Z</Time>
                    </Trackpoint>
                    <Trackpoint>
                        <DistanceMeters>53.50212988304018</DistanceMeters>
                        <Time>2022-10-22T17:39:13.290Z</Time>
                    </Trackpoint>
                    <Trackpoint>
                        <DistanceMeters>93.3024947960335</DistanceMeters>
                        <Time>2022-10-22T17:40:13.770Z</Time>
                    </Trackpoint>
                    <Trackpoint>
                        <DistanceMeters>144.8472296833527</DistanceMeters>
                        <Time>2022-10-22T17:41:14.330Z</Time>
                    </Trackpoint>
                    <Trackpoint>
                        <DistanceMeters>190.51977958350898</DistanceMeters>
                        <Time>2022-10-22T17:42:05.690Z</Time>
                    </Trackpoint>
                    <Trackpoint>
                        <DistanceMeters>256.7502252099805</DistanceMeters>
                        <Time>2022-10-22T17:43:16.930Z</Time>
                    </Trackpoint>
                    <Trackpoint>
                        <DistanceMeters>313.13695833727803</DistanceMeters>
                        <Time>2022-10-22T17:44:17.610Z</Time>
                    </Trackpoint>
                    <Trackpoint>
                        <DistanceMeters>374.00727054908305</DistanceMeters>
                        <Time>2022-10-22T17:45:18.730Z</Time>
                    </Trackpoint>
                    <Trackpoint>
                        <DistanceMeters>427.50940043212324</DistanceMeters>
                        <Time>2022-10-22T17:46:19.850Z</Time>
                    </Trackpoint>
                </Track>
                <DistanceMeters>427.50940043212324</DistanceMeters>
                <TotalTimeSeconds>487.200000329</TotalTimeSeconds>
                <Calories>45.781963</Calories>
                <Intensity>Active</Intensity>
                <TriggerMethod>Manual</TriggerMethod>
            </Lap>
        </Activity>
        <Activity Sport="Walking">
            <Id>2022-10-22T17:45:18.730Z</Id>
            <Lap StartTime="2022-10-22T17:45:18.730Z">
                <Track>
                    <Trackpoint>
                        <DistanceMeters>0.0</DistanceMeters>
                        <Time>2022-10-22T17:45:18.730Z</Time>
                    </Trackpoint>
                    <Trackpoint>
                        <DistanceMeters>53.50212988304018</DistanceMeters>
                        <Time>2022-10-22T17:45:57.694Z</Time>
                    </Trackpoint>
                    <Trackpoint>
                        <DistanceMeters>53.50212988304018</DistanceMeters>
                        <Time>2022-10-22T17:46:19.850Z</Time>
                    </Trackpoint>
                    <Trackpoint>
                        <DistanceMeters>104.39439977178573</DistanceMeters>
                        <Time>2022-10-22T17:47:20.290Z</Time>
                    </Trackpoint>
                    <Trackpoint>
                        <DistanceMeters>153.3292746648103</DistanceMeters>
                        <Time>2022-10-22T17:48:23.890Z</Time>
                    </Trackpoint>
                    <Trackpoint>
                        <DistanceMeters>199.00182456496657</DistanceMeters>
                        <Time>2022-10-22T17:49:24.690Z</Time>
                    </Trackpoint>
                    <Trackpoint>
                        <DistanceMeters>248.5891644565648</DistanceMeters>
                        <Time>2022-10-22T17:50:24.250Z</Time>
                    </Trackpoint>
                </Track>
                <DistanceMeters>248.5891644565648</DistanceMeters>
                <TotalTimeSeconds>305.519998642</TotalTimeSeconds>
                <Calories>26.166197277777776</Calories>
                <Intensity>Active</Intensity>
                <TriggerMethod>Manual</TriggerMethod>
            </Lap>
        </Activity>
        <Activity Sport="Walking">
            <Id>2022-10-22T17:49:24.690Z</Id>
            <Lap StartTime="2022-10-22T17:49:24.690Z">
                <Track>
                    <Trackpoint>
                        <DistanceMeters>0.0</DistanceMeters>
                        <Time>2022-10-22T17:49:24.690Z</Time>
                    </Trackpoint>
                    <Trackpoint>
                        <DistanceMeters>49.58733989159822</DistanceMeters>
                        <Time>2022-10-22T17:50:13.251Z</Time>
                    </Trackpoint>
                    <Trackpoint>
                        <DistanceMeters>49.58733989159822</DistanceMeters>
                        <Time>2022-10-22T17:50:24.250Z</Time>
                    </Trackpoint>
                    <Trackpoint>
                        <DistanceMeters>93.95495979460716</DistanceMeters>
                        <Time>2022-10-22T17:51:23.270Z</Time>
                    </Trackpoint>
                </Track>
                <DistanceMeters>93.95495979460716</DistanceMeters>
                <TotalTimeSeconds>118.579998343</TotalTimeSeconds>
                <Calories>5.490297</Calories>
                <Intensity>Active</Intensity>
                <TriggerMethod>Manual</TriggerMethod>
            </Lap>
        </Activity>
        <Activity Sport="Walking">
            <Id>2022-10-22T17:50:24.250Z</Id>
            <Lap StartTime="2022-10-22T17:50:24.250Z">
                <Track>
                    <Trackpoint>
                        <DistanceMeters>0.0</DistanceMeters>
                        <Time>2022-10-22T17:50:24.250Z</Time>
                    </Trackpoint>
                    <Trackpoint>
                        <DistanceMeters>44.367619903008936</DistanceMeters>
                        <Time>2022-10-22T17:51:06.873Z</Time>
                    </Trackpoint>
                    <Trackpoint>
                        <DistanceMeters>44.367619903008936</DistanceMeters>
                        <Time>2022-10-22T17:51:23.270Z</Time>
                    </Trackpoint>
                </Track>
                <DistanceMeters>44.367619903008936</DistanceMeters>
                <TotalTimeSeconds>59.020000031</TotalTimeSeconds>
                <Calories>1.6789229158606664</Calories>
                <Intensity>Active</Intensity>
                <TriggerMethod>Manual</TriggerMethod>
            </Lap>
        </Activity>
    </Activities>
    <Author xsi:type="Application_t">
        <Name>Google Fit</Name>
        <Build>
            <Version>
                <VersionMajor>0</VersionMajor>
                <VersionMinor>0</VersionMinor>
                <BuildMajor>0</BuildMajor>
                <BuildMinor>0</BuildMinor>
            </Version>
        </Build>
        <LangID>en</LangID>
        <PartNumber>000-00000-00</PartNumber>
    </Author>
</TrainingCenterDatabase>
