<?xml version="1.0" encoding="UTF-8"?>
<TrainingCenterDatabase
    xmlns="http://www.garmin.com/xmlschemas/TrainingCenterDatabase/v2"
    xmlns:ns2="http://www.garmin.com/xmlschemas/UserProfile/v2"
    xmlns:ns3="http://www.garmin.com/xmlschemas/ActivityExtension/v2"
    xmlns:ns4="http://www.garmin.com/xmlschemas/ProfileExtension/v1"
    xmlns:ns5="http://www.garmin.com/xmlschemas/ActivityGoals/v1"
    xmlns:xsi="http://www.w3.org/2001/XMLSchema-instance" xsi:schemaLocation="http://www.garmin.com/xmlschemas/TrainingCenterDatabase/v2 http://www.garmin.com/xmlschemas/TrainingCenterDatabasev2.xsd">
    <Activities>
        <Activity Sport="Walking">
            <Id>2022-12-29T13:05:30.799Z</Id>
            <Lap StartTime="2022-12-29T13:05:30.799Z">
                <Track>
                    <Trackpoint>
                        <DistanceMeters>0.0</DistanceMeters>
                        <Time>2022-12-29T13:05:30.799Z</Time>
                    </Trackpoint>
                    <Trackpoint>
                        <DistanceMeters>60.02677986877679</DistanceMeters>
                        <Time>2022-12-29T13:08:31.343Z</Time>
                    </Trackpoint>
                    <Trackpoint>
                        <DistanceMeters>60.02677986877679</DistanceMeters>
                        <Time>2022-12-29T13:10:04.861Z</Time>
                    </Trackpoint>
                </Track>
                <DistanceMeters>60.02677986877679</DistanceMeters>
                <TotalTimeSeconds>274.06136402</TotalTimeSeconds>
                <Calories>9.57520411111111</Calories>
                <Intensity>Active</Intensity>
                <TriggerMethod>Manual</TriggerMethod>
            </Lap>
        </Activity>
        <Activity Sport="Walking">
            <Id>2022-12-29T13:10:04.861Z</Id>
            <Lap StartTime="2022-12-29T13:10:04.861Z">
                <Track>
                    <Trackpoint>
                        <DistanceMeters>0.0</DistanceMeters>
                        <Time>2022-12-29T13:10:04.861Z</Time>
                    </Trackpoint>
                    <Trackpoint>
                        <DistanceMeters>0.0</DistanceMeters>
                        <Time>2022-12-29T13:20:20.499Z</Time>
                    </Trackpoint>
                    <Trackpoint>
                        <DistanceMeters>41.75775990871429</DistanceMeters>
                        <Time>2022-12-29T13:22:22.859Z</Time>
                    </Trackpoint>
                    <Trackpoint>
                        <DistanceMeters>72.75310692037156</DistanceMeters>
                        <Time>2022-12-29T13:22:47.159Z</Time>
                    </Trackpoint>
                </Track>
                <DistanceMeters>72.75310692037156</DistanceMeters>
                <TotalTimeSeconds>762.298639642</TotalTimeSeconds>
                <Calories>16.21177090965061</Calories>
                <Intensity>Active</Intensity>
                <TriggerMethod>Manual</TriggerMethod>
            </Lap>
        </Activity>
        <Activity Sport="Walking">
            <Id>2022-12-29T13:22:22.859Z</Id>
            <Lap StartTime="2022-12-29T13:22:22.859Z">
                <Track>
                    <Trackpoint>
                        <DistanceMeters>0.0</DistanceMeters>
                        <Time>2022-12-29T13:22:22.859Z</Time>
                    </Trackpoint>
                    <Trackpoint>
                        <DistanceMeters>30.995347011657277</DistanceMeters>
                        <Time>2022-12-29T13:22:28.050Z</Time>
                    </Trackpoint>
                    <Trackpoint>
                        <DistanceMeters>30.995347011657277</DistanceMeters>
                        <Time>2022-12-29T13:22:59.197Z</Time>
                    </Trackpoint>
                </Track>
                <DistanceMeters>30.995347011657277</DistanceMeters>
                <TotalTimeSeconds>36.337360358</TotalTimeSeconds>
                <Calories>3.189106722222222</Calories>
                <Intensity>Active</Intensity>
                <TriggerMethod>Manual</TriggerMethod>
            </Lap>
        </Activity>
        <Activity Sport="Walking">
            <Id>2022-12-29T13:22:59.197Z</Id>
            <Lap StartTime="2022-12-29T13:22:59.197Z">
                <Track>
                    <Trackpoint>
                        <DistanceMeters>0.0</DistanceMeters>
                        <Time>2022-12-29T13:22:59.197Z</Time>
                    </Trackpoint>
                    <Trackpoint>
                        <DistanceMeters>0.0</DistanceMeters>
                        <Time>2022-12-29T13:25:31.499Z</Time>
                    </Trackpoint>
                    <Trackpoint>
                        <DistanceMeters>22.183809951504468</DistanceMeters>
                        <Time>2022-12-29T13:26:39.499Z</Time>
                    </Trackpoint>
                    <Trackpoint>
                        <DistanceMeters>59.374314870203136</DistanceMeters>
                        <Time>2022-12-29T13:27:22.979Z</Time>
                    </Trackpoint>
                    <Trackpoint>
                        <DistanceMeters>75.69216089916327</DistanceMeters>
                        <Time>2022-12-29T13:27:40.819Z</Time>
                    </Trackpoint>
                    <Trackpoint>
                        <DistanceMeters>121.36471079931952</DistanceMeters>
                        <Time>2022-12-29T13:28:41.499Z</Time>
                    </Trackpoint>
                    <Trackpoint>
                        <DistanceMeters>127.23689578648248</DistanceMeters>
                        <Time>2022-12-29T13:28:48.459Z</Time>
                    </Trackpoint>
                    <Trackpoint>
                        <DistanceMeters>152.68303073085525</DistanceMeters>
                        <Time>2022-12-29T13:29:18.299Z</Time>
                    </Trackpoint>
                    <Trackpoint>
                        <DistanceMeters>180.73902566952268</DistanceMeters>
                        <Time>2022-12-29T13:29:59.779Z</Time>
                    </Trackpoint>
                    <Trackpoint>
                        <DistanceMeters>196.39818563529053</DistanceMeters>
                        <Time>2022-12-29T13:30:22.859Z</Time>
                    </Trackpoint>
                </Track>
                <DistanceMeters>196.39818563529053</DistanceMeters>
                <TotalTimeSeconds>443.662639508</TotalTimeSeconds>
                <Calories>25.892941415835576</Calories>
                <Intensity>Active</Intensity>
                <TriggerMethod>Manual</TriggerMethod>
            </Lap>
        </Activity>
        <Activity Sport="Walking">
            <Id>2022-12-29T13:29:59.779Z</Id>
            <Lap StartTime="2022-12-29T13:29:59.779Z">
                <Track>
                    <Trackpoint>
                        <DistanceMeters>0.0</DistanceMeters>
                        <Time>2022-12-29T13:29:59.779Z</Time>
                    </Trackpoint>
                    <Trackpoint>
                        <DistanceMeters>15.65915996576786</DistanceMeters>
                        <Time>2022-12-29T13:30:06.672Z</Time>
                    </Trackpoint>
                    <Trackpoint>
                        <DistanceMeters>15.65915996576786</DistanceMeters>
                        <Time>2022-12-29T13:30:22.859Z</Time>
                    </Trackpoint>
                    <Trackpoint>
                        <DistanceMeters>41.75775990871429</DistanceMeters>
                        <Time>2022-12-29T13:31:00.459Z</Time>
                    </Trackpoint>
                    <Trackpoint>
                        <DistanceMeters>59.374314870203136</DistanceMeters>
                        <Time>2022-12-29T13:31:22.579Z</Time>
                    </Trackpoint>
                    <Trackpoint>
                        <DistanceMeters>86.12537981172323</DistanceMeters>
                        <Time>2022-12-29T13:31:56.359Z</Time>
                    </Trackpoint>
                    <Trackpoint>
                        <DistanceMeters>101.78453977749109</DistanceMeters>
                        <Time>2022-12-29T13:32:23.859Z</Time>
                    </Trackpoint>
                    <Trackpoint>
                        <DistanceMeters>140.93243969191073</DistanceMeters>
                        <Time>2022-12-29T13:33:08.739Z</Time>
                    </Trackpoint>
                    <Trackpoint>
                        <DistanceMeters>150.71941467051565</DistanceMeters>
                        <Time>2022-12-29T13:33:23.619Z</Time>
                    </Trackpoint>
                    <Trackpoint>
                        <DistanceMeters>182.69019960062502</DistanceMeters>
                        <Time>2022-12-29T13:34:15.939Z</Time>
                    </Trackpoint>
                    <Trackpoint>
                        <DistanceMeters>189.8673145849353</DistanceMeters>
                        <Time>2022-12-29T13:34:24.859Z</Time>
                    </Trackpoint>
                    <Trackpoint>
                        <DistanceMeters>214.00851953216073</DistanceMeters>
                        <Time>2022-12-29T13:35:07.279Z</Time>
                    </Trackpoint>
                </Track>
                <DistanceMeters>214.00851953216073</DistanceMeters>
                <TotalTimeSeconds>307.499360492</TotalTimeSeconds>
                <Calories>30.778816722222217</Calories>
                <Intensity>Active</Intensity>
                <TriggerMethod>Manual</TriggerMethod>
            </Lap>
        </Activity>
    </Activities>
    <Author xsi:type="Application_t">
        <Name>Google Fit</Name>
        <Build>
            <Version>
                <VersionMajor>0</VersionMajor>
                <VersionMinor>0</VersionMinor>
                <BuildMajor>0</BuildMajor>
                <BuildMinor>0</BuildMinor>
            </Version>
        </Build>
        <LangID>en</LangID>
        <PartNumber>000-00000-00</PartNumber>
    </Author>
</TrainingCenterDatabase>
