<?xml version="1.0" encoding="UTF-8"?>
<TrainingCenterDatabase
    xmlns="http://www.garmin.com/xmlschemas/TrainingCenterDatabase/v2"
    xmlns:ns2="http://www.garmin.com/xmlschemas/UserProfile/v2"
    xmlns:ns3="http://www.garmin.com/xmlschemas/ActivityExtension/v2"
    xmlns:ns4="http://www.garmin.com/xmlschemas/ProfileExtension/v1"
    xmlns:ns5="http://www.garmin.com/xmlschemas/ActivityGoals/v1"
    xmlns:xsi="http://www.w3.org/2001/XMLSchema-instance" xsi:schemaLocation="http://www.garmin.com/xmlschemas/TrainingCenterDatabase/v2 http://www.garmin.com/xmlschemas/TrainingCenterDatabasev2.xsd">
    <Activities>
        <Activity Sport="Walking">
            <Id>2022-09-15T17:32:17.889Z</Id>
            <Lap StartTime="2022-09-15T17:32:17.889Z">
                <Track>
                    <Trackpoint>
                        <DistanceMeters>0.0</DistanceMeters>
                        <Time>2022-09-15T17:32:17.889Z</Time>
                    </Trackpoint>
                    <Trackpoint>
                        <DistanceMeters>48.28240966796875</DistanceMeters>
                        <Time>2022-09-15T17:34:23.347Z</Time>
                    </Trackpoint>
                    <Trackpoint>
                        <DistanceMeters>48.28240966796875</DistanceMeters>
                        <Time>2022-09-15T17:34:45.889Z</Time>
                    </Trackpoint>
                    <Trackpoint>
                        <DistanceMeters>72.84511756896973</DistanceMeters>
                        <Time>2022-09-15T17:35:06.889Z</Time>
                    </Trackpoint>
                    <Trackpoint>
                        <DistanceMeters>119.7222843170166</DistanceMeters>
                        <Time>2022-09-15T17:35:47.369Z</Time>
                    </Trackpoint>
                    <Trackpoint>
                        <DistanceMeters>143.5219020843506</DistanceMeters>
                        <Time>2022-09-15T17:36:07.889Z</Time>
                    </Trackpoint>
                    <Trackpoint>
                        <DistanceMeters>189.5364589691162</DistanceMeters>
                        <Time>2022-09-15T17:36:48.089Z</Time>
                    </Trackpoint>
                    <Trackpoint>
                        <DistanceMeters>211.27007865905762</DistanceMeters>
                        <Time>2022-09-15T17:37:08.809Z</Time>
                    </Trackpoint>
                    <Trackpoint>
                        <DistanceMeters>254.30525398254395</DistanceMeters>
                        <Time>2022-09-15T17:37:49.049Z</Time>
                    </Trackpoint>
                    <Trackpoint>
                        <DistanceMeters>276.7746410369873</DistanceMeters>
                        <Time>2022-09-15T17:38:10.289Z</Time>
                    </Trackpoint>
                    <Trackpoint>
                        <DistanceMeters>320.0115146636963</DistanceMeters>
                        <Time>2022-09-15T17:38:50.089Z</Time>
                    </Trackpoint>
                    <Trackpoint>
                        <DistanceMeters>342.53478622436523</DistanceMeters>
                        <Time>2022-09-15T17:39:11.209Z</Time>
                    </Trackpoint>
                    <Trackpoint>
                        <DistanceMeters>384.69012451171875</DistanceMeters>
                        <Time>2022-09-15T17:39:51.249Z</Time>
                    </Trackpoint>
                    <Trackpoint>
                        <DistanceMeters>407.249662399292</DistanceMeters>
                        <Time>2022-09-15T17:40:12.289Z</Time>
                    </Trackpoint>
                    <Trackpoint>
                        <DistanceMeters>450.5423221588135</DistanceMeters>
                        <Time>2022-09-15T17:40:51.969Z</Time>
                    </Trackpoint>
                    <Trackpoint>
                        <DistanceMeters>473.9134273529053</DistanceMeters>
                        <Time>2022-09-15T17:41:13.369Z</Time>
                    </Trackpoint>
                    <Trackpoint>
                        <DistanceMeters>517.2809963226318</DistanceMeters>
                        <Time>2022-09-15T17:41:52.889Z</Time>
                    </Trackpoint>
                    <Trackpoint>
                        <DistanceMeters>541.642017364502</DistanceMeters>
                        <Time>2022-09-15T17:42:14.289Z</Time>
                    </Trackpoint>
                    <Trackpoint>
                        <DistanceMeters>580.6695976257324</DistanceMeters>
                        <Time>2022-09-15T17:42:52.689Z</Time>
                    </Trackpoint>
                    <Trackpoint>
                        <DistanceMeters>600.9043083190918</DistanceMeters>
                        <Time>2022-09-15T17:43:14.809Z</Time>
                    </Trackpoint>
                    <Trackpoint>
                        <DistanceMeters>643.2933082580566</DistanceMeters>
                        <Time>2022-09-15T17:43:54.329Z</Time>
                    </Trackpoint>
                    <Trackpoint>
                        <DistanceMeters>666.0195121765137</DistanceMeters>
                        <Time>2022-09-15T17:44:15.009Z</Time>
                    </Trackpoint>
                    <Trackpoint>
                        <DistanceMeters>711.0765571594238</DistanceMeters>
                        <Time>2022-09-15T17:44:55.129Z</Time>
                    </Trackpoint>
                    <Trackpoint>
                        <DistanceMeters>732.7575378417969</DistanceMeters>
                        <Time>2022-09-15T17:45:15.969Z</Time>
                    </Trackpoint>
                    <Trackpoint>
                        <DistanceMeters>798.425048828125</DistanceMeters>
                        <Time>2022-09-15T17:46:17.089Z</Time>
                    </Trackpoint>
                    <Trackpoint>
                        <DistanceMeters>820.5584926605225</DistanceMeters>
                        <Time>2022-09-15T17:47:47.978Z</Time>
                    </Trackpoint>
                </Track>
                <DistanceMeters>820.5584926605225</DistanceMeters>
                <TotalTimeSeconds>930.088119741</TotalTimeSeconds>
                <Calories>82.3852767944336</Calories>
                <Intensity>Active</Intensity>
                <TriggerMethod>Manual</TriggerMethod>
            </Lap>
        </Activity>
        <Activity Sport="Walking">
            <Id>2022-09-15T17:54:06.569Z</Id>
            <Lap StartTime="2022-09-15T17:54:06.569Z">
                <Track>
                    <Trackpoint>
                        <DistanceMeters>0.0</DistanceMeters>
                        <Time>2022-09-15T17:54:06.569Z</Time>
                    </Trackpoint>
                    <Trackpoint>
                        <DistanceMeters>40.45282745361328</DistanceMeters>
                        <Time>2022-09-15T17:55:29.265Z</Time>
                    </Trackpoint>
                    <Trackpoint>
                        <DistanceMeters>40.45282745361328</DistanceMeters>
                        <Time>2022-09-15T17:56:27.607Z</Time>
                    </Trackpoint>
                </Track>
                <DistanceMeters>40.45282745361328</DistanceMeters>
                <TotalTimeSeconds>141.037107328</TotalTimeSeconds>
                <Calories>5.97357177734375</Calories>
                <Intensity>Active</Intensity>
                <TriggerMethod>Manual</TriggerMethod>
            </Lap>
        </Activity>
    </Activities>
    <Author xsi:type="Application_t">
        <Name>Google Fit</Name>
        <Build>
            <Version>
                <VersionMajor>0</VersionMajor>
                <VersionMinor>0</VersionMinor>
                <BuildMajor>0</BuildMajor>
                <BuildMinor>0</BuildMinor>
            </Version>
        </Build>
        <LangID>en</LangID>
        <PartNumber>000-00000-00</PartNumber>
    </Author>
</TrainingCenterDatabase>
