<?xml version="1.0" encoding="UTF-8"?>
<TrainingCenterDatabase
    xmlns="http://www.garmin.com/xmlschemas/TrainingCenterDatabase/v2"
    xmlns:ns2="http://www.garmin.com/xmlschemas/UserProfile/v2"
    xmlns:ns3="http://www.garmin.com/xmlschemas/ActivityExtension/v2"
    xmlns:ns4="http://www.garmin.com/xmlschemas/ProfileExtension/v1"
    xmlns:ns5="http://www.garmin.com/xmlschemas/ActivityGoals/v1"
    xmlns:xsi="http://www.w3.org/2001/XMLSchema-instance" xsi:schemaLocation="http://www.garmin.com/xmlschemas/TrainingCenterDatabase/v2 http://www.garmin.com/xmlschemas/TrainingCenterDatabasev2.xsd">
    <Activities>
        <Activity Sport="Walking">
            <Id>2023-08-17T18:50:19.794Z</Id>
            <Lap StartTime="2023-08-17T18:50:19.794Z">
                <Track>
                    <Trackpoint>
                        <DistanceMeters>0.0</DistanceMeters>
                        <Time>2023-08-17T18:50:19.794Z</Time>
                    </Trackpoint>
                    <Trackpoint>
                        <DistanceMeters>0.0</DistanceMeters>
                        <Time>2023-08-17T20:00:51.683Z</Time>
                    </Trackpoint>
                    <Trackpoint>
                        <DistanceMeters>24.50852579381726</DistanceMeters>
                        <Time>2023-08-17T20:02:05.683Z</Time>
                    </Trackpoint>
                    <Trackpoint>
                        <DistanceMeters>24.50852579381726</DistanceMeters>
                        <Time>2023-08-17T20:03:47.411Z</Time>
                    </Trackpoint>
                </Track>
                <DistanceMeters>24.50852579381726</DistanceMeters>
                <TotalTimeSeconds>4407.61665922</TotalTimeSeconds>
                <Calories>107.97813108814245</Calories>
                <Intensity>Active</Intensity>
                <TriggerMethod>Manual</TriggerMethod>
            </Lap>
        </Activity>
        <Activity Sport="Walking">
            <Id>2023-08-17T20:03:47.411Z</Id>
            <Lap StartTime="2023-08-17T20:03:47.411Z">
                <Track>
                    <Trackpoint>
                        <DistanceMeters>0.0</DistanceMeters>
                        <Time>2023-08-17T20:03:47.411Z</Time>
                    </Trackpoint>
                    <Trackpoint>
                        <DistanceMeters>42.297204968072776</DistanceMeters>
                        <Time>2023-08-17T20:04:44.822Z</Time>
                    </Trackpoint>
                    <Trackpoint>
                        <DistanceMeters>50.19598223181205</DistanceMeters>
                        <Time>2023-08-17T20:04:51.302Z</Time>
                    </Trackpoint>
                    <Trackpoint>
                        <DistanceMeters>92.55030744243626</DistanceMeters>
                        <Time>2023-08-17T20:05:30.138Z</Time>
                    </Trackpoint>
                    <Trackpoint>
                        <DistanceMeters>103.14858886678968</DistanceMeters>
                        <Time>2023-08-17T20:05:51.705Z</Time>
                    </Trackpoint>
                    <Trackpoint>
                        <DistanceMeters>155.86954577623797</DistanceMeters>
                        <Time>2023-08-17T20:06:44.685Z</Time>
                    </Trackpoint>
                    <Trackpoint>
                        <DistanceMeters>161.83107907743675</DistanceMeters>
                        <Time>2023-08-17T20:06:51.261Z</Time>
                    </Trackpoint>
                    <Trackpoint>
                        <DistanceMeters>180.37807157005523</DistanceMeters>
                        <Time>2023-08-17T20:07:45.213Z</Time>
                    </Trackpoint>
                    <Trackpoint>
                        <DistanceMeters>183.69003451516568</DistanceMeters>
                        <Time>2023-08-17T20:07:48.931Z</Time>
                    </Trackpoint>
                    <Trackpoint>
                        <DistanceMeters>207.53616771996084</DistanceMeters>
                        <Time>2023-08-17T20:08:39.623Z</Time>
                    </Trackpoint>
                    <Trackpoint>
                        <DistanceMeters>216.147271377248</DistanceMeters>
                        <Time>2023-08-17T20:09:00.546Z</Time>
                    </Trackpoint>
                    <Trackpoint>
                        <DistanceMeters>257.2156118966175</DistanceMeters>
                        <Time>2023-08-17T20:09:55.266Z</Time>
                    </Trackpoint>
                    <Trackpoint>
                        <DistanceMeters>266.4891081429267</DistanceMeters>
                        <Time>2023-08-17T20:10:05.990Z</Time>
                    </Trackpoint>
                    <Trackpoint>
                        <DistanceMeters>291.66002652576606</DistanceMeters>
                        <Time>2023-08-17T20:10:55.783Z</Time>
                    </Trackpoint>
                    <Trackpoint>
                        <DistanceMeters>304.6314743310336</DistanceMeters>
                        <Time>2023-08-17T20:11:06.301Z</Time>
                    </Trackpoint>
                    <Trackpoint>
                        <DistanceMeters>362.8313781882441</DistanceMeters>
                        <Time>2023-08-17T20:11:55.903Z</Time>
                    </Trackpoint>
                    <Trackpoint>
                        <DistanceMeters>375.702351227208</DistanceMeters>
                        <Time>2023-08-17T20:12:06.608Z</Time>
                    </Trackpoint>
                    <Trackpoint>
                        <DistanceMeters>434.99377738883635</DistanceMeters>
                        <Time>2023-08-17T20:12:56.079Z</Time>
                    </Trackpoint>
                    <Trackpoint>
                        <DistanceMeters>448.79292174998517</DistanceMeters>
                        <Time>2023-08-17T20:13:06.990Z</Time>
                    </Trackpoint>
                    <Trackpoint>
                        <DistanceMeters>508.2222180725712</DistanceMeters>
                        <Time>2023-08-17T20:13:56.201Z</Time>
                    </Trackpoint>
                    <Trackpoint>
                        <DistanceMeters>521.8260910689264</DistanceMeters>
                        <Time>2023-08-17T20:14:07.467Z</Time>
                    </Trackpoint>
                    <Trackpoint>
                        <DistanceMeters>578.2874719388383</DistanceMeters>
                        <Time>2023-08-17T20:15:45.359Z</Time>
                    </Trackpoint>
                </Track>
                <DistanceMeters>578.2874719388383</DistanceMeters>
                <TotalTimeSeconds>717.948</TotalTimeSeconds>
                <Calories>80.330404</Calories>
                <Intensity>Active</Intensity>
                <TriggerMethod>Manual</TriggerMethod>
            </Lap>
        </Activity>
    </Activities>
    <Author xsi:type="Application_t">
        <Name>Google Fit</Name>
        <Build>
            <Version>
                <VersionMajor>0</VersionMajor>
                <VersionMinor>0</VersionMinor>
                <BuildMajor>0</BuildMajor>
                <BuildMinor>0</BuildMinor>
            </Version>
        </Build>
        <LangID>en</LangID>
        <PartNumber>000-00000-00</PartNumber>
    </Author>
</TrainingCenterDatabase>
