<?xml version="1.0" encoding="UTF-8"?>
<TrainingCenterDatabase
    xmlns="http://www.garmin.com/xmlschemas/TrainingCenterDatabase/v2"
    xmlns:ns2="http://www.garmin.com/xmlschemas/UserProfile/v2"
    xmlns:ns3="http://www.garmin.com/xmlschemas/ActivityExtension/v2"
    xmlns:ns4="http://www.garmin.com/xmlschemas/ProfileExtension/v1"
    xmlns:ns5="http://www.garmin.com/xmlschemas/ActivityGoals/v1"
    xmlns:xsi="http://www.w3.org/2001/XMLSchema-instance" xsi:schemaLocation="http://www.garmin.com/xmlschemas/TrainingCenterDatabase/v2 http://www.garmin.com/xmlschemas/TrainingCenterDatabasev2.xsd">
    <Activities>
        <Activity Sport="Walking">
            <Id>2023-08-27T07:45:39.295Z</Id>
            <Lap StartTime="2023-08-27T07:45:39.295Z">
                <Track>
                    <Trackpoint>
                        <DistanceMeters>0.0</DistanceMeters>
                        <Time>2023-08-27T07:45:39.295Z</Time>
                    </Trackpoint>
                    <Trackpoint>
                        <DistanceMeters>0.0</DistanceMeters>
                        <Time>2023-08-27T08:06:47.952Z</Time>
                    </Trackpoint>
                    <Trackpoint>
                        <DistanceMeters>14.572636958485937</DistanceMeters>
                        <Time>2023-08-27T08:07:05.654Z</Time>
                    </Trackpoint>
                    <Trackpoint>
                        <DistanceMeters>63.91288634132112</DistanceMeters>
                        <Time>2023-08-27T08:07:41.227Z</Time>
                    </Trackpoint>
                    <Trackpoint>
                        <DistanceMeters>93.94401865640262</DistanceMeters>
                        <Time>2023-08-27T08:08:06.207Z</Time>
                    </Trackpoint>
                </Track>
                <DistanceMeters>93.94401865640262</DistanceMeters>
                <TotalTimeSeconds>1346.912984055</TotalTimeSeconds>
                <Calories>34.71630911663522</Calories>
                <Intensity>Active</Intensity>
                <TriggerMethod>Manual</TriggerMethod>
            </Lap>
        </Activity>
        <Activity Sport="Walking">
            <Id>2023-08-27T08:07:41.227Z</Id>
            <Lap StartTime="2023-08-27T08:07:41.227Z">
                <Track>
                    <Trackpoint>
                        <DistanceMeters>0.0</DistanceMeters>
                        <Time>2023-08-27T08:07:41.227Z</Time>
                    </Trackpoint>
                    <Trackpoint>
                        <DistanceMeters>30.0311323150815</DistanceMeters>
                        <Time>2023-08-27T08:07:43.865Z</Time>
                    </Trackpoint>
                    <Trackpoint>
                        <DistanceMeters>30.0311323150815</DistanceMeters>
                        <Time>2023-08-27T08:08:06.207Z</Time>
                    </Trackpoint>
                    <Trackpoint>
                        <DistanceMeters>74.14482232792287</DistanceMeters>
                        <Time>2023-08-27T08:08:41.572Z</Time>
                    </Trackpoint>
                    <Trackpoint>
                        <DistanceMeters>106.15754523110085</DistanceMeters>
                        <Time>2023-08-27T08:09:06.739Z</Time>
                    </Trackpoint>
                    <Trackpoint>
                        <DistanceMeters>149.4341794964986</DistanceMeters>
                        <Time>2023-08-27T08:09:41.730Z</Time>
                    </Trackpoint>
                    <Trackpoint>
                        <DistanceMeters>181.20555732922264</DistanceMeters>
                        <Time>2023-08-27T08:10:07.326Z</Time>
                    </Trackpoint>
                    <Trackpoint>
                        <DistanceMeters>224.61188920396035</DistanceMeters>
                        <Time>2023-08-27T08:10:42.082Z</Time>
                    </Trackpoint>
                    <Trackpoint>
                        <DistanceMeters>256.4718891420342</DistanceMeters>
                        <Time>2023-08-27T08:11:07.519Z</Time>
                    </Trackpoint>
                    <Trackpoint>
                        <DistanceMeters>298.89824168509944</DistanceMeters>
                        <Time>2023-08-27T08:11:42.163Z</Time>
                    </Trackpoint>
                    <Trackpoint>
                        <DistanceMeters>330.4416302242446</DistanceMeters>
                        <Time>2023-08-27T08:12:08.178Z</Time>
                    </Trackpoint>
                    <Trackpoint>
                        <DistanceMeters>355.6125486070839</DistanceMeters>
                        <Time>2023-08-27T08:12:42.597Z</Time>
                    </Trackpoint>
                    <Trackpoint>
                        <DistanceMeters>387.2566471619056</DistanceMeters>
                        <Time>2023-08-27T08:13:08.425Z</Time>
                    </Trackpoint>
                    <Trackpoint>
                        <DistanceMeters>428.5924673079684</DistanceMeters>
                        <Time>2023-08-27T08:13:43.180Z</Time>
                    </Trackpoint>
                    <Trackpoint>
                        <DistanceMeters>460.2876190804187</DistanceMeters>
                        <Time>2023-08-27T08:14:08.915Z</Time>
                    </Trackpoint>
                    <Trackpoint>
                        <DistanceMeters>502.7848979043457</DistanceMeters>
                        <Time>2023-08-27T08:14:43.428Z</Time>
                    </Trackpoint>
                    <Trackpoint>
                        <DistanceMeters>534.4346763442926</DistanceMeters>
                        <Time>2023-08-27T08:15:09.246Z</Time>
                    </Trackpoint>
                    <Trackpoint>
                        <DistanceMeters>568.8750725919818</DistanceMeters>
                        <Time>2023-08-27T08:15:43.964Z</Time>
                    </Trackpoint>
                    <Trackpoint>
                        <DistanceMeters>600.6369689025776</DistanceMeters>
                        <Time>2023-08-27T08:16:09.577Z</Time>
                    </Trackpoint>
                    <Trackpoint>
                        <DistanceMeters>643.967596779738</DistanceMeters>
                        <Time>2023-08-27T08:16:44.470Z</Time>
                    </Trackpoint>
                    <Trackpoint>
                        <DistanceMeters>676.7852810194657</DistanceMeters>
                        <Time>2023-08-27T08:17:10.074Z</Time>
                    </Trackpoint>
                    <Trackpoint>
                        <DistanceMeters>721.126511951465</DistanceMeters>
                        <Time>2023-08-27T08:17:45.034Z</Time>
                    </Trackpoint>
                </Track>
                <DistanceMeters>721.126511951465</DistanceMeters>
                <TotalTimeSeconds>603.807187217</TotalTimeSeconds>
                <Calories>65.45365733333334</Calories>
                <Intensity>Active</Intensity>
                <TriggerMethod>Manual</TriggerMethod>
            </Lap>
        </Activity>
        <Activity Sport="Walking">
            <Id>2023-08-27T08:17:10.074Z</Id>
            <Lap StartTime="2023-08-27T08:17:10.074Z">
                <Track>
                    <Trackpoint>
                        <DistanceMeters>0.0</DistanceMeters>
                        <Time>2023-08-27T08:17:10.074Z</Time>
                    </Trackpoint>
                    <Trackpoint>
                        <DistanceMeters>44.341230931999206</DistanceMeters>
                        <Time>2023-08-27T08:17:28.853Z</Time>
                    </Trackpoint>
                    <Trackpoint>
                        <DistanceMeters>44.341230931999206</DistanceMeters>
                        <Time>2023-08-27T08:17:45.034Z</Time>
                    </Trackpoint>
                    <Trackpoint>
                        <DistanceMeters>57.097964707647115</DistanceMeters>
                        <Time>2023-08-27T08:17:55.960Z</Time>
                    </Trackpoint>
                </Track>
                <DistanceMeters>57.097964707647115</DistanceMeters>
                <TotalTimeSeconds>45.885817006</TotalTimeSeconds>
                <Calories>3.0330030357454443</Calories>
                <Intensity>Active</Intensity>
                <TriggerMethod>Manual</TriggerMethod>
            </Lap>
        </Activity>
    </Activities>
    <Author xsi:type="Application_t">
        <Name>Google Fit</Name>
        <Build>
            <Version>
                <VersionMajor>0</VersionMajor>
                <VersionMinor>0</VersionMinor>
                <BuildMajor>0</BuildMajor>
                <BuildMinor>0</BuildMinor>
            </Version>
        </Build>
        <LangID>en</LangID>
        <PartNumber>000-00000-00</PartNumber>
    </Author>
</TrainingCenterDatabase>
