<?xml version="1.0" encoding="UTF-8"?>
<TrainingCenterDatabase
    xmlns="http://www.garmin.com/xmlschemas/TrainingCenterDatabase/v2"
    xmlns:ns2="http://www.garmin.com/xmlschemas/UserProfile/v2"
    xmlns:ns3="http://www.garmin.com/xmlschemas/ActivityExtension/v2"
    xmlns:ns4="http://www.garmin.com/xmlschemas/ProfileExtension/v1"
    xmlns:ns5="http://www.garmin.com/xmlschemas/ActivityGoals/v1"
    xmlns:xsi="http://www.w3.org/2001/XMLSchema-instance" xsi:schemaLocation="http://www.garmin.com/xmlschemas/TrainingCenterDatabase/v2 http://www.garmin.com/xmlschemas/TrainingCenterDatabasev2.xsd">
    <Activities>
        <Activity Sport="Walking">
            <Id>2023-08-30T02:51:43.868Z</Id>
            <Lap StartTime="2023-08-30T02:51:43.868Z">
                <Track>
                    <Trackpoint>
                        <DistanceMeters>0.0</DistanceMeters>
                        <Time>2023-08-30T02:51:43.868Z</Time>
                    </Trackpoint>
                    <Trackpoint>
                        <DistanceMeters>0.0</DistanceMeters>
                        <Time>2023-08-30T03:30:47.297Z</Time>
                    </Trackpoint>
                    <Trackpoint>
                        <DistanceMeters>61.60251077905419</DistanceMeters>
                        <Time>2023-08-30T03:32:20.431Z</Time>
                    </Trackpoint>
                    <Trackpoint>
                        <DistanceMeters>108.35482577549459</DistanceMeters>
                        <Time>2023-08-30T03:33:02.590Z</Time>
                    </Trackpoint>
                </Track>
                <DistanceMeters>108.35482577549459</DistanceMeters>
                <TotalTimeSeconds>2478.722038097</TotalTimeSeconds>
                <Calories>63.96141623140564</Calories>
                <Intensity>Active</Intensity>
                <TriggerMethod>Manual</TriggerMethod>
            </Lap>
        </Activity>
        <Activity Sport="Walking">
            <Id>2023-08-30T03:32:20.431Z</Id>
            <Lap StartTime="2023-08-30T03:32:20.431Z">
                <Track>
                    <Trackpoint>
                        <DistanceMeters>0.0</DistanceMeters>
                        <Time>2023-08-30T03:32:20.431Z</Time>
                    </Trackpoint>
                    <Trackpoint>
                        <DistanceMeters>46.752314996440404</DistanceMeters>
                        <Time>2023-08-30T03:32:29.097Z</Time>
                    </Trackpoint>
                    <Trackpoint>
                        <DistanceMeters>46.752314996440404</DistanceMeters>
                        <Time>2023-08-30T03:33:36.638Z</Time>
                    </Trackpoint>
                    <Trackpoint>
                        <DistanceMeters>65.29930748905886</DistanceMeters>
                        <Time>2023-08-30T03:34:36.638Z</Time>
                    </Trackpoint>
                    <Trackpoint>
                        <DistanceMeters>119.88403532953234</DistanceMeters>
                        <Time>2023-08-30T03:35:29.742Z</Time>
                    </Trackpoint>
                    <Trackpoint>
                        <DistanceMeters>196.81251263371823</DistanceMeters>
                        <Time>2023-08-30T03:36:30.711Z</Time>
                    </Trackpoint>
                    <Trackpoint>
                        <DistanceMeters>228.61869693594866</DistanceMeters>
                        <Time>2023-08-30T03:36:56.244Z</Time>
                    </Trackpoint>
                    <Trackpoint>
                        <DistanceMeters>250.98709540490216</DistanceMeters>
                        <Time>2023-08-30T03:37:14.307Z</Time>
                    </Trackpoint>
                    <Trackpoint>
                        <DistanceMeters>278.38077164243174</DistanceMeters>
                        <Time>2023-08-30T03:37:38.473Z</Time>
                    </Trackpoint>
                    <Trackpoint>
                        <DistanceMeters>292.95340860091767</DistanceMeters>
                        <Time>2023-08-30T03:38:31.658Z</Time>
                    </Trackpoint>
                    <Trackpoint>
                        <DistanceMeters>358.5103390208845</DistanceMeters>
                        <Time>2023-08-30T03:39:33.029Z</Time>
                    </Trackpoint>
                    <Trackpoint>
                        <DistanceMeters>438.7009194821086</DistanceMeters>
                        <Time>2023-08-30T03:40:33.862Z</Time>
                    </Trackpoint>
                    <Trackpoint>
                        <DistanceMeters>463.33774059691353</DistanceMeters>
                        <Time>2023-08-30T03:40:51.701Z</Time>
                    </Trackpoint>
                    <Trackpoint>
                        <DistanceMeters>502.98762652063516</DistanceMeters>
                        <Time>2023-08-30T03:41:20.223Z</Time>
                    </Trackpoint>
                    <Trackpoint>
                        <DistanceMeters>559.2909965875126</DistanceMeters>
                        <Time>2023-08-30T03:42:24.357Z</Time>
                    </Trackpoint>
                    <Trackpoint>
                        <DistanceMeters>605.5215673103305</DistanceMeters>
                        <Time>2023-08-30T03:42:56.288Z</Time>
                    </Trackpoint>
                    <Trackpoint>
                        <DistanceMeters>684.1065127952877</DistanceMeters>
                        <Time>2023-08-30T03:43:34.224Z</Time>
                    </Trackpoint>
                    <Trackpoint>
                        <DistanceMeters>725.9792410851701</DistanceMeters>
                        <Time>2023-08-30T03:44:06.585Z</Time>
                    </Trackpoint>
                </Track>
                <DistanceMeters>725.9792410851701</DistanceMeters>
                <TotalTimeSeconds>706.153248267</TotalTimeSeconds>
                <Calories>78.04115733333332</Calories>
                <Intensity>Active</Intensity>
                <TriggerMethod>Manual</TriggerMethod>
            </Lap>
        </Activity>
        <Activity Sport="Walking">
            <Id>2023-08-30T03:44:06.585Z</Id>
            <Lap StartTime="2023-08-30T03:44:06.585Z">
                <Track>
                    <Trackpoint>
                        <DistanceMeters>0.0</DistanceMeters>
                        <Time>2023-08-30T03:44:06.585Z</Time>
                    </Trackpoint>
                    <Trackpoint>
                        <DistanceMeters>0.0</DistanceMeters>
                        <Time>2023-08-30T03:49:37.705Z</Time>
                    </Trackpoint>
                    <Trackpoint>
                        <DistanceMeters>49.67944417665661</DistanceMeters>
                        <Time>2023-08-30T03:51:18.145Z</Time>
                    </Trackpoint>
                    <Trackpoint>
                        <DistanceMeters>107.30759942157827</DistanceMeters>
                        <Time>2023-08-30T03:52:29.957Z</Time>
                    </Trackpoint>
                </Track>
                <DistanceMeters>107.30759942157827</DistanceMeters>
                <TotalTimeSeconds>503.372453679</TotalTimeSeconds>
                <Calories>14.967292582325282</Calories>
                <Intensity>Active</Intensity>
                <TriggerMethod>Manual</TriggerMethod>
            </Lap>
        </Activity>
        <Activity Sport="Walking">
            <Id>2023-08-30T03:51:18.145Z</Id>
            <Lap StartTime="2023-08-30T03:51:18.145Z">
                <Track>
                    <Trackpoint>
                        <DistanceMeters>0.0</DistanceMeters>
                        <Time>2023-08-30T03:51:18.145Z</Time>
                    </Trackpoint>
                    <Trackpoint>
                        <DistanceMeters>57.628155244921665</DistanceMeters>
                        <Time>2023-08-30T03:52:05.388Z</Time>
                    </Trackpoint>
                    <Trackpoint>
                        <DistanceMeters>57.628155244921665</DistanceMeters>
                        <Time>2023-08-30T03:52:29.957Z</Time>
                    </Trackpoint>
                    <Trackpoint>
                        <DistanceMeters>137.16684568130185</DistanceMeters>
                        <Time>2023-08-30T03:53:30.092Z</Time>
                    </Trackpoint>
                    <Trackpoint>
                        <DistanceMeters>215.44517932159147</DistanceMeters>
                        <Time>2023-08-30T03:54:30.552Z</Time>
                    </Trackpoint>
                    <Trackpoint>
                        <DistanceMeters>301.1040568631202</DistanceMeters>
                        <Time>2023-08-30T03:55:31.329Z</Time>
                    </Trackpoint>
                    <Trackpoint>
                        <DistanceMeters>311.5456580886788</DistanceMeters>
                        <Time>2023-08-30T03:55:38.913Z</Time>
                    </Trackpoint>
                    <Trackpoint>
                        <DistanceMeters>400.49507336836325</DistanceMeters>
                        <Time>2023-08-30T03:56:41.392Z</Time>
                    </Trackpoint>
                    <Trackpoint>
                        <DistanceMeters>479.14316432381906</DistanceMeters>
                        <Time>2023-08-30T03:57:37.751Z</Time>
                    </Trackpoint>
                    <Trackpoint>
                        <DistanceMeters>519.7409795507855</DistanceMeters>
                        <Time>2023-08-30T03:58:06.506Z</Time>
                    </Trackpoint>
                    <Trackpoint>
                        <DistanceMeters>566.0717419638682</DistanceMeters>
                        <Time>2023-08-30T03:58:41.696Z</Time>
                    </Trackpoint>
                    <Trackpoint>
                        <DistanceMeters>569.762275747128</DistanceMeters>
                        <Time>2023-08-30T03:58:44.466Z</Time>
                    </Trackpoint>
                    <Trackpoint>
                        <DistanceMeters>602.5037161194134</DistanceMeters>
                        <Time>2023-08-30T03:59:14.157Z</Time>
                    </Trackpoint>
                    <Trackpoint>
                        <DistanceMeters>619.7259234339876</DistanceMeters>
                        <Time>2023-08-30T03:59:58.354Z</Time>
                    </Trackpoint>
                </Track>
                <DistanceMeters>619.7259234339876</DistanceMeters>
                <TotalTimeSeconds>520.208677757</TotalTimeSeconds>
                <Calories>52.80137366666666</Calories>
                <Intensity>Active</Intensity>
                <TriggerMethod>Manual</TriggerMethod>
            </Lap>
        </Activity>
    </Activities>
    <Author xsi:type="Application_t">
        <Name>Google Fit</Name>
        <Build>
            <Version>
                <VersionMajor>0</VersionMajor>
                <VersionMinor>0</VersionMinor>
                <BuildMajor>0</BuildMajor>
                <BuildMinor>0</BuildMinor>
            </Version>
        </Build>
        <LangID>en</LangID>
        <PartNumber>000-00000-00</PartNumber>
    </Author>
</TrainingCenterDatabase>
