<?xml version="1.0" encoding="UTF-8"?>
<TrainingCenterDatabase
    xmlns="http://www.garmin.com/xmlschemas/TrainingCenterDatabase/v2"
    xmlns:ns2="http://www.garmin.com/xmlschemas/UserProfile/v2"
    xmlns:ns3="http://www.garmin.com/xmlschemas/ActivityExtension/v2"
    xmlns:ns4="http://www.garmin.com/xmlschemas/ProfileExtension/v1"
    xmlns:ns5="http://www.garmin.com/xmlschemas/ActivityGoals/v1"
    xmlns:xsi="http://www.w3.org/2001/XMLSchema-instance" xsi:schemaLocation="http://www.garmin.com/xmlschemas/TrainingCenterDatabase/v2 http://www.garmin.com/xmlschemas/TrainingCenterDatabasev2.xsd">
    <Activities>
        <Activity Sport="Walking">
            <Id>2023-09-01T03:56:46.273Z</Id>
            <Lap StartTime="2023-09-01T03:56:46.273Z">
                <Track>
                    <Trackpoint>
                        <DistanceMeters>0.0</DistanceMeters>
                        <Time>2023-09-01T03:56:46.273Z</Time>
                    </Trackpoint>
                    <Trackpoint>
                        <DistanceMeters>41.36495678885758</DistanceMeters>
                        <Time>2023-09-01T03:57:53.486Z</Time>
                    </Trackpoint>
                    <Trackpoint>
                        <DistanceMeters>97.79454241055788</DistanceMeters>
                        <Time>2023-09-01T03:58:40.582Z</Time>
                    </Trackpoint>
                    <Trackpoint>
                        <DistanceMeters>169.9953346139655</DistanceMeters>
                        <Time>2023-09-01T04:00:05.796Z</Time>
                    </Trackpoint>
                    <Trackpoint>
                        <DistanceMeters>250.38443048601454</DistanceMeters>
                        <Time>2023-09-01T04:01:06.300Z</Time>
                    </Trackpoint>
                    <Trackpoint>
                        <DistanceMeters>329.860251531106</DistanceMeters>
                        <Time>2023-09-01T04:02:06.540Z</Time>
                    </Trackpoint>
                    <Trackpoint>
                        <DistanceMeters>407.03414513835196</DistanceMeters>
                        <Time>2023-09-01T04:03:07.077Z</Time>
                    </Trackpoint>
                    <Trackpoint>
                        <DistanceMeters>480.02473159985993</DistanceMeters>
                        <Time>2023-09-01T04:04:07.634Z</Time>
                    </Trackpoint>
                    <Trackpoint>
                        <DistanceMeters>549.2178101186124</DistanceMeters>
                        <Time>2023-09-01T04:05:07.633Z</Time>
                    </Trackpoint>
                    <Trackpoint>
                        <DistanceMeters>577.7006914465622</DistanceMeters>
                        <Time>2023-09-01T04:06:07.487Z</Time>
                    </Trackpoint>
                </Track>
                <DistanceMeters>577.7006914465622</DistanceMeters>
                <TotalTimeSeconds>561.21403117</TotalTimeSeconds>
                <Calories>62.01094811111111</Calories>
                <Intensity>Active</Intensity>
                <TriggerMethod>Manual</TriggerMethod>
            </Lap>
        </Activity>
        <Activity Sport="Walking">
            <Id>2023-09-01T04:08:58.171Z</Id>
            <Lap StartTime="2023-09-01T04:08:58.171Z">
                <Track>
                    <Trackpoint>
                        <DistanceMeters>0.0</DistanceMeters>
                        <Time>2023-09-01T04:08:58.171Z</Time>
                    </Trackpoint>
                    <Trackpoint>
                        <DistanceMeters>54.31619229981122</DistanceMeters>
                        <Time>2023-09-01T04:09:16.841Z</Time>
                    </Trackpoint>
                    <Trackpoint>
                        <DistanceMeters>54.31619229981122</DistanceMeters>
                        <Time>2023-09-01T04:10:24.087Z</Time>
                    </Trackpoint>
                    <Trackpoint>
                        <DistanceMeters>71.6029729355274</DistanceMeters>
                        <Time>2023-09-01T04:12:02.937Z</Time>
                    </Trackpoint>
                </Track>
                <DistanceMeters>71.6029729355274</DistanceMeters>
                <TotalTimeSeconds>184.765911806</TotalTimeSeconds>
                <Calories>18.58429688888889</Calories>
                <Intensity>Active</Intensity>
                <TriggerMethod>Manual</TriggerMethod>
            </Lap>
        </Activity>
        <Activity Sport="Walking">
            <Id>2023-09-01T04:12:02.937Z</Id>
            <Lap StartTime="2023-09-01T04:12:02.937Z">
                <Track>
                    <Trackpoint>
                        <DistanceMeters>0.0</DistanceMeters>
                        <Time>2023-09-01T04:12:02.937Z</Time>
                    </Trackpoint>
                    <Trackpoint>
                        <DistanceMeters>0.0</DistanceMeters>
                        <Time>2023-09-01T04:15:47.479Z</Time>
                    </Trackpoint>
                    <Trackpoint>
                        <DistanceMeters>31.13245168403814</DistanceMeters>
                        <Time>2023-09-01T04:17:21.479Z</Time>
                    </Trackpoint>
                    <Trackpoint>
                        <DistanceMeters>100.00813581496813</DistanceMeters>
                        <Time>2023-09-01T04:18:20.097Z</Time>
                    </Trackpoint>
                </Track>
                <DistanceMeters>100.00813581496813</DistanceMeters>
                <TotalTimeSeconds>377.160350666</TotalTimeSeconds>
                <Calories>8.413792010068482</Calories>
                <Intensity>Active</Intensity>
                <TriggerMethod>Manual</TriggerMethod>
            </Lap>
        </Activity>
        <Activity Sport="Walking">
            <Id>2023-09-01T04:17:21.479Z</Id>
            <Lap StartTime="2023-09-01T04:17:21.479Z">
                <Track>
                    <Trackpoint>
                        <DistanceMeters>0.0</DistanceMeters>
                        <Time>2023-09-01T04:17:21.479Z</Time>
                    </Trackpoint>
                    <Trackpoint>
                        <DistanceMeters>68.87568413092998</DistanceMeters>
                        <Time>2023-09-01T04:17:32.810Z</Time>
                    </Trackpoint>
                    <Trackpoint>
                        <DistanceMeters>68.87568413092998</DistanceMeters>
                        <Time>2023-09-01T04:18:20.097Z</Time>
                    </Trackpoint>
                    <Trackpoint>
                        <DistanceMeters>97.28478761893821</DistanceMeters>
                        <Time>2023-09-01T04:18:44.256Z</Time>
                    </Trackpoint>
                    <Trackpoint>
                        <DistanceMeters>139.03076842076132</DistanceMeters>
                        <Time>2023-09-01T04:19:20.201Z</Time>
                    </Trackpoint>
                    <Trackpoint>
                        <DistanceMeters>160.8897238584902</DistanceMeters>
                        <Time>2023-09-01T04:19:44.612Z</Time>
                    </Trackpoint>
                    <Trackpoint>
                        <DistanceMeters>207.90052015486725</DistanceMeters>
                        <Time>2023-09-01T04:20:20.453Z</Time>
                    </Trackpoint>
                    <Trackpoint>
                        <DistanceMeters>240.37024810682027</DistanceMeters>
                        <Time>2023-09-01T04:20:44.845Z</Time>
                    </Trackpoint>
                    <Trackpoint>
                        <DistanceMeters>320.651709049532</DistanceMeters>
                        <Time>2023-09-01T04:21:45.527Z</Time>
                    </Trackpoint>
                    <Trackpoint>
                        <DistanceMeters>361.73500886872836</DistanceMeters>
                        <Time>2023-09-01T04:22:15.224Z</Time>
                    </Trackpoint>
                    <Trackpoint>
                        <DistanceMeters>406.7043225896879</DistanceMeters>
                        <Time>2023-09-01T04:22:47.386Z</Time>
                    </Trackpoint>
                    <Trackpoint>
                        <DistanceMeters>411.9255245850008</DistanceMeters>
                        <Time>2023-09-01T04:22:51.177Z</Time>
                    </Trackpoint>
                    <Trackpoint>
                        <DistanceMeters>470.8253671670037</DistanceMeters>
                        <Time>2023-09-01T04:23:34.006Z</Time>
                    </Trackpoint>
                    <Trackpoint>
                        <DistanceMeters>513.5884864294309</DistanceMeters>
                        <Time>2023-09-01T04:24:06.221Z</Time>
                    </Trackpoint>
                    <Trackpoint>
                        <DistanceMeters>518.0058182723824</DistanceMeters>
                        <Time>2023-09-01T04:24:09.565Z</Time>
                    </Trackpoint>
                    <Trackpoint>
                        <DistanceMeters>553.748212086483</DistanceMeters>
                        <Time>2023-09-01T04:24:37.432Z</Time>
                    </Trackpoint>
                    <Trackpoint>
                        <DistanceMeters>634.7926032942062</DistanceMeters>
                        <Time>2023-09-01T04:25:36.876Z</Time>
                    </Trackpoint>
                    <Trackpoint>
                        <DistanceMeters>649.3652402526922</DistanceMeters>
                        <Time>2023-09-01T04:26:06.555Z</Time>
                    </Trackpoint>
                    <Trackpoint>
                        <DistanceMeters>653.3395957868247</DistanceMeters>
                        <Time>2023-09-01T04:26:11.038Z</Time>
                    </Trackpoint>
                    <Trackpoint>
                        <DistanceMeters>686.4592252379291</DistanceMeters>
                        <Time>2023-09-01T04:27:00.927Z</Time>
                    </Trackpoint>
                    <Trackpoint>
                        <DistanceMeters>695.3158174305102</DistanceMeters>
                        <Time>2023-09-01T04:27:07.578Z</Time>
                    </Trackpoint>
                    <Trackpoint>
                        <DistanceMeters>737.6021669499758</DistanceMeters>
                        <Time>2023-09-01T04:27:40.599Z</Time>
                    </Trackpoint>
                    <Trackpoint>
                        <DistanceMeters>781.9824704144556</DistanceMeters>
                        <Time>2023-09-01T04:29:36.370Z</Time>
                    </Trackpoint>
                    <Trackpoint>
                        <DistanceMeters>791.2559666607649</DistanceMeters>
                        <Time>2023-09-01T04:30:08.561Z</Time>
                    </Trackpoint>
                </Track>
                <DistanceMeters>791.2559666607649</DistanceMeters>
                <TotalTimeSeconds>767.081813528</TotalTimeSeconds>
                <Calories>84.56013966666666</Calories>
                <Intensity>Active</Intensity>
                <TriggerMethod>Manual</TriggerMethod>
            </Lap>
        </Activity>
        <Activity Sport="Walking">
            <Id>2023-09-01T04:36:47.263Z</Id>
            <Lap StartTime="2023-09-01T04:36:47.263Z">
                <Track>
                    <Trackpoint>
                        <DistanceMeters>0.0</DistanceMeters>
                        <Time>2023-09-01T04:36:47.263Z</Time>
                    </Trackpoint>
                    <Trackpoint>
                        <DistanceMeters>70.21361443634133</DistanceMeters>
                        <Time>2023-09-01T04:38:11.168Z</Time>
                    </Trackpoint>
                    <Trackpoint>
                        <DistanceMeters>70.21361443634133</DistanceMeters>
                        <Time>2023-09-01T04:39:17.615Z</Time>
                    </Trackpoint>
                    <Trackpoint>
                        <DistanceMeters>100.10901572975575</DistanceMeters>
                        <Time>2023-09-01T04:39:40.952Z</Time>
                    </Trackpoint>
                    <Trackpoint>
                        <DistanceMeters>152.48250245894866</DistanceMeters>
                        <Time>2023-09-01T04:40:24.039Z</Time>
                    </Trackpoint>
                    <Trackpoint>
                        <DistanceMeters>174.16377735825398</DistanceMeters>
                        <Time>2023-09-01T04:40:41.456Z</Time>
                    </Trackpoint>
                    <Trackpoint>
                        <DistanceMeters>229.77004180881366</DistanceMeters>
                        <Time>2023-09-01T04:41:24.388Z</Time>
                    </Trackpoint>
                    <Trackpoint>
                        <DistanceMeters>253.6167376418524</DistanceMeters>
                        <Time>2023-09-01T04:41:41.755Z</Time>
                    </Trackpoint>
                    <Trackpoint>
                        <DistanceMeters>313.3832428453319</DistanceMeters>
                        <Time>2023-09-01T04:42:24.936Z</Time>
                    </Trackpoint>
                    <Trackpoint>
                        <DistanceMeters>336.267639336236</DistanceMeters>
                        <Time>2023-09-01T04:42:42.108Z</Time>
                    </Trackpoint>
                    <Trackpoint>
                        <DistanceMeters>423.94074737006144</DistanceMeters>
                        <Time>2023-09-01T04:43:46.560Z</Time>
                    </Trackpoint>
                    <Trackpoint>
                        <DistanceMeters>433.21424361637065</DistanceMeters>
                        <Time>2023-09-01T04:44:00.305Z</Time>
                    </Trackpoint>
                    <Trackpoint>
                        <DistanceMeters>463.6843027113867</DistanceMeters>
                        <Time>2023-09-01T04:45:32.305Z</Time>
                    </Trackpoint>
                </Track>
                <DistanceMeters>463.6843027113867</DistanceMeters>
                <TotalTimeSeconds>525.042534273</TotalTimeSeconds>
                <Calories>43.469057111111105</Calories>
                <Intensity>Active</Intensity>
                <TriggerMethod>Manual</TriggerMethod>
            </Lap>
        </Activity>
        <Activity Sport="Walking">
            <Id>2023-09-01T04:44:39.670Z</Id>
            <Lap StartTime="2023-09-01T04:44:39.670Z">
                <Track>
                    <Trackpoint>
                        <DistanceMeters>0.0</DistanceMeters>
                        <Time>2023-09-01T04:44:39.670Z</Time>
                    </Trackpoint>
                    <Trackpoint>
                        <DistanceMeters>0.0</DistanceMeters>
                        <Time>2023-09-01T04:47:05.159Z</Time>
                    </Trackpoint>
                    <Trackpoint>
                        <DistanceMeters>32.45723686208232</DistanceMeters>
                        <Time>2023-09-01T04:48:43.159Z</Time>
                    </Trackpoint>
                    <Trackpoint>
                        <DistanceMeters>42.663123864934946</DistanceMeters>
                        <Time>2023-09-01T04:48:53.185Z</Time>
                    </Trackpoint>
                </Track>
                <DistanceMeters>42.663123864934946</DistanceMeters>
                <TotalTimeSeconds>253.51532108</TotalTimeSeconds>
                <Calories>5.6055390245201435</Calories>
                <Intensity>Active</Intensity>
                <TriggerMethod>Manual</TriggerMethod>
            </Lap>
        </Activity>
        <Activity Sport="Walking">
            <Id>2023-09-01T04:48:43.159Z</Id>
            <Lap StartTime="2023-09-01T04:48:43.159Z">
                <Track>
                    <Trackpoint>
                        <DistanceMeters>0.0</DistanceMeters>
                        <Time>2023-09-01T04:48:43.159Z</Time>
                    </Trackpoint>
                    <Trackpoint>
                        <DistanceMeters>10.205887002852629</DistanceMeters>
                        <Time>2023-09-01T04:48:44.440Z</Time>
                    </Trackpoint>
                    <Trackpoint>
                        <DistanceMeters>10.205887002852629</DistanceMeters>
                        <Time>2023-09-01T04:48:53.185Z</Time>
                    </Trackpoint>
                    <Trackpoint>
                        <DistanceMeters>28.09048690644901</DistanceMeters>
                        <Time>2023-09-01T04:49:21.287Z</Time>
                    </Trackpoint>
                </Track>
                <DistanceMeters>28.09048690644901</DistanceMeters>
                <TotalTimeSeconds>38.127532552</TotalTimeSeconds>
                <Calories>3.7829633333333335</Calories>
                <Intensity>Active</Intensity>
                <TriggerMethod>Manual</TriggerMethod>
            </Lap>
        </Activity>
    </Activities>
    <Author xsi:type="Application_t">
        <Name>Google Fit</Name>
        <Build>
            <Version>
                <VersionMajor>0</VersionMajor>
                <VersionMinor>0</VersionMinor>
                <BuildMajor>0</BuildMajor>
                <BuildMinor>0</BuildMinor>
            </Version>
        </Build>
        <LangID>en</LangID>
        <PartNumber>000-00000-00</PartNumber>
    </Author>
</TrainingCenterDatabase>
