<?xml version="1.0" encoding="UTF-8"?>
<TrainingCenterDatabase
    xmlns="http://www.garmin.com/xmlschemas/TrainingCenterDatabase/v2"
    xmlns:ns2="http://www.garmin.com/xmlschemas/UserProfile/v2"
    xmlns:ns3="http://www.garmin.com/xmlschemas/ActivityExtension/v2"
    xmlns:ns4="http://www.garmin.com/xmlschemas/ProfileExtension/v1"
    xmlns:ns5="http://www.garmin.com/xmlschemas/ActivityGoals/v1"
    xmlns:xsi="http://www.w3.org/2001/XMLSchema-instance" xsi:schemaLocation="http://www.garmin.com/xmlschemas/TrainingCenterDatabase/v2 http://www.garmin.com/xmlschemas/TrainingCenterDatabasev2.xsd">
    <Activities>
        <Activity Sport="Walking">
            <Id>2023-08-26T00:04:13.508Z</Id>
            <Lap StartTime="2023-08-26T00:04:13.508Z">
                <Track>
                    <Trackpoint>
                        <DistanceMeters>0.0</DistanceMeters>
                        <Time>2023-08-26T00:04:13.508Z</Time>
                    </Trackpoint>
                    <Trackpoint>
                        <DistanceMeters>0.0</DistanceMeters>
                        <Time>2023-08-26T00:17:14.149Z</Time>
                    </Trackpoint>
                    <Trackpoint>
                        <DistanceMeters>57.628155244921665</DistanceMeters>
                        <Time>2023-08-26T00:20:08.149Z</Time>
                    </Trackpoint>
                    <Trackpoint>
                        <DistanceMeters>133.50183345685892</DistanceMeters>
                        <Time>2023-08-26T00:21:09.130Z</Time>
                    </Trackpoint>
                </Track>
                <DistanceMeters>133.50183345685892</DistanceMeters>
                <TotalTimeSeconds>1015.622113951</TotalTimeSeconds>
                <Calories>25.94671376355798</Calories>
                <Intensity>Active</Intensity>
                <TriggerMethod>Manual</TriggerMethod>
            </Lap>
        </Activity>
        <Activity Sport="Walking">
            <Id>2023-08-26T00:20:08.149Z</Id>
            <Lap StartTime="2023-08-26T00:20:08.149Z">
                <Track>
                    <Trackpoint>
                        <DistanceMeters>0.0</DistanceMeters>
                        <Time>2023-08-26T00:20:08.149Z</Time>
                    </Trackpoint>
                    <Trackpoint>
                        <DistanceMeters>75.87367821193725</DistanceMeters>
                        <Time>2023-08-26T00:20:48.643Z</Time>
                    </Trackpoint>
                    <Trackpoint>
                        <DistanceMeters>75.87367821193725</DistanceMeters>
                        <Time>2023-08-26T00:21:09.130Z</Time>
                    </Trackpoint>
                    <Trackpoint>
                        <DistanceMeters>150.6891528619371</DistanceMeters>
                        <Time>2023-08-26T00:22:10.141Z</Time>
                    </Trackpoint>
                    <Trackpoint>
                        <DistanceMeters>228.0736917194987</DistanceMeters>
                        <Time>2023-08-26T00:23:10.314Z</Time>
                    </Trackpoint>
                    <Trackpoint>
                        <DistanceMeters>284.8034994424249</DistanceMeters>
                        <Time>2023-08-26T00:23:53.152Z</Time>
                    </Trackpoint>
                    <Trackpoint>
                        <DistanceMeters>309.2380857842345</DistanceMeters>
                        <Time>2023-08-26T00:24:11.312Z</Time>
                    </Trackpoint>
                    <Trackpoint>
                        <DistanceMeters>364.39287046214065</DistanceMeters>
                        <Time>2023-08-26T00:24:53.207Z</Time>
                    </Trackpoint>
                    <Trackpoint>
                        <DistanceMeters>388.79713251746205</DistanceMeters>
                        <Time>2023-08-26T00:25:11.416Z</Time>
                    </Trackpoint>
                    <Trackpoint>
                        <DistanceMeters>413.30565831127933</DistanceMeters>
                        <Time>2023-08-26T00:25:44.164Z</Time>
                    </Trackpoint>
                </Track>
                <DistanceMeters>413.30565831127933</DistanceMeters>
                <TotalTimeSeconds>336.01560897</TotalTimeSeconds>
                <Calories>29.835060333333328</Calories>
                <Intensity>Active</Intensity>
                <TriggerMethod>Manual</TriggerMethod>
            </Lap>
        </Activity>
        <Activity Sport="Walking">
            <Id>2023-08-26T00:25:11.416Z</Id>
            <Lap StartTime="2023-08-26T00:25:11.416Z">
                <Track>
                    <Trackpoint>
                        <DistanceMeters>0.0</DistanceMeters>
                        <Time>2023-08-26T00:25:11.416Z</Time>
                    </Trackpoint>
                    <Trackpoint>
                        <DistanceMeters>24.50852579381726</DistanceMeters>
                        <Time>2023-08-26T00:25:15.292Z</Time>
                    </Trackpoint>
                    <Trackpoint>
                        <DistanceMeters>24.50852579381726</DistanceMeters>
                        <Time>2023-08-26T00:25:44.164Z</Time>
                    </Trackpoint>
                </Track>
                <DistanceMeters>24.50852579381726</DistanceMeters>
                <TotalTimeSeconds>32.748081702</TotalTimeSeconds>
                <Calories>3.2305304270343336</Calories>
                <Intensity>Active</Intensity>
                <TriggerMethod>Manual</TriggerMethod>
            </Lap>
        </Activity>
        <Activity Sport="Walking">
            <Id>2023-08-26T00:38:17.633Z</Id>
            <Lap StartTime="2023-08-26T00:38:17.633Z">
                <Track>
                    <Trackpoint>
                        <DistanceMeters>0.0</DistanceMeters>
                        <Time>2023-08-26T00:38:17.633Z</Time>
                    </Trackpoint>
                    <Trackpoint>
                        <DistanceMeters>0.0</DistanceMeters>
                        <Time>2023-08-26T00:40:02.475Z</Time>
                    </Trackpoint>
                    <Trackpoint>
                        <DistanceMeters>20.534170259684732</DistanceMeters>
                        <Time>2023-08-26T00:41:04.475Z</Time>
                    </Trackpoint>
                    <Trackpoint>
                        <DistanceMeters>41.39854122723463</DistanceMeters>
                        <Time>2023-08-26T00:41:34.736Z</Time>
                    </Trackpoint>
                    <Trackpoint>
                        <DistanceMeters>61.93271148691936</DistanceMeters>
                        <Time>2023-08-26T00:42:45.654Z</Time>
                    </Trackpoint>
                </Track>
                <DistanceMeters>61.93271148691936</DistanceMeters>
                <TotalTimeSeconds>268.021</TotalTimeSeconds>
                <Calories>29.988571888888888</Calories>
                <Intensity>Active</Intensity>
                <TriggerMethod>Manual</TriggerMethod>
            </Lap>
        </Activity>
    </Activities>
    <Author xsi:type="Application_t">
        <Name>Google Fit</Name>
        <Build>
            <Version>
                <VersionMajor>0</VersionMajor>
                <VersionMinor>0</VersionMinor>
                <BuildMajor>0</BuildMajor>
                <BuildMinor>0</BuildMinor>
            </Version>
        </Build>
        <LangID>en</LangID>
        <PartNumber>000-00000-00</PartNumber>
    </Author>
</TrainingCenterDatabase>
