<?xml version="1.0" encoding="UTF-8"?>
<TrainingCenterDatabase
    xmlns="http://www.garmin.com/xmlschemas/TrainingCenterDatabase/v2"
    xmlns:ns2="http://www.garmin.com/xmlschemas/UserProfile/v2"
    xmlns:ns3="http://www.garmin.com/xmlschemas/ActivityExtension/v2"
    xmlns:ns4="http://www.garmin.com/xmlschemas/ProfileExtension/v1"
    xmlns:ns5="http://www.garmin.com/xmlschemas/ActivityGoals/v1"
    xmlns:xsi="http://www.w3.org/2001/XMLSchema-instance" xsi:schemaLocation="http://www.garmin.com/xmlschemas/TrainingCenterDatabase/v2 http://www.garmin.com/xmlschemas/TrainingCenterDatabasev2.xsd">
    <Activities>
        <Activity Sport="Walking">
            <Id>2023-08-15T05:27:30.682Z</Id>
            <Lap StartTime="2023-08-15T05:27:30.682Z">
                <Track>
                    <Trackpoint>
                        <DistanceMeters>0.0</DistanceMeters>
                        <Time>2023-08-15T05:27:30.682Z</Time>
                    </Trackpoint>
                    <Trackpoint>
                        <DistanceMeters>15.897422136530114</DistanceMeters>
                        <Time>2023-08-15T05:28:30.007Z</Time>
                    </Trackpoint>
                    <Trackpoint>
                        <DistanceMeters>15.897422136530114</DistanceMeters>
                        <Time>2023-08-15T05:28:30.682Z</Time>
                    </Trackpoint>
                    <Trackpoint>
                        <DistanceMeters>42.39312569741364</DistanceMeters>
                        <Time>2023-08-15T05:29:23.732Z</Time>
                    </Trackpoint>
                </Track>
                <DistanceMeters>42.39312569741364</DistanceMeters>
                <TotalTimeSeconds>113.050276644</TotalTimeSeconds>
                <Calories>3.7816206666666665</Calories>
                <Intensity>Active</Intensity>
                <TriggerMethod>Manual</TriggerMethod>
            </Lap>
        </Activity>
        <Activity Sport="Walking">
            <Id>2023-08-15T05:31:17.441Z</Id>
            <Lap StartTime="2023-08-15T05:31:17.441Z">
                <Track>
                    <Trackpoint>
                        <DistanceMeters>0.0</DistanceMeters>
                        <Time>2023-08-15T05:31:17.441Z</Time>
                    </Trackpoint>
                    <Trackpoint>
                        <DistanceMeters>26.495703560883523</DistanceMeters>
                        <Time>2023-08-15T05:32:06.473Z</Time>
                    </Trackpoint>
                    <Trackpoint>
                        <DistanceMeters>26.495703560883523</DistanceMeters>
                        <Time>2023-08-15T05:32:37.441Z</Time>
                    </Trackpoint>
                    <Trackpoint>
                        <DistanceMeters>42.39312569741364</DistanceMeters>
                        <Time>2023-08-15T05:33:42.983Z</Time>
                    </Trackpoint>
                </Track>
                <DistanceMeters>42.39312569741364</DistanceMeters>
                <TotalTimeSeconds>145.541130619</TotalTimeSeconds>
                <Calories>10.798396666666667</Calories>
                <Intensity>Active</Intensity>
                <TriggerMethod>Manual</TriggerMethod>
            </Lap>
        </Activity>
        <Activity Sport="Walking">
            <Id>2023-08-15T05:38:41.995Z</Id>
            <Lap StartTime="2023-08-15T05:38:41.995Z">
                <Track>
                    <Trackpoint>
                        <DistanceMeters>0.0</DistanceMeters>
                        <Time>2023-08-15T05:38:41.995Z</Time>
                    </Trackpoint>
                    <Trackpoint>
                        <DistanceMeters>49.01705158763452</DistanceMeters>
                        <Time>2023-08-15T05:40:02.862Z</Time>
                    </Trackpoint>
                    <Trackpoint>
                        <DistanceMeters>49.01705158763452</DistanceMeters>
                        <Time>2023-08-15T05:40:32.462Z</Time>
                    </Trackpoint>
                    <Trackpoint>
                        <DistanceMeters>60.94011819003211</DistanceMeters>
                        <Time>2023-08-15T05:40:46.667Z</Time>
                    </Trackpoint>
                </Track>
                <DistanceMeters>60.94011819003211</DistanceMeters>
                <TotalTimeSeconds>124.671774273</TotalTimeSeconds>
                <Calories>3.7881102222222216</Calories>
                <Intensity>Active</Intensity>
                <TriggerMethod>Manual</TriggerMethod>
            </Lap>
        </Activity>
        <Activity Sport="Walking">
            <Id>2023-08-15T05:40:32.462Z</Id>
            <Lap StartTime="2023-08-15T05:40:32.462Z">
                <Track>
                    <Trackpoint>
                        <DistanceMeters>0.0</DistanceMeters>
                        <Time>2023-08-15T05:40:32.462Z</Time>
                    </Trackpoint>
                    <Trackpoint>
                        <DistanceMeters>11.923066602397586</DistanceMeters>
                        <Time>2023-08-15T05:40:36.718Z</Time>
                    </Trackpoint>
                    <Trackpoint>
                        <DistanceMeters>11.923066602397586</DistanceMeters>
                        <Time>2023-08-15T05:40:46.667Z</Time>
                    </Trackpoint>
                </Track>
                <DistanceMeters>11.923066602397586</DistanceMeters>
                <TotalTimeSeconds>14.205097708</TotalTimeSeconds>
                <Calories>1.1132354618809999</Calories>
                <Intensity>Active</Intensity>
                <TriggerMethod>Manual</TriggerMethod>
            </Lap>
        </Activity>
        <Activity Sport="Walking">
            <Id>2023-08-15T05:40:46.667Z</Id>
            <Lap StartTime="2023-08-15T05:40:46.667Z">
                <Track>
                    <Trackpoint>
                        <DistanceMeters>0.0</DistanceMeters>
                        <Time>2023-08-15T05:40:46.667Z</Time>
                    </Trackpoint>
                    <Trackpoint>
                        <DistanceMeters>0.0</DistanceMeters>
                        <Time>2023-08-15T05:45:04.329Z</Time>
                    </Trackpoint>
                    <Trackpoint>
                        <DistanceMeters>43.05551828643573</DistanceMeters>
                        <Time>2023-08-15T05:46:37.264Z</Time>
                    </Trackpoint>
                    <Trackpoint>
                        <DistanceMeters>134.35379439123818</DistanceMeters>
                        <Time>2023-08-15T05:47:51.884Z</Time>
                    </Trackpoint>
                </Track>
                <DistanceMeters>134.35379439123818</DistanceMeters>
                <TotalTimeSeconds>425.217029678</TotalTimeSeconds>
                <Calories>8.606670833032036</Calories>
                <Intensity>Active</Intensity>
                <TriggerMethod>Manual</TriggerMethod>
            </Lap>
        </Activity>
        <Activity Sport="Walking">
            <Id>2023-08-15T05:46:37.264Z</Id>
            <Lap StartTime="2023-08-15T05:46:37.264Z">
                <Track>
                    <Trackpoint>
                        <DistanceMeters>0.0</DistanceMeters>
                        <Time>2023-08-15T05:46:37.264Z</Time>
                    </Trackpoint>
                    <Trackpoint>
                        <DistanceMeters>91.29827610480244</DistanceMeters>
                        <Time>2023-08-15T05:46:43.892Z</Time>
                    </Trackpoint>
                    <Trackpoint>
                        <DistanceMeters>91.29827610480244</DistanceMeters>
                        <Time>2023-08-15T05:47:51.884Z</Time>
                    </Trackpoint>
                    <Trackpoint>
                        <DistanceMeters>109.26184634202824</DistanceMeters>
                        <Time>2023-08-15T05:48:06.589Z</Time>
                    </Trackpoint>
                    <Trackpoint>
                        <DistanceMeters>172.25559974044043</DistanceMeters>
                        <Time>2023-08-15T05:49:00.769Z</Time>
                    </Trackpoint>
                    <Trackpoint>
                        <DistanceMeters>179.43998295164462</DistanceMeters>
                        <Time>2023-08-15T05:49:06.652Z</Time>
                    </Trackpoint>
                    <Trackpoint>
                        <DistanceMeters>245.28743107299752</DistanceMeters>
                        <Time>2023-08-15T05:50:01.248Z</Time>
                    </Trackpoint>
                    <Trackpoint>
                        <DistanceMeters>252.45206743221254</DistanceMeters>
                        <Time>2023-08-15T05:50:07.169Z</Time>
                    </Trackpoint>
                    <Trackpoint>
                        <DistanceMeters>322.59178366075264</DistanceMeters>
                        <Time>2023-08-15T05:51:01.569Z</Time>
                    </Trackpoint>
                    <Trackpoint>
                        <DistanceMeters>329.6900082388041</DistanceMeters>
                        <Time>2023-08-15T05:51:07.617Z</Time>
                    </Trackpoint>
                    <Trackpoint>
                        <DistanceMeters>385.55808311066914</DistanceMeters>
                        <Time>2023-08-15T05:52:02.242Z</Time>
                    </Trackpoint>
                    <Trackpoint>
                        <DistanceMeters>392.75924869276196</DistanceMeters>
                        <Time>2023-08-15T05:52:08.095Z</Time>
                    </Trackpoint>
                    <Trackpoint>
                        <DistanceMeters>459.6720516625927</DistanceMeters>
                        <Time>2023-08-15T05:53:02.634Z</Time>
                    </Trackpoint>
                    <Trackpoint>
                        <DistanceMeters>465.39948647315197</DistanceMeters>
                        <Time>2023-08-15T05:53:07.378Z</Time>
                    </Trackpoint>
                    <Trackpoint>
                        <DistanceMeters>526.84403094643</DistanceMeters>
                        <Time>2023-08-15T05:54:02.669Z</Time>
                    </Trackpoint>
                    <Trackpoint>
                        <DistanceMeters>539.6012699525635</DistanceMeters>
                        <Time>2023-08-15T05:54:17.754Z</Time>
                    </Trackpoint>
                </Track>
                <DistanceMeters>539.6012699525635</DistanceMeters>
                <TotalTimeSeconds>460.489798653</TotalTimeSeconds>
                <Calories>50.78211488888889</Calories>
                <Intensity>Active</Intensity>
                <TriggerMethod>Manual</TriggerMethod>
            </Lap>
        </Activity>
    </Activities>
    <Author xsi:type="Application_t">
        <Name>Google Fit</Name>
        <Build>
            <Version>
                <VersionMajor>0</VersionMajor>
                <VersionMinor>0</VersionMinor>
                <BuildMajor>0</BuildMajor>
                <BuildMinor>0</BuildMinor>
            </Version>
        </Build>
        <LangID>en</LangID>
        <PartNumber>000-00000-00</PartNumber>
    </Author>
</TrainingCenterDatabase>
