<?xml version="1.0" encoding="UTF-8"?>
<TrainingCenterDatabase
    xmlns="http://www.garmin.com/xmlschemas/TrainingCenterDatabase/v2"
    xmlns:ns2="http://www.garmin.com/xmlschemas/UserProfile/v2"
    xmlns:ns3="http://www.garmin.com/xmlschemas/ActivityExtension/v2"
    xmlns:ns4="http://www.garmin.com/xmlschemas/ProfileExtension/v1"
    xmlns:ns5="http://www.garmin.com/xmlschemas/ActivityGoals/v1"
    xmlns:xsi="http://www.w3.org/2001/XMLSchema-instance" xsi:schemaLocation="http://www.garmin.com/xmlschemas/TrainingCenterDatabase/v2 http://www.garmin.com/xmlschemas/TrainingCenterDatabasev2.xsd">
    <Activities>
        <Activity Sport="Walking">
            <Id>2023-04-14T05:29:04.078Z</Id>
            <Lap StartTime="2023-04-14T05:29:04.078Z">
                <Track>
                    <Trackpoint>
                        <DistanceMeters>0.0</DistanceMeters>
                        <Time>2023-04-14T05:29:04.078Z</Time>
                    </Trackpoint>
                    <Trackpoint>
                        <DistanceMeters>28.708459937241074</DistanceMeters>
                        <Time>2023-04-14T05:29:29.347Z</Time>
                    </Trackpoint>
                    <Trackpoint>
                        <DistanceMeters>28.708459937241074</DistanceMeters>
                        <Time>2023-04-14T05:29:52.698Z</Time>
                    </Trackpoint>
                    <Trackpoint>
                        <DistanceMeters>46.977479897303574</DistanceMeters>
                        <Time>2023-04-14T05:30:17.018Z</Time>
                    </Trackpoint>
                    <Trackpoint>
                        <DistanceMeters>73.72854483882367</DistanceMeters>
                        <Time>2023-04-14T05:30:55.018Z</Time>
                    </Trackpoint>
                    <Trackpoint>
                        <DistanceMeters>95.39670712732044</DistanceMeters>
                        <Time>2023-04-14T05:31:18.218Z</Time>
                    </Trackpoint>
                    <Trackpoint>
                        <DistanceMeters>113.01326208880928</DistanceMeters>
                        <Time>2023-04-14T05:31:41.818Z</Time>
                    </Trackpoint>
                    <Trackpoint>
                        <DistanceMeters>128.01995705600348</DistanceMeters>
                        <Time>2023-04-14T05:32:17.498Z</Time>
                    </Trackpoint>
                    <Trackpoint>
                        <DistanceMeters>157.38088199181823</DistanceMeters>
                        <Time>2023-04-14T05:33:12.898Z</Time>
                    </Trackpoint>
                </Track>
                <DistanceMeters>157.38088199181823</DistanceMeters>
                <TotalTimeSeconds>248.82000021</TotalTimeSeconds>
                <Calories>20.237163888888887</Calories>
                <Intensity>Active</Intensity>
                <TriggerMethod>Manual</TriggerMethod>
            </Lap>
        </Activity>
        <Activity Sport="Walking">
            <Id>2023-04-14T05:39:29.548Z</Id>
            <Lap StartTime="2023-04-14T05:39:29.548Z">
                <Track>
                    <Trackpoint>
                        <DistanceMeters>0.0</DistanceMeters>
                        <Time>2023-04-14T05:39:29.548Z</Time>
                    </Trackpoint>
                    <Trackpoint>
                        <DistanceMeters>0.0</DistanceMeters>
                        <Time>2023-04-14T05:40:01.318Z</Time>
                    </Trackpoint>
                    <Trackpoint>
                        <DistanceMeters>9.374149159816662</DistanceMeters>
                        <Time>2023-04-14T05:40:10.698Z</Time>
                    </Trackpoint>
                    <Trackpoint>
                        <DistanceMeters>55.046699059972916</DistanceMeters>
                        <Time>2023-04-14T05:41:43.018Z</Time>
                    </Trackpoint>
                    <Trackpoint>
                        <DistanceMeters>72.66325402146175</DistanceMeters>
                        <Time>2023-04-14T05:42:10.778Z</Time>
                    </Trackpoint>
                    <Trackpoint>
                        <DistanceMeters>100.71924896012916</DistanceMeters>
                        <Time>2023-04-14T05:42:43.818Z</Time>
                    </Trackpoint>
                    <Trackpoint>
                        <DistanceMeters>125.51291890592827</DistanceMeters>
                        <Time>2023-04-14T05:43:11.898Z</Time>
                    </Trackpoint>
                    <Trackpoint>
                        <DistanceMeters>152.26398384744837</DistanceMeters>
                        <Time>2023-04-14T05:43:44.858Z</Time>
                    </Trackpoint>
                    <Trackpoint>
                        <DistanceMeters>174.44779379895283</DistanceMeters>
                        <Time>2023-04-14T05:44:09.538Z</Time>
                    </Trackpoint>
                    <Trackpoint>
                        <DistanceMeters>197.9365337476046</DistanceMeters>
                        <Time>2023-04-14T05:44:45.658Z</Time>
                    </Trackpoint>
                </Track>
                <DistanceMeters>197.9365337476046</DistanceMeters>
                <TotalTimeSeconds>316.110678304</TotalTimeSeconds>
                <Calories>28.844793</Calories>
                <Intensity>Active</Intensity>
                <TriggerMethod>Manual</TriggerMethod>
            </Lap>
        </Activity>
    </Activities>
    <Author xsi:type="Application_t">
        <Name>Google Fit</Name>
        <Build>
            <Version>
                <VersionMajor>0</VersionMajor>
                <VersionMinor>0</VersionMinor>
                <BuildMajor>0</BuildMajor>
                <BuildMinor>0</BuildMinor>
            </Version>
        </Build>
        <LangID>en</LangID>
        <PartNumber>000-00000-00</PartNumber>
    </Author>
</TrainingCenterDatabase>
