<?xml version="1.0" encoding="UTF-8"?>
<TrainingCenterDatabase
    xmlns="http://www.garmin.com/xmlschemas/TrainingCenterDatabase/v2"
    xmlns:ns2="http://www.garmin.com/xmlschemas/UserProfile/v2"
    xmlns:ns3="http://www.garmin.com/xmlschemas/ActivityExtension/v2"
    xmlns:ns4="http://www.garmin.com/xmlschemas/ProfileExtension/v1"
    xmlns:ns5="http://www.garmin.com/xmlschemas/ActivityGoals/v1"
    xmlns:xsi="http://www.w3.org/2001/XMLSchema-instance" xsi:schemaLocation="http://www.garmin.com/xmlschemas/TrainingCenterDatabase/v2 http://www.garmin.com/xmlschemas/TrainingCenterDatabasev2.xsd">
    <Activities>
        <Activity Sport="Walking">
            <Id>2023-05-02T11:57:25.895Z</Id>
            <Lap StartTime="2023-05-02T11:57:25.895Z">
                <Track>
                    <Trackpoint>
                        <DistanceMeters>0.0</DistanceMeters>
                        <Time>2023-05-02T11:57:25.895Z</Time>
                    </Trackpoint>
                    <Trackpoint>
                        <DistanceMeters>61.33170986592412</DistanceMeters>
                        <Time>2023-05-02T11:59:45.645Z</Time>
                    </Trackpoint>
                    <Trackpoint>
                        <DistanceMeters>61.33170986592412</DistanceMeters>
                        <Time>2023-05-02T12:00:33.895Z</Time>
                    </Trackpoint>
                    <Trackpoint>
                        <DistanceMeters>133.95486500647596</DistanceMeters>
                        <Time>2023-05-02T12:02:33.995Z</Time>
                    </Trackpoint>
                    <Trackpoint>
                        <DistanceMeters>152.46686464484708</DistanceMeters>
                        <Time>2023-05-02T12:02:49.095Z</Time>
                    </Trackpoint>
                    <Trackpoint>
                        <DistanceMeters>187.0475095692511</DistanceMeters>
                        <Time>2023-05-02T12:04:35.775Z</Time>
                    </Trackpoint>
                    <Trackpoint>
                        <DistanceMeters>261.0423557756849</DistanceMeters>
                        <Time>2023-05-02T12:05:32.615Z</Time>
                    </Trackpoint>
                    <Trackpoint>
                        <DistanceMeters>328.52707874637804</DistanceMeters>
                        <Time>2023-05-02T12:06:19.335Z</Time>
                    </Trackpoint>
                    <Trackpoint>
                        <DistanceMeters>330.7480631331239</DistanceMeters>
                        <Time>2023-05-02T12:06:20.935Z</Time>
                    </Trackpoint>
                    <Trackpoint>
                        <DistanceMeters>411.40052477579957</DistanceMeters>
                        <Time>2023-05-02T12:07:19.135Z</Time>
                    </Trackpoint>
                    <Trackpoint>
                        <DistanceMeters>474.324756838479</DistanceMeters>
                        <Time>2023-05-02T12:08:06.175Z</Time>
                    </Trackpoint>
                    <Trackpoint>
                        <DistanceMeters>477.22000684083935</DistanceMeters>
                        <Time>2023-05-02T12:08:08.415Z</Time>
                    </Trackpoint>
                    <Trackpoint>
                        <DistanceMeters>502.6661417852121</DistanceMeters>
                        <Time>2023-05-02T12:08:39.895Z</Time>
                    </Trackpoint>
                    <Trackpoint>
                        <DistanceMeters>536.7383247970247</DistanceMeters>
                        <Time>2023-05-02T12:09:12.015Z</Time>
                    </Trackpoint>
                    <Trackpoint>
                        <DistanceMeters>540.000649789893</DistanceMeters>
                        <Time>2023-05-02T12:09:15.935Z</Time>
                    </Trackpoint>
                </Track>
                <DistanceMeters>540.000649789893</DistanceMeters>
                <TotalTimeSeconds>710.040009671</TotalTimeSeconds>
                <Calories>58.27350983333333</Calories>
                <Intensity>Active</Intensity>
                <TriggerMethod>Manual</TriggerMethod>
            </Lap>
        </Activity>
        <Activity Sport="Walking">
            <Id>2023-05-02T12:09:12.015Z</Id>
            <Lap StartTime="2023-05-02T12:09:12.015Z">
                <Track>
                    <Trackpoint>
                        <DistanceMeters>0.0</DistanceMeters>
                        <Time>2023-05-02T12:09:12.015Z</Time>
                    </Trackpoint>
                    <Trackpoint>
                        <DistanceMeters>3.262324992868304</DistanceMeters>
                        <Time>2023-05-02T12:09:14.784Z</Time>
                    </Trackpoint>
                    <Trackpoint>
                        <DistanceMeters>3.262324992868304</DistanceMeters>
                        <Time>2023-05-02T12:09:15.935Z</Time>
                    </Trackpoint>
                </Track>
                <DistanceMeters>3.262324992868304</DistanceMeters>
                <TotalTimeSeconds>3.92</TotalTimeSeconds>
                <Calories>0.11785581208938889</Calories>
                <Intensity>Active</Intensity>
                <TriggerMethod>Manual</TriggerMethod>
            </Lap>
        </Activity>
    </Activities>
    <Author xsi:type="Application_t">
        <Name>Google Fit</Name>
        <Build>
            <Version>
                <VersionMajor>0</VersionMajor>
                <VersionMinor>0</VersionMinor>
                <BuildMajor>0</BuildMajor>
                <BuildMinor>0</BuildMinor>
            </Version>
        </Build>
        <LangID>en</LangID>
        <PartNumber>000-00000-00</PartNumber>
    </Author>
</TrainingCenterDatabase>
