<?xml version="1.0" encoding="UTF-8"?>
<TrainingCenterDatabase
    xmlns="http://www.garmin.com/xmlschemas/TrainingCenterDatabase/v2"
    xmlns:ns2="http://www.garmin.com/xmlschemas/UserProfile/v2"
    xmlns:ns3="http://www.garmin.com/xmlschemas/ActivityExtension/v2"
    xmlns:ns4="http://www.garmin.com/xmlschemas/ProfileExtension/v1"
    xmlns:ns5="http://www.garmin.com/xmlschemas/ActivityGoals/v1"
    xmlns:xsi="http://www.w3.org/2001/XMLSchema-instance" xsi:schemaLocation="http://www.garmin.com/xmlschemas/TrainingCenterDatabase/v2 http://www.garmin.com/xmlschemas/TrainingCenterDatabasev2.xsd">
    <Activities>
        <Activity Sport="Walking">
            <Id>2023-02-02T03:59:42.596Z</Id>
            <Lap StartTime="2023-02-02T03:59:42.596Z">
                <Track>
                    <Trackpoint>
                        <DistanceMeters>0.0</DistanceMeters>
                        <Time>2023-02-02T03:59:42.596Z</Time>
                    </Trackpoint>
                    <Trackpoint>
                        <DistanceMeters>0.0</DistanceMeters>
                        <Time>2023-02-02T04:51:21.996Z</Time>
                    </Trackpoint>
                    <Trackpoint>
                        <DistanceMeters>39.14789991441965</DistanceMeters>
                        <Time>2023-02-02T04:52:20.276Z</Time>
                    </Trackpoint>
                    <Trackpoint>
                        <DistanceMeters>58.72184987162947</DistanceMeters>
                        <Time>2023-02-02T04:52:43.236Z</Time>
                    </Trackpoint>
                </Track>
                <DistanceMeters>58.72184987162947</DistanceMeters>
                <TotalTimeSeconds>3180.639997364</TotalTimeSeconds>
                <Calories>71.95575103151346</Calories>
                <Intensity>Active</Intensity>
                <TriggerMethod>Manual</TriggerMethod>
            </Lap>
        </Activity>
        <Activity Sport="Walking">
            <Id>2023-02-02T04:52:20.276Z</Id>
            <Lap StartTime="2023-02-02T04:52:20.276Z">
                <Track>
                    <Trackpoint>
                        <DistanceMeters>0.0</DistanceMeters>
                        <Time>2023-02-02T04:52:20.276Z</Time>
                    </Trackpoint>
                    <Trackpoint>
                        <DistanceMeters>19.573949957209823</DistanceMeters>
                        <Time>2023-02-02T04:52:21.597Z</Time>
                    </Trackpoint>
                    <Trackpoint>
                        <DistanceMeters>19.573949957209823</DistanceMeters>
                        <Time>2023-02-02T04:52:43.236Z</Time>
                    </Trackpoint>
                    <Trackpoint>
                        <DistanceMeters>46.97747989730358</DistanceMeters>
                        <Time>2023-02-02T04:53:20.276Z</Time>
                    </Trackpoint>
                    <Trackpoint>
                        <DistanceMeters>67.20389485308706</DistanceMeters>
                        <Time>2023-02-02T04:53:43.636Z</Time>
                    </Trackpoint>
                    <Trackpoint>
                        <DistanceMeters>97.86974978604913</DistanceMeters>
                        <Time>2023-02-02T04:54:20.276Z</Time>
                    </Trackpoint>
                    <Trackpoint>
                        <DistanceMeters>101.78453977749109</DistanceMeters>
                        <Time>2023-02-02T04:54:24.956Z</Time>
                    </Trackpoint>
                    <Trackpoint>
                        <DistanceMeters>161.8113196462679</DistanceMeters>
                        <Time>2023-02-02T04:55:44.476Z</Time>
                    </Trackpoint>
                    <Trackpoint>
                        <DistanceMeters>170.29336462772548</DistanceMeters>
                        <Time>2023-02-02T04:55:56.156Z</Time>
                    </Trackpoint>
                    <Trackpoint>
                        <DistanceMeters>188.562384587788</DistanceMeters>
                        <Time>2023-02-02T04:56:53.236Z</Time>
                    </Trackpoint>
                    <Trackpoint>
                        <DistanceMeters>216.6183795264554</DistanceMeters>
                        <Time>2023-02-02T04:58:07.803Z</Time>
                    </Trackpoint>
                </Track>
                <DistanceMeters>216.6183795264554</DistanceMeters>
                <TotalTimeSeconds>347.52689067</TotalTimeSeconds>
                <Calories>35.44764766666667</Calories>
                <Intensity>Active</Intensity>
                <TriggerMethod>Manual</TriggerMethod>
            </Lap>
        </Activity>
        <Activity Sport="Walking">
            <Id>2023-02-02T05:07:32.076Z</Id>
            <Lap StartTime="2023-02-02T05:07:32.076Z">
                <Track>
                    <Trackpoint>
                        <DistanceMeters>0.0</DistanceMeters>
                        <Time>2023-02-02T05:07:32.076Z</Time>
                    </Trackpoint>
                    <Trackpoint>
                        <DistanceMeters>58.72184987162947</DistanceMeters>
                        <Time>2023-02-02T05:10:04.952Z</Time>
                    </Trackpoint>
                    <Trackpoint>
                        <DistanceMeters>58.72184987162947</DistanceMeters>
                        <Time>2023-02-02T05:10:32.076Z</Time>
                    </Trackpoint>
                    <Trackpoint>
                        <DistanceMeters>63.94156986021876</DistanceMeters>
                        <Time>2023-02-02T05:10:39.976Z</Time>
                    </Trackpoint>
                    <Trackpoint>
                        <DistanceMeters>71.77114984310269</DistanceMeters>
                        <Time>2023-02-02T05:11:03.516Z</Time>
                    </Trackpoint>
                    <Trackpoint>
                        <DistanceMeters>82.21058982028126</DistanceMeters>
                        <Time>2023-02-02T05:11:39.476Z</Time>
                    </Trackpoint>
                    <Trackpoint>
                        <DistanceMeters>104.39439977178573</DistanceMeters>
                        <Time>2023-02-02T05:12:08.816Z</Time>
                    </Trackpoint>
                </Track>
                <DistanceMeters>104.39439977178573</DistanceMeters>
                <TotalTimeSeconds>276.739999386</TotalTimeSeconds>
                <Calories>11.71973938888889</Calories>
                <Intensity>Active</Intensity>
                <TriggerMethod>Manual</TriggerMethod>
            </Lap>
        </Activity>
        <Activity Sport="Walking">
            <Id>2023-02-02T05:11:39.476Z</Id>
            <Lap StartTime="2023-02-02T05:11:39.476Z">
                <Track>
                    <Trackpoint>
                        <DistanceMeters>0.0</DistanceMeters>
                        <Time>2023-02-02T05:11:39.476Z</Time>
                    </Trackpoint>
                    <Trackpoint>
                        <DistanceMeters>22.183809951504468</DistanceMeters>
                        <Time>2023-02-02T05:11:59.415Z</Time>
                    </Trackpoint>
                    <Trackpoint>
                        <DistanceMeters>22.183809951504468</DistanceMeters>
                        <Time>2023-02-02T05:12:08.816Z</Time>
                    </Trackpoint>
                </Track>
                <DistanceMeters>22.183809951504468</DistanceMeters>
                <TotalTimeSeconds>29.34</TotalTimeSeconds>
                <Calories>0.9625689560622778</Calories>
                <Intensity>Active</Intensity>
                <TriggerMethod>Manual</TriggerMethod>
            </Lap>
        </Activity>
    </Activities>
    <Author xsi:type="Application_t">
        <Name>Google Fit</Name>
        <Build>
            <Version>
                <VersionMajor>0</VersionMajor>
                <VersionMinor>0</VersionMinor>
                <BuildMajor>0</BuildMajor>
                <BuildMinor>0</BuildMinor>
            </Version>
        </Build>
        <LangID>en</LangID>
        <PartNumber>000-00000-00</PartNumber>
    </Author>
</TrainingCenterDatabase>
