<?xml version="1.0" encoding="UTF-8"?>
<TrainingCenterDatabase
    xmlns="http://www.garmin.com/xmlschemas/TrainingCenterDatabase/v2"
    xmlns:ns2="http://www.garmin.com/xmlschemas/UserProfile/v2"
    xmlns:ns3="http://www.garmin.com/xmlschemas/ActivityExtension/v2"
    xmlns:ns4="http://www.garmin.com/xmlschemas/ProfileExtension/v1"
    xmlns:ns5="http://www.garmin.com/xmlschemas/ActivityGoals/v1"
    xmlns:xsi="http://www.w3.org/2001/XMLSchema-instance" xsi:schemaLocation="http://www.garmin.com/xmlschemas/TrainingCenterDatabase/v2 http://www.garmin.com/xmlschemas/TrainingCenterDatabasev2.xsd">
    <Activities>
        <Activity Sport="Walking">
            <Id>2023-08-31T23:06:49.587Z</Id>
            <Lap StartTime="2023-08-31T23:06:49.587Z">
                <Track>
                    <Trackpoint>
                        <DistanceMeters>0.0</DistanceMeters>
                        <Time>2023-08-31T23:06:49.587Z</Time>
                    </Trackpoint>
                    <Trackpoint>
                        <DistanceMeters>0.0</DistanceMeters>
                        <Time>2023-09-01T00:53:15.443Z</Time>
                    </Trackpoint>
                    <Trackpoint>
                        <DistanceMeters>24.50852579381726</DistanceMeters>
                        <Time>2023-09-01T00:54:29.443Z</Time>
                    </Trackpoint>
                    <Trackpoint>
                        <DistanceMeters>24.50852579381726</DistanceMeters>
                        <Time>2023-09-01T00:54:38.062Z</Time>
                    </Trackpoint>
                </Track>
                <DistanceMeters>24.50852579381726</DistanceMeters>
                <TotalTimeSeconds>6468.474034797</TotalTimeSeconds>
                <Calories>145.88118436400237</Calories>
                <Intensity>Active</Intensity>
                <TriggerMethod>Manual</TriggerMethod>
            </Lap>
        </Activity>
        <Activity Sport="Walking">
            <Id>2023-09-01T00:54:38.062Z</Id>
            <Lap StartTime="2023-09-01T00:54:38.062Z">
                <Track>
                    <Trackpoint>
                        <DistanceMeters>0.0</DistanceMeters>
                        <Time>2023-09-01T00:54:38.062Z</Time>
                    </Trackpoint>
                    <Trackpoint>
                        <DistanceMeters>32.9869922293848</DistanceMeters>
                        <Time>2023-09-01T00:55:08.002Z</Time>
                    </Trackpoint>
                    <Trackpoint>
                        <DistanceMeters>58.44270485528091</DistanceMeters>
                        <Time>2023-09-01T00:55:29.966Z</Time>
                    </Trackpoint>
                    <Trackpoint>
                        <DistanceMeters>103.05612797793802</DistanceMeters>
                        <Time>2023-09-01T00:56:08.274Z</Time>
                    </Trackpoint>
                    <Trackpoint>
                        <DistanceMeters>129.45504299602044</DistanceMeters>
                        <Time>2023-09-01T00:56:30.389Z</Time>
                    </Trackpoint>
                    <Trackpoint>
                        <DistanceMeters>174.1052200194263</DistanceMeters>
                        <Time>2023-09-01T00:57:08.624Z</Time>
                    </Trackpoint>
                    <Trackpoint>
                        <DistanceMeters>200.57737663342078</DistanceMeters>
                        <Time>2023-09-01T00:57:30.600Z</Time>
                    </Trackpoint>
                    <Trackpoint>
                        <DistanceMeters>247.2601674876601</DistanceMeters>
                        <Time>2023-09-01T00:58:08.874Z</Time>
                    </Trackpoint>
                    <Trackpoint>
                        <DistanceMeters>273.54248234056183</DistanceMeters>
                        <Time>2023-09-01T00:58:31.214Z</Time>
                    </Trackpoint>
                    <Trackpoint>
                        <DistanceMeters>319.24386117928174</DistanceMeters>
                        <Time>2023-09-01T00:59:09.394Z</Time>
                    </Trackpoint>
                    <Trackpoint>
                        <DistanceMeters>346.6412710240739</DistanceMeters>
                        <Time>2023-09-01T00:59:31.575Z</Time>
                    </Trackpoint>
                    <Trackpoint>
                        <DistanceMeters>394.35205478625716</DistanceMeters>
                        <Time>2023-09-01T01:00:09.872Z</Time>
                    </Trackpoint>
                    <Trackpoint>
                        <DistanceMeters>422.8304662901243</DistanceMeters>
                        <Time>2023-09-01T01:00:33.897Z</Time>
                    </Trackpoint>
                    <Trackpoint>
                        <DistanceMeters>467.5558719663027</DistanceMeters>
                        <Time>2023-09-01T01:01:10.042Z</Time>
                    </Trackpoint>
                    <Trackpoint>
                        <DistanceMeters>498.05006483814543</DistanceMeters>
                        <Time>2023-09-01T01:01:34.177Z</Time>
                    </Trackpoint>
                    <Trackpoint>
                        <DistanceMeters>544.7393147622107</DistanceMeters>
                        <Time>2023-09-01T01:02:10.565Z</Time>
                    </Trackpoint>
                    <Trackpoint>
                        <DistanceMeters>556.8680178353889</DistanceMeters>
                        <Time>2023-09-01T01:02:20.727Z</Time>
                    </Trackpoint>
                    <Trackpoint>
                        <DistanceMeters>587.3380769304049</DistanceMeters>
                        <Time>2023-09-01T01:03:09.636Z</Time>
                    </Trackpoint>
                    <Trackpoint>
                        <DistanceMeters>602.5731064779129</DistanceMeters>
                        <Time>2023-09-01T01:03:31.006Z</Time>
                    </Trackpoint>
                    <Trackpoint>
                        <DistanceMeters>636.7251157331331</DistanceMeters>
                        <Time>2023-09-01T01:04:13.316Z</Time>
                    </Trackpoint>
                </Track>
                <DistanceMeters>636.7251157331331</DistanceMeters>
                <TotalTimeSeconds>575.254</TotalTimeSeconds>
                <Calories>64.36453088888888</Calories>
                <Intensity>Active</Intensity>
                <TriggerMethod>Manual</TriggerMethod>
            </Lap>
        </Activity>
    </Activities>
    <Author xsi:type="Application_t">
        <Name>Google Fit</Name>
        <Build>
            <Version>
                <VersionMajor>0</VersionMajor>
                <VersionMinor>0</VersionMinor>
                <BuildMajor>0</BuildMajor>
                <BuildMinor>0</BuildMinor>
            </Version>
        </Build>
        <LangID>en</LangID>
        <PartNumber>000-00000-00</PartNumber>
    </Author>
</TrainingCenterDatabase>
