<?xml version="1.0" encoding="UTF-8"?>
<TrainingCenterDatabase
    xmlns="http://www.garmin.com/xmlschemas/TrainingCenterDatabase/v2"
    xmlns:ns2="http://www.garmin.com/xmlschemas/UserProfile/v2"
    xmlns:ns3="http://www.garmin.com/xmlschemas/ActivityExtension/v2"
    xmlns:ns4="http://www.garmin.com/xmlschemas/ProfileExtension/v1"
    xmlns:ns5="http://www.garmin.com/xmlschemas/ActivityGoals/v1"
    xmlns:xsi="http://www.w3.org/2001/XMLSchema-instance" xsi:schemaLocation="http://www.garmin.com/xmlschemas/TrainingCenterDatabase/v2 http://www.garmin.com/xmlschemas/TrainingCenterDatabasev2.xsd">
    <Activities>
        <Activity Sport="Walking">
            <Id>2023-01-31T10:43:04.356Z</Id>
            <Lap StartTime="2023-01-31T10:43:04.356Z">
                <Track>
                    <Trackpoint>
                        <DistanceMeters>0.0</DistanceMeters>
                        <Time>2023-01-31T10:43:04.356Z</Time>
                    </Trackpoint>
                    <Trackpoint>
                        <DistanceMeters>0.0</DistanceMeters>
                        <Time>2023-01-31T10:43:37.356Z</Time>
                    </Trackpoint>
                    <Trackpoint>
                        <DistanceMeters>30.66585493296206</DistanceMeters>
                        <Time>2023-01-31T10:44:48.036Z</Time>
                    </Trackpoint>
                    <Trackpoint>
                        <DistanceMeters>57.41691987448215</DistanceMeters>
                        <Time>2023-01-31T10:46:11.196Z</Time>
                    </Trackpoint>
                    <Trackpoint>
                        <DistanceMeters>72.42361484167634</DistanceMeters>
                        <Time>2023-01-31T10:47:11.196Z</Time>
                    </Trackpoint>
                    <Trackpoint>
                        <DistanceMeters>73.72854483882367</DistanceMeters>
                        <Time>2023-01-31T10:47:29.917Z</Time>
                    </Trackpoint>
                </Track>
                <DistanceMeters>73.72854483882367</DistanceMeters>
                <TotalTimeSeconds>265.561</TotalTimeSeconds>
                <Calories>27.19049572222222</Calories>
                <Intensity>Active</Intensity>
                <TriggerMethod>Manual</TriggerMethod>
            </Lap>
        </Activity>
        <Activity Sport="Walking">
            <Id>2023-01-31T10:50:04.122Z</Id>
            <Lap StartTime="2023-01-31T10:50:04.122Z">
                <Track>
                    <Trackpoint>
                        <DistanceMeters>0.0</DistanceMeters>
                        <Time>2023-01-31T10:50:04.122Z</Time>
                    </Trackpoint>
                    <Trackpoint>
                        <DistanceMeters>0.0</DistanceMeters>
                        <Time>2023-01-31T10:50:28.740Z</Time>
                    </Trackpoint>
                </Track>
                <DistanceMeters>0.0</DistanceMeters>
                <TotalTimeSeconds>24.618</TotalTimeSeconds>
                <Calories>2.5206096666666666</Calories>
                <Intensity>Active</Intensity>
                <TriggerMethod>Manual</TriggerMethod>
            </Lap>
        </Activity>
        <Activity Sport="Walking">
            <Id>2023-01-31T10:56:06.576Z</Id>
            <Lap StartTime="2023-01-31T10:56:06.576Z">
                <Track>
                    <Trackpoint>
                        <DistanceMeters>0.0</DistanceMeters>
                        <Time>2023-01-31T10:56:06.576Z</Time>
                    </Trackpoint>
                    <Trackpoint>
                        <DistanceMeters>0.0</DistanceMeters>
                        <Time>2023-01-31T10:57:37.105Z</Time>
                    </Trackpoint>
                </Track>
                <DistanceMeters>0.0</DistanceMeters>
                <TotalTimeSeconds>90.529</TotalTimeSeconds>
                <Calories>9.26916372222222</Calories>
                <Intensity>Active</Intensity>
                <TriggerMethod>Manual</TriggerMethod>
            </Lap>
        </Activity>
        <Activity Sport="Walking">
            <Id>2023-01-31T11:07:19.916Z</Id>
            <Lap StartTime="2023-01-31T11:07:19.916Z">
                <Track>
                    <Trackpoint>
                        <DistanceMeters>0.0</DistanceMeters>
                        <Time>2023-01-31T11:07:19.916Z</Time>
                    </Trackpoint>
                    <Trackpoint>
                        <DistanceMeters>0.6524649985736608</DistanceMeters>
                        <Time>2023-01-31T11:07:20.856Z</Time>
                    </Trackpoint>
                    <Trackpoint>
                        <DistanceMeters>0.6524649985736608</DistanceMeters>
                        <Time>2023-01-31T11:07:21.156Z</Time>
                    </Trackpoint>
                    <Trackpoint>
                        <DistanceMeters>16.96408996291518</DistanceMeters>
                        <Time>2023-01-31T11:08:00.316Z</Time>
                    </Trackpoint>
                    <Trackpoint>
                        <DistanceMeters>27.40352994009375</DistanceMeters>
                        <Time>2023-01-31T11:08:21.596Z</Time>
                    </Trackpoint>
                    <Trackpoint>
                        <DistanceMeters>48.99748181303354</DistanceMeters>
                        <Time>2023-01-31T11:08:44.996Z</Time>
                    </Trackpoint>
                    <Trackpoint>
                        <DistanceMeters>72.48622176168533</DistanceMeters>
                        <Time>2023-01-31T11:09:17.436Z</Time>
                    </Trackpoint>
                    <Trackpoint>
                        <DistanceMeters>94.6700317131898</DistanceMeters>
                        <Time>2023-01-31T11:09:46.356Z</Time>
                    </Trackpoint>
                    <Trackpoint>
                        <DistanceMeters>114.89644666897328</DistanceMeters>
                        <Time>2023-01-31T11:10:16.996Z</Time>
                    </Trackpoint>
                    <Trackpoint>
                        <DistanceMeters>118.15877166184158</DistanceMeters>
                        <Time>2023-01-31T11:10:22.516Z</Time>
                    </Trackpoint>
                    <Trackpoint>
                        <DistanceMeters>136.42779162190408</DistanceMeters>
                        <Time>2023-01-31T11:10:47.316Z</Time>
                    </Trackpoint>
                    <Trackpoint>
                        <DistanceMeters>158.61160157340854</DistanceMeters>
                        <Time>2023-01-31T11:11:17.836Z</Time>
                    </Trackpoint>
                    <Trackpoint>
                        <DistanceMeters>179.49048152776567</DistanceMeters>
                        <Time>2023-01-31T11:11:47.356Z</Time>
                    </Trackpoint>
                    <Trackpoint>
                        <DistanceMeters>189.27745650637058</DistanceMeters>
                        <Time>2023-01-31T11:12:06.876Z</Time>
                    </Trackpoint>
                    <Trackpoint>
                        <DistanceMeters>198.41196648640184</DistanceMeters>
                        <Time>2023-01-31T11:13:01.101Z</Time>
                    </Trackpoint>
                </Track>
                <DistanceMeters>198.41196648640184</DistanceMeters>
                <TotalTimeSeconds>341.184831388</TotalTimeSeconds>
                <Calories>34.8373075</Calories>
                <Intensity>Active</Intensity>
                <TriggerMethod>Manual</TriggerMethod>
            </Lap>
        </Activity>
    </Activities>
    <Author xsi:type="Application_t">
        <Name>Google Fit</Name>
        <Build>
            <Version>
                <VersionMajor>0</VersionMajor>
                <VersionMinor>0</VersionMinor>
                <BuildMajor>0</BuildMajor>
                <BuildMinor>0</BuildMinor>
            </Version>
        </Build>
        <LangID>en</LangID>
        <PartNumber>000-00000-00</PartNumber>
    </Author>
</TrainingCenterDatabase>
