<?xml version="1.0" encoding="UTF-8"?>
<TrainingCenterDatabase
    xmlns="http://www.garmin.com/xmlschemas/TrainingCenterDatabase/v2"
    xmlns:ns2="http://www.garmin.com/xmlschemas/UserProfile/v2"
    xmlns:ns3="http://www.garmin.com/xmlschemas/ActivityExtension/v2"
    xmlns:ns4="http://www.garmin.com/xmlschemas/ProfileExtension/v1"
    xmlns:ns5="http://www.garmin.com/xmlschemas/ActivityGoals/v1"
    xmlns:xsi="http://www.w3.org/2001/XMLSchema-instance" xsi:schemaLocation="http://www.garmin.com/xmlschemas/TrainingCenterDatabase/v2 http://www.garmin.com/xmlschemas/TrainingCenterDatabasev2.xsd">
    <Activities>
        <Activity Sport="Walking">
            <Id>2023-08-13T03:59:31.110Z</Id>
            <Lap StartTime="2023-08-13T03:59:31.110Z">
                <Track>
                    <Trackpoint>
                        <DistanceMeters>0.0</DistanceMeters>
                        <Time>2023-08-13T03:59:31.110Z</Time>
                    </Trackpoint>
                    <Trackpoint>
                        <DistanceMeters>41.73073310839155</DistanceMeters>
                        <Time>2023-08-13T04:00:06.177Z</Time>
                    </Trackpoint>
                    <Trackpoint>
                        <DistanceMeters>41.73073310839155</DistanceMeters>
                        <Time>2023-08-13T04:00:39.267Z</Time>
                    </Trackpoint>
                    <Trackpoint>
                        <DistanceMeters>71.53839961438551</DistanceMeters>
                        <Time>2023-08-13T04:01:39.933Z</Time>
                    </Trackpoint>
                    <Trackpoint>
                        <DistanceMeters>101.34606612037948</DistanceMeters>
                        <Time>2023-08-13T04:02:40.748Z</Time>
                    </Trackpoint>
                    <Trackpoint>
                        <DistanceMeters>129.82894744832927</DistanceMeters>
                        <Time>2023-08-13T04:03:36.671Z</Time>
                    </Trackpoint>
                    <Trackpoint>
                        <DistanceMeters>172.2220731457429</DistanceMeters>
                        <Time>2023-08-13T04:04:43.927Z</Time>
                    </Trackpoint>
                    <Trackpoint>
                        <DistanceMeters>206.0040951858694</DistanceMeters>
                        <Time>2023-08-13T04:05:42.651Z</Time>
                    </Trackpoint>
                    <Trackpoint>
                        <DistanceMeters>251.0467912393714</DistanceMeters>
                        <Time>2023-08-13T04:06:53.567Z</Time>
                    </Trackpoint>
                    <Trackpoint>
                        <DistanceMeters>292.11513175874086</DistanceMeters>
                        <Time>2023-08-13T04:07:54.025Z</Time>
                    </Trackpoint>
                    <Trackpoint>
                        <DistanceMeters>324.57236862082317</DistanceMeters>
                        <Time>2023-08-13T04:08:44.472Z</Time>
                    </Trackpoint>
                    <Trackpoint>
                        <DistanceMeters>364.3159239621485</DistanceMeters>
                        <Time>2023-08-13T04:09:55.780Z</Time>
                    </Trackpoint>
                    <Trackpoint>
                        <DistanceMeters>404.72187189249587</DistanceMeters>
                        <Time>2023-08-13T04:10:55.902Z</Time>
                    </Trackpoint>
                    <Trackpoint>
                        <DistanceMeters>448.43978276795366</DistanceMeters>
                        <Time>2023-08-13T04:11:56.527Z</Time>
                    </Trackpoint>
                    <Trackpoint>
                        <DistanceMeters>470.04465314040567</DistanceMeters>
                        <Time>2023-08-13T04:12:14.083Z</Time>
                    </Trackpoint>
                </Track>
                <DistanceMeters>470.04465314040567</DistanceMeters>
                <TotalTimeSeconds>762.972921994</TotalTimeSeconds>
                <Calories>80.59065755555555</Calories>
                <Intensity>Active</Intensity>
                <TriggerMethod>Manual</TriggerMethod>
            </Lap>
        </Activity>
        <Activity Sport="Walking">
            <Id>2023-08-13T04:11:56.527Z</Id>
            <Lap StartTime="2023-08-13T04:11:56.527Z">
                <Track>
                    <Trackpoint>
                        <DistanceMeters>0.0</DistanceMeters>
                        <Time>2023-08-13T04:11:56.527Z</Time>
                    </Trackpoint>
                    <Trackpoint>
                        <DistanceMeters>21.604870372451998</DistanceMeters>
                        <Time>2023-08-13T04:12:06.451Z</Time>
                    </Trackpoint>
                    <Trackpoint>
                        <DistanceMeters>21.604870372451998</DistanceMeters>
                        <Time>2023-08-13T04:12:14.083Z</Time>
                    </Trackpoint>
                </Track>
                <DistanceMeters>21.604870372451998</DistanceMeters>
                <TotalTimeSeconds>17.556361436</TotalTimeSeconds>
                <Calories>0.8539902069218889</Calories>
                <Intensity>Active</Intensity>
                <TriggerMethod>Manual</TriggerMethod>
            </Lap>
        </Activity>
    </Activities>
    <Author xsi:type="Application_t">
        <Name>Google Fit</Name>
        <Build>
            <Version>
                <VersionMajor>0</VersionMajor>
                <VersionMinor>0</VersionMinor>
                <BuildMajor>0</BuildMajor>
                <BuildMinor>0</BuildMinor>
            </Version>
        </Build>
        <LangID>en</LangID>
        <PartNumber>000-00000-00</PartNumber>
    </Author>
</TrainingCenterDatabase>
