<?xml version="1.0" encoding="UTF-8"?>
<TrainingCenterDatabase
    xmlns="http://www.garmin.com/xmlschemas/TrainingCenterDatabase/v2"
    xmlns:ns2="http://www.garmin.com/xmlschemas/UserProfile/v2"
    xmlns:ns3="http://www.garmin.com/xmlschemas/ActivityExtension/v2"
    xmlns:ns4="http://www.garmin.com/xmlschemas/ProfileExtension/v1"
    xmlns:ns5="http://www.garmin.com/xmlschemas/ActivityGoals/v1"
    xmlns:xsi="http://www.w3.org/2001/XMLSchema-instance" xsi:schemaLocation="http://www.garmin.com/xmlschemas/TrainingCenterDatabase/v2 http://www.garmin.com/xmlschemas/TrainingCenterDatabasev2.xsd">
    <Activities>
        <Activity Sport="Walking">
            <Id>2023-05-11T16:52:31.379Z</Id>
            <Lap StartTime="2023-05-11T16:52:31.379Z">
                <Track>
                    <Trackpoint>
                        <DistanceMeters>0.0</DistanceMeters>
                        <Time>2023-05-11T16:52:31.379Z</Time>
                    </Trackpoint>
                    <Trackpoint>
                        <DistanceMeters>39.597740991003604</DistanceMeters>
                        <Time>2023-05-11T16:54:32.757Z</Time>
                    </Trackpoint>
                    <Trackpoint>
                        <DistanceMeters>55.59309351715652</DistanceMeters>
                        <Time>2023-05-11T17:00:09.257Z</Time>
                    </Trackpoint>
                    <Trackpoint>
                        <DistanceMeters>75.16704347436634</DistanceMeters>
                        <Time>2023-05-11T17:04:14.237Z</Time>
                    </Trackpoint>
                    <Trackpoint>
                        <DistanceMeters>143.67586832460074</DistanceMeters>
                        <Time>2023-05-11T17:07:44.237Z</Time>
                    </Trackpoint>
                    <Trackpoint>
                        <DistanceMeters>190.6533482219043</DistanceMeters>
                        <Time>2023-05-11T17:08:45.517Z</Time>
                    </Trackpoint>
                    <Trackpoint>
                        <DistanceMeters>243.50301310637084</DistanceMeters>
                        <Time>2023-05-11T17:10:04.357Z</Time>
                    </Trackpoint>
                    <Trackpoint>
                        <DistanceMeters>269.98899692850665</DistanceMeters>
                        <Time>2023-05-11T17:10:27.517Z</Time>
                    </Trackpoint>
                    <Trackpoint>
                        <DistanceMeters>318.92387182153124</DistanceMeters>
                        <Time>2023-05-11T17:11:53.557Z</Time>
                    </Trackpoint>
                </Track>
                <DistanceMeters>318.92387182153124</DistanceMeters>
                <TotalTimeSeconds>1162.178894685</TotalTimeSeconds>
                <Calories>112.4754231111111</Calories>
                <Intensity>Active</Intensity>
                <TriggerMethod>Manual</TriggerMethod>
            </Lap>
        </Activity>
        <Activity Sport="Walking">
            <Id>2023-05-11T17:10:27.517Z</Id>
            <Lap StartTime="2023-05-11T17:10:27.517Z">
                <Track>
                    <Trackpoint>
                        <DistanceMeters>0.0</DistanceMeters>
                        <Time>2023-05-11T17:10:27.517Z</Time>
                    </Trackpoint>
                    <Trackpoint>
                        <DistanceMeters>48.93487489302456</DistanceMeters>
                        <Time>2023-05-11T17:10:49.891Z</Time>
                    </Trackpoint>
                    <Trackpoint>
                        <DistanceMeters>48.93487489302456</DistanceMeters>
                        <Time>2023-05-11T17:11:53.557Z</Time>
                    </Trackpoint>
                    <Trackpoint>
                        <DistanceMeters>94.2908016421</DistanceMeters>
                        <Time>2023-05-11T17:12:31.117Z</Time>
                    </Trackpoint>
                </Track>
                <DistanceMeters>94.2908016421</DistanceMeters>
                <TotalTimeSeconds>123.599999262</TotalTimeSeconds>
                <Calories>4.168749684914406</Calories>
                <Intensity>Active</Intensity>
                <TriggerMethod>Manual</TriggerMethod>
            </Lap>
        </Activity>
        <Activity Sport="Walking">
            <Id>2023-05-11T17:11:53.557Z</Id>
            <Lap StartTime="2023-05-11T17:11:53.557Z">
                <Track>
                    <Trackpoint>
                        <DistanceMeters>0.0</DistanceMeters>
                        <Time>2023-05-11T17:11:53.557Z</Time>
                    </Trackpoint>
                    <Trackpoint>
                        <DistanceMeters>45.35592674907545</DistanceMeters>
                        <Time>2023-05-11T17:12:21.061Z</Time>
                    </Trackpoint>
                    <Trackpoint>
                        <DistanceMeters>45.35592674907545</DistanceMeters>
                        <Time>2023-05-11T17:12:31.117Z</Time>
                    </Trackpoint>
                    <Trackpoint>
                        <DistanceMeters>53.41582149233227</DistanceMeters>
                        <Time>2023-05-11T17:12:39.097Z</Time>
                    </Trackpoint>
                    <Trackpoint>
                        <DistanceMeters>74.94716644526308</DistanceMeters>
                        <Time>2023-05-11T17:13:16.917Z</Time>
                    </Trackpoint>
                    <Trackpoint>
                        <DistanceMeters>97.23284047724401</DistanceMeters>
                        <Time>2023-05-11T17:14:03.717Z</Time>
                    </Trackpoint>
                    <Trackpoint>
                        <DistanceMeters>124.16648689527445</DistanceMeters>
                        <Time>2023-05-11T17:17:26.757Z</Time>
                    </Trackpoint>
                    <Trackpoint>
                        <DistanceMeters>140.47811185961598</DistanceMeters>
                        <Time>2023-05-11T17:18:24.457Z</Time>
                    </Trackpoint>
                    <Trackpoint>
                        <DistanceMeters>162.00945681254677</DistanceMeters>
                        <Time>2023-05-11T17:18:58.717Z</Time>
                    </Trackpoint>
                    <Trackpoint>
                        <DistanceMeters>184.19326676405123</DistanceMeters>
                        <Time>2023-05-11T17:20:02.037Z</Time>
                    </Trackpoint>
                    <Trackpoint>
                        <DistanceMeters>231.17074666135483</DistanceMeters>
                        <Time>2023-05-11T17:21:51.341Z</Time>
                    </Trackpoint>
                </Track>
                <DistanceMeters>231.17074666135483</DistanceMeters>
                <TotalTimeSeconds>597.783105315</TotalTimeSeconds>
                <Calories>58.39033555555556</Calories>
                <Intensity>Active</Intensity>
                <TriggerMethod>Manual</TriggerMethod>
            </Lap>
        </Activity>
    </Activities>
    <Author xsi:type="Application_t">
        <Name>Google Fit</Name>
        <Build>
            <Version>
                <VersionMajor>0</VersionMajor>
                <VersionMinor>0</VersionMinor>
                <BuildMajor>0</BuildMajor>
                <BuildMinor>0</BuildMinor>
            </Version>
        </Build>
        <LangID>en</LangID>
        <PartNumber>000-00000-00</PartNumber>
    </Author>
</TrainingCenterDatabase>
