<?xml version="1.0" encoding="UTF-8"?>
<TrainingCenterDatabase
    xmlns="http://www.garmin.com/xmlschemas/TrainingCenterDatabase/v2"
    xmlns:ns2="http://www.garmin.com/xmlschemas/UserProfile/v2"
    xmlns:ns3="http://www.garmin.com/xmlschemas/ActivityExtension/v2"
    xmlns:ns4="http://www.garmin.com/xmlschemas/ProfileExtension/v1"
    xmlns:ns5="http://www.garmin.com/xmlschemas/ActivityGoals/v1"
    xmlns:xsi="http://www.w3.org/2001/XMLSchema-instance" xsi:schemaLocation="http://www.garmin.com/xmlschemas/TrainingCenterDatabase/v2 http://www.garmin.com/xmlschemas/TrainingCenterDatabasev2.xsd">
    <Activities>
        <Activity Sport="Walking">
            <Id>2023-08-29T23:23:43.749Z</Id>
            <Lap StartTime="2023-08-29T23:23:43.749Z">
                <Track>
                    <Trackpoint>
                        <DistanceMeters>0.0</DistanceMeters>
                        <Time>2023-08-29T23:23:43.749Z</Time>
                    </Trackpoint>
                    <Trackpoint>
                        <DistanceMeters>0.0</DistanceMeters>
                        <Time>2023-08-30T00:47:11.430Z</Time>
                    </Trackpoint>
                    <Trackpoint>
                        <DistanceMeters>37.75637757425902</DistanceMeters>
                        <Time>2023-08-30T00:49:05.430Z</Time>
                    </Trackpoint>
                    <Trackpoint>
                        <DistanceMeters>37.75637757425902</DistanceMeters>
                        <Time>2023-08-30T00:49:10.822Z</Time>
                    </Trackpoint>
                </Track>
                <DistanceMeters>37.75637757425902</DistanceMeters>
                <TotalTimeSeconds>5127.072330198</TotalTimeSeconds>
                <Calories>115.50016968879167</Calories>
                <Intensity>Active</Intensity>
                <TriggerMethod>Manual</TriggerMethod>
            </Lap>
        </Activity>
        <Activity Sport="Walking">
            <Id>2023-08-30T00:49:10.822Z</Id>
            <Lap StartTime="2023-08-30T00:49:10.822Z">
                <Track>
                    <Trackpoint>
                        <DistanceMeters>0.0</DistanceMeters>
                        <Time>2023-08-30T00:49:10.822Z</Time>
                    </Trackpoint>
                    <Trackpoint>
                        <DistanceMeters>76.71393111099773</DistanceMeters>
                        <Time>2023-08-30T00:50:11.442Z</Time>
                    </Trackpoint>
                    <Trackpoint>
                        <DistanceMeters>110.14227448834257</DistanceMeters>
                        <Time>2023-08-30T00:50:37.822Z</Time>
                    </Trackpoint>
                    <Trackpoint>
                        <DistanceMeters>186.1735222752843</DistanceMeters>
                        <Time>2023-08-30T00:51:38.520Z</Time>
                    </Trackpoint>
                    <Trackpoint>
                        <DistanceMeters>258.04353511976353</DistanceMeters>
                        <Time>2023-08-30T00:52:39.256Z</Time>
                    </Trackpoint>
                    <Trackpoint>
                        <DistanceMeters>287.91227762772667</DistanceMeters>
                        <Time>2023-08-30T00:53:02.639Z</Time>
                    </Trackpoint>
                    <Trackpoint>
                        <DistanceMeters>306.0337061490139</DistanceMeters>
                        <Time>2023-08-30T00:53:17.058Z</Time>
                    </Trackpoint>
                    <Trackpoint>
                        <DistanceMeters>336.62591316971475</DistanceMeters>
                        <Time>2023-08-30T00:53:41.021Z</Time>
                    </Trackpoint>
                    <Trackpoint>
                        <DistanceMeters>346.56180200504605</DistanceMeters>
                        <Time>2023-08-30T00:53:52.731Z</Time>
                    </Trackpoint>
                    <Trackpoint>
                        <DistanceMeters>377.9312856504941</DistanceMeters>
                        <Time>2023-08-30T00:54:17.179Z</Time>
                    </Trackpoint>
                    <Trackpoint>
                        <DistanceMeters>409.32314503323823</DistanceMeters>
                        <Time>2023-08-30T00:54:39.827Z</Time>
                    </Trackpoint>
                    <Trackpoint>
                        <DistanceMeters>431.9779863610758</DistanceMeters>
                        <Time>2023-08-30T00:54:59.297Z</Time>
                    </Trackpoint>
                    <Trackpoint>
                        <DistanceMeters>469.07197134631275</DistanceMeters>
                        <Time>2023-08-30T00:56:49.091Z</Time>
                    </Trackpoint>
                    <Trackpoint>
                        <DistanceMeters>500.72776601274575</DistanceMeters>
                        <Time>2023-08-30T00:57:13.054Z</Time>
                    </Trackpoint>
                    <Trackpoint>
                        <DistanceMeters>547.322839109351</DistanceMeters>
                        <Time>2023-08-30T00:57:49.606Z</Time>
                    </Trackpoint>
                    <Trackpoint>
                        <DistanceMeters>568.846501612378</DistanceMeters>
                        <Time>2023-08-30T00:58:07.312Z</Time>
                    </Trackpoint>
                    <Trackpoint>
                        <DistanceMeters>622.5775640342642</DistanceMeters>
                        <Time>2023-08-30T00:58:55.762Z</Time>
                    </Trackpoint>
                    <Trackpoint>
                        <DistanceMeters>676.8937563340754</DistanceMeters>
                        <Time>2023-08-30T01:00:42.400Z</Time>
                    </Trackpoint>
                </Track>
                <DistanceMeters>676.8937563340754</DistanceMeters>
                <TotalTimeSeconds>691.578019422</TotalTimeSeconds>
                <Calories>68.96159777777778</Calories>
                <Intensity>Active</Intensity>
                <TriggerMethod>Manual</TriggerMethod>
            </Lap>
        </Activity>
        <Activity Sport="Walking">
            <Id>2023-08-30T00:58:55.762Z</Id>
            <Lap StartTime="2023-08-30T00:58:55.762Z">
                <Track>
                    <Trackpoint>
                        <DistanceMeters>0.0</DistanceMeters>
                        <Time>2023-08-30T00:58:55.762Z</Time>
                    </Trackpoint>
                    <Trackpoint>
                        <DistanceMeters>54.31619229981122</DistanceMeters>
                        <Time>2023-08-30T01:00:36.067Z</Time>
                    </Trackpoint>
                    <Trackpoint>
                        <DistanceMeters>54.31619229981122</DistanceMeters>
                        <Time>2023-08-30T01:01:09.902Z</Time>
                    </Trackpoint>
                </Track>
                <DistanceMeters>54.31619229981122</DistanceMeters>
                <TotalTimeSeconds>134.139817769</TotalTimeSeconds>
                <Calories>3.785760555555555</Calories>
                <Intensity>Active</Intensity>
                <TriggerMethod>Manual</TriggerMethod>
            </Lap>
        </Activity>
    </Activities>
    <Author xsi:type="Application_t">
        <Name>Google Fit</Name>
        <Build>
            <Version>
                <VersionMajor>0</VersionMajor>
                <VersionMinor>0</VersionMinor>
                <BuildMajor>0</BuildMajor>
                <BuildMinor>0</BuildMinor>
            </Version>
        </Build>
        <LangID>en</LangID>
        <PartNumber>000-00000-00</PartNumber>
    </Author>
</TrainingCenterDatabase>
