<?xml version="1.0" encoding="UTF-8"?>
<TrainingCenterDatabase
    xmlns="http://www.garmin.com/xmlschemas/TrainingCenterDatabase/v2"
    xmlns:ns2="http://www.garmin.com/xmlschemas/UserProfile/v2"
    xmlns:ns3="http://www.garmin.com/xmlschemas/ActivityExtension/v2"
    xmlns:ns4="http://www.garmin.com/xmlschemas/ProfileExtension/v1"
    xmlns:ns5="http://www.garmin.com/xmlschemas/ActivityGoals/v1"
    xmlns:xsi="http://www.w3.org/2001/XMLSchema-instance" xsi:schemaLocation="http://www.garmin.com/xmlschemas/TrainingCenterDatabase/v2 http://www.garmin.com/xmlschemas/TrainingCenterDatabasev2.xsd">
    <Activities>
        <Activity Sport="Walking">
            <Id>2023-02-01T08:27:29.083Z</Id>
            <Lap StartTime="2023-02-01T08:27:29.083Z">
                <Track>
                    <Trackpoint>
                        <DistanceMeters>0.0</DistanceMeters>
                        <Time>2023-02-01T08:27:29.083Z</Time>
                    </Trackpoint>
                    <Trackpoint>
                        <DistanceMeters>0.0</DistanceMeters>
                        <Time>2023-02-01T08:59:07.156Z</Time>
                    </Trackpoint>
                    <Trackpoint>
                        <DistanceMeters>31.31831993153572</DistanceMeters>
                        <Time>2023-02-01T09:00:43.156Z</Time>
                    </Trackpoint>
                    <Trackpoint>
                        <DistanceMeters>48.2824098944509</DistanceMeters>
                        <Time>2023-02-01T09:01:06.436Z</Time>
                    </Trackpoint>
                    <Trackpoint>
                        <DistanceMeters>85.89525326449075</DistanceMeters>
                        <Time>2023-02-01T09:01:43.676Z</Time>
                    </Trackpoint>
                    <Trackpoint>
                        <DistanceMeters>103.51180822597959</DistanceMeters>
                        <Time>2023-02-01T09:02:09.176Z</Time>
                    </Trackpoint>
                    <Trackpoint>
                        <DistanceMeters>140.04984814610458</DistanceMeters>
                        <Time>2023-02-01T09:03:05.036Z</Time>
                    </Trackpoint>
                </Track>
                <DistanceMeters>140.04984814610458</DistanceMeters>
                <TotalTimeSeconds>2135.953138299</TotalTimeSeconds>
                <Calories>54.64899823119639</Calories>
                <Intensity>Active</Intensity>
                <TriggerMethod>Manual</TriggerMethod>
            </Lap>
        </Activity>
        <Activity Sport="Walking">
            <Id>2023-02-01T09:02:09.176Z</Id>
            <Lap StartTime="2023-02-01T09:02:09.176Z">
                <Track>
                    <Trackpoint>
                        <DistanceMeters>0.0</DistanceMeters>
                        <Time>2023-02-01T09:02:09.176Z</Time>
                    </Trackpoint>
                    <Trackpoint>
                        <DistanceMeters>36.538039920125</DistanceMeters>
                        <Time>2023-02-01T09:02:43.098Z</Time>
                    </Trackpoint>
                    <Trackpoint>
                        <DistanceMeters>36.538039920125</DistanceMeters>
                        <Time>2023-02-01T09:03:05.036Z</Time>
                    </Trackpoint>
                    <Trackpoint>
                        <DistanceMeters>54.154594881613846</DistanceMeters>
                        <Time>2023-02-01T09:03:28.916Z</Time>
                    </Trackpoint>
                    <Trackpoint>
                        <DistanceMeters>83.51551981742858</DistanceMeters>
                        <Time>2023-02-01T09:04:06.116Z</Time>
                    </Trackpoint>
                    <Trackpoint>
                        <DistanceMeters>103.0894697746384</DistanceMeters>
                        <Time>2023-02-01T09:04:30.436Z</Time>
                    </Trackpoint>
                    <Trackpoint>
                        <DistanceMeters>130.49299971473215</DistanceMeters>
                        <Time>2023-02-01T09:05:06.476Z</Time>
                    </Trackpoint>
                    <Trackpoint>
                        <DistanceMeters>144.84722968335268</DistanceMeters>
                        <Time>2023-02-01T09:05:22.536Z</Time>
                    </Trackpoint>
                    <Trackpoint>
                        <DistanceMeters>155.93913465910492</DistanceMeters>
                        <Time>2023-02-01T09:06:00.196Z</Time>
                    </Trackpoint>
                    <Trackpoint>
                        <DistanceMeters>192.47717457922994</DistanceMeters>
                        <Time>2023-02-01T09:07:52.196Z</Time>
                    </Trackpoint>
                    <Trackpoint>
                        <DistanceMeters>213.3560545335871</DistanceMeters>
                        <Time>2023-02-01T09:08:16.036Z</Time>
                    </Trackpoint>
                    <Trackpoint>
                        <DistanceMeters>244.6743744651228</DistanceMeters>
                        <Time>2023-02-01T09:09:44.636Z</Time>
                    </Trackpoint>
                    <Trackpoint>
                        <DistanceMeters>250.54655945228575</DistanceMeters>
                        <Time>2023-02-01T09:10:06.756Z</Time>
                    </Trackpoint>
                </Track>
                <DistanceMeters>250.54655945228575</DistanceMeters>
                <TotalTimeSeconds>477.579863183</TotalTimeSeconds>
                <Calories>45.425649666666665</Calories>
                <Intensity>Active</Intensity>
                <TriggerMethod>Manual</TriggerMethod>
            </Lap>
        </Activity>
    </Activities>
    <Author xsi:type="Application_t">
        <Name>Google Fit</Name>
        <Build>
            <Version>
                <VersionMajor>0</VersionMajor>
                <VersionMinor>0</VersionMinor>
                <BuildMajor>0</BuildMajor>
                <BuildMinor>0</BuildMinor>
            </Version>
        </Build>
        <LangID>en</LangID>
        <PartNumber>000-00000-00</PartNumber>
    </Author>
</TrainingCenterDatabase>
