<?xml version="1.0" encoding="UTF-8"?>
<TrainingCenterDatabase
    xmlns="http://www.garmin.com/xmlschemas/TrainingCenterDatabase/v2"
    xmlns:ns2="http://www.garmin.com/xmlschemas/UserProfile/v2"
    xmlns:ns3="http://www.garmin.com/xmlschemas/ActivityExtension/v2"
    xmlns:ns4="http://www.garmin.com/xmlschemas/ProfileExtension/v1"
    xmlns:ns5="http://www.garmin.com/xmlschemas/ActivityGoals/v1"
    xmlns:xsi="http://www.w3.org/2001/XMLSchema-instance" xsi:schemaLocation="http://www.garmin.com/xmlschemas/TrainingCenterDatabase/v2 http://www.garmin.com/xmlschemas/TrainingCenterDatabasev2.xsd">
    <Activities>
        <Activity Sport="Walking">
            <Id>2023-08-23T00:56:19.242Z</Id>
            <Lap StartTime="2023-08-23T00:56:19.242Z">
                <Track>
                    <Trackpoint>
                        <DistanceMeters>0.0</DistanceMeters>
                        <Time>2023-08-23T00:56:19.242Z</Time>
                    </Trackpoint>
                    <Trackpoint>
                        <DistanceMeters>35.769199807192756</DistanceMeters>
                        <Time>2023-08-23T00:57:49.769Z</Time>
                    </Trackpoint>
                    <Trackpoint>
                        <DistanceMeters>35.769199807192756</DistanceMeters>
                        <Time>2023-08-23T00:58:07.242Z</Time>
                    </Trackpoint>
                    <Trackpoint>
                        <DistanceMeters>48.35465899861243</DistanceMeters>
                        <Time>2023-08-23T00:58:39.741Z</Time>
                    </Trackpoint>
                    <Trackpoint>
                        <DistanceMeters>76.39803092239703</DistanceMeters>
                        <Time>2023-08-23T00:59:06.796Z</Time>
                    </Trackpoint>
                    <Trackpoint>
                        <DistanceMeters>91.67245605773736</DistanceMeters>
                        <Time>2023-08-23T00:59:20.804Z</Time>
                    </Trackpoint>
                    <Trackpoint>
                        <DistanceMeters>112.55030349826487</DistanceMeters>
                        <Time>2023-08-23T00:59:39.801Z</Time>
                    </Trackpoint>
                    <Trackpoint>
                        <DistanceMeters>126.477596861592</DistanceMeters>
                        <Time>2023-08-23T01:00:39.750Z</Time>
                    </Trackpoint>
                    <Trackpoint>
                        <DistanceMeters>136.43839262391867</DistanceMeters>
                        <Time>2023-08-23T01:00:50.397Z</Time>
                    </Trackpoint>
                    <Trackpoint>
                        <DistanceMeters>156.97256288360342</DistanceMeters>
                        <Time>2023-08-23T01:01:41.147Z</Time>
                    </Trackpoint>
                    <Trackpoint>
                        <DistanceMeters>166.32159379867352</DistanceMeters>
                        <Time>2023-08-23T01:01:48.779Z</Time>
                    </Trackpoint>
                    <Trackpoint>
                        <DistanceMeters>199.44122324977792</DistanceMeters>
                        <Time>2023-08-23T01:02:28.012Z</Time>
                    </Trackpoint>
                    <Trackpoint>
                        <DistanceMeters>234.68475883663632</DistanceMeters>
                        <Time>2023-08-23T01:02:56.769Z</Time>
                    </Trackpoint>
                    <Trackpoint>
                        <DistanceMeters>293.0325260496984</DistanceMeters>
                        <Time>2023-08-23T01:03:54.647Z</Time>
                    </Trackpoint>
                    <Trackpoint>
                        <DistanceMeters>329.7280096339226</DistanceMeters>
                        <Time>2023-08-23T01:04:26.521Z</Time>
                    </Trackpoint>
                    <Trackpoint>
                        <DistanceMeters>330.3904022229447</DistanceMeters>
                        <Time>2023-08-23T01:04:27.661Z</Time>
                    </Trackpoint>
                    <Trackpoint>
                        <DistanceMeters>411.2997838741283</DistanceMeters>
                        <Time>2023-08-23T01:05:36.625Z</Time>
                    </Trackpoint>
                    <Trackpoint>
                        <DistanceMeters>466.18443140652124</DistanceMeters>
                        <Time>2023-08-23T01:06:22.751Z</Time>
                    </Trackpoint>
                </Track>
                <DistanceMeters>466.18443140652124</DistanceMeters>
                <TotalTimeSeconds>603.508333674</TotalTimeSeconds>
                <Calories>53.64826066666666</Calories>
                <Intensity>Active</Intensity>
                <TriggerMethod>Manual</TriggerMethod>
            </Lap>
        </Activity>
        <Activity Sport="Walking">
            <Id>2023-08-23T01:05:36.625Z</Id>
            <Lap StartTime="2023-08-23T01:05:36.625Z">
                <Track>
                    <Trackpoint>
                        <DistanceMeters>0.0</DistanceMeters>
                        <Time>2023-08-23T01:05:36.625Z</Time>
                    </Trackpoint>
                    <Trackpoint>
                        <DistanceMeters>54.884647532392954</DistanceMeters>
                        <Time>2023-08-23T01:05:49.247Z</Time>
                    </Trackpoint>
                    <Trackpoint>
                        <DistanceMeters>54.884647532392954</DistanceMeters>
                        <Time>2023-08-23T01:06:22.751Z</Time>
                    </Trackpoint>
                </Track>
                <DistanceMeters>54.884647532392954</DistanceMeters>
                <TotalTimeSeconds>46.125351446</TotalTimeSeconds>
                <Calories>3.7487336231811113</Calories>
                <Intensity>Active</Intensity>
                <TriggerMethod>Manual</TriggerMethod>
            </Lap>
        </Activity>
        <Activity Sport="Walking">
            <Id>2023-08-23T01:06:22.751Z</Id>
            <Lap StartTime="2023-08-23T01:06:22.751Z">
                <Track>
                    <Trackpoint>
                        <DistanceMeters>0.0</DistanceMeters>
                        <Time>2023-08-23T01:06:22.751Z</Time>
                    </Trackpoint>
                    <Trackpoint>
                        <DistanceMeters>27.8204887389277</DistanceMeters>
                        <Time>2023-08-23T01:07:13.953Z</Time>
                    </Trackpoint>
                    <Trackpoint>
                        <DistanceMeters>27.8204887389277</DistanceMeters>
                        <Time>2023-08-23T01:07:29.143Z</Time>
                    </Trackpoint>
                    <Trackpoint>
                        <DistanceMeters>58.44426775098206</DistanceMeters>
                        <Time>2023-08-23T01:07:53.051Z</Time>
                    </Trackpoint>
                    <Trackpoint>
                        <DistanceMeters>77.26298980523305</DistanceMeters>
                        <Time>2023-08-23T01:08:08.095Z</Time>
                    </Trackpoint>
                    <Trackpoint>
                        <DistanceMeters>105.82824057111586</DistanceMeters>
                        <Time>2023-08-23T01:08:30.074Z</Time>
                    </Trackpoint>
                    <Trackpoint>
                        <DistanceMeters>137.7692092931693</DistanceMeters>
                        <Time>2023-08-23T01:08:55.367Z</Time>
                    </Trackpoint>
                    <Trackpoint>
                        <DistanceMeters>176.65970067323303</DistanceMeters>
                        <Time>2023-08-23T01:09:25.116Z</Time>
                    </Trackpoint>
                    <Trackpoint>
                        <DistanceMeters>201.61062429680038</DistanceMeters>
                        <Time>2023-08-23T01:09:46.076Z</Time>
                    </Trackpoint>
                    <Trackpoint>
                        <DistanceMeters>219.47757122906205</DistanceMeters>
                        <Time>2023-08-23T01:10:00.961Z</Time>
                    </Trackpoint>
                    <Trackpoint>
                        <DistanceMeters>245.02898458449945</DistanceMeters>
                        <Time>2023-08-23T01:10:22.737Z</Time>
                    </Trackpoint>
                    <Trackpoint>
                        <DistanceMeters>265.6687497572143</DistanceMeters>
                        <Time>2023-08-23T01:10:42.258Z</Time>
                    </Trackpoint>
                    <Trackpoint>
                        <DistanceMeters>278.25420894863396</DistanceMeters>
                        <Time>2023-08-23T01:12:00.595Z</Time>
                    </Trackpoint>
                    <Trackpoint>
                        <DistanceMeters>322.63451241311384</DistanceMeters>
                        <Time>2023-08-23T01:13:32.482Z</Time>
                    </Trackpoint>
                    <Trackpoint>
                        <DistanceMeters>359.0661048093287</DistanceMeters>
                        <Time>2023-08-23T01:15:29.234Z</Time>
                    </Trackpoint>
                </Track>
                <DistanceMeters>359.0661048093287</DistanceMeters>
                <TotalTimeSeconds>546.48292591</TotalTimeSeconds>
                <Calories>55.41644077777778</Calories>
                <Intensity>Active</Intensity>
                <TriggerMethod>Manual</TriggerMethod>
            </Lap>
        </Activity>
        <Activity Sport="Walking">
            <Id>2023-08-23T01:16:13.685Z</Id>
            <Lap StartTime="2023-08-23T01:16:13.685Z">
                <Track>
                    <Trackpoint>
                        <DistanceMeters>0.0</DistanceMeters>
                        <Time>2023-08-23T01:16:13.685Z</Time>
                    </Trackpoint>
                    <Trackpoint>
                        <DistanceMeters>0.0</DistanceMeters>
                        <Time>2023-08-23T01:16:19.836Z</Time>
                    </Trackpoint>
                    <Trackpoint>
                        <DistanceMeters>8.611103657287146</DistanceMeters>
                        <Time>2023-08-23T01:16:42.701Z</Time>
                    </Trackpoint>
                    <Trackpoint>
                        <DistanceMeters>15.897422136530114</DistanceMeters>
                        <Time>2023-08-23T01:17:10.233Z</Time>
                    </Trackpoint>
                    <Trackpoint>
                        <DistanceMeters>45.705088642524075</DistanceMeters>
                        <Time>2023-08-23T01:18:40.233Z</Time>
                    </Trackpoint>
                    <Trackpoint>
                        <DistanceMeters>64.86580610075521</DistanceMeters>
                        <Time>2023-08-23T01:18:54.689Z</Time>
                    </Trackpoint>
                    <Trackpoint>
                        <DistanceMeters>91.9611516852577</DistanceMeters>
                        <Time>2023-08-23T01:19:15.550Z</Time>
                    </Trackpoint>
                    <Trackpoint>
                        <DistanceMeters>110.44311916241779</DistanceMeters>
                        <Time>2023-08-23T01:19:29.354Z</Time>
                    </Trackpoint>
                    <Trackpoint>
                        <DistanceMeters>133.62685977819086</DistanceMeters>
                        <Time>2023-08-23T01:20:15.894Z</Time>
                    </Trackpoint>
                    <Trackpoint>
                        <DistanceMeters>139.4153306050435</DistanceMeters>
                        <Time>2023-08-23T01:20:20.526Z</Time>
                    </Trackpoint>
                    <Trackpoint>
                        <DistanceMeters>163.26146380983866</DistanceMeters>
                        <Time>2023-08-23T01:20:51.832Z</Time>
                    </Trackpoint>
                    <Trackpoint>
                        <DistanceMeters>179.82127853539086</DistanceMeters>
                        <Time>2023-08-23T01:21:22.627Z</Time>
                    </Trackpoint>
                </Track>
                <DistanceMeters>179.82127853539086</DistanceMeters>
                <TotalTimeSeconds>308.942</TotalTimeSeconds>
                <Calories>34.56717711111111</Calories>
                <Intensity>Active</Intensity>
                <TriggerMethod>Manual</TriggerMethod>
            </Lap>
        </Activity>
    </Activities>
    <Author xsi:type="Application_t">
        <Name>Google Fit</Name>
        <Build>
            <Version>
                <VersionMajor>0</VersionMajor>
                <VersionMinor>0</VersionMinor>
                <BuildMajor>0</BuildMajor>
                <BuildMinor>0</BuildMinor>
            </Version>
        </Build>
        <LangID>en</LangID>
        <PartNumber>000-00000-00</PartNumber>
    </Author>
</TrainingCenterDatabase>
