<?xml version="1.0" encoding="UTF-8"?>
<TrainingCenterDatabase
    xmlns="http://www.garmin.com/xmlschemas/TrainingCenterDatabase/v2"
    xmlns:ns2="http://www.garmin.com/xmlschemas/UserProfile/v2"
    xmlns:ns3="http://www.garmin.com/xmlschemas/ActivityExtension/v2"
    xmlns:ns4="http://www.garmin.com/xmlschemas/ProfileExtension/v1"
    xmlns:ns5="http://www.garmin.com/xmlschemas/ActivityGoals/v1"
    xmlns:xsi="http://www.w3.org/2001/XMLSchema-instance" xsi:schemaLocation="http://www.garmin.com/xmlschemas/TrainingCenterDatabase/v2 http://www.garmin.com/xmlschemas/TrainingCenterDatabasev2.xsd">
    <Activities>
        <Activity Sport="Walking">
            <Id>2023-08-27T02:17:29.491Z</Id>
            <Lap StartTime="2023-08-27T02:17:29.491Z">
                <Track>
                    <Trackpoint>
                        <DistanceMeters>0.0</DistanceMeters>
                        <Time>2023-08-27T02:17:29.491Z</Time>
                    </Trackpoint>
                    <Trackpoint>
                        <DistanceMeters>0.0</DistanceMeters>
                        <Time>2023-08-27T02:38:58.749Z</Time>
                    </Trackpoint>
                    <Trackpoint>
                        <DistanceMeters>76.83754032656222</DistanceMeters>
                        <Time>2023-08-27T02:41:04.245Z</Time>
                    </Trackpoint>
                    <Trackpoint>
                        <DistanceMeters>107.46750048755213</DistanceMeters>
                        <Time>2023-08-27T02:41:24.732Z</Time>
                    </Trackpoint>
                    <Trackpoint>
                        <DistanceMeters>179.06958640472737</DistanceMeters>
                        <Time>2023-08-27T02:42:15.048Z</Time>
                    </Trackpoint>
                </Track>
                <DistanceMeters>179.06958640472737</DistanceMeters>
                <TotalTimeSeconds>1485.556564002</TotalTimeSeconds>
                <Calories>35.842190040660284</Calories>
                <Intensity>Active</Intensity>
                <TriggerMethod>Manual</TriggerMethod>
            </Lap>
        </Activity>
        <Activity Sport="Walking">
            <Id>2023-08-27T02:41:24.732Z</Id>
            <Lap StartTime="2023-08-27T02:41:24.732Z">
                <Track>
                    <Trackpoint>
                        <DistanceMeters>0.0</DistanceMeters>
                        <Time>2023-08-27T02:41:24.732Z</Time>
                    </Trackpoint>
                    <Trackpoint>
                        <DistanceMeters>71.60208591717523</DistanceMeters>
                        <Time>2023-08-27T02:41:40.928Z</Time>
                    </Trackpoint>
                    <Trackpoint>
                        <DistanceMeters>71.60208591717523</DistanceMeters>
                        <Time>2023-08-27T02:42:15.048Z</Time>
                    </Trackpoint>
                    <Trackpoint>
                        <DistanceMeters>86.83711546468325</DistanceMeters>
                        <Time>2023-08-27T02:42:49.870Z</Time>
                    </Trackpoint>
                </Track>
                <DistanceMeters>86.83711546468325</DistanceMeters>
                <TotalTimeSeconds>85.137965715</TotalTimeSeconds>
                <Calories>5.053573555555555</Calories>
                <Intensity>Active</Intensity>
                <TriggerMethod>Manual</TriggerMethod>
            </Lap>
        </Activity>
        <Activity Sport="Walking">
            <Id>2023-08-27T02:42:15.048Z</Id>
            <Lap StartTime="2023-08-27T02:42:15.048Z">
                <Track>
                    <Trackpoint>
                        <DistanceMeters>0.0</DistanceMeters>
                        <Time>2023-08-27T02:42:15.048Z</Time>
                    </Trackpoint>
                    <Trackpoint>
                        <DistanceMeters>15.235029547508026</DistanceMeters>
                        <Time>2023-08-27T02:42:46.157Z</Time>
                    </Trackpoint>
                    <Trackpoint>
                        <DistanceMeters>15.235029547508026</DistanceMeters>
                        <Time>2023-08-27T02:42:49.870Z</Time>
                    </Trackpoint>
                    <Trackpoint>
                        <DistanceMeters>75.54252928370428</DistanceMeters>
                        <Time>2023-08-27T02:43:30.595Z</Time>
                    </Trackpoint>
                    <Trackpoint>
                        <DistanceMeters>103.65931109677892</DistanceMeters>
                        <Time>2023-08-27T02:43:49.854Z</Time>
                    </Trackpoint>
                    <Trackpoint>
                        <DistanceMeters>161.48796806073398</DistanceMeters>
                        <Time>2023-08-27T02:44:30.948Z</Time>
                    </Trackpoint>
                    <Trackpoint>
                        <DistanceMeters>188.73138563377194</DistanceMeters>
                        <Time>2023-08-27T02:44:49.852Z</Time>
                    </Trackpoint>
                    <Trackpoint>
                        <DistanceMeters>246.32974253885814</DistanceMeters>
                        <Time>2023-08-27T02:45:31.300Z</Time>
                    </Trackpoint>
                    <Trackpoint>
                        <DistanceMeters>263.343890476002</DistanceMeters>
                        <Time>2023-08-27T02:45:50.120Z</Time>
                    </Trackpoint>
                </Track>
                <DistanceMeters>263.343890476002</DistanceMeters>
                <TotalTimeSeconds>215.071784876</TotalTimeSeconds>
                <Calories>20.583415666666664</Calories>
                <Intensity>Active</Intensity>
                <TriggerMethod>Manual</TriggerMethod>
            </Lap>
        </Activity>
        <Activity Sport="Walking">
            <Id>2023-08-27T02:45:50.120Z</Id>
            <Lap StartTime="2023-08-27T02:45:50.120Z">
                <Track>
                    <Trackpoint>
                        <DistanceMeters>0.0</DistanceMeters>
                        <Time>2023-08-27T02:45:50.120Z</Time>
                    </Trackpoint>
                    <Trackpoint>
                        <DistanceMeters>0.0</DistanceMeters>
                        <Time>2023-08-27T02:46:31.619Z</Time>
                    </Trackpoint>
                    <Trackpoint>
                        <DistanceMeters>44.048299981117246</DistanceMeters>
                        <Time>2023-08-27T02:46:54.645Z</Time>
                    </Trackpoint>
                    <Trackpoint>
                        <DistanceMeters>122.9768429081698</DistanceMeters>
                        <Time>2023-08-27T02:47:38.561Z</Time>
                    </Trackpoint>
                </Track>
                <DistanceMeters>122.9768429081698</DistanceMeters>
                <TotalTimeSeconds>108.441779006</TotalTimeSeconds>
                <Calories>7.54367810762458</Calories>
                <Intensity>Active</Intensity>
                <TriggerMethod>Manual</TriggerMethod>
            </Lap>
        </Activity>
        <Activity Sport="Walking">
            <Id>2023-08-27T02:46:54.645Z</Id>
            <Lap StartTime="2023-08-27T02:46:54.645Z">
                <Track>
                    <Trackpoint>
                        <DistanceMeters>0.0</DistanceMeters>
                        <Time>2023-08-27T02:46:54.645Z</Time>
                    </Trackpoint>
                    <Trackpoint>
                        <DistanceMeters>78.92854292705255</DistanceMeters>
                        <Time>2023-08-27T02:47:22.806Z</Time>
                    </Trackpoint>
                    <Trackpoint>
                        <DistanceMeters>78.92854292705255</DistanceMeters>
                        <Time>2023-08-27T02:47:38.561Z</Time>
                    </Trackpoint>
                    <Trackpoint>
                        <DistanceMeters>108.17286197880827</DistanceMeters>
                        <Time>2023-08-27T02:48:01.195Z</Time>
                    </Trackpoint>
                    <Trackpoint>
                        <DistanceMeters>164.56167637610642</DistanceMeters>
                        <Time>2023-08-27T02:48:42.832Z</Time>
                    </Trackpoint>
                    <Trackpoint>
                        <DistanceMeters>192.66286590558593</DistanceMeters>
                        <Time>2023-08-27T02:49:05.628Z</Time>
                    </Trackpoint>
                    <Trackpoint>
                        <DistanceMeters>235.12627340460176</DistanceMeters>
                        <Time>2023-08-27T02:49:44.229Z</Time>
                    </Trackpoint>
                    <Trackpoint>
                        <DistanceMeters>256.4336091791163</DistanceMeters>
                        <Time>2023-08-27T02:50:16.227Z</Time>
                    </Trackpoint>
                </Track>
                <DistanceMeters>256.4336091791163</DistanceMeters>
                <TotalTimeSeconds>201.581944294</TotalTimeSeconds>
                <Calories>19.403882999999997</Calories>
                <Intensity>Active</Intensity>
                <TriggerMethod>Manual</TriggerMethod>
            </Lap>
        </Activity>
        <Activity Sport="Walking">
            <Id>2023-08-27T02:59:41.873Z</Id>
            <Lap StartTime="2023-08-27T02:59:41.873Z">
                <Track>
                    <Trackpoint>
                        <DistanceMeters>0.0</DistanceMeters>
                        <Time>2023-08-27T02:59:41.873Z</Time>
                    </Trackpoint>
                    <Trackpoint>
                        <DistanceMeters>22.521348026750996</DistanceMeters>
                        <Time>2023-08-27T03:00:30.687Z</Time>
                    </Trackpoint>
                    <Trackpoint>
                        <DistanceMeters>22.521348026750996</DistanceMeters>
                        <Time>2023-08-27T03:00:56.802Z</Time>
                    </Trackpoint>
                </Track>
                <DistanceMeters>22.521348026750996</DistanceMeters>
                <TotalTimeSeconds>74.92859326600001</TotalTimeSeconds>
                <Calories>2.9219783333333336</Calories>
                <Intensity>Active</Intensity>
                <TriggerMethod>Manual</TriggerMethod>
            </Lap>
        </Activity>
    </Activities>
    <Author xsi:type="Application_t">
        <Name>Google Fit</Name>
        <Build>
            <Version>
                <VersionMajor>0</VersionMajor>
                <VersionMinor>0</VersionMinor>
                <BuildMajor>0</BuildMajor>
                <BuildMinor>0</BuildMinor>
            </Version>
        </Build>
        <LangID>en</LangID>
        <PartNumber>000-00000-00</PartNumber>
    </Author>
</TrainingCenterDatabase>
