<?xml version="1.0" encoding="UTF-8"?>
<TrainingCenterDatabase
    xmlns="http://www.garmin.com/xmlschemas/TrainingCenterDatabase/v2"
    xmlns:ns2="http://www.garmin.com/xmlschemas/UserProfile/v2"
    xmlns:ns3="http://www.garmin.com/xmlschemas/ActivityExtension/v2"
    xmlns:ns4="http://www.garmin.com/xmlschemas/ProfileExtension/v1"
    xmlns:ns5="http://www.garmin.com/xmlschemas/ActivityGoals/v1"
    xmlns:xsi="http://www.w3.org/2001/XMLSchema-instance" xsi:schemaLocation="http://www.garmin.com/xmlschemas/TrainingCenterDatabase/v2 http://www.garmin.com/xmlschemas/TrainingCenterDatabasev2.xsd">
    <Activities>
        <Activity Sport="Walking">
            <Id>2023-02-08T08:16:48.484Z</Id>
            <Lap StartTime="2023-02-08T08:16:48.484Z">
                <Track>
                    <Trackpoint>
                        <DistanceMeters>0.0</DistanceMeters>
                        <Time>2023-02-08T08:16:48.484Z</Time>
                    </Trackpoint>
                    <Trackpoint>
                        <DistanceMeters>0.0</DistanceMeters>
                        <Time>2023-02-08T08:38:38.464Z</Time>
                    </Trackpoint>
                    <Trackpoint>
                        <DistanceMeters>44.443216690723915</DistanceMeters>
                        <Time>2023-02-08T08:39:17.804Z</Time>
                    </Trackpoint>
                </Track>
                <DistanceMeters>44.443216690723915</DistanceMeters>
                <TotalTimeSeconds>1349.320185554</TotalTimeSeconds>
                <Calories>31.255720492428818</Calories>
                <Intensity>Active</Intensity>
                <TriggerMethod>Manual</TriggerMethod>
            </Lap>
        </Activity>
        <Activity Sport="Walking">
            <Id>2023-02-08T08:38:38.464Z</Id>
            <Lap StartTime="2023-02-08T08:38:38.464Z">
                <Track>
                    <Trackpoint>
                        <DistanceMeters>0.0</DistanceMeters>
                        <Time>2023-02-08T08:38:38.464Z</Time>
                    </Trackpoint>
                    <Trackpoint>
                        <DistanceMeters>44.443216690723915</DistanceMeters>
                        <Time>2023-02-08T08:39:11.890Z</Time>
                    </Trackpoint>
                    <Trackpoint>
                        <DistanceMeters>44.443216690723915</DistanceMeters>
                        <Time>2023-02-08T08:39:17.804Z</Time>
                    </Trackpoint>
                    <Trackpoint>
                        <DistanceMeters>74.45660662511231</DistanceMeters>
                        <Time>2023-02-08T08:39:59.664Z</Time>
                    </Trackpoint>
                </Track>
                <DistanceMeters>74.45660662511231</DistanceMeters>
                <TotalTimeSeconds>81.199999562</TotalTimeSeconds>
                <Calories>3.8398905</Calories>
                <Intensity>Active</Intensity>
                <TriggerMethod>Manual</TriggerMethod>
            </Lap>
        </Activity>
        <Activity Sport="Walking">
            <Id>2023-02-08T08:39:17.804Z</Id>
            <Lap StartTime="2023-02-08T08:39:17.804Z">
                <Track>
                    <Trackpoint>
                        <DistanceMeters>0.0</DistanceMeters>
                        <Time>2023-02-08T08:39:17.804Z</Time>
                    </Trackpoint>
                    <Trackpoint>
                        <DistanceMeters>30.013389934388396</DistanceMeters>
                        <Time>2023-02-08T08:39:49.393Z</Time>
                    </Trackpoint>
                    <Trackpoint>
                        <DistanceMeters>30.013389934388396</DistanceMeters>
                        <Time>2023-02-08T08:39:59.664Z</Time>
                    </Trackpoint>
                </Track>
                <DistanceMeters>30.013389934388396</DistanceMeters>
                <TotalTimeSeconds>41.859999562</TotalTimeSeconds>
                <Calories>1.0516552315993333</Calories>
                <Intensity>Active</Intensity>
                <TriggerMethod>Manual</TriggerMethod>
            </Lap>
        </Activity>
        <Activity Sport="Walking">
            <Id>2023-02-08T08:48:14.164Z</Id>
            <Lap StartTime="2023-02-08T08:48:14.164Z">
                <Track>
                    <Trackpoint>
                        <DistanceMeters>0.0</DistanceMeters>
                        <Time>2023-02-08T08:48:14.164Z</Time>
                    </Trackpoint>
                    <Trackpoint>
                        <DistanceMeters>33.2757149272567</DistanceMeters>
                        <Time>2023-02-08T08:48:34.875Z</Time>
                    </Trackpoint>
                    <Trackpoint>
                        <DistanceMeters>33.2757149272567</DistanceMeters>
                        <Time>2023-02-08T08:49:17.664Z</Time>
                    </Trackpoint>
                    <Trackpoint>
                        <DistanceMeters>60.02677986877679</DistanceMeters>
                        <Time>2023-02-08T08:49:54.324Z</Time>
                    </Trackpoint>
                    <Trackpoint>
                        <DistanceMeters>83.51551981742858</DistanceMeters>
                        <Time>2023-02-08T08:50:20.104Z</Time>
                    </Trackpoint>
                    <Trackpoint>
                        <DistanceMeters>94.60742479318081</DistanceMeters>
                        <Time>2023-02-08T08:52:31.584Z</Time>
                    </Trackpoint>
                    <Trackpoint>
                        <DistanceMeters>107.65672476465403</DistanceMeters>
                        <Time>2023-02-08T08:52:54.344Z</Time>
                    </Trackpoint>
                    <Trackpoint>
                        <DistanceMeters>128.09645044469465</DistanceMeters>
                        <Time>2023-02-08T08:53:13.624Z</Time>
                    </Trackpoint>
                    <Trackpoint>
                        <DistanceMeters>157.64103734320958</DistanceMeters>
                        <Time>2023-02-08T08:53:42.904Z</Time>
                    </Trackpoint>
                    <Trackpoint>
                        <DistanceMeters>184.39210228472967</DistanceMeters>
                        <Time>2023-02-08T08:54:14.544Z</Time>
                    </Trackpoint>
                    <Trackpoint>
                        <DistanceMeters>208.35319886013366</DistanceMeters>
                        <Time>2023-02-08T08:54:36.784Z</Time>
                    </Trackpoint>
                    <Trackpoint>
                        <DistanceMeters>229.07027035060727</DistanceMeters>
                        <Time>2023-02-08T08:54:55.464Z</Time>
                    </Trackpoint>
                    <Trackpoint>
                        <DistanceMeters>246.03436031352246</DistanceMeters>
                        <Time>2023-02-08T08:55:15.544Z</Time>
                    </Trackpoint>
                    <Trackpoint>
                        <DistanceMeters>262.345985277864</DistanceMeters>
                        <Time>2023-02-08T08:55:36.424Z</Time>
                    </Trackpoint>
                    <Trackpoint>
                        <DistanceMeters>284.0269680802898</DistanceMeters>
                        <Time>2023-02-08T08:55:57.264Z</Time>
                    </Trackpoint>
                    <Trackpoint>
                        <DistanceMeters>304.6124277530513</DistanceMeters>
                        <Time>2023-02-08T08:56:16.224Z</Time>
                    </Trackpoint>
                    <Trackpoint>
                        <DistanceMeters>326.12224319678995</DistanceMeters>
                        <Time>2023-02-08T08:56:37.464Z</Time>
                    </Trackpoint>
                    <Trackpoint>
                        <DistanceMeters>333.9518231796739</DistanceMeters>
                        <Time>2023-02-08T08:56:46.624Z</Time>
                    </Trackpoint>
                </Track>
                <DistanceMeters>333.9518231796739</DistanceMeters>
                <TotalTimeSeconds>512.460000252</TotalTimeSeconds>
                <Calories>50.26884888888889</Calories>
                <Intensity>Active</Intensity>
                <TriggerMethod>Manual</TriggerMethod>
            </Lap>
        </Activity>
        <Activity Sport="Walking">
            <Id>2023-02-08T08:56:37.464Z</Id>
            <Lap StartTime="2023-02-08T08:56:37.464Z">
                <Track>
                    <Trackpoint>
                        <DistanceMeters>0.0</DistanceMeters>
                        <Time>2023-02-08T08:56:37.464Z</Time>
                    </Trackpoint>
                    <Trackpoint>
                        <DistanceMeters>7.82957998288393</DistanceMeters>
                        <Time>2023-02-08T08:56:45.835Z</Time>
                    </Trackpoint>
                    <Trackpoint>
                        <DistanceMeters>7.82957998288393</DistanceMeters>
                        <Time>2023-02-08T08:56:46.624Z</Time>
                    </Trackpoint>
                </Track>
                <DistanceMeters>7.82957998288393</DistanceMeters>
                <TotalTimeSeconds>9.16</TotalTimeSeconds>
                <Calories>0.08080377005594444</Calories>
                <Intensity>Active</Intensity>
                <TriggerMethod>Manual</TriggerMethod>
            </Lap>
        </Activity>
    </Activities>
    <Author xsi:type="Application_t">
        <Name>Google Fit</Name>
        <Build>
            <Version>
                <VersionMajor>0</VersionMajor>
                <VersionMinor>0</VersionMinor>
                <BuildMajor>0</BuildMajor>
                <BuildMinor>0</BuildMinor>
            </Version>
        </Build>
        <LangID>en</LangID>
        <PartNumber>000-00000-00</PartNumber>
    </Author>
</TrainingCenterDatabase>
