<?xml version="1.0" encoding="UTF-8"?>
<TrainingCenterDatabase
    xmlns="http://www.garmin.com/xmlschemas/TrainingCenterDatabase/v2"
    xmlns:ns2="http://www.garmin.com/xmlschemas/UserProfile/v2"
    xmlns:ns3="http://www.garmin.com/xmlschemas/ActivityExtension/v2"
    xmlns:ns4="http://www.garmin.com/xmlschemas/ProfileExtension/v1"
    xmlns:ns5="http://www.garmin.com/xmlschemas/ActivityGoals/v1"
    xmlns:xsi="http://www.w3.org/2001/XMLSchema-instance" xsi:schemaLocation="http://www.garmin.com/xmlschemas/TrainingCenterDatabase/v2 http://www.garmin.com/xmlschemas/TrainingCenterDatabasev2.xsd">
    <Activities>
        <Activity Sport="Walking">
            <Id>2023-04-11T18:37:42.920Z</Id>
            <Lap StartTime="2023-04-11T18:37:42.920Z">
                <Track>
                    <Trackpoint>
                        <DistanceMeters>0.0</DistanceMeters>
                        <Time>2023-04-11T18:37:42.920Z</Time>
                    </Trackpoint>
                    <Trackpoint>
                        <DistanceMeters>20.878879954357146</DistanceMeters>
                        <Time>2023-04-11T18:38:06.185Z</Time>
                    </Trackpoint>
                    <Trackpoint>
                        <DistanceMeters>20.878879954357146</DistanceMeters>
                        <Time>2023-04-11T18:38:46.920Z</Time>
                    </Trackpoint>
                </Track>
                <DistanceMeters>20.878879954357146</DistanceMeters>
                <TotalTimeSeconds>64.000004096</TotalTimeSeconds>
                <Calories>2.4467872777777777</Calories>
                <Intensity>Active</Intensity>
                <TriggerMethod>Manual</TriggerMethod>
            </Lap>
        </Activity>
        <Activity Sport="Walking">
            <Id>2023-04-11T18:37:42.920Z</Id>
            <Lap StartTime="2023-04-11T18:37:42.920Z">
                <Track>
                    <Trackpoint>
                        <DistanceMeters>0.0</DistanceMeters>
                        <Time>2023-04-11T18:37:42.920Z</Time>
                    </Trackpoint>
                    <Trackpoint>
                        <DistanceMeters>20.878879954357146</DistanceMeters>
                        <Time>2023-04-11T18:38:30.082Z</Time>
                    </Trackpoint>
                    <Trackpoint>
                        <DistanceMeters>20.878879954357146</DistanceMeters>
                        <Time>2023-04-11T18:38:46.920Z</Time>
                    </Trackpoint>
                    <Trackpoint>
                        <DistanceMeters>75.84664023685112</DistanceMeters>
                        <Time>2023-04-11T18:39:46.480Z</Time>
                    </Trackpoint>
                </Track>
                <DistanceMeters>75.84664023685112</DistanceMeters>
                <TotalTimeSeconds>123.560004751</TotalTimeSeconds>
                <Calories>0.7159138740449189</Calories>
                <Intensity>Active</Intensity>
                <TriggerMethod>Manual</TriggerMethod>
            </Lap>
        </Activity>
        <Activity Sport="Walking">
            <Id>2023-04-11T18:38:46.920Z</Id>
            <Lap StartTime="2023-04-11T18:38:46.920Z">
                <Track>
                    <Trackpoint>
                        <DistanceMeters>0.0</DistanceMeters>
                        <Time>2023-04-11T18:38:46.920Z</Time>
                    </Trackpoint>
                    <Trackpoint>
                        <DistanceMeters>54.96776028249397</DistanceMeters>
                        <Time>2023-04-11T18:38:50.418Z</Time>
                    </Trackpoint>
                    <Trackpoint>
                        <DistanceMeters>54.96776028249397</DistanceMeters>
                        <Time>2023-04-11T18:39:46.480Z</Time>
                    </Trackpoint>
                    <Trackpoint>
                        <DistanceMeters>95.42059019406094</DistanceMeters>
                        <Time>2023-04-11T18:40:48.320Z</Time>
                    </Trackpoint>
                </Track>
                <DistanceMeters>95.42059019406094</DistanceMeters>
                <TotalTimeSeconds>121.400001932</TotalTimeSeconds>
                <Calories>6.770465277777777</Calories>
                <Intensity>Active</Intensity>
                <TriggerMethod>Manual</TriggerMethod>
            </Lap>
        </Activity>
        <Activity Sport="Walking">
            <Id>2023-04-11T18:39:46.480Z</Id>
            <Lap StartTime="2023-04-11T18:39:46.480Z">
                <Track>
                    <Trackpoint>
                        <DistanceMeters>0.0</DistanceMeters>
                        <Time>2023-04-11T18:39:46.480Z</Time>
                    </Trackpoint>
                    <Trackpoint>
                        <DistanceMeters>40.45282991156697</DistanceMeters>
                        <Time>2023-04-11T18:39:56.543Z</Time>
                    </Trackpoint>
                    <Trackpoint>
                        <DistanceMeters>40.45282991156697</DistanceMeters>
                        <Time>2023-04-11T18:40:48.320Z</Time>
                    </Trackpoint>
                    <Trackpoint>
                        <DistanceMeters>86.12537981172323</DistanceMeters>
                        <Time>2023-04-11T18:41:48.680Z</Time>
                    </Trackpoint>
                </Track>
                <DistanceMeters>86.12537981172323</DistanceMeters>
                <TotalTimeSeconds>122.200000685</TotalTimeSeconds>
                <Calories>11.481584532988888</Calories>
                <Intensity>Active</Intensity>
                <TriggerMethod>Manual</TriggerMethod>
            </Lap>
        </Activity>
        <Activity Sport="Walking">
            <Id>2023-04-11T18:41:48.680Z</Id>
            <Lap StartTime="2023-04-11T18:41:48.680Z">
                <Track>
                    <Trackpoint>
                        <DistanceMeters>0.0</DistanceMeters>
                        <Time>2023-04-11T18:41:48.680Z</Time>
                    </Trackpoint>
                    <Trackpoint>
                        <DistanceMeters>26.75106494152009</DistanceMeters>
                        <Time>2023-04-11T18:42:22.613Z</Time>
                    </Trackpoint>
                    <Trackpoint>
                        <DistanceMeters>26.75106494152009</DistanceMeters>
                        <Time>2023-04-11T18:42:39.240Z</Time>
                    </Trackpoint>
                    <Trackpoint>
                        <DistanceMeters>75.68593983454466</DistanceMeters>
                        <Time>2023-04-11T18:43:48.600Z</Time>
                    </Trackpoint>
                    <Trackpoint>
                        <DistanceMeters>112.22397975466966</DistanceMeters>
                        <Time>2023-04-11T18:44:40.520Z</Time>
                    </Trackpoint>
                    <Trackpoint>
                        <DistanceMeters>140.27997469333707</DistanceMeters>
                        <Time>2023-04-11T18:45:37.960Z</Time>
                    </Trackpoint>
                    <Trackpoint>
                        <DistanceMeters>192.47717457922994</DistanceMeters>
                        <Time>2023-04-11T18:47:03.680Z</Time>
                    </Trackpoint>
                    <Trackpoint>
                        <DistanceMeters>241.4120494722545</DistanceMeters>
                        <Time>2023-04-11T18:48:00.780Z</Time>
                    </Trackpoint>
                    <Trackpoint>
                        <DistanceMeters>255.11381444230136</DistanceMeters>
                        <Time>2023-04-11T18:48:23.200Z</Time>
                    </Trackpoint>
                    <Trackpoint>
                        <DistanceMeters>271.4254394066429</DistanceMeters>
                        <Time>2023-04-11T18:49:17.120Z</Time>
                    </Trackpoint>
                    <Trackpoint>
                        <DistanceMeters>274.6877643995112</DistanceMeters>
                        <Time>2023-04-11T18:49:56.961Z</Time>
                    </Trackpoint>
                </Track>
                <DistanceMeters>274.6877643995112</DistanceMeters>
                <TotalTimeSeconds>488.2809834</TotalTimeSeconds>
                <Calories>46.52018688888888</Calories>
                <Intensity>Active</Intensity>
                <TriggerMethod>Manual</TriggerMethod>
            </Lap>
        </Activity>
    </Activities>
    <Author xsi:type="Application_t">
        <Name>Google Fit</Name>
        <Build>
            <Version>
                <VersionMajor>0</VersionMajor>
                <VersionMinor>0</VersionMinor>
                <BuildMajor>0</BuildMajor>
                <BuildMinor>0</BuildMinor>
            </Version>
        </Build>
        <LangID>en</LangID>
        <PartNumber>000-00000-00</PartNumber>
    </Author>
</TrainingCenterDatabase>
