<?xml version="1.0" encoding="UTF-8"?>
<TrainingCenterDatabase
    xmlns="http://www.garmin.com/xmlschemas/TrainingCenterDatabase/v2"
    xmlns:ns2="http://www.garmin.com/xmlschemas/UserProfile/v2"
    xmlns:ns3="http://www.garmin.com/xmlschemas/ActivityExtension/v2"
    xmlns:ns4="http://www.garmin.com/xmlschemas/ProfileExtension/v1"
    xmlns:ns5="http://www.garmin.com/xmlschemas/ActivityGoals/v1"
    xmlns:xsi="http://www.w3.org/2001/XMLSchema-instance" xsi:schemaLocation="http://www.garmin.com/xmlschemas/TrainingCenterDatabase/v2 http://www.garmin.com/xmlschemas/TrainingCenterDatabasev2.xsd">
    <Activities>
        <Activity Sport="Walking">
            <Id>2023-08-20T19:54:06.520Z</Id>
            <Lap StartTime="2023-08-20T19:54:06.520Z">
                <Track>
                    <Trackpoint>
                        <DistanceMeters>0.0</DistanceMeters>
                        <Time>2023-08-20T19:54:06.520Z</Time>
                    </Trackpoint>
                    <Trackpoint>
                        <DistanceMeters>0.0</DistanceMeters>
                        <Time>2023-08-20T21:33:02.450Z</Time>
                    </Trackpoint>
                    <Trackpoint>
                        <DistanceMeters>68.22643666927507</DistanceMeters>
                        <Time>2023-08-20T21:36:16.593Z</Time>
                    </Trackpoint>
                    <Trackpoint>
                        <DistanceMeters>73.64435685317004</DistanceMeters>
                        <Time>2023-08-20T21:36:20.099Z</Time>
                    </Trackpoint>
                    <Trackpoint>
                        <DistanceMeters>99.47766782503147</DistanceMeters>
                        <Time>2023-08-20T21:36:50.295Z</Time>
                    </Trackpoint>
                </Track>
                <DistanceMeters>99.47766782503147</DistanceMeters>
                <TotalTimeSeconds>6163.774698635</TotalTimeSeconds>
                <Calories>141.27331605670125</Calories>
                <Intensity>Active</Intensity>
                <TriggerMethod>Manual</TriggerMethod>
            </Lap>
        </Activity>
        <Activity Sport="Walking">
            <Id>2023-08-20T21:36:20.099Z</Id>
            <Lap StartTime="2023-08-20T21:36:20.099Z">
                <Track>
                    <Trackpoint>
                        <DistanceMeters>0.0</DistanceMeters>
                        <Time>2023-08-20T21:36:20.099Z</Time>
                    </Trackpoint>
                    <Trackpoint>
                        <DistanceMeters>25.833310971861437</DistanceMeters>
                        <Time>2023-08-20T21:36:50.150Z</Time>
                    </Trackpoint>
                    <Trackpoint>
                        <DistanceMeters>25.833310971861437</DistanceMeters>
                        <Time>2023-08-20T21:36:50.295Z</Time>
                    </Trackpoint>
                    <Trackpoint>
                        <DistanceMeters>38.41877016328111</DistanceMeters>
                        <Time>2023-08-20T21:37:10.457Z</Time>
                    </Trackpoint>
                    <Trackpoint>
                        <DistanceMeters>70.91255592884067</DistanceMeters>
                        <Time>2023-08-20T21:37:40.685Z</Time>
                    </Trackpoint>
                    <Trackpoint>
                        <DistanceMeters>90.78433359950331</DistanceMeters>
                        <Time>2023-08-20T21:38:02.828Z</Time>
                    </Trackpoint>
                    <Trackpoint>
                        <DistanceMeters>103.36979279092299</DistanceMeters>
                        <Time>2023-08-20T21:38:51.140Z</Time>
                    </Trackpoint>
                    <Trackpoint>
                        <DistanceMeters>159.0107702687784</DistanceMeters>
                        <Time>2023-08-20T21:40:34.784Z</Time>
                    </Trackpoint>
                    <Trackpoint>
                        <DistanceMeters>180.8697257065073</DistanceMeters>
                        <Time>2023-08-20T21:41:39.225Z</Time>
                    </Trackpoint>
                    <Trackpoint>
                        <DistanceMeters>202.7286811442362</DistanceMeters>
                        <Time>2023-08-20T21:42:45.225Z</Time>
                    </Trackpoint>
                    <Trackpoint>
                        <DistanceMeters>211.19609483758407</DistanceMeters>
                        <Time>2023-08-20T21:42:50.798Z</Time>
                    </Trackpoint>
                    <Trackpoint>
                        <DistanceMeters>248.29007982282099</DistanceMeters>
                        <Time>2023-08-20T21:44:18.986Z</Time>
                    </Trackpoint>
                    <Trackpoint>
                        <DistanceMeters>288.6960277531684</DistanceMeters>
                        <Time>2023-08-20T21:45:45.951Z</Time>
                    </Trackpoint>
                    <Trackpoint>
                        <DistanceMeters>321.8156572042728</DistanceMeters>
                        <Time>2023-08-20T21:47:00.081Z</Time>
                    </Trackpoint>
                </Track>
                <DistanceMeters>321.8156572042728</DistanceMeters>
                <TotalTimeSeconds>639.981713046</TotalTimeSeconds>
                <Calories>68.24450188888889</Calories>
                <Intensity>Active</Intensity>
                <TriggerMethod>Manual</TriggerMethod>
            </Lap>
        </Activity>
    </Activities>
    <Author xsi:type="Application_t">
        <Name>Google Fit</Name>
        <Build>
            <Version>
                <VersionMajor>0</VersionMajor>
                <VersionMinor>0</VersionMinor>
                <BuildMajor>0</BuildMajor>
                <BuildMinor>0</BuildMinor>
            </Version>
        </Build>
        <LangID>en</LangID>
        <PartNumber>000-00000-00</PartNumber>
    </Author>
</TrainingCenterDatabase>
