<?xml version="1.0" encoding="UTF-8"?>
<TrainingCenterDatabase
    xmlns="http://www.garmin.com/xmlschemas/TrainingCenterDatabase/v2"
    xmlns:ns2="http://www.garmin.com/xmlschemas/UserProfile/v2"
    xmlns:ns3="http://www.garmin.com/xmlschemas/ActivityExtension/v2"
    xmlns:ns4="http://www.garmin.com/xmlschemas/ProfileExtension/v1"
    xmlns:ns5="http://www.garmin.com/xmlschemas/ActivityGoals/v1"
    xmlns:xsi="http://www.w3.org/2001/XMLSchema-instance" xsi:schemaLocation="http://www.garmin.com/xmlschemas/TrainingCenterDatabase/v2 http://www.garmin.com/xmlschemas/TrainingCenterDatabasev2.xsd">
    <Activities>
        <Activity Sport="Walking">
            <Id>2023-08-14T01:45:30.550Z</Id>
            <Lap StartTime="2023-08-14T01:45:30.550Z">
                <Track>
                    <Trackpoint>
                        <DistanceMeters>0.0</DistanceMeters>
                        <Time>2023-08-14T01:45:30.550Z</Time>
                    </Trackpoint>
                    <Trackpoint>
                        <DistanceMeters>9.273496246309232</DistanceMeters>
                        <Time>2023-08-14T01:45:55.397Z</Time>
                    </Trackpoint>
                    <Trackpoint>
                        <DistanceMeters>9.273496246309232</DistanceMeters>
                        <Time>2023-08-14T01:46:00.971Z</Time>
                    </Trackpoint>
                    <Trackpoint>
                        <DistanceMeters>58.29054783394375</DistanceMeters>
                        <Time>2023-08-14T01:46:56.595Z</Time>
                    </Trackpoint>
                    <Trackpoint>
                        <DistanceMeters>62.984717857883325</DistanceMeters>
                        <Time>2023-08-14T01:47:01.443Z</Time>
                    </Trackpoint>
                    <Trackpoint>
                        <DistanceMeters>134.52713502544202</DistanceMeters>
                        <Time>2023-08-14T01:47:57.078Z</Time>
                    </Trackpoint>
                    <Trackpoint>
                        <DistanceMeters>146.917406079556</DistanceMeters>
                        <Time>2023-08-14T01:48:08.776Z</Time>
                    </Trackpoint>
                    <Trackpoint>
                        <DistanceMeters>196.5968502562126</DistanceMeters>
                        <Time>2023-08-14T01:50:27.304Z</Time>
                    </Trackpoint>
                    <Trackpoint>
                        <DistanceMeters>213.8190575707869</DistanceMeters>
                        <Time>2023-08-14T01:51:08.688Z</Time>
                    </Trackpoint>
                </Track>
                <DistanceMeters>213.8190575707869</DistanceMeters>
                <TotalTimeSeconds>338.137583666</TotalTimeSeconds>
                <Calories>33.52571533333333</Calories>
                <Intensity>Active</Intensity>
                <TriggerMethod>Manual</TriggerMethod>
            </Lap>
        </Activity>
        <Activity Sport="Biking">
            <Id>2023-08-14T01:52:45.255Z</Id>
            <Lap StartTime="2023-08-14T01:52:45.255Z">
                <Track>
                    <Trackpoint>
                        <DistanceMeters>0.0</DistanceMeters>
                        <Time>2023-08-14T01:52:45.255Z</Time>
                    </Trackpoint>
                    <Trackpoint>
                        <DistanceMeters>0.0</DistanceMeters>
                        <Time>2023-08-14T02:02:21.410Z</Time>
                    </Trackpoint>
                </Track>
                <DistanceMeters>0.0</DistanceMeters>
                <TotalTimeSeconds>576.155</TotalTimeSeconds>
                <Calories>67.85825555555556</Calories>
                <Intensity>Active</Intensity>
                <TriggerMethod>Manual</TriggerMethod>
            </Lap>
        </Activity>
        <Activity Sport="Walking">
            <Id>2023-08-14T02:02:21.410Z</Id>
            <Lap StartTime="2023-08-14T02:02:21.410Z">
                <Track>
                    <Trackpoint>
                        <DistanceMeters>0.0</DistanceMeters>
                        <Time>2023-08-14T02:02:21.410Z</Time>
                    </Trackpoint>
                    <Trackpoint>
                        <DistanceMeters>14.369965418074681</DistanceMeters>
                        <Time>2023-08-14T02:02:33.175Z</Time>
                    </Trackpoint>
                    <Trackpoint>
                        <DistanceMeters>39.31223223048367</DistanceMeters>
                        <Time>2023-08-14T02:02:54.151Z</Time>
                    </Trackpoint>
                    <Trackpoint>
                        <DistanceMeters>66.11869993899603</DistanceMeters>
                        <Time>2023-08-14T02:03:19.585Z</Time>
                    </Trackpoint>
                    <Trackpoint>
                        <DistanceMeters>77.37937395237152</DistanceMeters>
                        <Time>2023-08-14T02:03:33.428Z</Time>
                    </Trackpoint>
                    <Trackpoint>
                        <DistanceMeters>107.13021849831946</DistanceMeters>
                        <Time>2023-08-14T02:03:57.018Z</Time>
                    </Trackpoint>
                    <Trackpoint>
                        <DistanceMeters>154.82248490790982</DistanceMeters>
                        <Time>2023-08-14T02:04:57.335Z</Time>
                    </Trackpoint>
                    <Trackpoint>
                        <DistanceMeters>172.04469222248412</DistanceMeters>
                        <Time>2023-08-14T02:05:33.436Z</Time>
                    </Trackpoint>
                    <Trackpoint>
                        <DistanceMeters>219.67440730032206</DistanceMeters>
                        <Time>2023-08-14T02:06:10.032Z</Time>
                    </Trackpoint>
                    <Trackpoint>
                        <DistanceMeters>273.3282070111112</DistanceMeters>
                        <Time>2023-08-14T02:07:34.441Z</Time>
                    </Trackpoint>
                    <Trackpoint>
                        <DistanceMeters>366.93529811346815</DistanceMeters>
                        <Time>2023-08-14T02:08:56.470Z</Time>
                    </Trackpoint>
                    <Trackpoint>
                        <DistanceMeters>439.48059438163176</DistanceMeters>
                        <Time>2023-08-14T02:10:32.753Z</Time>
                    </Trackpoint>
                    <Trackpoint>
                        <DistanceMeters>482.5361126680675</DistanceMeters>
                        <Time>2023-08-14T02:12:18.058Z</Time>
                    </Trackpoint>
                    <Trackpoint>
                        <DistanceMeters>526.2111613028618</DistanceMeters>
                        <Time>2023-08-14T02:12:45.670Z</Time>
                    </Trackpoint>
                    <Trackpoint>
                        <DistanceMeters>548.0701167405907</DistanceMeters>
                        <Time>2023-08-14T02:13:15.449Z</Time>
                    </Trackpoint>
                    <Trackpoint>
                        <DistanceMeters>582.4175210675779</DistanceMeters>
                        <Time>2023-08-14T02:13:38.654Z</Time>
                    </Trackpoint>
                    <Trackpoint>
                        <DistanceMeters>619.112617479332</DistanceMeters>
                        <Time>2023-08-14T02:14:04.966Z</Time>
                    </Trackpoint>
                    <Trackpoint>
                        <DistanceMeters>627.7237211366191</DistanceMeters>
                        <Time>2023-08-14T02:14:23.297Z</Time>
                    </Trackpoint>
                </Track>
                <DistanceMeters>627.7237211366191</DistanceMeters>
                <TotalTimeSeconds>721.887393618</TotalTimeSeconds>
                <Calories>80.09465411111111</Calories>
                <Intensity>Active</Intensity>
                <TriggerMethod>Manual</TriggerMethod>
            </Lap>
        </Activity>
        <Activity Sport="Walking">
            <Id>2023-08-14T02:14:17.251Z</Id>
            <Lap StartTime="2023-08-14T02:14:17.251Z">
                <Track>
                    <Trackpoint>
                        <DistanceMeters>0.0</DistanceMeters>
                        <Time>2023-08-14T02:14:17.251Z</Time>
                    </Trackpoint>
                    <Trackpoint>
                        <DistanceMeters>0.0</DistanceMeters>
                        <Time>2023-08-14T02:15:19.312Z</Time>
                    </Trackpoint>
                    <Trackpoint>
                        <DistanceMeters>27.399999435808432</DistanceMeters>
                        <Time>2023-08-14T02:15:47.952Z</Time>
                    </Trackpoint>
                </Track>
                <DistanceMeters>27.399999435808432</DistanceMeters>
                <TotalTimeSeconds>90.701709516</TotalTimeSeconds>
                <Calories>1.845267072865317</Calories>
                <Intensity>Active</Intensity>
                <TriggerMethod>Manual</TriggerMethod>
            </Lap>
        </Activity>
        <Activity Sport="Walking">
            <Id>2023-08-14T02:15:19.312Z</Id>
            <Lap StartTime="2023-08-14T02:15:19.312Z">
                <Track>
                    <Trackpoint>
                        <DistanceMeters>0.0</DistanceMeters>
                        <Time>2023-08-14T02:15:19.312Z</Time>
                    </Trackpoint>
                    <Trackpoint>
                        <DistanceMeters>27.399999435808432</DistanceMeters>
                        <Time>2023-08-14T02:15:23.361Z</Time>
                    </Trackpoint>
                    <Trackpoint>
                        <DistanceMeters>27.399999435808432</DistanceMeters>
                        <Time>2023-08-14T02:15:47.952Z</Time>
                    </Trackpoint>
                    <Trackpoint>
                        <DistanceMeters>54.55809558571404</DistanceMeters>
                        <Time>2023-08-14T02:16:26.538Z</Time>
                    </Trackpoint>
                </Track>
                <DistanceMeters>54.55809558571404</DistanceMeters>
                <TotalTimeSeconds>67.225851181</TotalTimeSeconds>
                <Calories>7.068804333333333</Calories>
                <Intensity>Active</Intensity>
                <TriggerMethod>Manual</TriggerMethod>
            </Lap>
        </Activity>
        <Activity Sport="Walking">
            <Id>2023-08-14T02:17:25.234Z</Id>
            <Lap StartTime="2023-08-14T02:17:25.234Z">
                <Track>
                    <Trackpoint>
                        <DistanceMeters>0.0</DistanceMeters>
                        <Time>2023-08-14T02:17:25.234Z</Time>
                    </Trackpoint>
                    <Trackpoint>
                        <DistanceMeters>54.31619229981122</DistanceMeters>
                        <Time>2023-08-14T02:18:54.653Z</Time>
                    </Trackpoint>
                    <Trackpoint>
                        <DistanceMeters>54.31619229981122</DistanceMeters>
                        <Time>2023-08-14T02:19:10.326Z</Time>
                    </Trackpoint>
                    <Trackpoint>
                        <DistanceMeters>122.28392522798102</DistanceMeters>
                        <Time>2023-08-14T02:20:17.333Z</Time>
                    </Trackpoint>
                    <Trackpoint>
                        <DistanceMeters>157.39073244615167</DistanceMeters>
                        <Time>2023-08-14T02:21:50.298Z</Time>
                    </Trackpoint>
                    <Trackpoint>
                        <DistanceMeters>186.53600636312353</DistanceMeters>
                        <Time>2023-08-14T02:22:28.061Z</Time>
                    </Trackpoint>
                    <Trackpoint>
                        <DistanceMeters>269.9974725799066</DistanceMeters>
                        <Time>2023-08-14T02:24:00.030Z</Time>
                    </Trackpoint>
                    <Trackpoint>
                        <DistanceMeters>374.65550164539655</DistanceMeters>
                        <Time>2023-08-14T02:26:32.293Z</Time>
                    </Trackpoint>
                </Track>
                <DistanceMeters>374.65550164539655</DistanceMeters>
                <TotalTimeSeconds>547.059443564</TotalTimeSeconds>
                <Calories>47.36234288888889</Calories>
                <Intensity>Active</Intensity>
                <TriggerMethod>Manual</TriggerMethod>
            </Lap>
        </Activity>
        <Activity Sport="Walking">
            <Id>2023-08-14T02:24:00.030Z</Id>
            <Lap StartTime="2023-08-14T02:24:00.030Z">
                <Track>
                    <Trackpoint>
                        <DistanceMeters>0.0</DistanceMeters>
                        <Time>2023-08-14T02:24:00.030Z</Time>
                    </Trackpoint>
                    <Trackpoint>
                        <DistanceMeters>104.65802906548991</DistanceMeters>
                        <Time>2023-08-14T02:25:57.951Z</Time>
                    </Trackpoint>
                    <Trackpoint>
                        <DistanceMeters>104.65802906548991</DistanceMeters>
                        <Time>2023-08-14T02:26:32.293Z</Time>
                    </Trackpoint>
                </Track>
                <DistanceMeters>104.65802906548991</DistanceMeters>
                <TotalTimeSeconds>152.263286902</TotalTimeSeconds>
                <Calories>3.8425649393983328</Calories>
                <Intensity>Active</Intensity>
                <TriggerMethod>Manual</TriggerMethod>
            </Lap>
        </Activity>
    </Activities>
    <Author xsi:type="Application_t">
        <Name>Google Fit</Name>
        <Build>
            <Version>
                <VersionMajor>0</VersionMajor>
                <VersionMinor>0</VersionMinor>
                <BuildMajor>0</BuildMajor>
                <BuildMinor>0</BuildMinor>
            </Version>
        </Build>
        <LangID>en</LangID>
        <PartNumber>000-00000-00</PartNumber>
    </Author>
</TrainingCenterDatabase>
