<?xml version="1.0" encoding="UTF-8"?>
<TrainingCenterDatabase
    xmlns="http://www.garmin.com/xmlschemas/TrainingCenterDatabase/v2"
    xmlns:ns2="http://www.garmin.com/xmlschemas/UserProfile/v2"
    xmlns:ns3="http://www.garmin.com/xmlschemas/ActivityExtension/v2"
    xmlns:ns4="http://www.garmin.com/xmlschemas/ProfileExtension/v1"
    xmlns:ns5="http://www.garmin.com/xmlschemas/ActivityGoals/v1"
    xmlns:xsi="http://www.w3.org/2001/XMLSchema-instance" xsi:schemaLocation="http://www.garmin.com/xmlschemas/TrainingCenterDatabase/v2 http://www.garmin.com/xmlschemas/TrainingCenterDatabasev2.xsd">
    <Activities>
        <Activity Sport="Walking">
            <Id>2023-03-06T19:24:49.413Z</Id>
            <Lap StartTime="2023-03-06T19:24:49.413Z">
                <Track>
                    <Trackpoint>
                        <DistanceMeters>0.0</DistanceMeters>
                        <Time>2023-03-06T19:24:49.413Z</Time>
                    </Trackpoint>
                    <Trackpoint>
                        <DistanceMeters>0.0</DistanceMeters>
                        <Time>2023-03-07T06:26:05.778Z</Time>
                    </Trackpoint>
                    <Trackpoint>
                        <DistanceMeters>22.183809951504468</DistanceMeters>
                        <Time>2023-03-07T06:27:13.778Z</Time>
                    </Trackpoint>
                    <Trackpoint>
                        <DistanceMeters>31.107135056936475</DistanceMeters>
                        <Time>2023-03-07T06:27:20.118Z</Time>
                    </Trackpoint>
                </Track>
                <DistanceMeters>31.107135056936475</DistanceMeters>
                <TotalTimeSeconds>39750.70542962</TotalTimeSeconds>
                <Calories>844.589474241464</Calories>
                <Intensity>Active</Intensity>
                <TriggerMethod>Manual</TriggerMethod>
            </Lap>
        </Activity>
        <Activity Sport="Walking">
            <Id>2023-03-07T06:27:13.778Z</Id>
            <Lap StartTime="2023-03-07T06:27:13.778Z">
                <Track>
                    <Trackpoint>
                        <DistanceMeters>0.0</DistanceMeters>
                        <Time>2023-03-07T06:27:13.778Z</Time>
                    </Trackpoint>
                    <Trackpoint>
                        <DistanceMeters>8.923325105432006</DistanceMeters>
                        <Time>2023-03-07T06:27:15.114Z</Time>
                    </Trackpoint>
                    <Trackpoint>
                        <DistanceMeters>8.923325105432006</DistanceMeters>
                        <Time>2023-03-07T06:27:20.118Z</Time>
                    </Trackpoint>
                    <Trackpoint>
                        <DistanceMeters>33.716995051231116</DistanceMeters>
                        <Time>2023-03-07T06:31:49.738Z</Time>
                    </Trackpoint>
                    <Trackpoint>
                        <DistanceMeters>51.98601501129362</DistanceMeters>
                        <Time>2023-03-07T06:33:43.018Z</Time>
                    </Trackpoint>
                    <Trackpoint>
                        <DistanceMeters>142.16943146064153</DistanceMeters>
                        <Time>2023-03-07T06:34:33.338Z</Time>
                    </Trackpoint>
                    <Trackpoint>
                        <DistanceMeters>158.27658327607304</DistanceMeters>
                        <Time>2023-03-07T06:34:43.738Z</Time>
                    </Trackpoint>
                    <Trackpoint>
                        <DistanceMeters>237.07250251595264</DistanceMeters>
                        <Time>2023-03-07T06:35:43.178Z</Time>
                    </Trackpoint>
                    <Trackpoint>
                        <DistanceMeters>321.548100469736</DistanceMeters>
                        <Time>2023-03-07T06:36:43.858Z</Time>
                    </Trackpoint>
                    <Trackpoint>
                        <DistanceMeters>399.02580874099846</DistanceMeters>
                        <Time>2023-03-07T06:37:45.538Z</Time>
                    </Trackpoint>
                    <Trackpoint>
                        <DistanceMeters>424.310771146842</DistanceMeters>
                        <Time>2023-03-07T06:38:03.498Z</Time>
                    </Trackpoint>
                    <Trackpoint>
                        <DistanceMeters>458.891416071246</DistanceMeters>
                        <Time>2023-03-07T06:38:43.798Z</Time>
                    </Trackpoint>
                    <Trackpoint>
                        <DistanceMeters>506.3484589194073</DistanceMeters>
                        <Time>2023-03-07T06:39:47.278Z</Time>
                    </Trackpoint>
                    <Trackpoint>
                        <DistanceMeters>522.0076188851751</DistanceMeters>
                        <Time>2023-03-07T06:40:47.278Z</Time>
                    </Trackpoint>
                    <Trackpoint>
                        <DistanceMeters>639.2057185629219</DistanceMeters>
                        <Time>2023-03-07T06:42:39.978Z</Time>
                    </Trackpoint>
                    <Trackpoint>
                        <DistanceMeters>647.9750867066807</DistanceMeters>
                        <Time>2023-03-07T06:42:45.018Z</Time>
                    </Trackpoint>
                    <Trackpoint>
                        <DistanceMeters>670.8113616567589</DistanceMeters>
                        <Time>2023-03-07T06:43:14.818Z</Time>
                    </Trackpoint>
                    <Trackpoint>
                        <DistanceMeters>752.2729677320681</DistanceMeters>
                        <Time>2023-03-07T06:44:15.138Z</Time>
                    </Trackpoint>
                    <Trackpoint>
                        <DistanceMeters>793.3782626422087</DistanceMeters>
                        <Time>2023-03-07T06:45:02.958Z</Time>
                    </Trackpoint>
                    <Trackpoint>
                        <DistanceMeters>817.7681342354405</DistanceMeters>
                        <Time>2023-03-07T06:45:22.378Z</Time>
                    </Trackpoint>
                    <Trackpoint>
                        <DistanceMeters>846.4765941726815</DistanceMeters>
                        <Time>2023-03-07T06:45:54.838Z</Time>
                    </Trackpoint>
                    <Trackpoint>
                        <DistanceMeters>860.8308241413021</DistanceMeters>
                        <Time>2023-03-07T06:46:44.618Z</Time>
                    </Trackpoint>
                    <Trackpoint>
                        <DistanceMeters>866.6940534796223</DistanceMeters>
                        <Time>2023-03-07T06:46:48.978Z</Time>
                    </Trackpoint>
                    <Trackpoint>
                        <DistanceMeters>900.6222334054527</DistanceMeters>
                        <Time>2023-03-07T06:47:37.698Z</Time>
                    </Trackpoint>
                    <Trackpoint>
                        <DistanceMeters>921.1026683412837</DistanceMeters>
                        <Time>2023-03-07T06:47:49.898Z</Time>
                    </Trackpoint>
                    <Trackpoint>
                        <DistanceMeters>988.0037822142658</DistanceMeters>
                        <Time>2023-03-07T06:48:35.858Z</Time>
                    </Trackpoint>
                    <Trackpoint>
                        <DistanceMeters>1002.0773938825126</DistanceMeters>
                        <Time>2023-03-07T06:48:49.898Z</Time>
                    </Trackpoint>
                    <Trackpoint>
                        <DistanceMeters>1060.0438143256415</DistanceMeters>
                        <Time>2023-03-07T06:49:29.538Z</Time>
                    </Trackpoint>
                    <Trackpoint>
                        <DistanceMeters>1074.398044294262</DistanceMeters>
                        <Time>2023-03-07T06:49:50.898Z</Time>
                    </Trackpoint>
                    <Trackpoint>
                        <DistanceMeters>1127.8545711031618</DistanceMeters>
                        <Time>2023-03-07T06:50:38.258Z</Time>
                    </Trackpoint>
                    <Trackpoint>
                        <DistanceMeters>1186.5764209747913</DistanceMeters>
                        <Time>2023-03-07T06:52:11.258Z</Time>
                    </Trackpoint>
                </Track>
                <DistanceMeters>1186.5764209747913</DistanceMeters>
                <TotalTimeSeconds>1497.479999578</TotalTimeSeconds>
                <Calories>147.5405458888889</Calories>
                <Intensity>Active</Intensity>
                <TriggerMethod>Manual</TriggerMethod>
            </Lap>
        </Activity>
        <Activity Sport="Running">
            <Id>2023-03-07T06:54:19.372Z</Id>
            <Lap StartTime="2023-03-07T06:54:19.372Z">
                <Track>
                    <Trackpoint>
                        <DistanceMeters>0.0</DistanceMeters>
                        <Time>2023-03-07T06:54:19.372Z</Time>
                    </Trackpoint>
                    <Trackpoint>
                        <DistanceMeters>1.5635000169277191</DistanceMeters>
                        <Time>2023-03-07T06:54:20.818Z</Time>
                    </Trackpoint>
                    <Trackpoint>
                        <DistanceMeters>62.20062389969826</DistanceMeters>
                        <Time>2023-03-07T06:54:44.598Z</Time>
                    </Trackpoint>
                    <Trackpoint>
                        <DistanceMeters>117.70487450063229</DistanceMeters>
                        <Time>2023-03-07T06:55:21.898Z</Time>
                    </Trackpoint>
                    <Trackpoint>
                        <DistanceMeters>134.12162467837334</DistanceMeters>
                        <Time>2023-03-07T06:55:38.018Z</Time>
                    </Trackpoint>
                    <Trackpoint>
                        <DistanceMeters>155.22887490689754</DistanceMeters>
                        <Time>2023-03-07T06:55:55.018Z</Time>
                    </Trackpoint>
                    <Trackpoint>
                        <DistanceMeters>178.68137516081333</DistanceMeters>
                        <Time>2023-03-07T06:56:22.978Z</Time>
                    </Trackpoint>
                    <Trackpoint>
                        <DistanceMeters>213.07837553322315</DistanceMeters>
                        <Time>2023-03-07T06:56:47.098Z</Time>
                    </Trackpoint>
                    <Trackpoint>
                        <DistanceMeters>222.45937563478947</DistanceMeters>
                        <Time>2023-03-07T06:56:53.858Z</Time>
                    </Trackpoint>
                    <Trackpoint>
                        <DistanceMeters>267.01912611722946</DistanceMeters>
                        <Time>2023-03-07T06:57:22.938Z</Time>
                    </Trackpoint>
                    <Trackpoint>
                        <DistanceMeters>302.19787649810314</DistanceMeters>
                        <Time>2023-03-07T06:57:46.898Z</Time>
                    </Trackpoint>
                    <Trackpoint>
                        <DistanceMeters>313.1423766165972</DistanceMeters>
                        <Time>2023-03-07T06:57:53.898Z</Time>
                    </Trackpoint>
                    <Trackpoint>
                        <DistanceMeters>373.78813065588474</DistanceMeters>
                        <Time>2023-03-07T06:58:24.098Z</Time>
                    </Trackpoint>
                    <Trackpoint>
                        <DistanceMeters>427.54295636713505</DistanceMeters>
                        <Time>2023-03-07T06:58:45.798Z</Time>
                    </Trackpoint>
                    <Trackpoint>
                        <DistanceMeters>483.0472069680691</DistanceMeters>
                        <Time>2023-03-07T06:59:24.818Z</Time>
                    </Trackpoint>
                    <Trackpoint>
                        <DistanceMeters>508.84495724737644</DistanceMeters>
                        <Time>2023-03-07T06:59:45.778Z</Time>
                    </Trackpoint>
                    <Trackpoint>
                        <DistanceMeters>546.3689576536417</DistanceMeters>
                        <Time>2023-03-07T07:00:25.998Z</Time>
                    </Trackpoint>
                    <Trackpoint>
                        <DistanceMeters>601.0914582461119</DistanceMeters>
                        <Time>2023-03-07T07:01:02.038Z</Time>
                    </Trackpoint>
                    <Trackpoint>
                        <DistanceMeters>635.4884586185217</DistanceMeters>
                        <Time>2023-03-07T07:01:33.898Z</Time>
                    </Trackpoint>
                    <Trackpoint>
                        <DistanceMeters>670.6672089993954</DistanceMeters>
                        <Time>2023-03-07T07:02:17.978Z</Time>
                    </Trackpoint>
                    <Trackpoint>
                        <DistanceMeters>686.3022091686726</DistanceMeters>
                        <Time>2023-03-07T07:02:36.778Z</Time>
                    </Trackpoint>
                    <Trackpoint>
                        <DistanceMeters>726.1714596003294</DistanceMeters>
                        <Time>2023-03-07T07:03:12.158Z</Time>
                    </Trackpoint>
                    <Trackpoint>
                        <DistanceMeters>766.8224600404501</DistanceMeters>
                        <Time>2023-03-07T07:03:44.938Z</Time>
                    </Trackpoint>
                    <Trackpoint>
                        <DistanceMeters>815.127069413662</DistanceMeters>
                        <Time>2023-03-07T07:04:08.018Z</Time>
                    </Trackpoint>
                    <Trackpoint>
                        <DistanceMeters>837.7978196591139</DistanceMeters>
                        <Time>2023-03-07T07:04:45.898Z</Time>
                    </Trackpoint>
                    <Trackpoint>
                        <DistanceMeters>862.8138199299574</DistanceMeters>
                        <Time>2023-03-07T07:05:18.187Z</Time>
                    </Trackpoint>
                </Track>
                <DistanceMeters>862.8138199299574</DistanceMeters>
                <TotalTimeSeconds>658.815</TotalTimeSeconds>
                <Calories>133.13553125</Calories>
                <Intensity>Active</Intensity>
                <TriggerMethod>Manual</TriggerMethod>
            </Lap>
        </Activity>
        <Activity Sport="Walking">
            <Id>2023-03-07T07:05:18.187Z</Id>
            <Lap StartTime="2023-03-07T07:05:18.187Z">
                <Track>
                    <Trackpoint>
                        <DistanceMeters>0.0</DistanceMeters>
                        <Time>2023-03-07T07:05:18.187Z</Time>
                    </Trackpoint>
                    <Trackpoint>
                        <DistanceMeters>11.744369974325895</DistanceMeters>
                        <Time>2023-03-07T07:05:37.018Z</Time>
                    </Trackpoint>
                    <Trackpoint>
                        <DistanceMeters>86.34657553736734</DistanceMeters>
                        <Time>2023-03-07T07:06:50.718Z</Time>
                    </Trackpoint>
                    <Trackpoint>
                        <DistanceMeters>96.78601551454591</DistanceMeters>
                        <Time>2023-03-07T07:07:07.818Z</Time>
                    </Trackpoint>
                    <Trackpoint>
                        <DistanceMeters>146.37335540614413</DistanceMeters>
                        <Time>2023-03-07T07:09:15.018Z</Time>
                    </Trackpoint>
                    <Trackpoint>
                        <DistanceMeters>226.2541305103982</DistanceMeters>
                        <Time>2023-03-07T07:10:16.178Z</Time>
                    </Trackpoint>
                    <Trackpoint>
                        <DistanceMeters>268.04834700160006</DistanceMeters>
                        <Time>2023-03-07T07:10:48.978Z</Time>
                    </Trackpoint>
                    <Trackpoint>
                        <DistanceMeters>298.32895555192533</DistanceMeters>
                        <Time>2023-03-07T07:11:14.578Z</Time>
                    </Trackpoint>
                    <Trackpoint>
                        <DistanceMeters>372.07266837845003</DistanceMeters>
                        <Time>2023-03-07T07:12:15.538Z</Time>
                    </Trackpoint>
                    <Trackpoint>
                        <DistanceMeters>400.90808769627887</DistanceMeters>
                        <Time>2023-03-07T07:12:40.018Z</Time>
                    </Trackpoint>
                    <Trackpoint>
                        <DistanceMeters>414.60985266632576</DistanceMeters>
                        <Time>2023-03-07T07:15:09.858Z</Time>
                    </Trackpoint>
                    <Trackpoint>
                        <DistanceMeters>430.92147763066725</DistanceMeters>
                        <Time>2023-03-07T07:16:09.858Z</Time>
                    </Trackpoint>
                    <Trackpoint>
                        <DistanceMeters>470.0693775450869</DistanceMeters>
                        <Time>2023-03-07T07:17:47.258Z</Time>
                    </Trackpoint>
                    <Trackpoint>
                        <DistanceMeters>486.3810025094284</DistanceMeters>
                        <Time>2023-03-07T07:18:26.618Z</Time>
                    </Trackpoint>
                    <Trackpoint>
                        <DistanceMeters>520.3091824352588</DistanceMeters>
                        <Time>2023-03-07T07:21:00.906Z</Time>
                    </Trackpoint>
                </Track>
                <DistanceMeters>520.3091824352588</DistanceMeters>
                <TotalTimeSeconds>942.719</TotalTimeSeconds>
                <Calories>96.52395094444444</Calories>
                <Intensity>Active</Intensity>
                <TriggerMethod>Manual</TriggerMethod>
            </Lap>
        </Activity>
    </Activities>
    <Author xsi:type="Application_t">
        <Name>Google Fit</Name>
        <Build>
            <Version>
                <VersionMajor>0</VersionMajor>
                <VersionMinor>0</VersionMinor>
                <BuildMajor>0</BuildMajor>
                <BuildMinor>0</BuildMinor>
            </Version>
        </Build>
        <LangID>en</LangID>
        <PartNumber>000-00000-00</PartNumber>
    </Author>
</TrainingCenterDatabase>
