<?xml version="1.0" encoding="UTF-8"?>
<TrainingCenterDatabase
    xmlns="http://www.garmin.com/xmlschemas/TrainingCenterDatabase/v2"
    xmlns:ns2="http://www.garmin.com/xmlschemas/UserProfile/v2"
    xmlns:ns3="http://www.garmin.com/xmlschemas/ActivityExtension/v2"
    xmlns:ns4="http://www.garmin.com/xmlschemas/ProfileExtension/v1"
    xmlns:ns5="http://www.garmin.com/xmlschemas/ActivityGoals/v1"
    xmlns:xsi="http://www.w3.org/2001/XMLSchema-instance" xsi:schemaLocation="http://www.garmin.com/xmlschemas/TrainingCenterDatabase/v2 http://www.garmin.com/xmlschemas/TrainingCenterDatabasev2.xsd">
    <Activities>
        <Activity Sport="Walking">
            <Id>2023-02-06T05:47:26.737Z</Id>
            <Lap StartTime="2023-02-06T05:47:26.737Z">
                <Track>
                    <Trackpoint>
                        <DistanceMeters>0.0</DistanceMeters>
                        <Time>2023-02-06T05:47:26.737Z</Time>
                    </Trackpoint>
                    <Trackpoint>
                        <DistanceMeters>63.941569860218756</DistanceMeters>
                        <Time>2023-02-06T05:50:21.533Z</Time>
                    </Trackpoint>
                    <Trackpoint>
                        <DistanceMeters>63.941569860218756</DistanceMeters>
                        <Time>2023-02-06T05:50:42.737Z</Time>
                    </Trackpoint>
                    <Trackpoint>
                        <DistanceMeters>72.65105501768598</DistanceMeters>
                        <Time>2023-02-06T05:50:49.417Z</Time>
                    </Trackpoint>
                    <Trackpoint>
                        <DistanceMeters>136.00176990374558</DistanceMeters>
                        <Time>2023-02-06T05:51:41.137Z</Time>
                    </Trackpoint>
                    <Trackpoint>
                        <DistanceMeters>154.92325486238175</DistanceMeters>
                        <Time>2023-02-06T05:52:04.057Z</Time>
                    </Trackpoint>
                    <Trackpoint>
                        <DistanceMeters>196.68101477109605</DistanceMeters>
                        <Time>2023-02-06T05:53:07.057Z</Time>
                    </Trackpoint>
                    <Trackpoint>
                        <DistanceMeters>221.47468471689515</DistanceMeters>
                        <Time>2023-02-06T05:53:39.497Z</Time>
                    </Trackpoint>
                    <Trackpoint>
                        <DistanceMeters>228.96689641418703</DistanceMeters>
                        <Time>2023-02-06T05:53:44.697Z</Time>
                    </Trackpoint>
                    <Trackpoint>
                        <DistanceMeters>254.4130313585598</DistanceMeters>
                        <Time>2023-02-06T05:54:28.777Z</Time>
                    </Trackpoint>
                </Track>
                <DistanceMeters>254.4130313585598</DistanceMeters>
                <TotalTimeSeconds>422.040007653</TotalTimeSeconds>
                <Calories>24.79838411111111</Calories>
                <Intensity>Active</Intensity>
                <TriggerMethod>Manual</TriggerMethod>
            </Lap>
        </Activity>
        <Activity Sport="Biking">
            <Id>2023-02-06T06:03:13.312Z</Id>
            <Lap StartTime="2023-02-06T06:03:13.312Z">
                <Track>
                    <Trackpoint>
                        <DistanceMeters>0.0</DistanceMeters>
                        <Time>2023-02-06T06:03:13.312Z</Time>
                    </Trackpoint>
                    <Trackpoint>
                        <DistanceMeters>0.0</DistanceMeters>
                        <Time>2023-02-06T06:08:42.074Z</Time>
                    </Trackpoint>
                </Track>
                <DistanceMeters>0.0</DistanceMeters>
                <TotalTimeSeconds>328.762</TotalTimeSeconds>
                <Calories>35.43323777777778</Calories>
                <Intensity>Active</Intensity>
                <TriggerMethod>Manual</TriggerMethod>
            </Lap>
        </Activity>
        <Activity Sport="Walking">
            <Id>2023-02-06T06:15:50.137Z</Id>
            <Lap StartTime="2023-02-06T06:15:50.137Z">
                <Track>
                    <Trackpoint>
                        <DistanceMeters>0.0</DistanceMeters>
                        <Time>2023-02-06T06:15:50.137Z</Time>
                    </Trackpoint>
                    <Trackpoint>
                        <DistanceMeters>26.098599942946432</DistanceMeters>
                        <Time>2023-02-06T06:16:58.296Z</Time>
                    </Trackpoint>
                    <Trackpoint>
                        <DistanceMeters>26.098599942946432</DistanceMeters>
                        <Time>2023-02-06T06:17:10.137Z</Time>
                    </Trackpoint>
                    <Trackpoint>
                        <DistanceMeters>84.95202751381345</DistanceMeters>
                        <Time>2023-02-06T06:18:11.617Z</Time>
                    </Trackpoint>
                    <Trackpoint>
                        <DistanceMeters>130.6245774139697</DistanceMeters>
                        <Time>2023-02-06T06:19:04.637Z</Time>
                    </Trackpoint>
                    <Trackpoint>
                        <DistanceMeters>192.60875227846748</DistanceMeters>
                        <Time>2023-02-06T06:20:30.937Z</Time>
                    </Trackpoint>
                    <Trackpoint>
                        <DistanceMeters>248.06827715722864</DistanceMeters>
                        <Time>2023-02-06T06:21:32.017Z</Time>
                    </Trackpoint>
                </Track>
                <DistanceMeters>248.06827715722864</DistanceMeters>
                <TotalTimeSeconds>341.880006682</TotalTimeSeconds>
                <Calories>25.72008888888889</Calories>
                <Intensity>Active</Intensity>
                <TriggerMethod>Manual</TriggerMethod>
            </Lap>
        </Activity>
        <Activity Sport="Walking">
            <Id>2023-02-06T06:20:30.937Z</Id>
            <Lap StartTime="2023-02-06T06:20:30.937Z">
                <Track>
                    <Trackpoint>
                        <DistanceMeters>0.0</DistanceMeters>
                        <Time>2023-02-06T06:20:30.937Z</Time>
                    </Trackpoint>
                    <Trackpoint>
                        <DistanceMeters>55.459524878761165</DistanceMeters>
                        <Time>2023-02-06T06:21:09.496Z</Time>
                    </Trackpoint>
                    <Trackpoint>
                        <DistanceMeters>55.459524878761165</DistanceMeters>
                        <Time>2023-02-06T06:21:32.017Z</Time>
                    </Trackpoint>
                    <Trackpoint>
                        <DistanceMeters>105.69932976893304</DistanceMeters>
                        <Time>2023-02-06T06:22:32.897Z</Time>
                    </Trackpoint>
                    <Trackpoint>
                        <DistanceMeters>156.57933123219578</DistanceMeters>
                        <Time>2023-02-06T06:23:23.837Z</Time>
                    </Trackpoint>
                </Track>
                <DistanceMeters>156.57933123219578</DistanceMeters>
                <TotalTimeSeconds>172.899998481</TotalTimeSeconds>
                <Calories>13.755124560264445</Calories>
                <Intensity>Active</Intensity>
                <TriggerMethod>Manual</TriggerMethod>
            </Lap>
        </Activity>
    </Activities>
    <Author xsi:type="Application_t">
        <Name>Google Fit</Name>
        <Build>
            <Version>
                <VersionMajor>0</VersionMajor>
                <VersionMinor>0</VersionMinor>
                <BuildMajor>0</BuildMajor>
                <BuildMinor>0</BuildMinor>
            </Version>
        </Build>
        <LangID>en</LangID>
        <PartNumber>000-00000-00</PartNumber>
    </Author>
</TrainingCenterDatabase>
