<?xml version="1.0" encoding="UTF-8"?>
<TrainingCenterDatabase
    xmlns="http://www.garmin.com/xmlschemas/TrainingCenterDatabase/v2"
    xmlns:ns2="http://www.garmin.com/xmlschemas/UserProfile/v2"
    xmlns:ns3="http://www.garmin.com/xmlschemas/ActivityExtension/v2"
    xmlns:ns4="http://www.garmin.com/xmlschemas/ProfileExtension/v1"
    xmlns:ns5="http://www.garmin.com/xmlschemas/ActivityGoals/v1"
    xmlns:xsi="http://www.w3.org/2001/XMLSchema-instance" xsi:schemaLocation="http://www.garmin.com/xmlschemas/TrainingCenterDatabase/v2 http://www.garmin.com/xmlschemas/TrainingCenterDatabasev2.xsd">
    <Activities>
        <Activity Sport="Walking">
            <Id>2023-02-10T06:12:44.922Z</Id>
            <Lap StartTime="2023-02-10T06:12:44.922Z">
                <Track>
                    <Trackpoint>
                        <DistanceMeters>0.0</DistanceMeters>
                        <Time>2023-02-10T06:12:44.922Z</Time>
                    </Trackpoint>
                    <Trackpoint>
                        <DistanceMeters>0.0</DistanceMeters>
                        <Time>2023-02-10T06:49:34.682Z</Time>
                    </Trackpoint>
                    <Trackpoint>
                        <DistanceMeters>18.921484958636164</DistanceMeters>
                        <Time>2023-02-10T06:50:34.682Z</Time>
                    </Trackpoint>
                    <Trackpoint>
                        <DistanceMeters>60.679244867350455</DistanceMeters>
                        <Time>2023-02-10T06:51:36.782Z</Time>
                    </Trackpoint>
                    <Trackpoint>
                        <DistanceMeters>82.26553265739369</DistanceMeters>
                        <Time>2023-02-10T06:51:53.802Z</Time>
                    </Trackpoint>
                </Track>
                <DistanceMeters>82.26553265739369</DistanceMeters>
                <TotalTimeSeconds>2348.880000408</TotalTimeSeconds>
                <Calories>56.18575266810902</Calories>
                <Intensity>Active</Intensity>
                <TriggerMethod>Manual</TriggerMethod>
            </Lap>
        </Activity>
        <Activity Sport="Walking">
            <Id>2023-02-10T06:51:36.782Z</Id>
            <Lap StartTime="2023-02-10T06:51:36.782Z">
                <Track>
                    <Trackpoint>
                        <DistanceMeters>0.0</DistanceMeters>
                        <Time>2023-02-10T06:51:36.782Z</Time>
                    </Trackpoint>
                    <Trackpoint>
                        <DistanceMeters>21.586287790043244</DistanceMeters>
                        <Time>2023-02-10T06:51:52.425Z</Time>
                    </Trackpoint>
                    <Trackpoint>
                        <DistanceMeters>21.586287790043244</DistanceMeters>
                        <Time>2023-02-10T06:51:53.802Z</Time>
                    </Trackpoint>
                    <Trackpoint>
                        <DistanceMeters>67.38944440533766</DistanceMeters>
                        <Time>2023-02-10T06:52:32.442Z</Time>
                    </Trackpoint>
                    <Trackpoint>
                        <DistanceMeters>125.65502140508872</DistanceMeters>
                        <Time>2023-02-10T06:53:20.282Z</Time>
                    </Trackpoint>
                    <Trackpoint>
                        <DistanceMeters>147.9233687885619</DistanceMeters>
                        <Time>2023-02-10T06:53:41.982Z</Time>
                    </Trackpoint>
                    <Trackpoint>
                        <DistanceMeters>191.63852369299718</DistanceMeters>
                        <Time>2023-02-10T06:55:01.922Z</Time>
                    </Trackpoint>
                </Track>
                <DistanceMeters>191.63852369299718</DistanceMeters>
                <TotalTimeSeconds>205.139997033</TotalTimeSeconds>
                <Calories>12.589225833333332</Calories>
                <Intensity>Active</Intensity>
                <TriggerMethod>Manual</TriggerMethod>
            </Lap>
        </Activity>
        <Activity Sport="Walking">
            <Id>2023-02-10T06:53:41.982Z</Id>
            <Lap StartTime="2023-02-10T06:53:41.982Z">
                <Track>
                    <Trackpoint>
                        <DistanceMeters>0.0</DistanceMeters>
                        <Time>2023-02-10T06:53:41.982Z</Time>
                    </Trackpoint>
                    <Trackpoint>
                        <DistanceMeters>43.71515490443527</DistanceMeters>
                        <Time>2023-02-10T06:53:55.380Z</Time>
                    </Trackpoint>
                    <Trackpoint>
                        <DistanceMeters>43.71515490443527</DistanceMeters>
                        <Time>2023-02-10T06:55:01.922Z</Time>
                    </Trackpoint>
                    <Trackpoint>
                        <DistanceMeters>99.92030056064311</DistanceMeters>
                        <Time>2023-02-10T06:55:49.802Z</Time>
                    </Trackpoint>
                </Track>
                <DistanceMeters>99.92030056064311</DistanceMeters>
                <TotalTimeSeconds>127.819996438</TotalTimeSeconds>
                <Calories>1.6633704779696805</Calories>
                <Intensity>Active</Intensity>
                <TriggerMethod>Manual</TriggerMethod>
            </Lap>
        </Activity>
        <Activity Sport="Walking">
            <Id>2023-02-10T06:55:01.922Z</Id>
            <Lap StartTime="2023-02-10T06:55:01.922Z">
                <Track>
                    <Trackpoint>
                        <DistanceMeters>0.0</DistanceMeters>
                        <Time>2023-02-10T06:55:01.922Z</Time>
                    </Trackpoint>
                    <Trackpoint>
                        <DistanceMeters>56.20514565620784</DistanceMeters>
                        <Time>2023-02-10T06:55:04.360Z</Time>
                    </Trackpoint>
                    <Trackpoint>
                        <DistanceMeters>56.20514565620784</DistanceMeters>
                        <Time>2023-02-10T06:55:49.802Z</Time>
                    </Trackpoint>
                    <Trackpoint>
                        <DistanceMeters>82.28747522923017</DistanceMeters>
                        <Time>2023-02-10T06:56:13.802Z</Time>
                    </Trackpoint>
                    <Trackpoint>
                        <DistanceMeters>105.1237501793083</DistanceMeters>
                        <Time>2023-02-10T06:56:40.482Z</Time>
                    </Trackpoint>
                    <Trackpoint>
                        <DistanceMeters>136.03909176507386</DistanceMeters>
                        <Time>2023-02-10T06:57:08.842Z</Time>
                    </Trackpoint>
                    <Trackpoint>
                        <DistanceMeters>160.6280317048734</DistanceMeters>
                        <Time>2023-02-10T06:57:31.842Z</Time>
                    </Trackpoint>
                    <Trackpoint>
                        <DistanceMeters>186.4322377760329</DistanceMeters>
                        <Time>2023-02-10T06:57:54.362Z</Time>
                    </Trackpoint>
                    <Trackpoint>
                        <DistanceMeters>204.28781731313978</DistanceMeters>
                        <Time>2023-02-10T06:58:10.762Z</Time>
                    </Trackpoint>
                    <Trackpoint>
                        <DistanceMeters>263.0276032256108</DistanceMeters>
                        <Time>2023-02-10T06:59:03.602Z</Time>
                    </Trackpoint>
                    <Trackpoint>
                        <DistanceMeters>297.91436367341646</DistanceMeters>
                        <Time>2023-02-10T06:59:34.002Z</Time>
                    </Trackpoint>
                    <Trackpoint>
                        <DistanceMeters>343.38024839475634</DistanceMeters>
                        <Time>2023-02-10T07:00:19.722Z</Time>
                    </Trackpoint>
                    <Trackpoint>
                        <DistanceMeters>350.5573633790666</DistanceMeters>
                        <Time>2023-02-10T07:00:27.882Z</Time>
                    </Trackpoint>
                </Track>
                <DistanceMeters>350.5573633790666</DistanceMeters>
                <TotalTimeSeconds>325.959999606</TotalTimeSeconds>
                <Calories>32.77304511111111</Calories>
                <Intensity>Active</Intensity>
                <TriggerMethod>Manual</TriggerMethod>
            </Lap>
        </Activity>
        <Activity Sport="Walking">
            <Id>2023-02-10T07:00:19.722Z</Id>
            <Lap StartTime="2023-02-10T07:00:19.722Z">
                <Track>
                    <Trackpoint>
                        <DistanceMeters>0.0</DistanceMeters>
                        <Time>2023-02-10T07:00:19.722Z</Time>
                    </Trackpoint>
                    <Trackpoint>
                        <DistanceMeters>7.177114984310268</DistanceMeters>
                        <Time>2023-02-10T07:00:24.444Z</Time>
                    </Trackpoint>
                    <Trackpoint>
                        <DistanceMeters>7.177114984310268</DistanceMeters>
                        <Time>2023-02-10T07:00:27.882Z</Time>
                    </Trackpoint>
                </Track>
                <DistanceMeters>7.177114984310268</DistanceMeters>
                <TotalTimeSeconds>8.16</TotalTimeSeconds>
                <Calories>0.3521121318983333</Calories>
                <Intensity>Active</Intensity>
                <TriggerMethod>Manual</TriggerMethod>
            </Lap>
        </Activity>
        <Activity Sport="Walking">
            <Id>2023-02-10T07:07:42.682Z</Id>
            <Lap StartTime="2023-02-10T07:07:42.682Z">
                <Track>
                    <Trackpoint>
                        <DistanceMeters>0.0</DistanceMeters>
                        <Time>2023-02-10T07:07:42.682Z</Time>
                    </Trackpoint>
                    <Trackpoint>
                        <DistanceMeters>51.5447348873192</DistanceMeters>
                        <Time>2023-02-10T07:08:39.858Z</Time>
                    </Trackpoint>
                    <Trackpoint>
                        <DistanceMeters>51.5447348873192</DistanceMeters>
                        <Time>2023-02-10T07:09:45.762Z</Time>
                    </Trackpoint>
                    <Trackpoint>
                        <DistanceMeters>85.47291481314957</DistanceMeters>
                        <Time>2023-02-10T07:10:37.982Z</Time>
                    </Trackpoint>
                </Track>
                <DistanceMeters>85.47291481314957</DistanceMeters>
                <TotalTimeSeconds>175.300000443</TotalTimeSeconds>
                <Calories>8.163978055555555</Calories>
                <Intensity>Active</Intensity>
                <TriggerMethod>Manual</TriggerMethod>
            </Lap>
        </Activity>
        <Activity Sport="Walking">
            <Id>2023-02-10T07:09:45.762Z</Id>
            <Lap StartTime="2023-02-10T07:09:45.762Z">
                <Track>
                    <Trackpoint>
                        <DistanceMeters>0.0</DistanceMeters>
                        <Time>2023-02-10T07:09:45.762Z</Time>
                    </Trackpoint>
                    <Trackpoint>
                        <DistanceMeters>33.928179925830364</DistanceMeters>
                        <Time>2023-02-10T07:09:59.593Z</Time>
                    </Trackpoint>
                    <Trackpoint>
                        <DistanceMeters>33.928179925830364</DistanceMeters>
                        <Time>2023-02-10T07:10:37.982Z</Time>
                    </Trackpoint>
                </Track>
                <DistanceMeters>33.928179925830364</DistanceMeters>
                <TotalTimeSeconds>52.219999301</TotalTimeSeconds>
                <Calories>3.930706177829333</Calories>
                <Intensity>Active</Intensity>
                <TriggerMethod>Manual</TriggerMethod>
            </Lap>
        </Activity>
    </Activities>
    <Author xsi:type="Application_t">
        <Name>Google Fit</Name>
        <Build>
            <Version>
                <VersionMajor>0</VersionMajor>
                <VersionMinor>0</VersionMinor>
                <BuildMajor>0</BuildMajor>
                <BuildMinor>0</BuildMinor>
            </Version>
        </Build>
        <LangID>en</LangID>
        <PartNumber>000-00000-00</PartNumber>
    </Author>
</TrainingCenterDatabase>
