<?xml version="1.0" encoding="UTF-8"?>
<TrainingCenterDatabase
    xmlns="http://www.garmin.com/xmlschemas/TrainingCenterDatabase/v2"
    xmlns:ns2="http://www.garmin.com/xmlschemas/UserProfile/v2"
    xmlns:ns3="http://www.garmin.com/xmlschemas/ActivityExtension/v2"
    xmlns:ns4="http://www.garmin.com/xmlschemas/ProfileExtension/v1"
    xmlns:ns5="http://www.garmin.com/xmlschemas/ActivityGoals/v1"
    xmlns:xsi="http://www.w3.org/2001/XMLSchema-instance" xsi:schemaLocation="http://www.garmin.com/xmlschemas/TrainingCenterDatabase/v2 http://www.garmin.com/xmlschemas/TrainingCenterDatabasev2.xsd">
    <Activities>
        <Activity Sport="Walking">
            <Id>2023-01-31T14:00:10.836Z</Id>
            <Lap StartTime="2023-01-31T14:00:10.836Z">
                <Track>
                    <Trackpoint>
                        <DistanceMeters>0.0</DistanceMeters>
                        <Time>2023-01-31T14:00:10.836Z</Time>
                    </Trackpoint>
                    <Trackpoint>
                        <DistanceMeters>46.32501489872992</DistanceMeters>
                        <Time>2023-01-31T14:01:50.712Z</Time>
                    </Trackpoint>
                    <Trackpoint>
                        <DistanceMeters>46.32501489872992</DistanceMeters>
                        <Time>2023-01-31T14:02:32.836Z</Time>
                    </Trackpoint>
                    <Trackpoint>
                        <DistanceMeters>54.154594881613846</DistanceMeters>
                        <Time>2023-01-31T14:03:03.196Z</Time>
                    </Trackpoint>
                    <Trackpoint>
                        <DistanceMeters>60.02677986877679</DistanceMeters>
                        <Time>2023-01-31T14:03:10.076Z</Time>
                    </Trackpoint>
                    <Trackpoint>
                        <DistanceMeters>117.44369974325895</DistanceMeters>
                        <Time>2023-01-31T14:04:21.236Z</Time>
                    </Trackpoint>
                </Track>
                <DistanceMeters>117.44369974325895</DistanceMeters>
                <TotalTimeSeconds>250.399997844</TotalTimeSeconds>
                <Calories>11.005679277777778</Calories>
                <Intensity>Active</Intensity>
                <TriggerMethod>Manual</TriggerMethod>
            </Lap>
        </Activity>
        <Activity Sport="Walking">
            <Id>2023-01-31T14:03:10.076Z</Id>
            <Lap StartTime="2023-01-31T14:03:10.076Z">
                <Track>
                    <Trackpoint>
                        <DistanceMeters>0.0</DistanceMeters>
                        <Time>2023-01-31T14:03:10.076Z</Time>
                    </Trackpoint>
                    <Trackpoint>
                        <DistanceMeters>57.41691987448215</DistanceMeters>
                        <Time>2023-01-31T14:03:38.201Z</Time>
                    </Trackpoint>
                    <Trackpoint>
                        <DistanceMeters>57.41691987448215</DistanceMeters>
                        <Time>2023-01-31T14:04:21.236Z</Time>
                    </Trackpoint>
                    <Trackpoint>
                        <DistanceMeters>62.414928589282304</DistanceMeters>
                        <Time>2023-01-31T14:04:25.276Z</Time>
                    </Trackpoint>
                </Track>
                <DistanceMeters>62.414928589282304</DistanceMeters>
                <TotalTimeSeconds>75.200000916</TotalTimeSeconds>
                <Calories>4.819973845163999</Calories>
                <Intensity>Active</Intensity>
                <TriggerMethod>Manual</TriggerMethod>
            </Lap>
        </Activity>
        <Activity Sport="Walking">
            <Id>2023-01-31T14:04:25.276Z</Id>
            <Lap StartTime="2023-01-31T14:04:25.276Z">
                <Track>
                    <Trackpoint>
                        <DistanceMeters>0.0</DistanceMeters>
                        <Time>2023-01-31T14:04:25.276Z</Time>
                    </Trackpoint>
                    <Trackpoint>
                        <DistanceMeters>15.006694967194198</DistanceMeters>
                        <Time>2023-01-31T14:05:00.436Z</Time>
                    </Trackpoint>
                    <Trackpoint>
                        <DistanceMeters>44.81323420802539</DistanceMeters>
                        <Time>2023-01-31T14:05:21.476Z</Time>
                    </Trackpoint>
                    <Trackpoint>
                        <DistanceMeters>79.02349376693459</DistanceMeters>
                        <Time>2023-01-31T14:05:47.476Z</Time>
                    </Trackpoint>
                    <Trackpoint>
                        <DistanceMeters>98.01317781117038</DistanceMeters>
                        <Time>2023-01-31T14:06:03.596Z</Time>
                    </Trackpoint>
                    <Trackpoint>
                        <DistanceMeters>130.88479541185953</DistanceMeters>
                        <Time>2023-01-31T14:06:36.276Z</Time>
                    </Trackpoint>
                    <Trackpoint>
                        <DistanceMeters>239.11394957217132</DistanceMeters>
                        <Time>2023-01-31T14:08:10.356Z</Time>
                    </Trackpoint>
                </Track>
                <DistanceMeters>239.11394957217132</DistanceMeters>
                <TotalTimeSeconds>225.080000343</TotalTimeSeconds>
                <Calories>14.720862118308553</Calories>
                <Intensity>Active</Intensity>
                <TriggerMethod>Manual</TriggerMethod>
            </Lap>
        </Activity>
        <Activity Sport="Walking">
            <Id>2023-01-31T14:06:36.276Z</Id>
            <Lap StartTime="2023-01-31T14:06:36.276Z">
                <Track>
                    <Trackpoint>
                        <DistanceMeters>0.0</DistanceMeters>
                        <Time>2023-01-31T14:06:36.276Z</Time>
                    </Trackpoint>
                    <Trackpoint>
                        <DistanceMeters>108.2291541603118</DistanceMeters>
                        <Time>2023-01-31T14:07:16.914Z</Time>
                    </Trackpoint>
                    <Trackpoint>
                        <DistanceMeters>108.2291541603118</DistanceMeters>
                        <Time>2023-01-31T14:08:10.356Z</Time>
                    </Trackpoint>
                    <Trackpoint>
                        <DistanceMeters>172.50196544859136</DistanceMeters>
                        <Time>2023-01-31T14:09:02.276Z</Time>
                    </Trackpoint>
                    <Trackpoint>
                        <DistanceMeters>230.61626450303214</DistanceMeters>
                        <Time>2023-01-31T14:09:50.396Z</Time>
                    </Trackpoint>
                    <Trackpoint>
                        <DistanceMeters>258.6469625077575</DistanceMeters>
                        <Time>2023-01-31T14:10:14.476Z</Time>
                    </Trackpoint>
                    <Trackpoint>
                        <DistanceMeters>276.2330804700245</DistanceMeters>
                        <Time>2023-01-31T14:10:29.396Z</Time>
                    </Trackpoint>
                    <Trackpoint>
                        <DistanceMeters>299.42084581865595</DistanceMeters>
                        <Time>2023-01-31T14:10:51.196Z</Time>
                    </Trackpoint>
                    <Trackpoint>
                        <DistanceMeters>325.284952947626</DistanceMeters>
                        <Time>2023-01-31T14:11:15.676Z</Time>
                    </Trackpoint>
                    <Trackpoint>
                        <DistanceMeters>342.586297743206</DistanceMeters>
                        <Time>2023-01-31T14:11:29.236Z</Time>
                    </Trackpoint>
                    <Trackpoint>
                        <DistanceMeters>364.3299620692714</DistanceMeters>
                        <Time>2023-01-31T14:11:52.236Z</Time>
                    </Trackpoint>
                    <Trackpoint>
                        <DistanceMeters>393.3978629191971</DistanceMeters>
                        <Time>2023-01-31T14:12:16.276Z</Time>
                    </Trackpoint>
                    <Trackpoint>
                        <DistanceMeters>414.8339947376459</DistanceMeters>
                        <Time>2023-01-31T14:12:30.196Z</Time>
                    </Trackpoint>
                    <Trackpoint>
                        <DistanceMeters>442.3035787437303</DistanceMeters>
                        <Time>2023-01-31T14:12:51.536Z</Time>
                    </Trackpoint>
                    <Trackpoint>
                        <DistanceMeters>460.57259870379283</DistanceMeters>
                        <Time>2023-01-31T14:13:21.316Z</Time>
                    </Trackpoint>
                    <Trackpoint>
                        <DistanceMeters>469.0546436852504</DistanceMeters>
                        <Time>2023-01-31T14:13:36.356Z</Time>
                    </Trackpoint>
                    <Trackpoint>
                        <DistanceMeters>502.9828236110808</DistanceMeters>
                        <Time>2023-01-31T14:15:07.476Z</Time>
                    </Trackpoint>
                </Track>
                <DistanceMeters>502.9828236110808</DistanceMeters>
                <TotalTimeSeconds>511.199999906</TotalTimeSeconds>
                <Calories>42.819340499999996</Calories>
                <Intensity>Active</Intensity>
                <TriggerMethod>Manual</TriggerMethod>
            </Lap>
        </Activity>
    </Activities>
    <Author xsi:type="Application_t">
        <Name>Google Fit</Name>
        <Build>
            <Version>
                <VersionMajor>0</VersionMajor>
                <VersionMinor>0</VersionMinor>
                <BuildMajor>0</BuildMajor>
                <BuildMinor>0</BuildMinor>
            </Version>
        </Build>
        <LangID>en</LangID>
        <PartNumber>000-00000-00</PartNumber>
    </Author>
</TrainingCenterDatabase>
