<?xml version="1.0" encoding="UTF-8"?>
<TrainingCenterDatabase
    xmlns="http://www.garmin.com/xmlschemas/TrainingCenterDatabase/v2"
    xmlns:ns2="http://www.garmin.com/xmlschemas/UserProfile/v2"
    xmlns:ns3="http://www.garmin.com/xmlschemas/ActivityExtension/v2"
    xmlns:ns4="http://www.garmin.com/xmlschemas/ProfileExtension/v1"
    xmlns:ns5="http://www.garmin.com/xmlschemas/ActivityGoals/v1"
    xmlns:xsi="http://www.w3.org/2001/XMLSchema-instance" xsi:schemaLocation="http://www.garmin.com/xmlschemas/TrainingCenterDatabase/v2 http://www.garmin.com/xmlschemas/TrainingCenterDatabasev2.xsd">
    <Activities>
        <Activity Sport="Walking">
            <Id>2023-08-24T18:59:19.879Z</Id>
            <Lap StartTime="2023-08-24T18:59:19.879Z">
                <Track>
                    <Trackpoint>
                        <DistanceMeters>0.0</DistanceMeters>
                        <Time>2023-08-24T18:59:19.879Z</Time>
                    </Trackpoint>
                    <Trackpoint>
                        <DistanceMeters>0.0</DistanceMeters>
                        <Time>2023-08-24T19:35:29.490Z</Time>
                    </Trackpoint>
                    <Trackpoint>
                        <DistanceMeters>40.405947930347374</DistanceMeters>
                        <Time>2023-08-24T19:36:49.396Z</Time>
                    </Trackpoint>
                    <Trackpoint>
                        <DistanceMeters>61.3998242958026</DistanceMeters>
                        <Time>2023-08-24T19:37:08.147Z</Time>
                    </Trackpoint>
                </Track>
                <DistanceMeters>61.3998242958026</DistanceMeters>
                <TotalTimeSeconds>2268.267921432</TotalTimeSeconds>
                <Calories>51.86573413254128</Calories>
                <Intensity>Active</Intensity>
                <TriggerMethod>Manual</TriggerMethod>
            </Lap>
        </Activity>
        <Activity Sport="Walking">
            <Id>2023-08-24T19:36:49.396Z</Id>
            <Lap StartTime="2023-08-24T19:36:49.396Z">
                <Track>
                    <Trackpoint>
                        <DistanceMeters>0.0</DistanceMeters>
                        <Time>2023-08-24T19:36:49.396Z</Time>
                    </Trackpoint>
                    <Trackpoint>
                        <DistanceMeters>20.99387636545523</DistanceMeters>
                        <Time>2023-08-24T19:37:01.921Z</Time>
                    </Trackpoint>
                    <Trackpoint>
                        <DistanceMeters>20.99387636545523</DistanceMeters>
                        <Time>2023-08-24T19:37:08.147Z</Time>
                    </Trackpoint>
                    <Trackpoint>
                        <DistanceMeters>47.48957992633875</DistanceMeters>
                        <Time>2023-08-24T19:38:09.515Z</Time>
                    </Trackpoint>
                    <Trackpoint>
                        <DistanceMeters>82.07180742390241</DistanceMeters>
                        <Time>2023-08-24T19:38:39.543Z</Time>
                    </Trackpoint>
                    <Trackpoint>
                        <DistanceMeters>96.12458853008943</DistanceMeters>
                        <Time>2023-08-24T19:38:51.926Z</Time>
                    </Trackpoint>
                    <Trackpoint>
                        <DistanceMeters>109.37244031053119</DistanceMeters>
                        <Time>2023-08-24T19:39:10.010Z</Time>
                    </Trackpoint>
                    <Trackpoint>
                        <DistanceMeters>144.06175139122928</DistanceMeters>
                        <Time>2023-08-24T19:39:39.825Z</Time>
                    </Trackpoint>
                    <Trackpoint>
                        <DistanceMeters>158.14561583558805</DistanceMeters>
                        <Time>2023-08-24T19:39:52.144Z</Time>
                    </Trackpoint>
                    <Trackpoint>
                        <DistanceMeters>179.3761305890301</DistanceMeters>
                        <Time>2023-08-24T19:40:10.414Z</Time>
                    </Trackpoint>
                    <Trackpoint>
                        <DistanceMeters>208.70108443155576</DistanceMeters>
                        <Time>2023-08-24T19:40:46.419Z</Time>
                    </Trackpoint>
                </Track>
                <DistanceMeters>208.70108443155576</DistanceMeters>
                <TotalTimeSeconds>237.022113311</TotalTimeSeconds>
                <Calories>25.118831777777775</Calories>
                <Intensity>Active</Intensity>
                <TriggerMethod>Manual</TriggerMethod>
            </Lap>
        </Activity>
        <Activity Sport="Walking">
            <Id>2023-08-24T19:41:44.984Z</Id>
            <Lap StartTime="2023-08-24T19:41:44.984Z">
                <Track>
                    <Trackpoint>
                        <DistanceMeters>0.0</DistanceMeters>
                        <Time>2023-08-24T19:41:44.984Z</Time>
                    </Trackpoint>
                    <Trackpoint>
                        <DistanceMeters>25.833310971861437</DistanceMeters>
                        <Time>2023-08-24T19:42:24.321Z</Time>
                    </Trackpoint>
                    <Trackpoint>
                        <DistanceMeters>25.833310971861437</DistanceMeters>
                        <Time>2023-08-24T19:42:28.696Z</Time>
                    </Trackpoint>
                    <Trackpoint>
                        <DistanceMeters>78.70436475537792</DistanceMeters>
                        <Time>2023-08-24T19:43:10.875Z</Time>
                    </Trackpoint>
                    <Trackpoint>
                        <DistanceMeters>100.17620080454587</DistanceMeters>
                        <Time>2023-08-24T19:43:28.679Z</Time>
                    </Trackpoint>
                    <Trackpoint>
                        <DistanceMeters>151.93546640213256</DistanceMeters>
                        <Time>2023-08-24T19:44:10.984Z</Time>
                    </Trackpoint>
                    <Trackpoint>
                        <DistanceMeters>175.22763102163745</DistanceMeters>
                        <Time>2023-08-24T19:44:29.269Z</Time>
                    </Trackpoint>
                    <Trackpoint>
                        <DistanceMeters>226.16927118088478</DistanceMeters>
                        <Time>2023-08-24T19:45:11.170Z</Time>
                    </Trackpoint>
                    <Trackpoint>
                        <DistanceMeters>249.18765370424606</DistanceMeters>
                        <Time>2023-08-24T19:45:29.946Z</Time>
                    </Trackpoint>
                    <Trackpoint>
                        <DistanceMeters>299.2635208093744</DistanceMeters>
                        <Time>2023-08-24T19:46:11.534Z</Time>
                    </Trackpoint>
                    <Trackpoint>
                        <DistanceMeters>322.31553016536</DistanceMeters>
                        <Time>2023-08-24T19:46:30.249Z</Time>
                    </Trackpoint>
                    <Trackpoint>
                        <DistanceMeters>367.2180809802229</DistanceMeters>
                        <Time>2023-08-24T19:47:12.133Z</Time>
                    </Trackpoint>
                    <Trackpoint>
                        <DistanceMeters>389.34790594106346</DistanceMeters>
                        <Time>2023-08-24T19:47:30.639Z</Time>
                    </Trackpoint>
                    <Trackpoint>
                        <DistanceMeters>403.2581503105273</DistanceMeters>
                        <Time>2023-08-24T19:48:07.470Z</Time>
                    </Trackpoint>
                </Track>
                <DistanceMeters>403.2581503105273</DistanceMeters>
                <TotalTimeSeconds>382.485056204</TotalTimeSeconds>
                <Calories>38.39456033333333</Calories>
                <Intensity>Active</Intensity>
                <TriggerMethod>Manual</TriggerMethod>
            </Lap>
        </Activity>
    </Activities>
    <Author xsi:type="Application_t">
        <Name>Google Fit</Name>
        <Build>
            <Version>
                <VersionMajor>0</VersionMajor>
                <VersionMinor>0</VersionMinor>
                <BuildMajor>0</BuildMajor>
                <BuildMinor>0</BuildMinor>
            </Version>
        </Build>
        <LangID>en</LangID>
        <PartNumber>000-00000-00</PartNumber>
    </Author>
</TrainingCenterDatabase>
