<?xml version="1.0" encoding="UTF-8"?>
<TrainingCenterDatabase
    xmlns="http://www.garmin.com/xmlschemas/TrainingCenterDatabase/v2"
    xmlns:ns2="http://www.garmin.com/xmlschemas/UserProfile/v2"
    xmlns:ns3="http://www.garmin.com/xmlschemas/ActivityExtension/v2"
    xmlns:ns4="http://www.garmin.com/xmlschemas/ProfileExtension/v1"
    xmlns:ns5="http://www.garmin.com/xmlschemas/ActivityGoals/v1"
    xmlns:xsi="http://www.w3.org/2001/XMLSchema-instance" xsi:schemaLocation="http://www.garmin.com/xmlschemas/TrainingCenterDatabase/v2 http://www.garmin.com/xmlschemas/TrainingCenterDatabasev2.xsd">
    <Activities>
        <Activity Sport="Walking">
            <Id>2023-08-25T04:39:07.583Z</Id>
            <Lap StartTime="2023-08-25T04:39:07.583Z">
                <Track>
                    <Trackpoint>
                        <DistanceMeters>0.0</DistanceMeters>
                        <Time>2023-08-25T04:39:07.583Z</Time>
                    </Trackpoint>
                    <Trackpoint>
                        <DistanceMeters>9.164187774506809</DistanceMeters>
                        <Time>2023-08-25T04:39:23.896Z</Time>
                    </Trackpoint>
                    <Trackpoint>
                        <DistanceMeters>11.971310889328585</DistanceMeters>
                        <Time>2023-08-25T04:39:26.380Z</Time>
                    </Trackpoint>
                    <Trackpoint>
                        <DistanceMeters>80.27998730927803</DistanceMeters>
                        <Time>2023-08-25T04:40:24.116Z</Time>
                    </Trackpoint>
                    <Trackpoint>
                        <DistanceMeters>83.12506800409167</DistanceMeters>
                        <Time>2023-08-25T04:40:26.524Z</Time>
                    </Trackpoint>
                    <Trackpoint>
                        <DistanceMeters>155.56117408960245</DistanceMeters>
                        <Time>2023-08-25T04:41:24.286Z</Time>
                    </Trackpoint>
                    <Trackpoint>
                        <DistanceMeters>159.25545417675065</DistanceMeters>
                        <Time>2023-08-25T04:41:27.051Z</Time>
                    </Trackpoint>
                    <Trackpoint>
                        <DistanceMeters>229.75924353405085</DistanceMeters>
                        <Time>2023-08-25T04:42:24.534Z</Time>
                    </Trackpoint>
                    <Trackpoint>
                        <DistanceMeters>233.37725502958727</DistanceMeters>
                        <Time>2023-08-25T04:42:27.429Z</Time>
                    </Trackpoint>
                    <Trackpoint>
                        <DistanceMeters>300.8207746872192</DistanceMeters>
                        <Time>2023-08-25T04:43:24.862Z</Time>
                    </Trackpoint>
                    <Trackpoint>
                        <DistanceMeters>303.6502363224157</DistanceMeters>
                        <Time>2023-08-25T04:43:27.300Z</Time>
                    </Trackpoint>
                    <Trackpoint>
                        <DistanceMeters>372.9847099002842</DistanceMeters>
                        <Time>2023-08-25T04:44:25.036Z</Time>
                    </Trackpoint>
                    <Trackpoint>
                        <DistanceMeters>376.61078874538185</DistanceMeters>
                        <Time>2023-08-25T04:44:27.917Z</Time>
                    </Trackpoint>
                    <Trackpoint>
                        <DistanceMeters>452.60900794857866</DistanceMeters>
                        <Time>2023-08-25T04:45:28.674Z</Time>
                    </Trackpoint>
                    <Trackpoint>
                        <DistanceMeters>499.32470215663983</DistanceMeters>
                        <Time>2023-08-25T04:46:06.887Z</Time>
                    </Trackpoint>
                    <Trackpoint>
                        <DistanceMeters>518.5340872382803</DistanceMeters>
                        <Time>2023-08-25T04:46:35.291Z</Time>
                    </Trackpoint>
                    <Trackpoint>
                        <DistanceMeters>564.4879303156723</DistanceMeters>
                        <Time>2023-08-25T04:47:12.996Z</Time>
                    </Trackpoint>
                    <Trackpoint>
                        <DistanceMeters>591.5811649069506</DistanceMeters>
                        <Time>2023-08-25T04:47:35.745Z</Time>
                    </Trackpoint>
                    <Trackpoint>
                        <DistanceMeters>637.5499369077637</DistanceMeters>
                        <Time>2023-08-25T04:48:13.423Z</Time>
                    </Trackpoint>
                    <Trackpoint>
                        <DistanceMeters>665.7492476392858</DistanceMeters>
                        <Time>2023-08-25T04:48:36.041Z</Time>
                    </Trackpoint>
                    <Trackpoint>
                        <DistanceMeters>712.8142157973407</DistanceMeters>
                        <Time>2023-08-25T04:49:13.620Z</Time>
                    </Trackpoint>
                    <Trackpoint>
                        <DistanceMeters>740.8092601540588</DistanceMeters>
                        <Time>2023-08-25T04:49:36.611Z</Time>
                    </Trackpoint>
                    <Trackpoint>
                        <DistanceMeters>785.9571786838735</DistanceMeters>
                        <Time>2023-08-25T04:50:13.891Z</Time>
                    </Trackpoint>
                    <Trackpoint>
                        <DistanceMeters>803.1793859984477</DistanceMeters>
                        <Time>2023-08-25T04:50:37.107Z</Time>
                    </Trackpoint>
                    <Trackpoint>
                        <DistanceMeters>848.2626233956427</DistanceMeters>
                        <Time>2023-08-25T04:51:14.508Z</Time>
                    </Trackpoint>
                    <Trackpoint>
                        <DistanceMeters>876.1579252298391</DistanceMeters>
                        <Time>2023-08-25T04:51:37.687Z</Time>
                    </Trackpoint>
                    <Trackpoint>
                        <DistanceMeters>905.5149176308176</DistanceMeters>
                        <Time>2023-08-25T04:52:01.995Z</Time>
                    </Trackpoint>
                    <Trackpoint>
                        <DistanceMeters>948.5704359172533</DistanceMeters>
                        <Time>2023-08-25T04:53:17.743Z</Time>
                    </Trackpoint>
                    <Trackpoint>
                        <DistanceMeters>967.2539644300946</DistanceMeters>
                        <Time>2023-08-25T04:53:33.033Z</Time>
                    </Trackpoint>
                    <Trackpoint>
                        <DistanceMeters>991.1000976348897</DistanceMeters>
                        <Time>2023-08-25T04:55:27.629Z</Time>
                    </Trackpoint>
                    <Trackpoint>
                        <DistanceMeters>1018.2581937847954</DistanceMeters>
                        <Time>2023-08-25T04:56:50.260Z</Time>
                    </Trackpoint>
                </Track>
                <DistanceMeters>1018.2581937847954</DistanceMeters>
                <TotalTimeSeconds>1062.677</TotalTimeSeconds>
                <Calories>118.90174877777777</Calories>
                <Intensity>Active</Intensity>
                <TriggerMethod>Manual</TriggerMethod>
            </Lap>
        </Activity>
        <Activity Sport="Walking">
            <Id>2023-08-25T05:01:08.855Z</Id>
            <Lap StartTime="2023-08-25T05:01:08.855Z">
                <Track>
                    <Trackpoint>
                        <DistanceMeters>0.0</DistanceMeters>
                        <Time>2023-08-25T05:01:08.855Z</Time>
                    </Trackpoint>
                    <Trackpoint>
                        <DistanceMeters>58.95294042296584</DistanceMeters>
                        <Time>2023-08-25T05:03:14.966Z</Time>
                    </Trackpoint>
                    <Trackpoint>
                        <DistanceMeters>58.95294042296584</DistanceMeters>
                        <Time>2023-08-25T05:04:06.855Z</Time>
                    </Trackpoint>
                    <Trackpoint>
                        <DistanceMeters>139.47230869074457</DistanceMeters>
                        <Time>2023-08-25T05:05:07.145Z</Time>
                    </Trackpoint>
                    <Trackpoint>
                        <DistanceMeters>200.41242688077668</DistanceMeters>
                        <Time>2023-08-25T05:06:44.700Z</Time>
                    </Trackpoint>
                    <Trackpoint>
                        <DistanceMeters>224.84451085439886</DistanceMeters>
                        <Time>2023-08-25T05:07:02.865Z</Time>
                    </Trackpoint>
                    <Trackpoint>
                        <DistanceMeters>305.43978273570144</DistanceMeters>
                        <Time>2023-08-25T05:08:04.811Z</Time>
                    </Trackpoint>
                    <Trackpoint>
                        <DistanceMeters>345.7839331479836</DistanceMeters>
                        <Time>2023-08-25T05:08:41.580Z</Time>
                    </Trackpoint>
                </Track>
                <DistanceMeters>345.7839331479836</DistanceMeters>
                <TotalTimeSeconds>452.725028064</TotalTimeSeconds>
                <Calories>36.25311888888889</Calories>
                <Intensity>Active</Intensity>
                <TriggerMethod>Manual</TriggerMethod>
            </Lap>
        </Activity>
        <Activity Sport="Walking">
            <Id>2023-08-25T05:08:04.811Z</Id>
            <Lap StartTime="2023-08-25T05:08:04.811Z">
                <Track>
                    <Trackpoint>
                        <DistanceMeters>0.0</DistanceMeters>
                        <Time>2023-08-25T05:08:04.811Z</Time>
                    </Trackpoint>
                    <Trackpoint>
                        <DistanceMeters>40.34415041228216</DistanceMeters>
                        <Time>2023-08-25T05:08:38.976Z</Time>
                    </Trackpoint>
                    <Trackpoint>
                        <DistanceMeters>40.34415041228216</DistanceMeters>
                        <Time>2023-08-25T05:08:41.580Z</Time>
                    </Trackpoint>
                    <Trackpoint>
                        <DistanceMeters>48.23699681808693</DistanceMeters>
                        <Time>2023-08-25T05:08:48.071Z</Time>
                    </Trackpoint>
                </Track>
                <DistanceMeters>48.23699681808693</DistanceMeters>
                <TotalTimeSeconds>43.25929041</TotalTimeSeconds>
                <Calories>1.0176596995356666</Calories>
                <Intensity>Active</Intensity>
                <TriggerMethod>Manual</TriggerMethod>
            </Lap>
        </Activity>
        <Activity Sport="Walking">
            <Id>2023-08-25T05:20:45.982Z</Id>
            <Lap StartTime="2023-08-25T05:20:45.982Z">
                <Track>
                    <Trackpoint>
                        <DistanceMeters>0.0</DistanceMeters>
                        <Time>2023-08-25T05:20:45.982Z</Time>
                    </Trackpoint>
                    <Trackpoint>
                        <DistanceMeters>43.05551828643573</DistanceMeters>
                        <Time>2023-08-25T05:21:39.479Z</Time>
                    </Trackpoint>
                    <Trackpoint>
                        <DistanceMeters>43.05551828643573</DistanceMeters>
                        <Time>2023-08-25T05:22:00.259Z</Time>
                    </Trackpoint>
                    <Trackpoint>
                        <DistanceMeters>80.14950327167266</DistanceMeters>
                        <Time>2023-08-25T05:23:12.808Z</Time>
                    </Trackpoint>
                    <Trackpoint>
                        <DistanceMeters>82.13668103873893</DistanceMeters>
                        <Time>2023-08-25T05:24:10.033Z</Time>
                    </Trackpoint>
                    <Trackpoint>
                        <DistanceMeters>94.05974764113651</DistanceMeters>
                        <Time>2023-08-25T05:24:36.500Z</Time>
                    </Trackpoint>
                    <Trackpoint>
                        <DistanceMeters>98.03410317526904</DistanceMeters>
                        <Time>2023-08-25T05:25:26.436Z</Time>
                    </Trackpoint>
                </Track>
                <DistanceMeters>98.03410317526904</DistanceMeters>
                <TotalTimeSeconds>280.453221869</TotalTimeSeconds>
                <Calories>25.393966555555554</Calories>
                <Intensity>Active</Intensity>
                <TriggerMethod>Manual</TriggerMethod>
            </Lap>
        </Activity>
    </Activities>
    <Author xsi:type="Application_t">
        <Name>Google Fit</Name>
        <Build>
            <Version>
                <VersionMajor>0</VersionMajor>
                <VersionMinor>0</VersionMinor>
                <BuildMajor>0</BuildMajor>
                <BuildMinor>0</BuildMinor>
            </Version>
        </Build>
        <LangID>en</LangID>
        <PartNumber>000-00000-00</PartNumber>
    </Author>
</TrainingCenterDatabase>
