<?xml version="1.0" encoding="UTF-8"?>
<TrainingCenterDatabase
    xmlns="http://www.garmin.com/xmlschemas/TrainingCenterDatabase/v2"
    xmlns:ns2="http://www.garmin.com/xmlschemas/UserProfile/v2"
    xmlns:ns3="http://www.garmin.com/xmlschemas/ActivityExtension/v2"
    xmlns:ns4="http://www.garmin.com/xmlschemas/ProfileExtension/v1"
    xmlns:ns5="http://www.garmin.com/xmlschemas/ActivityGoals/v1"
    xmlns:xsi="http://www.w3.org/2001/XMLSchema-instance" xsi:schemaLocation="http://www.garmin.com/xmlschemas/TrainingCenterDatabase/v2 http://www.garmin.com/xmlschemas/TrainingCenterDatabasev2.xsd">
    <Activities>
        <Activity Sport="Walking">
            <Id>2023-08-21T19:46:48.687Z</Id>
            <Lap StartTime="2023-08-21T19:46:48.687Z">
                <Track>
                    <Trackpoint>
                        <DistanceMeters>0.0</DistanceMeters>
                        <Time>2023-08-21T19:46:48.687Z</Time>
                    </Trackpoint>
                    <Trackpoint>
                        <DistanceMeters>17.884599903596378</DistanceMeters>
                        <Time>2023-08-21T19:47:24.334Z</Time>
                    </Trackpoint>
                    <Trackpoint>
                        <DistanceMeters>17.884599903596378</DistanceMeters>
                        <Time>2023-08-21T19:47:48.687Z</Time>
                    </Trackpoint>
                    <Trackpoint>
                        <DistanceMeters>27.8204887389277</DistanceMeters>
                        <Time>2023-08-21T19:47:59.735Z</Time>
                    </Trackpoint>
                    <Trackpoint>
                        <DistanceMeters>56.30337006687749</DistanceMeters>
                        <Time>2023-08-21T19:48:54.289Z</Time>
                    </Trackpoint>
                    <Trackpoint>
                        <DistanceMeters>72.05929401960431</DistanceMeters>
                        <Time>2023-08-21T19:49:07.326Z</Time>
                    </Trackpoint>
                    <Trackpoint>
                        <DistanceMeters>93.46379857330044</DistanceMeters>
                        <Time>2023-08-21T19:49:27.325Z</Time>
                    </Trackpoint>
                    <Trackpoint>
                        <DistanceMeters>110.68600588787473</DistanceMeters>
                        <Time>2023-08-21T19:51:02.078Z</Time>
                    </Trackpoint>
                </Track>
                <DistanceMeters>110.68600588787473</DistanceMeters>
                <TotalTimeSeconds>253.390733321</TotalTimeSeconds>
                <Calories>24.36313422222222</Calories>
                <Intensity>Active</Intensity>
                <TriggerMethod>Manual</TriggerMethod>
            </Lap>
        </Activity>
        <Activity Sport="Walking">
            <Id>2023-08-21T19:54:15.670Z</Id>
            <Lap StartTime="2023-08-21T19:54:15.670Z">
                <Track>
                    <Trackpoint>
                        <DistanceMeters>0.0</DistanceMeters>
                        <Time>2023-08-21T19:54:15.670Z</Time>
                    </Trackpoint>
                    <Trackpoint>
                        <DistanceMeters>30.47005909501605</DistanceMeters>
                        <Time>2023-08-21T19:54:55.639Z</Time>
                    </Trackpoint>
                    <Trackpoint>
                        <DistanceMeters>30.47005909501605</DistanceMeters>
                        <Time>2023-08-21T19:55:47.670Z</Time>
                    </Trackpoint>
                    <Trackpoint>
                        <DistanceMeters>78.1623255046064</DistanceMeters>
                        <Time>2023-08-21T19:57:51.355Z</Time>
                    </Trackpoint>
                    <Trackpoint>
                        <DistanceMeters>96.70931799722487</DistanceMeters>
                        <Time>2023-08-21T20:02:54.910Z</Time>
                    </Trackpoint>
                    <Trackpoint>
                        <DistanceMeters>143.07679922877105</DistanceMeters>
                        <Time>2023-08-21T20:05:14.910Z</Time>
                    </Trackpoint>
                    <Trackpoint>
                        <DistanceMeters>212.89328297182718</DistanceMeters>
                        <Time>2023-08-21T20:06:15.688Z</Time>
                    </Trackpoint>
                    <Trackpoint>
                        <DistanceMeters>213.55567556084927</DistanceMeters>
                        <Time>2023-08-21T20:06:17.555Z</Time>
                    </Trackpoint>
                    <Trackpoint>
                        <DistanceMeters>237.40180876564443</DistanceMeters>
                        <Time>2023-08-21T20:07:17.426Z</Time>
                    </Trackpoint>
                    <Trackpoint>
                        <DistanceMeters>320.49151866255636</DistanceMeters>
                        <Time>2023-08-21T20:08:41.088Z</Time>
                    </Trackpoint>
                    <Trackpoint>
                        <DistanceMeters>394.50656454092945</DistanceMeters>
                        <Time>2023-08-21T20:09:41.663Z</Time>
                    </Trackpoint>
                    <Trackpoint>
                        <DistanceMeters>405.7672385543049</DistanceMeters>
                        <Time>2023-08-21T20:09:55.821Z</Time>
                    </Trackpoint>
                    <Trackpoint>
                        <DistanceMeters>462.07060862118243</DistanceMeters>
                        <Time>2023-08-21T20:12:19.103Z</Time>
                    </Trackpoint>
                    <Trackpoint>
                        <DistanceMeters>533.6090082355679</DistanceMeters>
                        <Time>2023-08-21T20:14:33.142Z</Time>
                    </Trackpoint>
                    <Trackpoint>
                        <DistanceMeters>550.6668970556656</DistanceMeters>
                        <Time>2023-08-21T20:14:45.754Z</Time>
                    </Trackpoint>
                    <Trackpoint>
                        <DistanceMeters>628.6242463974676</DistanceMeters>
                        <Time>2023-08-21T20:15:46.766Z</Time>
                    </Trackpoint>
                    <Trackpoint>
                        <DistanceMeters>651.2098858577949</DistanceMeters>
                        <Time>2023-08-21T20:16:02.694Z</Time>
                    </Trackpoint>
                    <Trackpoint>
                        <DistanceMeters>713.6380835560428</DistanceMeters>
                        <Time>2023-08-21T20:16:46.849Z</Time>
                    </Trackpoint>
                    <Trackpoint>
                        <DistanceMeters>735.9428328564094</DistanceMeters>
                        <Time>2023-08-21T20:17:03.211Z</Time>
                    </Trackpoint>
                    <Trackpoint>
                        <DistanceMeters>833.690232530299</DistanceMeters>
                        <Time>2023-08-21T20:18:14.108Z</Time>
                    </Trackpoint>
                    <Trackpoint>
                        <DistanceMeters>845.9735046115368</DistanceMeters>
                        <Time>2023-08-21T20:18:23.983Z</Time>
                    </Trackpoint>
                    <Trackpoint>
                        <DistanceMeters>878.4307414736192</DistanceMeters>
                        <Time>2023-08-21T20:19:54.565Z</Time>
                    </Trackpoint>
                    <Trackpoint>
                        <DistanceMeters>900.9520895003701</DistanceMeters>
                        <Time>2023-08-21T20:21:02.565Z</Time>
                    </Trackpoint>
                </Track>
                <DistanceMeters>900.9520895003701</DistanceMeters>
                <TotalTimeSeconds>1606.895154872</TotalTimeSeconds>
                <Calories>168.891019</Calories>
                <Intensity>Active</Intensity>
                <TriggerMethod>Manual</TriggerMethod>
            </Lap>
        </Activity>
    </Activities>
    <Author xsi:type="Application_t">
        <Name>Google Fit</Name>
        <Build>
            <Version>
                <VersionMajor>0</VersionMajor>
                <VersionMinor>0</VersionMinor>
                <BuildMajor>0</BuildMajor>
                <BuildMinor>0</BuildMinor>
            </Version>
        </Build>
        <LangID>en</LangID>
        <PartNumber>000-00000-00</PartNumber>
    </Author>
</TrainingCenterDatabase>
