<?xml version="1.0" encoding="UTF-8"?>
<TrainingCenterDatabase
    xmlns="http://www.garmin.com/xmlschemas/TrainingCenterDatabase/v2"
    xmlns:ns2="http://www.garmin.com/xmlschemas/UserProfile/v2"
    xmlns:ns3="http://www.garmin.com/xmlschemas/ActivityExtension/v2"
    xmlns:ns4="http://www.garmin.com/xmlschemas/ProfileExtension/v1"
    xmlns:ns5="http://www.garmin.com/xmlschemas/ActivityGoals/v1"
    xmlns:xsi="http://www.w3.org/2001/XMLSchema-instance" xsi:schemaLocation="http://www.garmin.com/xmlschemas/TrainingCenterDatabase/v2 http://www.garmin.com/xmlschemas/TrainingCenterDatabasev2.xsd">
    <Activities>
        <Activity Sport="Walking">
            <Id>2023-08-16T19:37:26.771Z</Id>
            <Lap StartTime="2023-08-16T19:37:26.771Z">
                <Track>
                    <Trackpoint>
                        <DistanceMeters>0.0</DistanceMeters>
                        <Time>2023-08-16T19:37:26.771Z</Time>
                    </Trackpoint>
                    <Trackpoint>
                        <DistanceMeters>18.546992492618465</DistanceMeters>
                        <Time>2023-08-16T19:38:22.578Z</Time>
                    </Trackpoint>
                    <Trackpoint>
                        <DistanceMeters>97.02291238899988</DistanceMeters>
                        <Time>2023-08-16T19:39:22.702Z</Time>
                    </Trackpoint>
                    <Trackpoint>
                        <DistanceMeters>161.78049407015496</DistanceMeters>
                        <Time>2023-08-16T19:40:23.672Z</Time>
                    </Trackpoint>
                    <Trackpoint>
                        <DistanceMeters>225.37550015831525</DistanceMeters>
                        <Time>2023-08-16T19:41:12.920Z</Time>
                    </Trackpoint>
                    <Trackpoint>
                        <DistanceMeters>300.8882553068333</DistanceMeters>
                        <Time>2023-08-16T19:43:05.898Z</Time>
                    </Trackpoint>
                    <Trackpoint>
                        <DistanceMeters>380.3996070362242</DistanceMeters>
                        <Time>2023-08-16T19:44:06.078Z</Time>
                    </Trackpoint>
                    <Trackpoint>
                        <DistanceMeters>421.4679475555937</DistanceMeters>
                        <Time>2023-08-16T19:45:06.287Z</Time>
                    </Trackpoint>
                    <Trackpoint>
                        <DistanceMeters>499.7633534578745</DistanceMeters>
                        <Time>2023-08-16T19:46:06.718Z</Time>
                    </Trackpoint>
                    <Trackpoint>
                        <DistanceMeters>555.4043309357298</DistanceMeters>
                        <Time>2023-08-16T19:47:07.149Z</Time>
                    </Trackpoint>
                    <Trackpoint>
                        <DistanceMeters>631.7917858160396</DistanceMeters>
                        <Time>2023-08-16T19:48:07.218Z</Time>
                    </Trackpoint>
                    <Trackpoint>
                        <DistanceMeters>711.2810787015003</DistanceMeters>
                        <Time>2023-08-16T19:49:07.435Z</Time>
                    </Trackpoint>
                    <Trackpoint>
                        <DistanceMeters>729.7517416363742</DistanceMeters>
                        <Time>2023-08-16T19:49:23.130Z</Time>
                    </Trackpoint>
                    <Trackpoint>
                        <DistanceMeters>766.183334032589</DistanceMeters>
                        <Time>2023-08-16T19:50:07.430Z</Time>
                    </Trackpoint>
                </Track>
                <DistanceMeters>766.183334032589</DistanceMeters>
                <TotalTimeSeconds>760.659818625</TotalTimeSeconds>
                <Calories>81.8450438888889</Calories>
                <Intensity>Active</Intensity>
                <TriggerMethod>Manual</TriggerMethod>
            </Lap>
        </Activity>
        <Activity Sport="Walking">
            <Id>2023-08-16T19:49:23.130Z</Id>
            <Lap StartTime="2023-08-16T19:49:23.130Z">
                <Track>
                    <Trackpoint>
                        <DistanceMeters>0.0</DistanceMeters>
                        <Time>2023-08-16T19:49:23.130Z</Time>
                    </Trackpoint>
                    <Trackpoint>
                        <DistanceMeters>36.431592396214846</DistanceMeters>
                        <Time>2023-08-16T19:49:38.256Z</Time>
                    </Trackpoint>
                    <Trackpoint>
                        <DistanceMeters>36.431592396214846</DistanceMeters>
                        <Time>2023-08-16T19:50:07.430Z</Time>
                    </Trackpoint>
                    <Trackpoint>
                        <DistanceMeters>56.84505894464644</DistanceMeters>
                        <Time>2023-08-16T19:50:23.373Z</Time>
                    </Trackpoint>
                    <Trackpoint>
                        <DistanceMeters>85.04547026253934</DistanceMeters>
                        <Time>2023-08-16T19:50:50.068Z</Time>
                    </Trackpoint>
                </Track>
                <DistanceMeters>85.04547026253934</DistanceMeters>
                <TotalTimeSeconds>86.938042298</TotalTimeSeconds>
                <Calories>8.034982541710777</Calories>
                <Intensity>Active</Intensity>
                <TriggerMethod>Manual</TriggerMethod>
            </Lap>
        </Activity>
    </Activities>
    <Author xsi:type="Application_t">
        <Name>Google Fit</Name>
        <Build>
            <Version>
                <VersionMajor>0</VersionMajor>
                <VersionMinor>0</VersionMinor>
                <BuildMajor>0</BuildMajor>
                <BuildMinor>0</BuildMinor>
            </Version>
        </Build>
        <LangID>en</LangID>
        <PartNumber>000-00000-00</PartNumber>
    </Author>
</TrainingCenterDatabase>
