<?xml version="1.0" encoding="UTF-8"?>
<TrainingCenterDatabase
    xmlns="http://www.garmin.com/xmlschemas/TrainingCenterDatabase/v2"
    xmlns:ns2="http://www.garmin.com/xmlschemas/UserProfile/v2"
    xmlns:ns3="http://www.garmin.com/xmlschemas/ActivityExtension/v2"
    xmlns:ns4="http://www.garmin.com/xmlschemas/ProfileExtension/v1"
    xmlns:ns5="http://www.garmin.com/xmlschemas/ActivityGoals/v1"
    xmlns:xsi="http://www.w3.org/2001/XMLSchema-instance" xsi:schemaLocation="http://www.garmin.com/xmlschemas/TrainingCenterDatabase/v2 http://www.garmin.com/xmlschemas/TrainingCenterDatabasev2.xsd">
    <Activities>
        <Activity Sport="Walking">
            <Id>2023-08-23T03:04:01.770Z</Id>
            <Lap StartTime="2023-08-23T03:04:01.770Z">
                <Track>
                    <Trackpoint>
                        <DistanceMeters>0.0</DistanceMeters>
                        <Time>2023-08-23T03:04:01.770Z</Time>
                    </Trackpoint>
                    <Trackpoint>
                        <DistanceMeters>14.36915345934231</DistanceMeters>
                        <Time>2023-08-23T03:04:35.345Z</Time>
                    </Trackpoint>
                    <Trackpoint>
                        <DistanceMeters>73.70034692225572</DistanceMeters>
                        <Time>2023-08-23T03:05:35.487Z</Time>
                    </Trackpoint>
                    <Trackpoint>
                        <DistanceMeters>146.93331504128196</DistanceMeters>
                        <Time>2023-08-23T03:06:35.591Z</Time>
                    </Trackpoint>
                    <Trackpoint>
                        <DistanceMeters>167.02339747106808</DistanceMeters>
                        <Time>2023-08-23T03:06:52.114Z</Time>
                    </Trackpoint>
                    <Trackpoint>
                        <DistanceMeters>224.07841714061416</DistanceMeters>
                        <Time>2023-08-23T03:07:36.201Z</Time>
                    </Trackpoint>
                    <Trackpoint>
                        <DistanceMeters>244.23267706239253</DistanceMeters>
                        <Time>2023-08-23T03:07:52.605Z</Time>
                    </Trackpoint>
                    <Trackpoint>
                        <DistanceMeters>295.1650322822845</DistanceMeters>
                        <Time>2023-08-23T03:08:36.493Z</Time>
                    </Trackpoint>
                    <Trackpoint>
                        <DistanceMeters>314.3363163868483</DistanceMeters>
                        <Time>2023-08-23T03:08:52.810Z</Time>
                    </Trackpoint>
                    <Trackpoint>
                        <DistanceMeters>366.3671742471446</DistanceMeters>
                        <Time>2023-08-23T03:09:36.545Z</Time>
                    </Trackpoint>
                    <Trackpoint>
                        <DistanceMeters>385.56238453771726</DistanceMeters>
                        <Time>2023-08-23T03:09:52.815Z</Time>
                    </Trackpoint>
                    <Trackpoint>
                        <DistanceMeters>437.421357314335</DistanceMeters>
                        <Time>2023-08-23T03:10:36.882Z</Time>
                    </Trackpoint>
                    <Trackpoint>
                        <DistanceMeters>459.83216688090596</DistanceMeters>
                        <Time>2023-08-23T03:10:53.077Z</Time>
                    </Trackpoint>
                    <Trackpoint>
                        <DistanceMeters>505.63386469802947</DistanceMeters>
                        <Time>2023-08-23T03:11:37.348Z</Time>
                    </Trackpoint>
                    <Trackpoint>
                        <DistanceMeters>527.2508999858298</DistanceMeters>
                        <Time>2023-08-23T03:11:53.077Z</Time>
                    </Trackpoint>
                    <Trackpoint>
                        <DistanceMeters>583.0473025404416</DistanceMeters>
                        <Time>2023-08-23T03:12:37.518Z</Time>
                    </Trackpoint>
                    <Trackpoint>
                        <DistanceMeters>602.500449316239</DistanceMeters>
                        <Time>2023-08-23T03:12:53.302Z</Time>
                    </Trackpoint>
                    <Trackpoint>
                        <DistanceMeters>656.2560706180313</DistanceMeters>
                        <Time>2023-08-23T03:13:37.668Z</Time>
                    </Trackpoint>
                    <Trackpoint>
                        <DistanceMeters>674.6061707471923</DistanceMeters>
                        <Time>2023-08-23T03:13:53.601Z</Time>
                    </Trackpoint>
                    <Trackpoint>
                        <DistanceMeters>725.3478262416261</DistanceMeters>
                        <Time>2023-08-23T03:14:37.871Z</Time>
                    </Trackpoint>
                    <Trackpoint>
                        <DistanceMeters>744.5911586782415</DistanceMeters>
                        <Time>2023-08-23T03:14:54.048Z</Time>
                    </Trackpoint>
                    <Trackpoint>
                        <DistanceMeters>787.9566647696308</DistanceMeters>
                        <Time>2023-08-23T03:16:23.770Z</Time>
                    </Trackpoint>
                </Track>
                <DistanceMeters>787.9566647696308</DistanceMeters>
                <TotalTimeSeconds>742.0</TotalTimeSeconds>
                <Calories>83.02155555555554</Calories>
                <Intensity>Active</Intensity>
                <TriggerMethod>Manual</TriggerMethod>
            </Lap>
        </Activity>
    </Activities>
    <Author xsi:type="Application_t">
        <Name>Google Fit</Name>
        <Build>
            <Version>
                <VersionMajor>0</VersionMajor>
                <VersionMinor>0</VersionMinor>
                <BuildMajor>0</BuildMajor>
                <BuildMinor>0</BuildMinor>
            </Version>
        </Build>
        <LangID>en</LangID>
        <PartNumber>000-00000-00</PartNumber>
    </Author>
</TrainingCenterDatabase>
