<?xml version="1.0" encoding="UTF-8"?>
<TrainingCenterDatabase
    xmlns="http://www.garmin.com/xmlschemas/TrainingCenterDatabase/v2"
    xmlns:ns2="http://www.garmin.com/xmlschemas/UserProfile/v2"
    xmlns:ns3="http://www.garmin.com/xmlschemas/ActivityExtension/v2"
    xmlns:ns4="http://www.garmin.com/xmlschemas/ProfileExtension/v1"
    xmlns:ns5="http://www.garmin.com/xmlschemas/ActivityGoals/v1"
    xmlns:xsi="http://www.w3.org/2001/XMLSchema-instance" xsi:schemaLocation="http://www.garmin.com/xmlschemas/TrainingCenterDatabase/v2 http://www.garmin.com/xmlschemas/TrainingCenterDatabasev2.xsd">
    <Activities>
        <Activity Sport="Walking">
            <Id>2023-08-12T17:55:17.454Z</Id>
            <Lap StartTime="2023-08-12T17:55:17.454Z">
                <Track>
                    <Trackpoint>
                        <DistanceMeters>0.0</DistanceMeters>
                        <Time>2023-08-12T17:55:17.454Z</Time>
                    </Trackpoint>
                    <Trackpoint>
                        <DistanceMeters>0.0</DistanceMeters>
                        <Time>2023-08-12T18:56:19.800Z</Time>
                    </Trackpoint>
                    <Trackpoint>
                        <DistanceMeters>0.0</DistanceMeters>
                        <Time>2023-08-12T18:56:49.372Z</Time>
                    </Trackpoint>
                </Track>
                <DistanceMeters>0.0</DistanceMeters>
                <TotalTimeSeconds>3691.918</TotalTimeSeconds>
                <Calories>85.46781285530675</Calories>
                <Intensity>Active</Intensity>
                <TriggerMethod>Manual</TriggerMethod>
            </Lap>
        </Activity>
        <Activity Sport="Walking">
            <Id>2023-08-12T18:56:49.372Z</Id>
            <Lap StartTime="2023-08-12T18:56:49.372Z">
                <Track>
                    <Trackpoint>
                        <DistanceMeters>0.0</DistanceMeters>
                        <Time>2023-08-12T18:56:49.372Z</Time>
                    </Trackpoint>
                    <Trackpoint>
                        <DistanceMeters>28.060591136271402</DistanceMeters>
                        <Time>2023-08-12T18:57:20.199Z</Time>
                    </Trackpoint>
                    <Trackpoint>
                        <DistanceMeters>73.40132920707941</DistanceMeters>
                        <Time>2023-08-12T18:57:59.077Z</Time>
                    </Trackpoint>
                    <Trackpoint>
                        <DistanceMeters>147.58929917755327</DistanceMeters>
                        <Time>2023-08-12T18:59:39.610Z</Time>
                    </Trackpoint>
                    <Trackpoint>
                        <DistanceMeters>179.56553635457263</DistanceMeters>
                        <Time>2023-08-12T19:00:06.758Z</Time>
                    </Trackpoint>
                    <Trackpoint>
                        <DistanceMeters>217.98430651785372</DistanceMeters>
                        <Time>2023-08-12T19:01:46.534Z</Time>
                    </Trackpoint>
                    <Trackpoint>
                        <DistanceMeters>277.829820985917</DistanceMeters>
                        <Time>2023-08-12T19:02:43.166Z</Time>
                    </Trackpoint>
                    <Trackpoint>
                        <DistanceMeters>305.88261607190464</DistanceMeters>
                        <Time>2023-08-12T19:03:12.546Z</Time>
                    </Trackpoint>
                    <Trackpoint>
                        <DistanceMeters>325.7543937425673</DistanceMeters>
                        <Time>2023-08-12T19:04:04.190Z</Time>
                    </Trackpoint>
                    <Trackpoint>
                        <DistanceMeters>355.56206024856124</DistanceMeters>
                        <Time>2023-08-12T19:08:36.522Z</Time>
                    </Trackpoint>
                    <Trackpoint>
                        <DistanceMeters>370.79708979606926</DistanceMeters>
                        <Time>2023-08-12T19:10:16.264Z</Time>
                    </Trackpoint>
                    <Trackpoint>
                        <DistanceMeters>411.20303772641665</DistanceMeters>
                        <Time>2023-08-12T19:12:18.264Z</Time>
                    </Trackpoint>
                    <Trackpoint>
                        <DistanceMeters>473.9568377648622</DistanceMeters>
                        <Time>2023-08-12T19:13:19.378Z</Time>
                    </Trackpoint>
                    <Trackpoint>
                        <DistanceMeters>501.40663976947144</DistanceMeters>
                        <Time>2023-08-12T19:13:47.890Z</Time>
                    </Trackpoint>
                    <Trackpoint>
                        <DistanceMeters>505.0539878520527</DistanceMeters>
                        <Time>2023-08-12T19:13:50.733Z</Time>
                    </Trackpoint>
                    <Trackpoint>
                        <DistanceMeters>541.3572362723279</DistanceMeters>
                        <Time>2023-08-12T19:14:19.463Z</Time>
                    </Trackpoint>
                    <Trackpoint>
                        <DistanceMeters>574.753521085656</DistanceMeters>
                        <Time>2023-08-12T19:14:47.820Z</Time>
                    </Trackpoint>
                    <Trackpoint>
                        <DistanceMeters>578.2527406804812</DistanceMeters>
                        <Time>2023-08-12T19:14:50.945Z</Time>
                    </Trackpoint>
                    <Trackpoint>
                        <DistanceMeters>611.3052461823261</DistanceMeters>
                        <Time>2023-08-12T19:15:19.986Z</Time>
                    </Trackpoint>
                    <Trackpoint>
                        <DistanceMeters>692.7175324990667</DistanceMeters>
                        <Time>2023-08-12T19:16:29.963Z</Time>
                    </Trackpoint>
                    <Trackpoint>
                        <DistanceMeters>713.137047119093</DistanceMeters>
                        <Time>2023-08-12T19:17:17.544Z</Time>
                    </Trackpoint>
                    <Trackpoint>
                        <DistanceMeters>720.7394627851352</DistanceMeters>
                        <Time>2023-08-12T19:17:24.624Z</Time>
                    </Trackpoint>
                    <Trackpoint>
                        <DistanceMeters>745.9103811679745</DistanceMeters>
                        <Time>2023-08-12T19:18:11.623Z</Time>
                    </Trackpoint>
                    <Trackpoint>
                        <DistanceMeters>819.4359585494262</DistanceMeters>
                        <Time>2023-08-12T19:19:42.201Z</Time>
                    </Trackpoint>
                    <Trackpoint>
                        <DistanceMeters>851.2308028224865</DistanceMeters>
                        <Time>2023-08-12T19:20:16.673Z</Time>
                    </Trackpoint>
                    <Trackpoint>
                        <DistanceMeters>923.431595025894</DistanceMeters>
                        <Time>2023-08-12T19:21:39.349Z</Time>
                    </Trackpoint>
                    <Trackpoint>
                        <DistanceMeters>1033.2101204933917</DistanceMeters>
                        <Time>2023-08-12T19:23:21.938Z</Time>
                    </Trackpoint>
                </Track>
                <DistanceMeters>1033.2101204933917</DistanceMeters>
                <TotalTimeSeconds>1592.566747647</TotalTimeSeconds>
                <Calories>176.20530755555558</Calories>
                <Intensity>Active</Intensity>
                <TriggerMethod>Manual</TriggerMethod>
            </Lap>
        </Activity>
        <Activity Sport="Walking">
            <Id>2023-08-12T19:21:39.349Z</Id>
            <Lap StartTime="2023-08-12T19:21:39.349Z">
                <Track>
                    <Trackpoint>
                        <DistanceMeters>0.0</DistanceMeters>
                        <Time>2023-08-12T19:21:39.349Z</Time>
                    </Trackpoint>
                    <Trackpoint>
                        <DistanceMeters>109.77852546749777</DistanceMeters>
                        <Time>2023-08-12T19:23:04.196Z</Time>
                    </Trackpoint>
                    <Trackpoint>
                        <DistanceMeters>109.77852546749777</DistanceMeters>
                        <Time>2023-08-12T19:23:21.938Z</Time>
                    </Trackpoint>
                    <Trackpoint>
                        <DistanceMeters>186.54531419788773</DistanceMeters>
                        <Time>2023-08-12T19:24:40.085Z</Time>
                    </Trackpoint>
                    <Trackpoint>
                        <DistanceMeters>230.110036312226</DistanceMeters>
                        <Time>2023-08-12T19:25:18.470Z</Time>
                    </Trackpoint>
                    <Trackpoint>
                        <DistanceMeters>316.22107288509744</DistanceMeters>
                        <Time>2023-08-12T19:26:53.332Z</Time>
                    </Trackpoint>
                </Track>
                <DistanceMeters>316.22107288509744</DistanceMeters>
                <TotalTimeSeconds>313.982836009</TotalTimeSeconds>
                <Calories>25.637784205197445</Calories>
                <Intensity>Active</Intensity>
                <TriggerMethod>Manual</TriggerMethod>
            </Lap>
        </Activity>
    </Activities>
    <Author xsi:type="Application_t">
        <Name>Google Fit</Name>
        <Build>
            <Version>
                <VersionMajor>0</VersionMajor>
                <VersionMinor>0</VersionMinor>
                <BuildMajor>0</BuildMajor>
                <BuildMinor>0</BuildMinor>
            </Version>
        </Build>
        <LangID>en</LangID>
        <PartNumber>000-00000-00</PartNumber>
    </Author>
</TrainingCenterDatabase>
