<?xml version="1.0" encoding="UTF-8"?>
<TrainingCenterDatabase
    xmlns="http://www.garmin.com/xmlschemas/TrainingCenterDatabase/v2"
    xmlns:ns2="http://www.garmin.com/xmlschemas/UserProfile/v2"
    xmlns:ns3="http://www.garmin.com/xmlschemas/ActivityExtension/v2"
    xmlns:ns4="http://www.garmin.com/xmlschemas/ProfileExtension/v1"
    xmlns:ns5="http://www.garmin.com/xmlschemas/ActivityGoals/v1"
    xmlns:xsi="http://www.w3.org/2001/XMLSchema-instance" xsi:schemaLocation="http://www.garmin.com/xmlschemas/TrainingCenterDatabase/v2 http://www.garmin.com/xmlschemas/TrainingCenterDatabasev2.xsd">
    <Activities>
        <Activity Sport="Walking">
            <Id>2023-01-28T02:29:14.664Z</Id>
            <Lap StartTime="2023-01-28T02:29:14.664Z">
                <Track>
                    <Trackpoint>
                        <DistanceMeters>0.0</DistanceMeters>
                        <Time>2023-01-28T02:29:14.664Z</Time>
                    </Trackpoint>
                    <Trackpoint>
                        <DistanceMeters>0.0</DistanceMeters>
                        <Time>2023-01-28T04:20:47.013Z</Time>
                    </Trackpoint>
                    <Trackpoint>
                        <DistanceMeters>79.25990549224672</DistanceMeters>
                        <Time>2023-01-28T04:21:56.893Z</Time>
                    </Trackpoint>
                </Track>
                <DistanceMeters>79.25990549224672</DistanceMeters>
                <TotalTimeSeconds>6762.229595903</TotalTimeSeconds>
                <Calories>144.97347616827412</Calories>
                <Intensity>Active</Intensity>
                <TriggerMethod>Manual</TriggerMethod>
            </Lap>
        </Activity>
        <Activity Sport="Walking">
            <Id>2023-01-28T04:20:47.013Z</Id>
            <Lap StartTime="2023-01-28T04:20:47.013Z">
                <Track>
                    <Trackpoint>
                        <DistanceMeters>0.0</DistanceMeters>
                        <Time>2023-01-28T04:20:47.013Z</Time>
                    </Trackpoint>
                    <Trackpoint>
                        <DistanceMeters>79.25990549224672</DistanceMeters>
                        <Time>2023-01-28T04:21:14.169Z</Time>
                    </Trackpoint>
                    <Trackpoint>
                        <DistanceMeters>79.25990549224672</DistanceMeters>
                        <Time>2023-01-28T04:21:56.893Z</Time>
                    </Trackpoint>
                    <Trackpoint>
                        <DistanceMeters>91.56471762741562</DistanceMeters>
                        <Time>2023-01-28T04:22:06.413Z</Time>
                    </Trackpoint>
                    <Trackpoint>
                        <DistanceMeters>153.7293625802958</DistanceMeters>
                        <Time>2023-01-28T04:27:50.293Z</Time>
                    </Trackpoint>
                    <Trackpoint>
                        <DistanceMeters>183.74275251468418</DistanceMeters>
                        <Time>2023-01-28T04:30:37.973Z</Time>
                    </Trackpoint>
                    <Trackpoint>
                        <DistanceMeters>213.10367745049894</DistanceMeters>
                        <Time>2023-01-28T04:32:07.973Z</Time>
                    </Trackpoint>
                    <Trackpoint>
                        <DistanceMeters>223.09452495811945</DistanceMeters>
                        <Time>2023-01-28T04:35:22.090Z</Time>
                    </Trackpoint>
                </Track>
                <DistanceMeters>223.09452495811945</DistanceMeters>
                <TotalTimeSeconds>875.07640459</TotalTimeSeconds>
                <Calories>86.81768905555556</Calories>
                <Intensity>Active</Intensity>
                <TriggerMethod>Manual</TriggerMethod>
            </Lap>
        </Activity>
        <Activity Sport="Walking">
            <Id>2023-01-28T04:46:15.653Z</Id>
            <Lap StartTime="2023-01-28T04:46:15.653Z">
                <Track>
                    <Trackpoint>
                        <DistanceMeters>0.0</DistanceMeters>
                        <Time>2023-01-28T04:46:15.653Z</Time>
                    </Trackpoint>
                    <Trackpoint>
                        <DistanceMeters>0.0</DistanceMeters>
                        <Time>2023-01-28T04:48:02.780Z</Time>
                    </Trackpoint>
                </Track>
                <DistanceMeters>0.0</DistanceMeters>
                <TotalTimeSeconds>107.127</TotalTimeSeconds>
                <Calories>10.9686145</Calories>
                <Intensity>Active</Intensity>
                <TriggerMethod>Manual</TriggerMethod>
            </Lap>
        </Activity>
    </Activities>
    <Author xsi:type="Application_t">
        <Name>Google Fit</Name>
        <Build>
            <Version>
                <VersionMajor>0</VersionMajor>
                <VersionMinor>0</VersionMinor>
                <BuildMajor>0</BuildMajor>
                <BuildMinor>0</BuildMinor>
            </Version>
        </Build>
        <LangID>en</LangID>
        <PartNumber>000-00000-00</PartNumber>
    </Author>
</TrainingCenterDatabase>
