<?xml version="1.0" encoding="UTF-8"?>
<TrainingCenterDatabase
    xmlns="http://www.garmin.com/xmlschemas/TrainingCenterDatabase/v2"
    xmlns:ns2="http://www.garmin.com/xmlschemas/UserProfile/v2"
    xmlns:ns3="http://www.garmin.com/xmlschemas/ActivityExtension/v2"
    xmlns:ns4="http://www.garmin.com/xmlschemas/ProfileExtension/v1"
    xmlns:ns5="http://www.garmin.com/xmlschemas/ActivityGoals/v1"
    xmlns:xsi="http://www.w3.org/2001/XMLSchema-instance" xsi:schemaLocation="http://www.garmin.com/xmlschemas/TrainingCenterDatabase/v2 http://www.garmin.com/xmlschemas/TrainingCenterDatabasev2.xsd">
    <Activities>
        <Activity Sport="Walking">
            <Id>2023-08-24T16:59:18.008Z</Id>
            <Lap StartTime="2023-08-24T16:59:18.008Z">
                <Track>
                    <Trackpoint>
                        <DistanceMeters>0.0</DistanceMeters>
                        <Time>2023-08-24T16:59:18.008Z</Time>
                    </Trackpoint>
                    <Trackpoint>
                        <DistanceMeters>0.0</DistanceMeters>
                        <Time>2023-08-24T18:37:10.894Z</Time>
                    </Trackpoint>
                    <Trackpoint>
                        <DistanceMeters>21.19656284870682</DistanceMeters>
                        <Time>2023-08-24T18:38:14.894Z</Time>
                    </Trackpoint>
                    <Trackpoint>
                        <DistanceMeters>100.48217152796244</DistanceMeters>
                        <Time>2023-08-24T18:39:15.452Z</Time>
                    </Trackpoint>
                </Track>
                <DistanceMeters>100.48217152796244</DistanceMeters>
                <TotalTimeSeconds>5997.444849083</TotalTimeSeconds>
                <Calories>134.01585018937456</Calories>
                <Intensity>Active</Intensity>
                <TriggerMethod>Manual</TriggerMethod>
            </Lap>
        </Activity>
        <Activity Sport="Walking">
            <Id>2023-08-24T18:38:14.894Z</Id>
            <Lap StartTime="2023-08-24T18:38:14.894Z">
                <Track>
                    <Trackpoint>
                        <DistanceMeters>0.0</DistanceMeters>
                        <Time>2023-08-24T18:38:14.894Z</Time>
                    </Trackpoint>
                    <Trackpoint>
                        <DistanceMeters>79.28560867925562</DistanceMeters>
                        <Time>2023-08-24T18:38:22.322Z</Time>
                    </Trackpoint>
                    <Trackpoint>
                        <DistanceMeters>79.28560867925562</DistanceMeters>
                        <Time>2023-08-24T18:39:15.452Z</Time>
                    </Trackpoint>
                    <Trackpoint>
                        <DistanceMeters>158.58695578242913</DistanceMeters>
                        <Time>2023-08-24T18:40:15.984Z</Time>
                    </Trackpoint>
                    <Trackpoint>
                        <DistanceMeters>243.3085187007993</DistanceMeters>
                        <Time>2023-08-24T18:41:16.511Z</Time>
                    </Trackpoint>
                    <Trackpoint>
                        <DistanceMeters>277.8678701531254</DistanceMeters>
                        <Time>2023-08-24T18:41:44.617Z</Time>
                    </Trackpoint>
                    <Trackpoint>
                        <DistanceMeters>358.01737342479805</DistanceMeters>
                        <Time>2023-08-24T18:43:22.083Z</Time>
                    </Trackpoint>
                    <Trackpoint>
                        <DistanceMeters>437.3153194483003</DistanceMeters>
                        <Time>2023-08-24T18:44:22.620Z</Time>
                    </Trackpoint>
                    <Trackpoint>
                        <DistanceMeters>515.6994156800332</DistanceMeters>
                        <Time>2023-08-24T18:45:22.900Z</Time>
                    </Trackpoint>
                </Track>
                <DistanceMeters>515.6994156800332</DistanceMeters>
                <TotalTimeSeconds>428.00531229</TotalTimeSeconds>
                <Calories>45.466497555555556</Calories>
                <Intensity>Active</Intensity>
                <TriggerMethod>Manual</TriggerMethod>
            </Lap>
        </Activity>
        <Activity Sport="Walking">
            <Id>2023-08-24T18:44:22.620Z</Id>
            <Lap StartTime="2023-08-24T18:44:22.620Z">
                <Track>
                    <Trackpoint>
                        <DistanceMeters>0.0</DistanceMeters>
                        <Time>2023-08-24T18:44:22.620Z</Time>
                    </Trackpoint>
                    <Trackpoint>
                        <DistanceMeters>78.38409623173295</DistanceMeters>
                        <Time>2023-08-24T18:45:08.676Z</Time>
                    </Trackpoint>
                    <Trackpoint>
                        <DistanceMeters>78.38409623173295</DistanceMeters>
                        <Time>2023-08-24T18:45:22.900Z</Time>
                    </Trackpoint>
                    <Trackpoint>
                        <DistanceMeters>125.4701038134057</DistanceMeters>
                        <Time>2023-08-24T18:45:58.615Z</Time>
                    </Trackpoint>
                    <Trackpoint>
                        <DistanceMeters>196.3461108387691</DistanceMeters>
                        <Time>2023-08-24T18:47:24.243Z</Time>
                    </Trackpoint>
                    <Trackpoint>
                        <DistanceMeters>274.7083620207024</DistanceMeters>
                        <Time>2023-08-24T18:48:24.560Z</Time>
                    </Trackpoint>
                    <Trackpoint>
                        <DistanceMeters>311.0114128705207</DistanceMeters>
                        <Time>2023-08-24T18:48:49.797Z</Time>
                    </Trackpoint>
                </Track>
                <DistanceMeters>311.0114128705207</DistanceMeters>
                <TotalTimeSeconds>267.176567572</TotalTimeSeconds>
                <Calories>24.740997180014556</Calories>
                <Intensity>Active</Intensity>
                <TriggerMethod>Manual</TriggerMethod>
            </Lap>
        </Activity>
        <Activity Sport="Walking">
            <Id>2023-08-24T18:48:49.797Z</Id>
            <Lap StartTime="2023-08-24T18:48:49.797Z">
                <Track>
                    <Trackpoint>
                        <DistanceMeters>0.0</DistanceMeters>
                        <Time>2023-08-24T18:48:49.797Z</Time>
                    </Trackpoint>
                    <Trackpoint>
                        <DistanceMeters>39.0811627523032</DistanceMeters>
                        <Time>2023-08-24T18:49:54.968Z</Time>
                    </Trackpoint>
                    <Trackpoint>
                        <DistanceMeters>39.0811627523032</DistanceMeters>
                        <Time>2023-08-24T18:50:20.860Z</Time>
                    </Trackpoint>
                    <Trackpoint>
                        <DistanceMeters>53.65379971078914</DistanceMeters>
                        <Time>2023-08-24T18:51:31.950Z</Time>
                    </Trackpoint>
                </Track>
                <DistanceMeters>53.65379971078914</DistanceMeters>
                <TotalTimeSeconds>162.152873267</TotalTimeSeconds>
                <Calories>10.851208222222223</Calories>
                <Intensity>Active</Intensity>
                <TriggerMethod>Manual</TriggerMethod>
            </Lap>
        </Activity>
    </Activities>
    <Author xsi:type="Application_t">
        <Name>Google Fit</Name>
        <Build>
            <Version>
                <VersionMajor>0</VersionMajor>
                <VersionMinor>0</VersionMinor>
                <BuildMajor>0</BuildMajor>
                <BuildMinor>0</BuildMinor>
            </Version>
        </Build>
        <LangID>en</LangID>
        <PartNumber>000-00000-00</PartNumber>
    </Author>
</TrainingCenterDatabase>
