<?xml version="1.0" encoding="UTF-8"?>
<TrainingCenterDatabase
    xmlns="http://www.garmin.com/xmlschemas/TrainingCenterDatabase/v2"
    xmlns:ns2="http://www.garmin.com/xmlschemas/UserProfile/v2"
    xmlns:ns3="http://www.garmin.com/xmlschemas/ActivityExtension/v2"
    xmlns:ns4="http://www.garmin.com/xmlschemas/ProfileExtension/v1"
    xmlns:ns5="http://www.garmin.com/xmlschemas/ActivityGoals/v1"
    xmlns:xsi="http://www.w3.org/2001/XMLSchema-instance" xsi:schemaLocation="http://www.garmin.com/xmlschemas/TrainingCenterDatabase/v2 http://www.garmin.com/xmlschemas/TrainingCenterDatabasev2.xsd">
    <Activities>
        <Activity Sport="Walking">
            <Id>2023-04-03T17:43:03.216Z</Id>
            <Lap StartTime="2023-04-03T17:43:03.216Z">
                <Track>
                    <Trackpoint>
                        <DistanceMeters>0.0</DistanceMeters>
                        <Time>2023-04-03T17:43:03.216Z</Time>
                    </Trackpoint>
                    <Trackpoint>
                        <DistanceMeters>7.893735985364436</DistanceMeters>
                        <Time>2023-04-03T17:43:27.412Z</Time>
                    </Trackpoint>
                    <Trackpoint>
                        <DistanceMeters>13.113455973953723</DistanceMeters>
                        <Time>2023-04-03T17:43:34.572Z</Time>
                    </Trackpoint>
                    <Trackpoint>
                        <DistanceMeters>56.17614587981534</DistanceMeters>
                        <Time>2023-04-03T17:44:30.772Z</Time>
                    </Trackpoint>
                    <Trackpoint>
                        <DistanceMeters>74.44516583987783</DistanceMeters>
                        <Time>2023-04-03T17:44:53.572Z</Time>
                    </Trackpoint>
                    <Trackpoint>
                        <DistanceMeters>118.81278574288677</DistanceMeters>
                        <Time>2023-04-03T17:45:55.612Z</Time>
                    </Trackpoint>
                    <Trackpoint>
                        <DistanceMeters>165.1378006416167</DistanceMeters>
                        <Time>2023-04-03T17:47:00.692Z</Time>
                    </Trackpoint>
                    <Trackpoint>
                        <DistanceMeters>193.19379558028413</DistanceMeters>
                        <Time>2023-04-03T17:47:39.052Z</Time>
                    </Trackpoint>
                    <Trackpoint>
                        <DistanceMeters>206.895560550331</DistanceMeters>
                        <Time>2023-04-03T17:47:55.532Z</Time>
                    </Trackpoint>
                    <Trackpoint>
                        <DistanceMeters>221.9022555175252</DistanceMeters>
                        <Time>2023-04-03T17:48:24.012Z</Time>
                    </Trackpoint>
                    <Trackpoint>
                        <DistanceMeters>235.60402048757206</DistanceMeters>
                        <Time>2023-04-03T17:48:47.372Z</Time>
                    </Trackpoint>
                    <Trackpoint>
                        <DistanceMeters>257.7878304390765</DistanceMeters>
                        <Time>2023-04-03T17:49:53.452Z</Time>
                    </Trackpoint>
                    <Trackpoint>
                        <DistanceMeters>303.46038033923276</DistanceMeters>
                        <Time>2023-04-03T17:51:29.892Z</Time>
                    </Trackpoint>
                    <Trackpoint>
                        <DistanceMeters>351.09032523511</DistanceMeters>
                        <Time>2023-04-03T17:52:35.772Z</Time>
                    </Trackpoint>
                    <Trackpoint>
                        <DistanceMeters>391.543155146677</DistanceMeters>
                        <Time>2023-04-03T17:53:35.332Z</Time>
                    </Trackpoint>
                    <Trackpoint>
                        <DistanceMeters>425.4713350725074</DistanceMeters>
                        <Time>2023-04-03T17:54:23.932Z</Time>
                    </Trackpoint>
                    <Trackpoint>
                        <DistanceMeters>431.995985058244</DistanceMeters>
                        <Time>2023-04-03T17:54:35.572Z</Time>
                    </Trackpoint>
                    <Trackpoint>
                        <DistanceMeters>473.75374496695827</DistanceMeters>
                        <Time>2023-04-03T17:55:24.772Z</Time>
                    </Trackpoint>
                    <Trackpoint>
                        <DistanceMeters>477.01606995982655</DistanceMeters>
                        <Time>2023-04-03T17:56:08.720Z</Time>
                    </Trackpoint>
                </Track>
                <DistanceMeters>477.01606995982655</DistanceMeters>
                <TotalTimeSeconds>785.504</TotalTimeSeconds>
                <Calories>80.42688177777778</Calories>
                <Intensity>Active</Intensity>
                <TriggerMethod>Manual</TriggerMethod>
            </Lap>
        </Activity>
        <Activity Sport="Walking">
            <Id>2023-04-03T18:00:20.352Z</Id>
            <Lap StartTime="2023-04-03T18:00:20.352Z">
                <Track>
                    <Trackpoint>
                        <DistanceMeters>0.0</DistanceMeters>
                        <Time>2023-04-03T18:00:20.352Z</Time>
                    </Trackpoint>
                    <Trackpoint>
                        <DistanceMeters>33.928179925830364</DistanceMeters>
                        <Time>2023-04-03T18:01:39.262Z</Time>
                    </Trackpoint>
                    <Trackpoint>
                        <DistanceMeters>33.928179925830364</DistanceMeters>
                        <Time>2023-04-03T18:02:43.271Z</Time>
                    </Trackpoint>
                </Track>
                <DistanceMeters>33.928179925830364</DistanceMeters>
                <TotalTimeSeconds>142.918346921</TotalTimeSeconds>
                <Calories>6.553810388888889</Calories>
                <Intensity>Active</Intensity>
                <TriggerMethod>Manual</TriggerMethod>
            </Lap>
        </Activity>
    </Activities>
    <Author xsi:type="Application_t">
        <Name>Google Fit</Name>
        <Build>
            <Version>
                <VersionMajor>0</VersionMajor>
                <VersionMinor>0</VersionMinor>
                <BuildMajor>0</BuildMajor>
                <BuildMinor>0</BuildMinor>
            </Version>
        </Build>
        <LangID>en</LangID>
        <PartNumber>000-00000-00</PartNumber>
    </Author>
</TrainingCenterDatabase>
