<?xml version="1.0" encoding="UTF-8"?>
<TrainingCenterDatabase
    xmlns="http://www.garmin.com/xmlschemas/TrainingCenterDatabase/v2"
    xmlns:ns2="http://www.garmin.com/xmlschemas/UserProfile/v2"
    xmlns:ns3="http://www.garmin.com/xmlschemas/ActivityExtension/v2"
    xmlns:ns4="http://www.garmin.com/xmlschemas/ProfileExtension/v1"
    xmlns:ns5="http://www.garmin.com/xmlschemas/ActivityGoals/v1"
    xmlns:xsi="http://www.w3.org/2001/XMLSchema-instance" xsi:schemaLocation="http://www.garmin.com/xmlschemas/TrainingCenterDatabase/v2 http://www.garmin.com/xmlschemas/TrainingCenterDatabasev2.xsd">
    <Activities>
        <Activity Sport="Walking">
            <Id>2023-02-23T01:59:57.818Z</Id>
            <Lap StartTime="2023-02-23T01:59:57.818Z">
                <Track>
                    <Trackpoint>
                        <DistanceMeters>0.0</DistanceMeters>
                        <Time>2023-02-23T01:59:57.818Z</Time>
                    </Trackpoint>
                    <Trackpoint>
                        <DistanceMeters>0.0</DistanceMeters>
                        <Time>2023-02-23T02:16:36.810Z</Time>
                    </Trackpoint>
                    <Trackpoint>
                        <DistanceMeters>60.679244867350455</DistanceMeters>
                        <Time>2023-02-23T02:19:42.810Z</Time>
                    </Trackpoint>
                    <Trackpoint>
                        <DistanceMeters>129.61160375211193</DistanceMeters>
                        <Time>2023-02-23T02:20:43.290Z</Time>
                    </Trackpoint>
                </Track>
                <DistanceMeters>129.61160375211193</DistanceMeters>
                <TotalTimeSeconds>1245.472243466</TotalTimeSeconds>
                <Calories>25.954251109885533</Calories>
                <Intensity>Active</Intensity>
                <TriggerMethod>Manual</TriggerMethod>
            </Lap>
        </Activity>
        <Activity Sport="Walking">
            <Id>2023-02-23T02:19:42.810Z</Id>
            <Lap StartTime="2023-02-23T02:19:42.810Z">
                <Track>
                    <Trackpoint>
                        <DistanceMeters>0.0</DistanceMeters>
                        <Time>2023-02-23T02:19:42.810Z</Time>
                    </Trackpoint>
                    <Trackpoint>
                        <DistanceMeters>68.93235888476147</DistanceMeters>
                        <Time>2023-02-23T02:19:50.395Z</Time>
                    </Trackpoint>
                    <Trackpoint>
                        <DistanceMeters>68.93235888476147</DistanceMeters>
                        <Time>2023-02-23T02:20:43.290Z</Time>
                    </Trackpoint>
                    <Trackpoint>
                        <DistanceMeters>138.02416577808168</DistanceMeters>
                        <Time>2023-02-23T02:21:43.450Z</Time>
                    </Trackpoint>
                    <Trackpoint>
                        <DistanceMeters>208.45943377631187</DistanceMeters>
                        <Time>2023-02-23T02:22:44.930Z</Time>
                    </Trackpoint>
                    <Trackpoint>
                        <DistanceMeters>277.371981726275</DistanceMeters>
                        <Time>2023-02-23T02:23:45.450Z</Time>
                    </Trackpoint>
                    <Trackpoint>
                        <DistanceMeters>347.0258817753003</DistanceMeters>
                        <Time>2023-02-23T02:24:46.490Z</Time>
                    </Trackpoint>
                    <Trackpoint>
                        <DistanceMeters>418.5675794350669</DistanceMeters>
                        <Time>2023-02-23T02:25:47.770Z</Time>
                    </Trackpoint>
                    <Trackpoint>
                        <DistanceMeters>489.264654837986</DistanceMeters>
                        <Time>2023-02-23T02:26:48.730Z</Time>
                    </Trackpoint>
                    <Trackpoint>
                        <DistanceMeters>558.5176124978972</DistanceMeters>
                        <Time>2023-02-23T02:27:48.570Z</Time>
                    </Trackpoint>
                    <Trackpoint>
                        <DistanceMeters>559.9211958235435</DistanceMeters>
                        <Time>2023-02-23T02:27:49.770Z</Time>
                    </Trackpoint>
                    <Trackpoint>
                        <DistanceMeters>627.2925395833809</DistanceMeters>
                        <Time>2023-02-23T02:28:49.370Z</Time>
                    </Trackpoint>
                    <Trackpoint>
                        <DistanceMeters>628.6575864649858</DistanceMeters>
                        <Time>2023-02-23T02:28:50.650Z</Time>
                    </Trackpoint>
                    <Trackpoint>
                        <DistanceMeters>695.8536006789776</DistanceMeters>
                        <Time>2023-02-23T02:29:50.610Z</Time>
                    </Trackpoint>
                    <Trackpoint>
                        <DistanceMeters>764.6674781670179</DistanceMeters>
                        <Time>2023-02-23T02:30:51.330Z</Time>
                    </Trackpoint>
                    <Trackpoint>
                        <DistanceMeters>833.1314650757074</DistanceMeters>
                        <Time>2023-02-23T02:31:52.770Z</Time>
                    </Trackpoint>
                    <Trackpoint>
                        <DistanceMeters>901.0290082179723</DistanceMeters>
                        <Time>2023-02-23T02:32:53.330Z</Time>
                    </Trackpoint>
                    <Trackpoint>
                        <DistanceMeters>968.6197840431589</DistanceMeters>
                        <Time>2023-02-23T02:33:54.530Z</Time>
                    </Trackpoint>
                    <Trackpoint>
                        <DistanceMeters>1012.9874039461679</DistanceMeters>
                        <Time>2023-02-23T02:34:55.530Z</Time>
                    </Trackpoint>
                    <Trackpoint>
                        <DistanceMeters>1081.7444224241563</DistanceMeters>
                        <Time>2023-02-23T02:35:52.430Z</Time>
                    </Trackpoint>
                    <Trackpoint>
                        <DistanceMeters>1135.89901730577</DistanceMeters>
                        <Time>2023-02-23T02:38:22.157Z</Time>
                    </Trackpoint>
                </Track>
                <DistanceMeters>1135.89901730577</DistanceMeters>
                <TotalTimeSeconds>1119.346755785</TotalTimeSeconds>
                <Calories>113.83207588888888</Calories>
                <Intensity>Active</Intensity>
                <TriggerMethod>Manual</TriggerMethod>
            </Lap>
        </Activity>
        <Activity Sport="Walking">
            <Id>2023-02-23T02:45:41.010Z</Id>
            <Lap StartTime="2023-02-23T02:45:41.010Z">
                <Track>
                    <Trackpoint>
                        <DistanceMeters>0.0</DistanceMeters>
                        <Time>2023-02-23T02:45:41.010Z</Time>
                    </Trackpoint>
                    <Trackpoint>
                        <DistanceMeters>56.11198987733483</DistanceMeters>
                        <Time>2023-02-23T02:47:42.227Z</Time>
                    </Trackpoint>
                    <Trackpoint>
                        <DistanceMeters>56.11198987733483</DistanceMeters>
                        <Time>2023-02-23T02:47:53.650Z</Time>
                    </Trackpoint>
                    <Trackpoint>
                        <DistanceMeters>69.16128984880804</DistanceMeters>
                        <Time>2023-02-23T02:50:35.610Z</Time>
                    </Trackpoint>
                    <Trackpoint>
                        <DistanceMeters>93.95495979460715</DistanceMeters>
                        <Time>2023-02-23T02:51:17.301Z</Time>
                    </Trackpoint>
                </Track>
                <DistanceMeters>93.95495979460715</DistanceMeters>
                <TotalTimeSeconds>336.290757355</TotalTimeSeconds>
                <Calories>22.02118788888889</Calories>
                <Intensity>Active</Intensity>
                <TriggerMethod>Manual</TriggerMethod>
            </Lap>
        </Activity>
    </Activities>
    <Author xsi:type="Application_t">
        <Name>Google Fit</Name>
        <Build>
            <Version>
                <VersionMajor>0</VersionMajor>
                <VersionMinor>0</VersionMinor>
                <BuildMajor>0</BuildMajor>
                <BuildMinor>0</BuildMinor>
            </Version>
        </Build>
        <LangID>en</LangID>
        <PartNumber>000-00000-00</PartNumber>
    </Author>
</TrainingCenterDatabase>
