<?xml version="1.0" encoding="UTF-8"?>
<TrainingCenterDatabase
    xmlns="http://www.garmin.com/xmlschemas/TrainingCenterDatabase/v2"
    xmlns:ns2="http://www.garmin.com/xmlschemas/UserProfile/v2"
    xmlns:ns3="http://www.garmin.com/xmlschemas/ActivityExtension/v2"
    xmlns:ns4="http://www.garmin.com/xmlschemas/ProfileExtension/v1"
    xmlns:ns5="http://www.garmin.com/xmlschemas/ActivityGoals/v1"
    xmlns:xsi="http://www.w3.org/2001/XMLSchema-instance" xsi:schemaLocation="http://www.garmin.com/xmlschemas/TrainingCenterDatabase/v2 http://www.garmin.com/xmlschemas/TrainingCenterDatabasev2.xsd">
    <Activities>
        <Activity Sport="Walking">
            <Id>2023-04-19T05:19:55.947Z</Id>
            <Lap StartTime="2023-04-19T05:19:55.947Z">
                <Track>
                    <Trackpoint>
                        <DistanceMeters>0.0</DistanceMeters>
                        <Time>2023-04-19T05:19:55.947Z</Time>
                    </Trackpoint>
                    <Trackpoint>
                        <DistanceMeters>39.14789991441965</DistanceMeters>
                        <Time>2023-04-19T05:21:30.014Z</Time>
                    </Trackpoint>
                    <Trackpoint>
                        <DistanceMeters>39.14789991441965</DistanceMeters>
                        <Time>2023-04-19T05:21:55.947Z</Time>
                    </Trackpoint>
                    <Trackpoint>
                        <DistanceMeters>80.90565982313393</DistanceMeters>
                        <Time>2023-04-19T05:22:58.107Z</Time>
                    </Trackpoint>
                    <Trackpoint>
                        <DistanceMeters>123.31588473042189</DistanceMeters>
                        <Time>2023-04-19T05:23:58.867Z</Time>
                    </Trackpoint>
                    <Trackpoint>
                        <DistanceMeters>165.72610963770984</DistanceMeters>
                        <Time>2023-04-19T05:24:59.987Z</Time>
                    </Trackpoint>
                    <Trackpoint>
                        <DistanceMeters>195.0870345735246</DistanceMeters>
                        <Time>2023-04-19T05:25:34.487Z</Time>
                    </Trackpoint>
                </Track>
                <DistanceMeters>195.0870345735246</DistanceMeters>
                <TotalTimeSeconds>338.540002657</TotalTimeSeconds>
                <Calories>24.0133685</Calories>
                <Intensity>Active</Intensity>
                <TriggerMethod>Manual</TriggerMethod>
            </Lap>
        </Activity>
        <Activity Sport="Walking">
            <Id>2023-04-19T05:24:59.987Z</Id>
            <Lap StartTime="2023-04-19T05:24:59.987Z">
                <Track>
                    <Trackpoint>
                        <DistanceMeters>0.0</DistanceMeters>
                        <Time>2023-04-19T05:24:59.987Z</Time>
                    </Trackpoint>
                    <Trackpoint>
                        <DistanceMeters>29.360924935814737</DistanceMeters>
                        <Time>2023-04-19T05:25:24.545Z</Time>
                    </Trackpoint>
                    <Trackpoint>
                        <DistanceMeters>29.360924935814737</DistanceMeters>
                        <Time>2023-04-19T05:25:34.487Z</Time>
                    </Trackpoint>
                </Track>
                <DistanceMeters>29.360924935814737</DistanceMeters>
                <TotalTimeSeconds>34.499998886</TotalTimeSeconds>
                <Calories>1.018006488826611</Calories>
                <Intensity>Active</Intensity>
                <TriggerMethod>Manual</TriggerMethod>
            </Lap>
        </Activity>
        <Activity Sport="Walking">
            <Id>2023-04-19T05:25:34.487Z</Id>
            <Lap StartTime="2023-04-19T05:25:34.487Z">
                <Track>
                    <Trackpoint>
                        <DistanceMeters>0.0</DistanceMeters>
                        <Time>2023-04-19T05:25:34.487Z</Time>
                    </Trackpoint>
                    <Trackpoint>
                        <DistanceMeters>0.0</DistanceMeters>
                        <Time>2023-04-19T05:34:11.027Z</Time>
                    </Trackpoint>
                    <Trackpoint>
                        <DistanceMeters>51.15459782316912</DistanceMeters>
                        <Time>2023-04-19T05:35:06.027Z</Time>
                    </Trackpoint>
                </Track>
                <DistanceMeters>51.15459782316912</DistanceMeters>
                <TotalTimeSeconds>571.539999821</TotalTimeSeconds>
                <Calories>14.41273357252376</Calories>
                <Intensity>Active</Intensity>
                <TriggerMethod>Manual</TriggerMethod>
            </Lap>
        </Activity>
        <Activity Sport="Walking">
            <Id>2023-04-19T05:34:11.027Z</Id>
            <Lap StartTime="2023-04-19T05:34:11.027Z">
                <Track>
                    <Trackpoint>
                        <DistanceMeters>0.0</DistanceMeters>
                        <Time>2023-04-19T05:34:11.027Z</Time>
                    </Trackpoint>
                    <Trackpoint>
                        <DistanceMeters>51.15459782316912</DistanceMeters>
                        <Time>2023-04-19T05:34:44.603Z</Time>
                    </Trackpoint>
                    <Trackpoint>
                        <DistanceMeters>51.15459782316912</DistanceMeters>
                        <Time>2023-04-19T05:35:06.027Z</Time>
                    </Trackpoint>
                    <Trackpoint>
                        <DistanceMeters>59.093094027416036</DistanceMeters>
                        <Time>2023-04-19T05:35:12.227Z</Time>
                    </Trackpoint>
                    <Trackpoint>
                        <DistanceMeters>85.19169397036246</DistanceMeters>
                        <Time>2023-04-19T05:36:16.927Z</Time>
                    </Trackpoint>
                </Track>
                <DistanceMeters>85.19169397036246</DistanceMeters>
                <TotalTimeSeconds>125.900000628</TotalTimeSeconds>
                <Calories>6.280022499999999</Calories>
                <Intensity>Active</Intensity>
                <TriggerMethod>Manual</TriggerMethod>
            </Lap>
        </Activity>
    </Activities>
    <Author xsi:type="Application_t">
        <Name>Google Fit</Name>
        <Build>
            <Version>
                <VersionMajor>0</VersionMajor>
                <VersionMinor>0</VersionMinor>
                <BuildMajor>0</BuildMajor>
                <BuildMinor>0</BuildMinor>
            </Version>
        </Build>
        <LangID>en</LangID>
        <PartNumber>000-00000-00</PartNumber>
    </Author>
</TrainingCenterDatabase>
