<?xml version="1.0" encoding="UTF-8"?>
<TrainingCenterDatabase
    xmlns="http://www.garmin.com/xmlschemas/TrainingCenterDatabase/v2"
    xmlns:ns2="http://www.garmin.com/xmlschemas/UserProfile/v2"
    xmlns:ns3="http://www.garmin.com/xmlschemas/ActivityExtension/v2"
    xmlns:ns4="http://www.garmin.com/xmlschemas/ProfileExtension/v1"
    xmlns:ns5="http://www.garmin.com/xmlschemas/ActivityGoals/v1"
    xmlns:xsi="http://www.w3.org/2001/XMLSchema-instance" xsi:schemaLocation="http://www.garmin.com/xmlschemas/TrainingCenterDatabase/v2 http://www.garmin.com/xmlschemas/TrainingCenterDatabasev2.xsd">
    <Activities>
        <Activity Sport="Walking">
            <Id>2023-08-29T22:27:00.406Z</Id>
            <Lap StartTime="2023-08-29T22:27:00.406Z">
                <Track>
                    <Trackpoint>
                        <DistanceMeters>0.0</DistanceMeters>
                        <Time>2023-08-29T22:27:00.406Z</Time>
                    </Trackpoint>
                    <Trackpoint>
                        <DistanceMeters>0.0</DistanceMeters>
                        <Time>2023-08-29T22:28:08.106Z</Time>
                    </Trackpoint>
                </Track>
                <DistanceMeters>0.0</DistanceMeters>
                <TotalTimeSeconds>67.7</TotalTimeSeconds>
                <Calories>7.574877777777777</Calories>
                <Intensity>Active</Intensity>
                <TriggerMethod>Manual</TriggerMethod>
            </Lap>
        </Activity>
        <Activity Sport="Walking">
            <Id>2023-08-29T22:30:50.645Z</Id>
            <Lap StartTime="2023-08-29T22:30:50.645Z">
                <Track>
                    <Trackpoint>
                        <DistanceMeters>0.0</DistanceMeters>
                        <Time>2023-08-29T22:30:50.645Z</Time>
                    </Trackpoint>
                    <Trackpoint>
                        <DistanceMeters>0.0</DistanceMeters>
                        <Time>2023-08-29T22:31:04.846Z</Time>
                    </Trackpoint>
                    <Trackpoint>
                        <DistanceMeters>45.04269605350199</DistanceMeters>
                        <Time>2023-08-29T22:33:01.176Z</Time>
                    </Trackpoint>
                    <Trackpoint>
                        <DistanceMeters>105.9828142435341</DistanceMeters>
                        <Time>2023-08-29T22:34:41.334Z</Time>
                    </Trackpoint>
                    <Trackpoint>
                        <DistanceMeters>137.045511831326</DistanceMeters>
                        <Time>2023-08-29T22:35:20.563Z</Time>
                    </Trackpoint>
                    <Trackpoint>
                        <DistanceMeters>153.6053265568782</DistanceMeters>
                        <Time>2023-08-29T22:36:20.563Z</Time>
                    </Trackpoint>
                </Track>
                <DistanceMeters>153.6053265568782</DistanceMeters>
                <TotalTimeSeconds>329.9186567</TotalTimeSeconds>
                <Calories>30.314728</Calories>
                <Intensity>Active</Intensity>
                <TriggerMethod>Manual</TriggerMethod>
            </Lap>
        </Activity>
        <Activity Sport="Walking">
            <Id>2023-08-29T22:37:09.152Z</Id>
            <Lap StartTime="2023-08-29T22:37:09.152Z">
                <Track>
                    <Trackpoint>
                        <DistanceMeters>0.0</DistanceMeters>
                        <Time>2023-08-29T22:37:09.152Z</Time>
                    </Trackpoint>
                    <Trackpoint>
                        <DistanceMeters>68.22643666927507</DistanceMeters>
                        <Time>2023-08-29T22:38:11.350Z</Time>
                    </Trackpoint>
                    <Trackpoint>
                        <DistanceMeters>68.22643666927507</DistanceMeters>
                        <Time>2023-08-29T22:39:08.730Z</Time>
                    </Trackpoint>
                    <Trackpoint>
                        <DistanceMeters>129.35686596897975</DistanceMeters>
                        <Time>2023-08-29T22:40:09.134Z</Time>
                    </Trackpoint>
                    <Trackpoint>
                        <DistanceMeters>131.51623189175038</DistanceMeters>
                        <Time>2023-08-29T22:41:14.420Z</Time>
                    </Trackpoint>
                </Track>
                <DistanceMeters>131.51623189175038</DistanceMeters>
                <TotalTimeSeconds>245.267483843</TotalTimeSeconds>
                <Calories>20.48349888888889</Calories>
                <Intensity>Active</Intensity>
                <TriggerMethod>Manual</TriggerMethod>
            </Lap>
        </Activity>
        <Activity Sport="Walking">
            <Id>2023-08-29T22:41:14.420Z</Id>
            <Lap StartTime="2023-08-29T22:41:14.420Z">
                <Track>
                    <Trackpoint>
                        <DistanceMeters>0.0</DistanceMeters>
                        <Time>2023-08-29T22:41:14.420Z</Time>
                    </Trackpoint>
                    <Trackpoint>
                        <DistanceMeters>0.0</DistanceMeters>
                        <Time>2023-08-29T22:50:24.020Z</Time>
                    </Trackpoint>
                    <Trackpoint>
                        <DistanceMeters>25.8521447526117</DistanceMeters>
                        <Time>2023-08-29T22:50:45.223Z</Time>
                    </Trackpoint>
                </Track>
                <DistanceMeters>25.8521447526117</DistanceMeters>
                <TotalTimeSeconds>570.803806941</TotalTimeSeconds>
                <Calories>12.344045839302547</Calories>
                <Intensity>Active</Intensity>
                <TriggerMethod>Manual</TriggerMethod>
            </Lap>
        </Activity>
        <Activity Sport="Walking">
            <Id>2023-08-29T22:50:24.020Z</Id>
            <Lap StartTime="2023-08-29T22:50:24.020Z">
                <Track>
                    <Trackpoint>
                        <DistanceMeters>0.0</DistanceMeters>
                        <Time>2023-08-29T22:50:24.020Z</Time>
                    </Trackpoint>
                    <Trackpoint>
                        <DistanceMeters>25.8521447526117</DistanceMeters>
                        <Time>2023-08-29T22:50:24.151Z</Time>
                    </Trackpoint>
                    <Trackpoint>
                        <DistanceMeters>25.8521447526117</DistanceMeters>
                        <Time>2023-08-29T22:50:45.223Z</Time>
                    </Trackpoint>
                    <Trackpoint>
                        <DistanceMeters>52.212870548011324</DistanceMeters>
                        <Time>2023-08-29T22:51:05.524Z</Time>
                    </Trackpoint>
                    <Trackpoint>
                        <DistanceMeters>75.3966111637844</DistanceMeters>
                        <Time>2023-08-29T22:51:42.632Z</Time>
                    </Trackpoint>
                </Track>
                <DistanceMeters>75.3966111637844</DistanceMeters>
                <TotalTimeSeconds>78.611968356</TotalTimeSeconds>
                <Calories>7.581814888888888</Calories>
                <Intensity>Active</Intensity>
                <TriggerMethod>Manual</TriggerMethod>
            </Lap>
        </Activity>
        <Activity Sport="Walking">
            <Id>2023-08-29T22:51:31.913Z</Id>
            <Lap StartTime="2023-08-29T22:51:31.913Z">
                <Track>
                    <Trackpoint>
                        <DistanceMeters>0.0</DistanceMeters>
                        <Time>2023-08-29T22:51:31.913Z</Time>
                    </Trackpoint>
                    <Trackpoint>
                        <DistanceMeters>0.0</DistanceMeters>
                        <Time>2023-08-29T22:58:22.757Z</Time>
                    </Trackpoint>
                    <Trackpoint>
                        <DistanceMeters>11.260674013375498</DistanceMeters>
                        <Time>2023-08-29T22:58:44.886Z</Time>
                    </Trackpoint>
                    <Trackpoint>
                        <DistanceMeters>99.02402221046584</DistanceMeters>
                        <Time>2023-08-29T22:59:47.490Z</Time>
                    </Trackpoint>
                    <Trackpoint>
                        <DistanceMeters>116.09732506102961</DistanceMeters>
                        <Time>2023-08-29T23:00:00.078Z</Time>
                    </Trackpoint>
                </Track>
                <DistanceMeters>116.09732506102961</DistanceMeters>
                <TotalTimeSeconds>508.165146034</TotalTimeSeconds>
                <Calories>16.79149431830978</Calories>
                <Intensity>Active</Intensity>
                <TriggerMethod>Manual</TriggerMethod>
            </Lap>
        </Activity>
        <Activity Sport="Walking">
            <Id>2023-08-29T22:59:47.490Z</Id>
            <Lap StartTime="2023-08-29T22:59:47.490Z">
                <Track>
                    <Trackpoint>
                        <DistanceMeters>0.0</DistanceMeters>
                        <Time>2023-08-29T22:59:47.490Z</Time>
                    </Trackpoint>
                    <Trackpoint>
                        <DistanceMeters>17.07330285056376</DistanceMeters>
                        <Time>2023-08-29T22:59:48.149Z</Time>
                    </Trackpoint>
                    <Trackpoint>
                        <DistanceMeters>17.07330285056376</DistanceMeters>
                        <Time>2023-08-29T23:00:06.149Z</Time>
                    </Trackpoint>
                </Track>
                <DistanceMeters>17.07330285056376</DistanceMeters>
                <TotalTimeSeconds>18.658401361</TotalTimeSeconds>
                <Calories>2.014</Calories>
                <Intensity>Active</Intensity>
                <TriggerMethod>Manual</TriggerMethod>
            </Lap>
        </Activity>
    </Activities>
    <Author xsi:type="Application_t">
        <Name>Google Fit</Name>
        <Build>
            <Version>
                <VersionMajor>0</VersionMajor>
                <VersionMinor>0</VersionMinor>
                <BuildMajor>0</BuildMajor>
                <BuildMinor>0</BuildMinor>
            </Version>
        </Build>
        <LangID>en</LangID>
        <PartNumber>000-00000-00</PartNumber>
    </Author>
</TrainingCenterDatabase>
