<?xml version="1.0" encoding="UTF-8"?>
<TrainingCenterDatabase
    xmlns="http://www.garmin.com/xmlschemas/TrainingCenterDatabase/v2"
    xmlns:ns2="http://www.garmin.com/xmlschemas/UserProfile/v2"
    xmlns:ns3="http://www.garmin.com/xmlschemas/ActivityExtension/v2"
    xmlns:ns4="http://www.garmin.com/xmlschemas/ProfileExtension/v1"
    xmlns:ns5="http://www.garmin.com/xmlschemas/ActivityGoals/v1"
    xmlns:xsi="http://www.w3.org/2001/XMLSchema-instance" xsi:schemaLocation="http://www.garmin.com/xmlschemas/TrainingCenterDatabase/v2 http://www.garmin.com/xmlschemas/TrainingCenterDatabasev2.xsd">
    <Activities>
        <Activity Sport="Walking">
            <Id>2023-08-24T22:46:48.325Z</Id>
            <Lap StartTime="2023-08-24T22:46:48.325Z">
                <Track>
                    <Trackpoint>
                        <DistanceMeters>0.0</DistanceMeters>
                        <Time>2023-08-24T22:46:48.325Z</Time>
                    </Trackpoint>
                    <Trackpoint>
                        <DistanceMeters>0.0</DistanceMeters>
                        <Time>2023-08-25T00:48:16.126Z</Time>
                    </Trackpoint>
                    <Trackpoint>
                        <DistanceMeters>30.47005909501605</DistanceMeters>
                        <Time>2023-08-25T00:49:48.126Z</Time>
                    </Trackpoint>
                    <Trackpoint>
                        <DistanceMeters>100.69940738006304</DistanceMeters>
                        <Time>2023-08-25T00:50:54.374Z</Time>
                    </Trackpoint>
                </Track>
                <DistanceMeters>100.69940738006304</DistanceMeters>
                <TotalTimeSeconds>7446.049834258</TotalTimeSeconds>
                <Calories>171.91430545996045</Calories>
                <Intensity>Active</Intensity>
                <TriggerMethod>Manual</TriggerMethod>
            </Lap>
        </Activity>
        <Activity Sport="Walking">
            <Id>2023-08-25T00:49:48.126Z</Id>
            <Lap StartTime="2023-08-25T00:49:48.126Z">
                <Track>
                    <Trackpoint>
                        <DistanceMeters>0.0</DistanceMeters>
                        <Time>2023-08-25T00:49:48.126Z</Time>
                    </Trackpoint>
                    <Trackpoint>
                        <DistanceMeters>70.22934828504698</DistanceMeters>
                        <Time>2023-08-25T00:50:44.968Z</Time>
                    </Trackpoint>
                    <Trackpoint>
                        <DistanceMeters>70.22934828504698</DistanceMeters>
                        <Time>2023-08-25T00:50:54.374Z</Time>
                    </Trackpoint>
                    <Trackpoint>
                        <DistanceMeters>119.9087924617036</DistanceMeters>
                        <Time>2023-08-25T00:52:28.975Z</Time>
                    </Trackpoint>
                </Track>
                <DistanceMeters>119.9087924617036</DistanceMeters>
                <TotalTimeSeconds>160.8482194</TotalTimeSeconds>
                <Calories>7.723913777777778</Calories>
                <Intensity>Active</Intensity>
                <TriggerMethod>Manual</TriggerMethod>
            </Lap>
        </Activity>
        <Activity Sport="Walking">
            <Id>2023-08-25T00:51:54.000Z</Id>
            <Lap StartTime="2023-08-25T00:51:54.000Z">
                <Track>
                    <Trackpoint>
                        <DistanceMeters>0.0</DistanceMeters>
                        <Time>2023-08-25T00:51:54.000Z</Time>
                    </Trackpoint>
                    <Trackpoint>
                        <DistanceMeters>0.0</DistanceMeters>
                        <Time>2023-08-25T00:58:13.119Z</Time>
                    </Trackpoint>
                    <Trackpoint>
                        <DistanceMeters>56.008576482945536</DistanceMeters>
                        <Time>2023-08-25T00:59:05.196Z</Time>
                    </Trackpoint>
                </Track>
                <DistanceMeters>56.008576482945536</DistanceMeters>
                <TotalTimeSeconds>431.196546493</TotalTimeSeconds>
                <Calories>11.441090314294058</Calories>
                <Intensity>Active</Intensity>
                <TriggerMethod>Manual</TriggerMethod>
            </Lap>
        </Activity>
        <Activity Sport="Walking">
            <Id>2023-08-25T00:58:13.119Z</Id>
            <Lap StartTime="2023-08-25T00:58:13.119Z">
                <Track>
                    <Trackpoint>
                        <DistanceMeters>0.0</DistanceMeters>
                        <Time>2023-08-25T00:58:13.119Z</Time>
                    </Trackpoint>
                    <Trackpoint>
                        <DistanceMeters>56.008576482945536</DistanceMeters>
                        <Time>2023-08-25T00:58:39.361Z</Time>
                    </Trackpoint>
                    <Trackpoint>
                        <DistanceMeters>56.008576482945536</DistanceMeters>
                        <Time>2023-08-25T00:59:05.196Z</Time>
                    </Trackpoint>
                    <Trackpoint>
                        <DistanceMeters>66.04413595268277</DistanceMeters>
                        <Time>2023-08-25T00:59:13.475Z</Time>
                    </Trackpoint>
                    <Trackpoint>
                        <DistanceMeters>120.07765012914402</DistanceMeters>
                        <Time>2023-08-25T01:00:05.609Z</Time>
                    </Trackpoint>
                    <Trackpoint>
                        <DistanceMeters>128.26265166254632</DistanceMeters>
                        <Time>2023-08-25T01:00:13.582Z</Time>
                    </Trackpoint>
                    <Trackpoint>
                        <DistanceMeters>154.6796641775861</DistanceMeters>
                        <Time>2023-08-25T01:00:50.136Z</Time>
                    </Trackpoint>
                </Track>
                <DistanceMeters>154.6796641775861</DistanceMeters>
                <TotalTimeSeconds>157.016501035</TotalTimeSeconds>
                <Calories>14.632269444444445</Calories>
                <Intensity>Active</Intensity>
                <TriggerMethod>Manual</TriggerMethod>
            </Lap>
        </Activity>
        <Activity Sport="Walking">
            <Id>2023-08-25T01:00:50.136Z</Id>
            <Lap StartTime="2023-08-25T01:00:50.136Z">
                <Track>
                    <Trackpoint>
                        <DistanceMeters>0.0</DistanceMeters>
                        <Time>2023-08-25T01:00:50.136Z</Time>
                    </Trackpoint>
                    <Trackpoint>
                        <DistanceMeters>0.0</DistanceMeters>
                        <Time>2023-08-25T01:03:33.000Z</Time>
                    </Trackpoint>
                    <Trackpoint>
                        <DistanceMeters>37.75637757425902</DistanceMeters>
                        <Time>2023-08-25T01:05:27.000Z</Time>
                    </Trackpoint>
                    <Trackpoint>
                        <DistanceMeters>94.53803171830097</DistanceMeters>
                        <Time>2023-08-25T01:06:26.438Z</Time>
                    </Trackpoint>
                </Track>
                <DistanceMeters>94.53803171830097</DistanceMeters>
                <TotalTimeSeconds>336.302090773</TotalTimeSeconds>
                <Calories>7.0525810333868</Calories>
                <Intensity>Active</Intensity>
                <TriggerMethod>Manual</TriggerMethod>
            </Lap>
        </Activity>
        <Activity Sport="Walking">
            <Id>2023-08-25T01:05:27.000Z</Id>
            <Lap StartTime="2023-08-25T01:05:27.000Z">
                <Track>
                    <Trackpoint>
                        <DistanceMeters>0.0</DistanceMeters>
                        <Time>2023-08-25T01:05:27.000Z</Time>
                    </Trackpoint>
                    <Trackpoint>
                        <DistanceMeters>56.78165414404196</DistanceMeters>
                        <Time>2023-08-25T01:05:34.522Z</Time>
                    </Trackpoint>
                    <Trackpoint>
                        <DistanceMeters>56.78165414404196</DistanceMeters>
                        <Time>2023-08-25T01:06:26.438Z</Time>
                    </Trackpoint>
                    <Trackpoint>
                        <DistanceMeters>89.90128359514637</DistanceMeters>
                        <Time>2023-08-25T01:07:22.279Z</Time>
                    </Trackpoint>
                    <Trackpoint>
                        <DistanceMeters>113.74741679994153</DistanceMeters>
                        <Time>2023-08-25T01:08:34.279Z</Time>
                    </Trackpoint>
                    <Trackpoint>
                        <DistanceMeters>190.1325252082637</DistanceMeters>
                        <Time>2023-08-25T01:09:34.352Z</Time>
                    </Trackpoint>
                    <Trackpoint>
                        <DistanceMeters>260.2077258542595</DistanceMeters>
                        <Time>2023-08-25T01:10:34.613Z</Time>
                    </Trackpoint>
                    <Trackpoint>
                        <DistanceMeters>330.15937501496165</DistanceMeters>
                        <Time>2023-08-25T01:11:35.119Z</Time>
                    </Trackpoint>
                    <Trackpoint>
                        <DistanceMeters>408.685726573722</DistanceMeters>
                        <Time>2023-08-25T01:12:35.158Z</Time>
                    </Trackpoint>
                    <Trackpoint>
                        <DistanceMeters>485.9948367388124</DistanceMeters>
                        <Time>2023-08-25T01:13:35.461Z</Time>
                    </Trackpoint>
                    <Trackpoint>
                        <DistanceMeters>564.2572746093057</DistanceMeters>
                        <Time>2023-08-25T01:14:35.948Z</Time>
                    </Trackpoint>
                    <Trackpoint>
                        <DistanceMeters>613.4225564744971</DistanceMeters>
                        <Time>2023-08-25T01:15:13.552Z</Time>
                    </Trackpoint>
                    <Trackpoint>
                        <DistanceMeters>647.2045785146236</DistanceMeters>
                        <Time>2023-08-25T01:17:26.696Z</Time>
                    </Trackpoint>
                </Track>
                <DistanceMeters>647.2045785146236</DistanceMeters>
                <TotalTimeSeconds>719.695311444</TotalTimeSeconds>
                <Calories>79.68435755555555</Calories>
                <Intensity>Active</Intensity>
                <TriggerMethod>Manual</TriggerMethod>
            </Lap>
        </Activity>
    </Activities>
    <Author xsi:type="Application_t">
        <Name>Google Fit</Name>
        <Build>
            <Version>
                <VersionMajor>0</VersionMajor>
                <VersionMinor>0</VersionMinor>
                <BuildMajor>0</BuildMajor>
                <BuildMinor>0</BuildMinor>
            </Version>
        </Build>
        <LangID>en</LangID>
        <PartNumber>000-00000-00</PartNumber>
    </Author>
</TrainingCenterDatabase>
