<?xml version="1.0" encoding="UTF-8"?>
<TrainingCenterDatabase
    xmlns="http://www.garmin.com/xmlschemas/TrainingCenterDatabase/v2"
    xmlns:ns2="http://www.garmin.com/xmlschemas/UserProfile/v2"
    xmlns:ns3="http://www.garmin.com/xmlschemas/ActivityExtension/v2"
    xmlns:ns4="http://www.garmin.com/xmlschemas/ProfileExtension/v1"
    xmlns:ns5="http://www.garmin.com/xmlschemas/ActivityGoals/v1"
    xmlns:xsi="http://www.w3.org/2001/XMLSchema-instance" xsi:schemaLocation="http://www.garmin.com/xmlschemas/TrainingCenterDatabase/v2 http://www.garmin.com/xmlschemas/TrainingCenterDatabasev2.xsd">
    <Activities>
        <Activity Sport="Walking">
            <Id>2023-03-28T17:30:16.887Z</Id>
            <Lap StartTime="2023-03-28T17:30:16.887Z">
                <Track>
                    <Trackpoint>
                        <DistanceMeters>0.0</DistanceMeters>
                        <Time>2023-03-28T17:30:16.887Z</Time>
                    </Trackpoint>
                    <Trackpoint>
                        <DistanceMeters>0.0</DistanceMeters>
                        <Time>2023-03-28T17:30:52.161Z</Time>
                    </Trackpoint>
                    <Trackpoint>
                        <DistanceMeters>16.31162496434152</DistanceMeters>
                        <Time>2023-03-28T17:31:52.161Z</Time>
                    </Trackpoint>
                    <Trackpoint>
                        <DistanceMeters>45.02008490158259</DistanceMeters>
                        <Time>2023-03-28T17:33:13.281Z</Time>
                    </Trackpoint>
                    <Trackpoint>
                        <DistanceMeters>52.19719988589286</DistanceMeters>
                        <Time>2023-03-28T17:33:22.461Z</Time>
                    </Trackpoint>
                    <Trackpoint>
                        <DistanceMeters>83.51551981742858</DistanceMeters>
                        <Time>2023-03-28T17:34:52.621Z</Time>
                    </Trackpoint>
                    <Trackpoint>
                        <DistanceMeters>95.57226703124991</DistanceMeters>
                        <Time>2023-03-28T17:35:02.581Z</Time>
                    </Trackpoint>
                    <Trackpoint>
                        <DistanceMeters>126.69575490992672</DistanceMeters>
                        <Time>2023-03-28T17:35:30.501Z</Time>
                    </Trackpoint>
                    <Trackpoint>
                        <DistanceMeters>153.5943671907586</DistanceMeters>
                        <Time>2023-03-28T17:35:52.861Z</Time>
                    </Trackpoint>
                    <Trackpoint>
                        <DistanceMeters>165.62964490142943</DistanceMeters>
                        <Time>2023-03-28T17:36:02.861Z</Time>
                    </Trackpoint>
                    <Trackpoint>
                        <DistanceMeters>199.33622599429134</DistanceMeters>
                        <Time>2023-03-28T17:36:31.621Z</Time>
                    </Trackpoint>
                    <Trackpoint>
                        <DistanceMeters>226.36444815038217</DistanceMeters>
                        <Time>2023-03-28T17:36:53.741Z</Time>
                    </Trackpoint>
                    <Trackpoint>
                        <DistanceMeters>236.99642242543132</DistanceMeters>
                        <Time>2023-03-28T17:37:02.541Z</Time>
                    </Trackpoint>
                    <Trackpoint>
                        <DistanceMeters>278.2949539255379</DistanceMeters>
                        <Time>2023-03-28T17:37:36.221Z</Time>
                    </Trackpoint>
                    <Trackpoint>
                        <DistanceMeters>305.1298007185057</DistanceMeters>
                        <Time>2023-03-28T17:37:58.701Z</Time>
                    </Trackpoint>
                    <Trackpoint>
                        <DistanceMeters>315.6159318496781</DistanceMeters>
                        <Time>2023-03-28T17:38:07.781Z</Time>
                    </Trackpoint>
                    <Trackpoint>
                        <DistanceMeters>362.2896854554688</DistanceMeters>
                        <Time>2023-03-28T17:38:46.701Z</Time>
                    </Trackpoint>
                    <Trackpoint>
                        <DistanceMeters>435.71351597944135</DistanceMeters>
                        <Time>2023-03-28T17:39:48.261Z</Time>
                    </Trackpoint>
                    <Trackpoint>
                        <DistanceMeters>470.84431636113146</DistanceMeters>
                        <Time>2023-03-28T17:41:07.621Z</Time>
                    </Trackpoint>
                    <Trackpoint>
                        <DistanceMeters>486.5034763268993</DistanceMeters>
                        <Time>2023-03-28T17:42:03.261Z</Time>
                    </Trackpoint>
                    <Trackpoint>
                        <DistanceMeters>488.4608713226203</DistanceMeters>
                        <Time>2023-03-28T17:42:06.141Z</Time>
                    </Trackpoint>
                    <Trackpoint>
                        <DistanceMeters>504.77249628696177</DistanceMeters>
                        <Time>2023-03-28T17:43:04.861Z</Time>
                    </Trackpoint>
                    <Trackpoint>
                        <DistanceMeters>515.1310320321986</DistanceMeters>
                        <Time>2023-03-28T17:43:14.201Z</Time>
                    </Trackpoint>
                    <Trackpoint>
                        <DistanceMeters>568.6331619152388</DistanceMeters>
                        <Time>2023-03-28T17:45:13.741Z</Time>
                    </Trackpoint>
                    <Trackpoint>
                        <DistanceMeters>582.3349268852857</DistanceMeters>
                        <Time>2023-03-28T17:45:51.661Z</Time>
                    </Trackpoint>
                    <Trackpoint>
                        <DistanceMeters>612.3483168196741</DistanceMeters>
                        <Time>2023-03-28T17:47:23.661Z</Time>
                    </Trackpoint>
                    <Trackpoint>
                        <DistanceMeters>628.6599417840156</DistanceMeters>
                        <Time>2023-03-28T17:47:47.101Z</Time>
                    </Trackpoint>
                    <Trackpoint>
                        <DistanceMeters>684.1194666627767</DistanceMeters>
                        <Time>2023-03-28T17:49:47.381Z</Time>
                    </Trackpoint>
                    <Trackpoint>
                        <DistanceMeters>749.6960147184648</DistanceMeters>
                        <Time>2023-03-28T17:50:48.701Z</Time>
                    </Trackpoint>
                    <Trackpoint>
                        <DistanceMeters>815.3635353011906</DistanceMeters>
                        <Time>2023-03-28T17:51:49.821Z</Time>
                    </Trackpoint>
                    <Trackpoint>
                        <DistanceMeters>882.7152929555601</DistanceMeters>
                        <Time>2023-03-28T17:52:49.461Z</Time>
                    </Trackpoint>
                    <Trackpoint>
                        <DistanceMeters>952.2111531561917</DistanceMeters>
                        <Time>2023-03-28T17:53:50.821Z</Time>
                    </Trackpoint>
                    <Trackpoint>
                        <DistanceMeters>1016.1332026965051</DistanceMeters>
                        <Time>2023-03-28T17:54:47.301Z</Time>
                    </Trackpoint>
                    <Trackpoint>
                        <DistanceMeters>1045.2948903991455</DistanceMeters>
                        <Time>2023-03-28T17:55:15.241Z</Time>
                    </Trackpoint>
                </Track>
                <DistanceMeters>1045.2948903991455</DistanceMeters>
                <TotalTimeSeconds>1498.354700068</TotalTimeSeconds>
                <Calories>152.2770558888889</Calories>
                <Intensity>Active</Intensity>
                <TriggerMethod>Manual</TriggerMethod>
            </Lap>
        </Activity>
        <Activity Sport="Walking">
            <Id>2023-03-28T17:54:47.301Z</Id>
            <Lap StartTime="2023-03-28T17:54:47.301Z">
                <Track>
                    <Trackpoint>
                        <DistanceMeters>0.0</DistanceMeters>
                        <Time>2023-03-28T17:54:47.301Z</Time>
                    </Trackpoint>
                    <Trackpoint>
                        <DistanceMeters>29.16168770264033</DistanceMeters>
                        <Time>2023-03-28T17:55:04.129Z</Time>
                    </Trackpoint>
                    <Trackpoint>
                        <DistanceMeters>29.16168770264033</DistanceMeters>
                        <Time>2023-03-28T17:55:15.241Z</Time>
                    </Trackpoint>
                </Track>
                <DistanceMeters>29.16168770264033</DistanceMeters>
                <TotalTimeSeconds>27.94</TotalTimeSeconds>
                <Calories>1.1378170125179998</Calories>
                <Intensity>Active</Intensity>
                <TriggerMethod>Manual</TriggerMethod>
            </Lap>
        </Activity>
    </Activities>
    <Author xsi:type="Application_t">
        <Name>Google Fit</Name>
        <Build>
            <Version>
                <VersionMajor>0</VersionMajor>
                <VersionMinor>0</VersionMinor>
                <BuildMajor>0</BuildMajor>
                <BuildMinor>0</BuildMinor>
            </Version>
        </Build>
        <LangID>en</LangID>
        <PartNumber>000-00000-00</PartNumber>
    </Author>
</TrainingCenterDatabase>
