<?xml version="1.0" encoding="UTF-8"?>
<TrainingCenterDatabase
    xmlns="http://www.garmin.com/xmlschemas/TrainingCenterDatabase/v2"
    xmlns:ns2="http://www.garmin.com/xmlschemas/UserProfile/v2"
    xmlns:ns3="http://www.garmin.com/xmlschemas/ActivityExtension/v2"
    xmlns:ns4="http://www.garmin.com/xmlschemas/ProfileExtension/v1"
    xmlns:ns5="http://www.garmin.com/xmlschemas/ActivityGoals/v1"
    xmlns:xsi="http://www.w3.org/2001/XMLSchema-instance" xsi:schemaLocation="http://www.garmin.com/xmlschemas/TrainingCenterDatabase/v2 http://www.garmin.com/xmlschemas/TrainingCenterDatabasev2.xsd">
    <Activities>
        <Activity Sport="Walking">
            <Id>2023-08-31T04:18:03.704Z</Id>
            <Lap StartTime="2023-08-31T04:18:03.704Z">
                <Track>
                    <Trackpoint>
                        <DistanceMeters>0.0</DistanceMeters>
                        <Time>2023-08-31T04:18:03.704Z</Time>
                    </Trackpoint>
                    <Trackpoint>
                        <DistanceMeters>0.0</DistanceMeters>
                        <Time>2023-08-31T07:16:54.427Z</Time>
                    </Trackpoint>
                    <Trackpoint>
                        <DistanceMeters>15.235029547508026</DistanceMeters>
                        <Time>2023-08-31T07:17:38.080Z</Time>
                    </Trackpoint>
                    <Trackpoint>
                        <DistanceMeters>108.32046234381912</DistanceMeters>
                        <Time>2023-08-31T07:18:41.040Z</Time>
                    </Trackpoint>
                </Track>
                <DistanceMeters>108.32046234381912</DistanceMeters>
                <TotalTimeSeconds>10837.33695897</TotalTimeSeconds>
                <Calories>248.3041137164885</Calories>
                <Intensity>Active</Intensity>
                <TriggerMethod>Manual</TriggerMethod>
            </Lap>
        </Activity>
        <Activity Sport="Walking">
            <Id>2023-08-31T07:17:38.080Z</Id>
            <Lap StartTime="2023-08-31T07:17:38.080Z">
                <Track>
                    <Trackpoint>
                        <DistanceMeters>0.0</DistanceMeters>
                        <Time>2023-08-31T07:17:38.080Z</Time>
                    </Trackpoint>
                    <Trackpoint>
                        <DistanceMeters>93.0854327963111</DistanceMeters>
                        <Time>2023-08-31T07:18:37.047Z</Time>
                    </Trackpoint>
                    <Trackpoint>
                        <DistanceMeters>93.0854327963111</DistanceMeters>
                        <Time>2023-08-31T07:18:41.040Z</Time>
                    </Trackpoint>
                    <Trackpoint>
                        <DistanceMeters>175.81820697239658</DistanceMeters>
                        <Time>2023-08-31T07:19:44.780Z</Time>
                    </Trackpoint>
                    <Trackpoint>
                        <DistanceMeters>259.34065630985003</DistanceMeters>
                        <Time>2023-08-31T07:20:47.204Z</Time>
                    </Trackpoint>
                    <Trackpoint>
                        <DistanceMeters>282.1578100638515</DistanceMeters>
                        <Time>2023-08-31T07:21:04.487Z</Time>
                    </Trackpoint>
                    <Trackpoint>
                        <DistanceMeters>350.75572271389854</DistanceMeters>
                        <Time>2023-08-31T07:22:10.015Z</Time>
                    </Trackpoint>
                    <Trackpoint>
                        <DistanceMeters>372.779448706906</DistanceMeters>
                        <Time>2023-08-31T07:22:26.836Z</Time>
                    </Trackpoint>
                    <Trackpoint>
                        <DistanceMeters>409.8282509940067</DistanceMeters>
                        <Time>2023-08-31T07:22:56.107Z</Time>
                    </Trackpoint>
                    <Trackpoint>
                        <DistanceMeters>448.45772636381434</DistanceMeters>
                        <Time>2023-08-31T07:23:24.519Z</Time>
                    </Trackpoint>
                    <Trackpoint>
                        <DistanceMeters>485.0724688337118</DistanceMeters>
                        <Time>2023-08-31T07:23:50.956Z</Time>
                    </Trackpoint>
                    <Trackpoint>
                        <DistanceMeters>518.7483230988823</DistanceMeters>
                        <Time>2023-08-31T07:24:16.908Z</Time>
                    </Trackpoint>
                    <Trackpoint>
                        <DistanceMeters>532.7671300008011</DistanceMeters>
                        <Time>2023-08-31T07:24:27.444Z</Time>
                    </Trackpoint>
                    <Trackpoint>
                        <DistanceMeters>613.4730260772561</DistanceMeters>
                        <Time>2023-08-31T07:25:31.027Z</Time>
                    </Trackpoint>
                    <Trackpoint>
                        <DistanceMeters>617.1702948153194</DistanceMeters>
                        <Time>2023-08-31T07:25:32.223Z</Time>
                    </Trackpoint>
                    <Trackpoint>
                        <DistanceMeters>666.2680808647638</DistanceMeters>
                        <Time>2023-08-31T07:27:25.087Z</Time>
                    </Trackpoint>
                </Track>
                <DistanceMeters>666.2680808647638</DistanceMeters>
                <TotalTimeSeconds>587.006416369</TotalTimeSeconds>
                <Calories>59.08180888888888</Calories>
                <Intensity>Active</Intensity>
                <TriggerMethod>Manual</TriggerMethod>
            </Lap>
        </Activity>
    </Activities>
    <Author xsi:type="Application_t">
        <Name>Google Fit</Name>
        <Build>
            <Version>
                <VersionMajor>0</VersionMajor>
                <VersionMinor>0</VersionMinor>
                <BuildMajor>0</BuildMajor>
                <BuildMinor>0</BuildMinor>
            </Version>
        </Build>
        <LangID>en</LangID>
        <PartNumber>000-00000-00</PartNumber>
    </Author>
</TrainingCenterDatabase>
