<?xml version="1.0" encoding="UTF-8"?>
<TrainingCenterDatabase
    xmlns="http://www.garmin.com/xmlschemas/TrainingCenterDatabase/v2"
    xmlns:ns2="http://www.garmin.com/xmlschemas/UserProfile/v2"
    xmlns:ns3="http://www.garmin.com/xmlschemas/ActivityExtension/v2"
    xmlns:ns4="http://www.garmin.com/xmlschemas/ProfileExtension/v1"
    xmlns:ns5="http://www.garmin.com/xmlschemas/ActivityGoals/v1"
    xmlns:xsi="http://www.w3.org/2001/XMLSchema-instance" xsi:schemaLocation="http://www.garmin.com/xmlschemas/TrainingCenterDatabase/v2 http://www.garmin.com/xmlschemas/TrainingCenterDatabasev2.xsd">
    <Activities>
        <Activity Sport="Walking">
            <Id>2023-08-26T01:15:42.575Z</Id>
            <Lap StartTime="2023-08-26T01:15:42.575Z">
                <Track>
                    <Trackpoint>
                        <DistanceMeters>0.0</DistanceMeters>
                        <Time>2023-08-26T01:15:42.575Z</Time>
                    </Trackpoint>
                    <Trackpoint>
                        <DistanceMeters>21.19656284870682</DistanceMeters>
                        <Time>2023-08-26T01:16:45.248Z</Time>
                    </Trackpoint>
                    <Trackpoint>
                        <DistanceMeters>21.19656284870682</DistanceMeters>
                        <Time>2023-08-26T01:16:46.575Z</Time>
                    </Trackpoint>
                    <Trackpoint>
                        <DistanceMeters>23.476665828550814</DistanceMeters>
                        <Time>2023-08-26T01:17:54.675Z</Time>
                    </Trackpoint>
                </Track>
                <DistanceMeters>23.476665828550814</DistanceMeters>
                <TotalTimeSeconds>132.099442621</TotalTimeSeconds>
                <Calories>7.768109888888889</Calories>
                <Intensity>Active</Intensity>
                <TriggerMethod>Manual</TriggerMethod>
            </Lap>
        </Activity>
        <Activity Sport="Walking">
            <Id>2023-08-26T01:27:52.732Z</Id>
            <Lap StartTime="2023-08-26T01:27:52.732Z">
                <Track>
                    <Trackpoint>
                        <DistanceMeters>0.0</DistanceMeters>
                        <Time>2023-08-26T01:27:52.732Z</Time>
                    </Trackpoint>
                    <Trackpoint>
                        <DistanceMeters>5.961533301198793</DistanceMeters>
                        <Time>2023-08-26T01:27:54.715Z</Time>
                    </Trackpoint>
                    <Trackpoint>
                        <DistanceMeters>5.961533301198793</DistanceMeters>
                        <Time>2023-08-26T01:30:48.846Z</Time>
                    </Trackpoint>
                </Track>
                <DistanceMeters>5.961533301198793</DistanceMeters>
                <TotalTimeSeconds>176.113031825</TotalTimeSeconds>
                <Calories>19.48332411111111</Calories>
                <Intensity>Active</Intensity>
                <TriggerMethod>Manual</TriggerMethod>
            </Lap>
        </Activity>
        <Activity Sport="Walking">
            <Id>2023-08-26T01:30:48.846Z</Id>
            <Lap StartTime="2023-08-26T01:30:48.846Z">
                <Track>
                    <Trackpoint>
                        <DistanceMeters>0.0</DistanceMeters>
                        <Time>2023-08-26T01:30:48.846Z</Time>
                    </Trackpoint>
                    <Trackpoint>
                        <DistanceMeters>0.0</DistanceMeters>
                        <Time>2023-08-26T01:38:27.903Z</Time>
                    </Trackpoint>
                    <Trackpoint>
                        <DistanceMeters>42.39312569741364</DistanceMeters>
                        <Time>2023-08-26T01:39:48.577Z</Time>
                    </Trackpoint>
                    <Trackpoint>
                        <DistanceMeters>176.81015746896392</DistanceMeters>
                        <Time>2023-08-26T01:41:32.874Z</Time>
                    </Trackpoint>
                    <Trackpoint>
                        <DistanceMeters>250.34873315256726</DistanceMeters>
                        <Time>2023-08-26T01:42:34.342Z</Time>
                    </Trackpoint>
                    <Trackpoint>
                        <DistanceMeters>310.4946296038851</DistanceMeters>
                        <Time>2023-08-26T01:43:24.145Z</Time>
                    </Trackpoint>
                    <Trackpoint>
                        <DistanceMeters>381.1938802911991</DistanceMeters>
                        <Time>2023-08-26T01:44:25.181Z</Time>
                    </Trackpoint>
                </Track>
                <DistanceMeters>381.1938802911991</DistanceMeters>
                <TotalTimeSeconds>816.335061564</TotalTimeSeconds>
                <Calories>40.07844613416</Calories>
                <Intensity>Active</Intensity>
                <TriggerMethod>Manual</TriggerMethod>
            </Lap>
        </Activity>
        <Activity Sport="Walking">
            <Id>2023-08-26T01:43:24.145Z</Id>
            <Lap StartTime="2023-08-26T01:43:24.145Z">
                <Track>
                    <Trackpoint>
                        <DistanceMeters>0.0</DistanceMeters>
                        <Time>2023-08-26T01:43:24.145Z</Time>
                    </Trackpoint>
                    <Trackpoint>
                        <DistanceMeters>70.69925068731405</DistanceMeters>
                        <Time>2023-08-26T01:43:58.561Z</Time>
                    </Trackpoint>
                    <Trackpoint>
                        <DistanceMeters>70.69925068731405</DistanceMeters>
                        <Time>2023-08-26T01:44:25.181Z</Time>
                    </Trackpoint>
                    <Trackpoint>
                        <DistanceMeters>104.56182970399166</DistanceMeters>
                        <Time>2023-08-26T01:44:50.819Z</Time>
                    </Trackpoint>
                    <Trackpoint>
                        <DistanceMeters>131.22995107517684</DistanceMeters>
                        <Time>2023-08-26T01:45:12.431Z</Time>
                    </Trackpoint>
                    <Trackpoint>
                        <DistanceMeters>163.77946407688492</DistanceMeters>
                        <Time>2023-08-26T01:45:38.508Z</Time>
                    </Trackpoint>
                    <Trackpoint>
                        <DistanceMeters>189.61277504874636</DistanceMeters>
                        <Time>2023-08-26T01:46:08.497Z</Time>
                    </Trackpoint>
                    <Trackpoint>
                        <DistanceMeters>211.57106745906356</DistanceMeters>
                        <Time>2023-08-26T01:46:25.429Z</Time>
                    </Trackpoint>
                    <Trackpoint>
                        <DistanceMeters>248.65229702555357</DistanceMeters>
                        <Time>2023-08-26T01:46:54.643Z</Time>
                    </Trackpoint>
                    <Trackpoint>
                        <DistanceMeters>263.97149737833456</DistanceMeters>
                        <Time>2023-08-26T01:47:08.555Z</Time>
                    </Trackpoint>
                    <Trackpoint>
                        <DistanceMeters>289.9432385745814</DistanceMeters>
                        <Time>2023-08-26T01:47:27.725Z</Time>
                    </Trackpoint>
                    <Trackpoint>
                        <DistanceMeters>322.7829583741718</DistanceMeters>
                        <Time>2023-08-26T01:47:53.291Z</Time>
                    </Trackpoint>
                    <Trackpoint>
                        <DistanceMeters>329.97753349459447</DistanceMeters>
                        <Time>2023-08-26T01:47:59.156Z</Time>
                    </Trackpoint>
                    <Trackpoint>
                        <DistanceMeters>370.8536496855272</DistanceMeters>
                        <Time>2023-08-26T01:48:32.833Z</Time>
                    </Trackpoint>
                    <Trackpoint>
                        <DistanceMeters>394.94979882587893</DistanceMeters>
                        <Time>2023-08-26T01:48:51.558Z</Time>
                    </Trackpoint>
                    <Trackpoint>
                        <DistanceMeters>430.7120952384124</DistanceMeters>
                        <Time>2023-08-26T01:49:21.275Z</Time>
                    </Trackpoint>
                    <Trackpoint>
                        <DistanceMeters>467.40849811319276</DistanceMeters>
                        <Time>2023-08-26T01:49:51.180Z</Time>
                    </Trackpoint>
                    <Trackpoint>
                        <DistanceMeters>488.7959956563718</DistanceMeters>
                        <Time>2023-08-26T01:50:09.143Z</Time>
                    </Trackpoint>
                    <Trackpoint>
                        <DistanceMeters>524.1606796075595</DistanceMeters>
                        <Time>2023-08-26T01:50:37.679Z</Time>
                    </Trackpoint>
                    <Trackpoint>
                        <DistanceMeters>547.4740329070266</DistanceMeters>
                        <Time>2023-08-26T01:50:55.927Z</Time>
                    </Trackpoint>
                    <Trackpoint>
                        <DistanceMeters>579.0732782293995</DistanceMeters>
                        <Time>2023-08-26T01:51:21.838Z</Time>
                    </Trackpoint>
                    <Trackpoint>
                        <DistanceMeters>616.0384547839953</DistanceMeters>
                        <Time>2023-08-26T01:51:51.257Z</Time>
                    </Trackpoint>
                    <Trackpoint>
                        <DistanceMeters>639.2666865280346</DistanceMeters>
                        <Time>2023-08-26T01:52:09.654Z</Time>
                    </Trackpoint>
                    <Trackpoint>
                        <DistanceMeters>676.0563253665998</DistanceMeters>
                        <Time>2023-08-26T01:52:39.388Z</Time>
                    </Trackpoint>
                    <Trackpoint>
                        <DistanceMeters>711.2351531244506</DistanceMeters>
                        <Time>2023-08-26T01:53:08.265Z</Time>
                    </Trackpoint>
                    <Trackpoint>
                        <DistanceMeters>738.9290066314712</DistanceMeters>
                        <Time>2023-08-26T01:53:33.904Z</Time>
                    </Trackpoint>
                    <Trackpoint>
                        <DistanceMeters>778.123406658014</DistanceMeters>
                        <Time>2023-08-26T01:54:03.150Z</Time>
                    </Trackpoint>
                    <Trackpoint>
                        <DistanceMeters>803.1639592603738</DistanceMeters>
                        <Time>2023-08-26T01:54:22.080Z</Time>
                    </Trackpoint>
                </Track>
                <DistanceMeters>803.1639592603738</DistanceMeters>
                <TotalTimeSeconds>657.935375376</TotalTimeSeconds>
                <Calories>68.57580488888888</Calories>
                <Intensity>Active</Intensity>
                <TriggerMethod>Manual</TriggerMethod>
            </Lap>
        </Activity>
        <Activity Sport="Walking">
            <Id>2023-08-26T01:54:03.150Z</Id>
            <Lap StartTime="2023-08-26T01:54:03.150Z">
                <Track>
                    <Trackpoint>
                        <DistanceMeters>0.0</DistanceMeters>
                        <Time>2023-08-26T01:54:03.150Z</Time>
                    </Trackpoint>
                    <Trackpoint>
                        <DistanceMeters>25.040552602359785</DistanceMeters>
                        <Time>2023-08-26T01:54:11.453Z</Time>
                    </Trackpoint>
                    <Trackpoint>
                        <DistanceMeters>25.040552602359785</DistanceMeters>
                        <Time>2023-08-26T01:54:22.080Z</Time>
                    </Trackpoint>
                    <Trackpoint>
                        <DistanceMeters>45.57881586213154</DistanceMeters>
                        <Time>2023-08-26T01:54:44.212Z</Time>
                    </Trackpoint>
                </Track>
                <DistanceMeters>45.57881586213154</DistanceMeters>
                <TotalTimeSeconds>41.062262948</TotalTimeSeconds>
                <Calories>3.665430496663222</Calories>
                <Intensity>Active</Intensity>
                <TriggerMethod>Manual</TriggerMethod>
            </Lap>
        </Activity>
        <Activity Sport="Walking">
            <Id>2023-08-26T01:54:44.212Z</Id>
            <Lap StartTime="2023-08-26T01:54:44.212Z">
                <Track>
                    <Trackpoint>
                        <DistanceMeters>0.0</DistanceMeters>
                        <Time>2023-08-26T01:54:44.212Z</Time>
                    </Trackpoint>
                    <Trackpoint>
                        <DistanceMeters>0.0</DistanceMeters>
                        <Time>2023-08-26T01:59:52.728Z</Time>
                    </Trackpoint>
                    <Trackpoint>
                        <DistanceMeters>23.846133204795173</DistanceMeters>
                        <Time>2023-08-26T02:01:04.728Z</Time>
                    </Trackpoint>
                    <Trackpoint>
                        <DistanceMeters>93.6014848290221</DistanceMeters>
                        <Time>2023-08-26T02:02:05.629Z</Time>
                    </Trackpoint>
                </Track>
                <DistanceMeters>93.6014848290221</DistanceMeters>
                <TotalTimeSeconds>441.416722125</TotalTimeSeconds>
                <Calories>13.645400777677953</Calories>
                <Intensity>Active</Intensity>
                <TriggerMethod>Manual</TriggerMethod>
            </Lap>
        </Activity>
        <Activity Sport="Walking">
            <Id>2023-08-26T02:01:04.728Z</Id>
            <Lap StartTime="2023-08-26T02:01:04.728Z">
                <Track>
                    <Trackpoint>
                        <DistanceMeters>0.0</DistanceMeters>
                        <Time>2023-08-26T02:01:04.728Z</Time>
                    </Trackpoint>
                    <Trackpoint>
                        <DistanceMeters>69.75535162422693</DistanceMeters>
                        <Time>2023-08-26T02:01:50.391Z</Time>
                    </Trackpoint>
                    <Trackpoint>
                        <DistanceMeters>69.75535162422693</DistanceMeters>
                        <Time>2023-08-26T02:02:24.488Z</Time>
                    </Trackpoint>
                </Track>
                <DistanceMeters>69.75535162422693</DistanceMeters>
                <TotalTimeSeconds>79.759381783</TotalTimeSeconds>
                <Calories>3.815075444444444</Calories>
                <Intensity>Active</Intensity>
                <TriggerMethod>Manual</TriggerMethod>
            </Lap>
        </Activity>
        <Activity Sport="Walking">
            <Id>2023-08-26T02:02:24.488Z</Id>
            <Lap StartTime="2023-08-26T02:02:24.488Z">
                <Track>
                    <Trackpoint>
                        <DistanceMeters>0.0</DistanceMeters>
                        <Time>2023-08-26T02:02:24.488Z</Time>
                    </Trackpoint>
                    <Trackpoint>
                        <DistanceMeters>54.593951153819525</DistanceMeters>
                        <Time>2023-08-26T02:03:05.262Z</Time>
                    </Trackpoint>
                    <Trackpoint>
                        <DistanceMeters>126.79474335722713</DistanceMeters>
                        <Time>2023-08-26T02:04:30.460Z</Time>
                    </Trackpoint>
                </Track>
                <DistanceMeters>126.79474335722713</DistanceMeters>
                <TotalTimeSeconds>125.972670471</TotalTimeSeconds>
                <Calories>14.094942129366332</Calories>
                <Intensity>Active</Intensity>
                <TriggerMethod>Manual</TriggerMethod>
            </Lap>
        </Activity>
        <Activity Sport="Walking">
            <Id>2023-08-26T02:04:30.460Z</Id>
            <Lap StartTime="2023-08-26T02:04:30.460Z">
                <Track>
                    <Trackpoint>
                        <DistanceMeters>0.0</DistanceMeters>
                        <Time>2023-08-26T02:04:30.460Z</Time>
                    </Trackpoint>
                    <Trackpoint>
                        <DistanceMeters>58.29054783394375</DistanceMeters>
                        <Time>2023-08-26T02:05:37.646Z</Time>
                    </Trackpoint>
                    <Trackpoint>
                        <DistanceMeters>58.29054783394375</DistanceMeters>
                        <Time>2023-08-26T02:06:40.736Z</Time>
                    </Trackpoint>
                    <Trackpoint>
                        <DistanceMeters>119.23066602397586</DistanceMeters>
                        <Time>2023-08-26T02:08:14.120Z</Time>
                    </Trackpoint>
                </Track>
                <DistanceMeters>119.23066602397586</DistanceMeters>
                <TotalTimeSeconds>223.6593752</TotalTimeSeconds>
                <Calories>13.536765333333333</Calories>
                <Intensity>Active</Intensity>
                <TriggerMethod>Manual</TriggerMethod>
            </Lap>
        </Activity>
        <Activity Sport="Walking">
            <Id>2023-08-26T02:07:38.630Z</Id>
            <Lap StartTime="2023-08-26T02:07:38.630Z">
                <Track>
                    <Trackpoint>
                        <DistanceMeters>0.0</DistanceMeters>
                        <Time>2023-08-26T02:07:38.630Z</Time>
                    </Trackpoint>
                    <Trackpoint>
                        <DistanceMeters>0.0</DistanceMeters>
                        <Time>2023-08-26T02:08:28.952Z</Time>
                    </Trackpoint>
                    <Trackpoint>
                        <DistanceMeters>59.61533301198793</DistanceMeters>
                        <Time>2023-08-26T02:11:28.952Z</Time>
                    </Trackpoint>
                    <Trackpoint>
                        <DistanceMeters>105.9828142435341</DistanceMeters>
                        <Time>2023-08-26T02:12:32.898Z</Time>
                    </Trackpoint>
                </Track>
                <DistanceMeters>105.9828142435341</DistanceMeters>
                <TotalTimeSeconds>294.268159674</TotalTimeSeconds>
                <Calories>7.5938361645537515</Calories>
                <Intensity>Active</Intensity>
                <TriggerMethod>Manual</TriggerMethod>
            </Lap>
        </Activity>
        <Activity Sport="Walking">
            <Id>2023-08-26T02:11:28.952Z</Id>
            <Lap StartTime="2023-08-26T02:11:28.952Z">
                <Track>
                    <Trackpoint>
                        <DistanceMeters>0.0</DistanceMeters>
                        <Time>2023-08-26T02:11:28.952Z</Time>
                    </Trackpoint>
                    <Trackpoint>
                        <DistanceMeters>46.367481231546165</DistanceMeters>
                        <Time>2023-08-26T02:11:50.643Z</Time>
                    </Trackpoint>
                    <Trackpoint>
                        <DistanceMeters>46.367481231546165</DistanceMeters>
                        <Time>2023-08-26T02:12:32.898Z</Time>
                    </Trackpoint>
                    <Trackpoint>
                        <DistanceMeters>50.34183676567869</DistanceMeters>
                        <Time>2023-08-26T02:17:43.313Z</Time>
                    </Trackpoint>
                    <Trackpoint>
                        <DistanceMeters>100.0212809423353</DistanceMeters>
                        <Time>2023-08-26T02:20:13.313Z</Time>
                    </Trackpoint>
                </Track>
                <DistanceMeters>100.0212809423353</DistanceMeters>
                <TotalTimeSeconds>524.360661855</TotalTimeSeconds>
                <Calories>48.44229444444444</Calories>
                <Intensity>Active</Intensity>
                <TriggerMethod>Manual</TriggerMethod>
            </Lap>
        </Activity>
        <Activity Sport="Walking">
            <Id>2023-08-26T02:25:48.436Z</Id>
            <Lap StartTime="2023-08-26T02:25:48.436Z">
                <Track>
                    <Trackpoint>
                        <DistanceMeters>0.0</DistanceMeters>
                        <Time>2023-08-26T02:25:48.436Z</Time>
                    </Trackpoint>
                    <Trackpoint>
                        <DistanceMeters>29.145273916971874</DistanceMeters>
                        <Time>2023-08-26T02:25:59.603Z</Time>
                    </Trackpoint>
                    <Trackpoint>
                        <DistanceMeters>29.145273916971874</DistanceMeters>
                        <Time>2023-08-26T02:31:28.697Z</Time>
                    </Trackpoint>
                    <Trackpoint>
                        <DistanceMeters>68.22643666927507</DistanceMeters>
                        <Time>2023-08-26T02:33:26.697Z</Time>
                    </Trackpoint>
                    <Trackpoint>
                        <DistanceMeters>117.90588084593168</DistanceMeters>
                        <Time>2023-08-26T02:34:29.131Z</Time>
                    </Trackpoint>
                    <Trackpoint>
                        <DistanceMeters>168.91011020063246</DistanceMeters>
                        <Time>2023-08-26T02:35:43.818Z</Time>
                    </Trackpoint>
                    <Trackpoint>
                        <DistanceMeters>229.67775766873544</DistanceMeters>
                        <Time>2023-08-26T02:36:46.507Z</Time>
                    </Trackpoint>
                    <Trackpoint>
                        <DistanceMeters>280.0195944344141</DistanceMeters>
                        <Time>2023-08-26T02:39:18.507Z</Time>
                    </Trackpoint>
                    <Trackpoint>
                        <DistanceMeters>303.8657276392093</DistanceMeters>
                        <Time>2023-08-26T02:40:12.766Z</Time>
                    </Trackpoint>
                    <Trackpoint>
                        <DistanceMeters>342.2844978024904</DistanceMeters>
                        <Time>2023-08-26T02:41:06.607Z</Time>
                    </Trackpoint>
                    <Trackpoint>
                        <DistanceMeters>397.26308269132375</DistanceMeters>
                        <Time>2023-08-26T02:43:27.971Z</Time>
                    </Trackpoint>
                </Track>
                <DistanceMeters>397.26308269132375</DistanceMeters>
                <TotalTimeSeconds>1059.535059055</TotalTimeSeconds>
                <Calories>105.6261321111111</Calories>
                <Intensity>Active</Intensity>
                <TriggerMethod>Manual</TriggerMethod>
            </Lap>
        </Activity>
        <Activity Sport="Walking">
            <Id>2023-08-26T02:41:43.630Z</Id>
            <Lap StartTime="2023-08-26T02:41:43.630Z">
                <Track>
                    <Trackpoint>
                        <DistanceMeters>0.0</DistanceMeters>
                        <Time>2023-08-26T02:41:43.630Z</Time>
                    </Trackpoint>
                    <Trackpoint>
                        <DistanceMeters>0.0</DistanceMeters>
                        <Time>2023-08-26T02:43:27.971Z</Time>
                    </Trackpoint>
                    <Trackpoint>
                        <DistanceMeters>24.50852579381726</DistanceMeters>
                        <Time>2023-08-26T02:44:12.627Z</Time>
                    </Trackpoint>
                    <Trackpoint>
                        <DistanceMeters>52.99140712176705</DistanceMeters>
                        <Time>2023-08-26T02:44:43.849Z</Time>
                    </Trackpoint>
                </Track>
                <DistanceMeters>52.99140712176705</DistanceMeters>
                <TotalTimeSeconds>180.219466083</TotalTimeSeconds>
                <Calories>6.109388078306489</Calories>
                <Intensity>Active</Intensity>
                <TriggerMethod>Manual</TriggerMethod>
            </Lap>
        </Activity>
        <Activity Sport="Walking">
            <Id>2023-08-26T02:44:12.627Z</Id>
            <Lap StartTime="2023-08-26T02:44:12.627Z">
                <Track>
                    <Trackpoint>
                        <DistanceMeters>0.0</DistanceMeters>
                        <Time>2023-08-26T02:44:12.627Z</Time>
                    </Trackpoint>
                    <Trackpoint>
                        <DistanceMeters>28.482881327949787</DistanceMeters>
                        <Time>2023-08-26T02:44:37.356Z</Time>
                    </Trackpoint>
                    <Trackpoint>
                        <DistanceMeters>28.482881327949787</DistanceMeters>
                        <Time>2023-08-26T02:44:43.849Z</Time>
                    </Trackpoint>
                    <Trackpoint>
                        <DistanceMeters>42.39312569741364</DistanceMeters>
                        <Time>2023-08-26T02:45:20.823Z</Time>
                    </Trackpoint>
                    <Trackpoint>
                        <DistanceMeters>75.33823069409247</DistanceMeters>
                        <Time>2023-08-26T02:45:50.086Z</Time>
                    </Trackpoint>
                    <Trackpoint>
                        <DistanceMeters>105.79105509942649</DistanceMeters>
                        <Time>2023-08-26T02:46:16.228Z</Time>
                    </Trackpoint>
                    <Trackpoint>
                        <DistanceMeters>116.38933652377989</DistanceMeters>
                        <Time>2023-08-26T02:46:51.412Z</Time>
                    </Trackpoint>
                    <Trackpoint>
                        <DistanceMeters>148.1841807968401</DistanceMeters>
                        <Time>2023-08-26T02:48:27.412Z</Time>
                    </Trackpoint>
                </Track>
                <DistanceMeters>148.1841807968401</DistanceMeters>
                <TotalTimeSeconds>254.784959419</TotalTimeSeconds>
                <Calories>19.169475777777777</Calories>
                <Intensity>Active</Intensity>
                <TriggerMethod>Manual</TriggerMethod>
            </Lap>
        </Activity>
        <Activity Sport="Walking">
            <Id>2023-08-26T02:51:11.130Z</Id>
            <Lap StartTime="2023-08-26T02:51:11.130Z">
                <Track>
                    <Trackpoint>
                        <DistanceMeters>0.0</DistanceMeters>
                        <Time>2023-08-26T02:51:11.130Z</Time>
                    </Trackpoint>
                    <Trackpoint>
                        <DistanceMeters>0.0</DistanceMeters>
                        <Time>2023-08-26T02:52:43.717Z</Time>
                    </Trackpoint>
                    <Trackpoint>
                        <DistanceMeters>17.884599903596378</DistanceMeters>
                        <Time>2023-08-26T02:54:01.515Z</Time>
                    </Trackpoint>
                    <Trackpoint>
                        <DistanceMeters>35.10680721817067</DistanceMeters>
                        <Time>2023-08-26T02:55:01.515Z</Time>
                    </Trackpoint>
                    <Trackpoint>
                        <DistanceMeters>74.18796997047387</DistanceMeters>
                        <Time>2023-08-26T02:56:34.656Z</Time>
                    </Trackpoint>
                    <Trackpoint>
                        <DistanceMeters>100.02128094233531</DistanceMeters>
                        <Time>2023-08-26T02:57:38.471Z</Time>
                    </Trackpoint>
                    <Trackpoint>
                        <DistanceMeters>128.5041622702851</DistanceMeters>
                        <Time>2023-08-26T02:58:41.059Z</Time>
                    </Trackpoint>
                </Track>
                <DistanceMeters>128.5041622702851</DistanceMeters>
                <TotalTimeSeconds>449.929</TotalTimeSeconds>
                <Calories>50.34205588888889</Calories>
                <Intensity>Active</Intensity>
                <TriggerMethod>Manual</TriggerMethod>
            </Lap>
        </Activity>
        <Activity Sport="Walking">
            <Id>2023-08-26T02:58:41.059Z</Id>
            <Lap StartTime="2023-08-26T02:58:41.059Z">
                <Track>
                    <Trackpoint>
                        <DistanceMeters>0.0</DistanceMeters>
                        <Time>2023-08-26T02:58:41.059Z</Time>
                    </Trackpoint>
                    <Trackpoint>
                        <DistanceMeters>0.0</DistanceMeters>
                        <Time>2023-08-26T03:07:27.989Z</Time>
                    </Trackpoint>
                    <Trackpoint>
                        <DistanceMeters>2.1600197500948983</DistanceMeters>
                        <Time>2023-08-26T03:07:29.745Z</Time>
                    </Trackpoint>
                    <Trackpoint>
                        <DistanceMeters>29.468730631058087</DistanceMeters>
                        <Time>2023-08-26T03:07:58.626Z</Time>
                    </Trackpoint>
                    <Trackpoint>
                        <DistanceMeters>73.91374735375457</DistanceMeters>
                        <Time>2023-08-26T03:08:28.288Z</Time>
                    </Trackpoint>
                </Track>
                <DistanceMeters>73.91374735375457</DistanceMeters>
                <TotalTimeSeconds>587.229771967</TotalTimeSeconds>
                <Calories>17.218633636033363</Calories>
                <Intensity>Active</Intensity>
                <TriggerMethod>Manual</TriggerMethod>
            </Lap>
        </Activity>
        <Activity Sport="Walking">
            <Id>2023-08-26T03:07:58.626Z</Id>
            <Lap StartTime="2023-08-26T03:07:58.626Z">
                <Track>
                    <Trackpoint>
                        <DistanceMeters>0.0</DistanceMeters>
                        <Time>2023-08-26T03:07:58.626Z</Time>
                    </Trackpoint>
                    <Trackpoint>
                        <DistanceMeters>44.44501672269649</DistanceMeters>
                        <Time>2023-08-26T03:08:17.636Z</Time>
                    </Trackpoint>
                    <Trackpoint>
                        <DistanceMeters>44.44501672269649</DistanceMeters>
                        <Time>2023-08-26T03:08:28.288Z</Time>
                    </Trackpoint>
                    <Trackpoint>
                        <DistanceMeters>65.84694662185372</DistanceMeters>
                        <Time>2023-08-26T03:08:41.168Z</Time>
                    </Trackpoint>
                    <Trackpoint>
                        <DistanceMeters>92.76910966996121</DistanceMeters>
                        <Time>2023-08-26T03:08:58.926Z</Time>
                    </Trackpoint>
                    <Trackpoint>
                        <DistanceMeters>138.35226661205974</DistanceMeters>
                        <Time>2023-08-26T03:09:28.589Z</Time>
                    </Trackpoint>
                    <Trackpoint>
                        <DistanceMeters>153.0726938976922</DistanceMeters>
                        <Time>2023-08-26T03:09:41.663Z</Time>
                    </Trackpoint>
                    <Trackpoint>
                        <DistanceMeters>171.65063351924496</DistanceMeters>
                        <Time>2023-08-26T03:09:59.227Z</Time>
                    </Trackpoint>
                    <Trackpoint>
                        <DistanceMeters>200.5803297104905</DistanceMeters>
                        <Time>2023-08-26T03:10:17.675Z</Time>
                    </Trackpoint>
                </Track>
                <DistanceMeters>200.5803297104905</DistanceMeters>
                <TotalTimeSeconds>139.048362304</TotalTimeSeconds>
                <Calories>13.431030333333332</Calories>
                <Intensity>Active</Intensity>
                <TriggerMethod>Manual</TriggerMethod>
            </Lap>
        </Activity>
    </Activities>
    <Author xsi:type="Application_t">
        <Name>Google Fit</Name>
        <Build>
            <Version>
                <VersionMajor>0</VersionMajor>
                <VersionMinor>0</VersionMinor>
                <BuildMajor>0</BuildMajor>
                <BuildMinor>0</BuildMinor>
            </Version>
        </Build>
        <LangID>en</LangID>
        <PartNumber>000-00000-00</PartNumber>
    </Author>
</TrainingCenterDatabase>
