<?xml version="1.0" encoding="UTF-8"?>
<TrainingCenterDatabase
    xmlns="http://www.garmin.com/xmlschemas/TrainingCenterDatabase/v2"
    xmlns:ns2="http://www.garmin.com/xmlschemas/UserProfile/v2"
    xmlns:ns3="http://www.garmin.com/xmlschemas/ActivityExtension/v2"
    xmlns:ns4="http://www.garmin.com/xmlschemas/ProfileExtension/v1"
    xmlns:ns5="http://www.garmin.com/xmlschemas/ActivityGoals/v1"
    xmlns:xsi="http://www.w3.org/2001/XMLSchema-instance" xsi:schemaLocation="http://www.garmin.com/xmlschemas/TrainingCenterDatabase/v2 http://www.garmin.com/xmlschemas/TrainingCenterDatabasev2.xsd">
    <Activities>
        <Activity Sport="Walking">
            <Id>2023-08-13T21:26:17.470Z</Id>
            <Lap StartTime="2023-08-13T21:26:17.470Z">
                <Track>
                    <Trackpoint>
                        <DistanceMeters>0.0</DistanceMeters>
                        <Time>2023-08-13T21:26:17.470Z</Time>
                    </Trackpoint>
                    <Trackpoint>
                        <DistanceMeters>35.106807218170665</DistanceMeters>
                        <Time>2023-08-13T21:27:29.049Z</Time>
                    </Trackpoint>
                    <Trackpoint>
                        <DistanceMeters>35.106807218170665</DistanceMeters>
                        <Time>2023-08-13T21:29:56.718Z</Time>
                    </Trackpoint>
                    <Trackpoint>
                        <DistanceMeters>94.05974764113651</DistanceMeters>
                        <Time>2023-08-13T21:31:06.473Z</Time>
                    </Trackpoint>
                    <Trackpoint>
                        <DistanceMeters>145.72636958485938</DistanceMeters>
                        <Time>2023-08-13T21:32:07.625Z</Time>
                    </Trackpoint>
                    <Trackpoint>
                        <DistanceMeters>155.6622584201907</DistanceMeters>
                        <Time>2023-08-13T21:32:57.538Z</Time>
                    </Trackpoint>
                </Track>
                <DistanceMeters>155.6622584201907</DistanceMeters>
                <TotalTimeSeconds>400.067095295</TotalTimeSeconds>
                <Calories>36.75426922222221</Calories>
                <Intensity>Active</Intensity>
                <TriggerMethod>Manual</TriggerMethod>
            </Lap>
        </Activity>
        <Activity Sport="Walking">
            <Id>2023-08-13T21:32:57.538Z</Id>
            <Lap StartTime="2023-08-13T21:32:57.538Z">
                <Track>
                    <Trackpoint>
                        <DistanceMeters>0.0</DistanceMeters>
                        <Time>2023-08-13T21:32:57.538Z</Time>
                    </Trackpoint>
                    <Trackpoint>
                        <DistanceMeters>0.0</DistanceMeters>
                        <Time>2023-08-13T21:34:28.566Z</Time>
                    </Trackpoint>
                    <Trackpoint>
                        <DistanceMeters>0.0</DistanceMeters>
                        <Time>2023-08-13T21:34:47.093Z</Time>
                    </Trackpoint>
                </Track>
                <DistanceMeters>0.0</DistanceMeters>
                <TotalTimeSeconds>109.555</TotalTimeSeconds>
                <Calories>4.115030626909174</Calories>
                <Intensity>Active</Intensity>
                <TriggerMethod>Manual</TriggerMethod>
            </Lap>
        </Activity>
        <Activity Sport="Walking">
            <Id>2023-08-13T21:34:47.093Z</Id>
            <Lap StartTime="2023-08-13T21:34:47.093Z">
                <Track>
                    <Trackpoint>
                        <DistanceMeters>0.0</DistanceMeters>
                        <Time>2023-08-13T21:34:47.093Z</Time>
                    </Trackpoint>
                    <Trackpoint>
                        <DistanceMeters>26.24447045025046</DistanceMeters>
                        <Time>2023-08-13T21:35:27.032Z</Time>
                    </Trackpoint>
                    <Trackpoint>
                        <DistanceMeters>39.680342230157706</DistanceMeters>
                        <Time>2023-08-13T21:35:38.622Z</Time>
                    </Trackpoint>
                    <Trackpoint>
                        <DistanceMeters>75.71888368849193</DistanceMeters>
                        <Time>2023-08-13T21:36:20.214Z</Time>
                    </Trackpoint>
                    <Trackpoint>
                        <DistanceMeters>98.902624304265</DistanceMeters>
                        <Time>2023-08-13T21:37:30.214Z</Time>
                    </Trackpoint>
                    <Trackpoint>
                        <DistanceMeters>191.63758676735733</DistanceMeters>
                        <Time>2023-08-13T21:39:40.477Z</Time>
                    </Trackpoint>
                    <Trackpoint>
                        <DistanceMeters>239.32985317694767</DistanceMeters>
                        <Time>2023-08-13T21:40:41.460Z</Time>
                    </Trackpoint>
                    <Trackpoint>
                        <DistanceMeters>321.4974648182855</DistanceMeters>
                        <Time>2023-08-13T21:42:07.466Z</Time>
                    </Trackpoint>
                    <Trackpoint>
                        <DistanceMeters>396.8032823474782</DistanceMeters>
                        <Time>2023-08-13T21:43:13.463Z</Time>
                    </Trackpoint>
                    <Trackpoint>
                        <DistanceMeters>463.042541249687</DistanceMeters>
                        <Time>2023-08-13T21:44:44.898Z</Time>
                    </Trackpoint>
                    <Trackpoint>
                        <DistanceMeters>595.5210590541046</DistanceMeters>
                        <Time>2023-08-13T21:48:04.689Z</Time>
                    </Trackpoint>
                    <Trackpoint>
                        <DistanceMeters>646.5252884088054</DistanceMeters>
                        <Time>2023-08-13T21:50:04.929Z</Time>
                    </Trackpoint>
                    <Trackpoint>
                        <DistanceMeters>691.5679844623074</DistanceMeters>
                        <Time>2023-08-13T21:51:04.347Z</Time>
                    </Trackpoint>
                    <Trackpoint>
                        <DistanceMeters>741.9098212279862</DistanceMeters>
                        <Time>2023-08-13T21:52:15.416Z</Time>
                    </Trackpoint>
                    <Trackpoint>
                        <DistanceMeters>854.0544637515882</DistanceMeters>
                        <Time>2023-08-13T21:54:10.683Z</Time>
                    </Trackpoint>
                    <Trackpoint>
                        <DistanceMeters>877.2382043673613</DistanceMeters>
                        <Time>2023-08-13T21:55:00.804Z</Time>
                    </Trackpoint>
                    <Trackpoint>
                        <DistanceMeters>971.2415824024032</DistanceMeters>
                        <Time>2023-08-13T21:56:14.331Z</Time>
                    </Trackpoint>
                    <Trackpoint>
                        <DistanceMeters>1035.8682598447144</DistanceMeters>
                        <Time>2023-08-13T21:57:00.170Z</Time>
                    </Trackpoint>
                    <Trackpoint>
                        <DistanceMeters>1040.5922394300496</DistanceMeters>
                        <Time>2023-08-13T21:57:04.943Z</Time>
                    </Trackpoint>
                    <Trackpoint>
                        <DistanceMeters>1081.6605799494191</DistanceMeters>
                        <Time>2023-08-13T21:58:14.446Z</Time>
                    </Trackpoint>
                    <Trackpoint>
                        <DistanceMeters>1188.9681793709974</DistanceMeters>
                        <Time>2023-08-13T22:00:15.443Z</Time>
                    </Trackpoint>
                    <Trackpoint>
                        <DistanceMeters>1253.22026050614</DistanceMeters>
                        <Time>2023-08-13T22:02:16.462Z</Time>
                    </Trackpoint>
                    <Trackpoint>
                        <DistanceMeters>1299.8367004625006</DistanceMeters>
                        <Time>2023-08-13T22:03:01.090Z</Time>
                    </Trackpoint>
                    <Trackpoint>
                        <DistanceMeters>1329.2076584547824</DistanceMeters>
                        <Time>2023-08-13T22:03:29.559Z</Time>
                    </Trackpoint>
                    <Trackpoint>
                        <DistanceMeters>1348.1239452862098</DistanceMeters>
                        <Time>2023-08-13T22:03:46.390Z</Time>
                    </Trackpoint>
                    <Trackpoint>
                        <DistanceMeters>1382.4831051424749</DistanceMeters>
                        <Time>2023-08-13T22:04:14.867Z</Time>
                    </Trackpoint>
                    <Trackpoint>
                        <DistanceMeters>1392.3623021510737</DistanceMeters>
                        <Time>2023-08-13T22:05:07.597Z</Time>
                    </Trackpoint>
                </Track>
                <DistanceMeters>1392.3623021510737</DistanceMeters>
                <TotalTimeSeconds>1820.504</TotalTimeSeconds>
                <Calories>203.69416977777777</Calories>
                <Intensity>Active</Intensity>
                <TriggerMethod>Manual</TriggerMethod>
            </Lap>
        </Activity>
        <Activity Sport="Walking">
            <Id>2023-08-13T22:05:07.597Z</Id>
            <Lap StartTime="2023-08-13T22:05:07.597Z">
                <Track>
                    <Trackpoint>
                        <DistanceMeters>0.0</DistanceMeters>
                        <Time>2023-08-13T22:05:07.597Z</Time>
                    </Trackpoint>
                    <Trackpoint>
                        <DistanceMeters>0.0</DistanceMeters>
                        <Time>2023-08-13T22:13:27.450Z</Time>
                    </Trackpoint>
                    <Trackpoint>
                        <DistanceMeters>17.884599903596378</DistanceMeters>
                        <Time>2023-08-13T22:14:27.450Z</Time>
                    </Trackpoint>
                    <Trackpoint>
                        <DistanceMeters>103.81786724008504</DistanceMeters>
                        <Time>2023-08-13T22:15:38.577Z</Time>
                    </Trackpoint>
                    <Trackpoint>
                        <DistanceMeters>171.97272416444565</DistanceMeters>
                        <Time>2023-08-13T22:16:38.637Z</Time>
                    </Trackpoint>
                </Track>
                <DistanceMeters>171.97272416444565</DistanceMeters>
                <TotalTimeSeconds>691.040320009</TotalTimeSeconds>
                <Calories>21.503105497741096</Calories>
                <Intensity>Active</Intensity>
                <TriggerMethod>Manual</TriggerMethod>
            </Lap>
        </Activity>
        <Activity Sport="Walking">
            <Id>2023-08-13T22:15:38.577Z</Id>
            <Lap StartTime="2023-08-13T22:15:38.577Z">
                <Track>
                    <Trackpoint>
                        <DistanceMeters>0.0</DistanceMeters>
                        <Time>2023-08-13T22:15:38.577Z</Time>
                    </Trackpoint>
                    <Trackpoint>
                        <DistanceMeters>68.15485692436063</DistanceMeters>
                        <Time>2023-08-13T22:15:47.384Z</Time>
                    </Trackpoint>
                    <Trackpoint>
                        <DistanceMeters>68.15485692436063</DistanceMeters>
                        <Time>2023-08-13T22:16:38.637Z</Time>
                    </Trackpoint>
                    <Trackpoint>
                        <DistanceMeters>88.24483897584652</DistanceMeters>
                        <Time>2023-08-13T22:16:57.199Z</Time>
                    </Trackpoint>
                    <Trackpoint>
                        <DistanceMeters>120.03968324890675</DistanceMeters>
                        <Time>2023-08-13T22:18:30.960Z</Time>
                    </Trackpoint>
                    <Trackpoint>
                        <DistanceMeters>158.45845341218785</DistanceMeters>
                        <Time>2023-08-13T22:20:26.960Z</Time>
                    </Trackpoint>
                    <Trackpoint>
                        <DistanceMeters>211.33295840558736</DistanceMeters>
                        <Time>2023-08-13T22:21:48.970Z</Time>
                    </Trackpoint>
                </Track>
                <DistanceMeters>211.33295840558736</DistanceMeters>
                <TotalTimeSeconds>370.392478302</TotalTimeSeconds>
                <Calories>40.457455777777774</Calories>
                <Intensity>Active</Intensity>
                <TriggerMethod>Manual</TriggerMethod>
            </Lap>
        </Activity>
    </Activities>
    <Author xsi:type="Application_t">
        <Name>Google Fit</Name>
        <Build>
            <Version>
                <VersionMajor>0</VersionMajor>
                <VersionMinor>0</VersionMinor>
                <BuildMajor>0</BuildMajor>
                <BuildMinor>0</BuildMinor>
            </Version>
        </Build>
        <LangID>en</LangID>
        <PartNumber>000-00000-00</PartNumber>
    </Author>
</TrainingCenterDatabase>
