<?xml version="1.0" encoding="UTF-8"?>
<TrainingCenterDatabase
    xmlns="http://www.garmin.com/xmlschemas/TrainingCenterDatabase/v2"
    xmlns:ns2="http://www.garmin.com/xmlschemas/UserProfile/v2"
    xmlns:ns3="http://www.garmin.com/xmlschemas/ActivityExtension/v2"
    xmlns:ns4="http://www.garmin.com/xmlschemas/ProfileExtension/v1"
    xmlns:ns5="http://www.garmin.com/xmlschemas/ActivityGoals/v1"
    xmlns:xsi="http://www.w3.org/2001/XMLSchema-instance" xsi:schemaLocation="http://www.garmin.com/xmlschemas/TrainingCenterDatabase/v2 http://www.garmin.com/xmlschemas/TrainingCenterDatabasev2.xsd">
    <Activities>
        <Activity Sport="Walking">
            <Id>2023-02-08T06:08:06.924Z</Id>
            <Lap StartTime="2023-02-08T06:08:06.924Z">
                <Track>
                    <Trackpoint>
                        <DistanceMeters>0.0</DistanceMeters>
                        <Time>2023-02-08T06:08:06.924Z</Time>
                    </Trackpoint>
                    <Trackpoint>
                        <DistanceMeters>20.226414955783486</DistanceMeters>
                        <Time>2023-02-08T06:09:06.243Z</Time>
                    </Trackpoint>
                    <Trackpoint>
                        <DistanceMeters>20.226414955783486</DistanceMeters>
                        <Time>2023-02-08T06:10:07.993Z</Time>
                    </Trackpoint>
                </Track>
                <DistanceMeters>20.226414955783486</DistanceMeters>
                <TotalTimeSeconds>121.06881225</TotalTimeSeconds>
                <Calories>6.3225138888888885</Calories>
                <Intensity>Active</Intensity>
                <TriggerMethod>Manual</TriggerMethod>
            </Lap>
        </Activity>
        <Activity Sport="Walking">
            <Id>2023-02-08T06:10:07.993Z</Id>
            <Lap StartTime="2023-02-08T06:10:07.993Z">
                <Track>
                    <Trackpoint>
                        <DistanceMeters>0.0</DistanceMeters>
                        <Time>2023-02-08T06:10:07.993Z</Time>
                    </Trackpoint>
                    <Trackpoint>
                        <DistanceMeters>0.0</DistanceMeters>
                        <Time>2023-02-08T06:19:01.824Z</Time>
                    </Trackpoint>
                    <Trackpoint>
                        <DistanceMeters>20.878879954357146</DistanceMeters>
                        <Time>2023-02-08T06:20:05.824Z</Time>
                    </Trackpoint>
                    <Trackpoint>
                        <DistanceMeters>46.97747989730358</DistanceMeters>
                        <Time>2023-02-08T06:20:36.464Z</Time>
                    </Trackpoint>
                </Track>
                <DistanceMeters>46.97747989730358</DistanceMeters>
                <TotalTimeSeconds>628.471187876</TotalTimeSeconds>
                <Calories>13.638100503670376</Calories>
                <Intensity>Active</Intensity>
                <TriggerMethod>Manual</TriggerMethod>
            </Lap>
        </Activity>
        <Activity Sport="Walking">
            <Id>2023-02-08T06:20:05.824Z</Id>
            <Lap StartTime="2023-02-08T06:20:05.824Z">
                <Track>
                    <Trackpoint>
                        <DistanceMeters>0.0</DistanceMeters>
                        <Time>2023-02-08T06:20:05.824Z</Time>
                    </Trackpoint>
                    <Trackpoint>
                        <DistanceMeters>26.098599942946432</DistanceMeters>
                        <Time>2023-02-08T06:20:14.965Z</Time>
                    </Trackpoint>
                    <Trackpoint>
                        <DistanceMeters>26.098599942946432</DistanceMeters>
                        <Time>2023-02-08T06:20:36.464Z</Time>
                    </Trackpoint>
                    <Trackpoint>
                        <DistanceMeters>41.10529491014063</DistanceMeters>
                        <Time>2023-02-08T06:21:13.504Z</Time>
                    </Trackpoint>
                    <Trackpoint>
                        <DistanceMeters>52.73390757992258</DistanceMeters>
                        <Time>2023-02-08T06:21:22.384Z</Time>
                    </Trackpoint>
                    <Trackpoint>
                        <DistanceMeters>75.39377273454133</DistanceMeters>
                        <Time>2023-02-08T06:21:45.424Z</Time>
                    </Trackpoint>
                    <Trackpoint>
                        <DistanceMeters>113.56725981327943</DistanceMeters>
                        <Time>2023-02-08T06:22:13.664Z</Time>
                    </Trackpoint>
                    <Trackpoint>
                        <DistanceMeters>139.21577559642787</DistanceMeters>
                        <Time>2023-02-08T06:22:32.744Z</Time>
                    </Trackpoint>
                    <Trackpoint>
                        <DistanceMeters>156.00771205163036</DistanceMeters>
                        <Time>2023-02-08T06:22:45.384Z</Time>
                    </Trackpoint>
                    <Trackpoint>
                        <DistanceMeters>192.08120576293305</DistanceMeters>
                        <Time>2023-02-08T06:23:13.584Z</Time>
                    </Trackpoint>
                    <Trackpoint>
                        <DistanceMeters>217.3442935995406</DistanceMeters>
                        <Time>2023-02-08T06:23:33.304Z</Time>
                    </Trackpoint>
                    <Trackpoint>
                        <DistanceMeters>233.78541047777648</DistanceMeters>
                        <Time>2023-02-08T06:23:46.544Z</Time>
                    </Trackpoint>
                    <Trackpoint>
                        <DistanceMeters>267.93782469299293</DistanceMeters>
                        <Time>2023-02-08T06:24:14.464Z</Time>
                    </Trackpoint>
                    <Trackpoint>
                        <DistanceMeters>290.5200363516184</DistanceMeters>
                        <Time>2023-02-08T06:24:33.424Z</Time>
                    </Trackpoint>
                    <Trackpoint>
                        <DistanceMeters>307.5097586985022</DistanceMeters>
                        <Time>2023-02-08T06:24:47.544Z</Time>
                    </Trackpoint>
                    <Trackpoint>
                        <DistanceMeters>336.3221959588372</DistanceMeters>
                        <Time>2023-02-08T06:25:10.184Z</Time>
                    </Trackpoint>
                    <Trackpoint>
                        <DistanceMeters>362.0978824045409</DistanceMeters>
                        <Time>2023-02-08T06:25:34.864Z</Time>
                    </Trackpoint>
                    <Trackpoint>
                        <DistanceMeters>378.86539978364976</DistanceMeters>
                        <Time>2023-02-08T06:25:47.544Z</Time>
                    </Trackpoint>
                    <Trackpoint>
                        <DistanceMeters>415.2228496757935</DistanceMeters>
                        <Time>2023-02-08T06:26:15.264Z</Time>
                    </Trackpoint>
                    <Trackpoint>
                        <DistanceMeters>441.163290496024</DistanceMeters>
                        <Time>2023-02-08T06:26:35.624Z</Time>
                    </Trackpoint>
                    <Trackpoint>
                        <DistanceMeters>457.1108357861192</DistanceMeters>
                        <Time>2023-02-08T06:26:47.904Z</Time>
                    </Trackpoint>
                    <Trackpoint>
                        <DistanceMeters>494.9158448800392</DistanceMeters>
                        <Time>2023-02-08T06:27:16.744Z</Time>
                    </Trackpoint>
                    <Trackpoint>
                        <DistanceMeters>520.6901663009272</DistanceMeters>
                        <Time>2023-02-08T06:27:35.624Z</Time>
                    </Trackpoint>
                    <Trackpoint>
                        <DistanceMeters>564.9137619615591</DistanceMeters>
                        <Time>2023-02-08T06:28:09.664Z</Time>
                    </Trackpoint>
                    <Trackpoint>
                        <DistanceMeters>603.2053291636599</DistanceMeters>
                        <Time>2023-02-08T06:28:39.464Z</Time>
                    </Trackpoint>
                    <Trackpoint>
                        <DistanceMeters>630.2934886349575</DistanceMeters>
                        <Time>2023-02-08T06:29:05.544Z</Time>
                    </Trackpoint>
                    <Trackpoint>
                        <DistanceMeters>648.412463245999</DistanceMeters>
                        <Time>2023-02-08T06:29:19.504Z</Time>
                    </Trackpoint>
                    <Trackpoint>
                        <DistanceMeters>675.1635281875191</DistanceMeters>
                        <Time>2023-02-08T06:29:50.264Z</Time>
                    </Trackpoint>
                    <Trackpoint>
                        <DistanceMeters>686.3212937299263</DistanceMeters>
                        <Time>2023-02-08T06:30:03.092Z</Time>
                    </Trackpoint>
                </Track>
                <DistanceMeters>686.3212937299263</DistanceMeters>
                <TotalTimeSeconds>597.267812124</TotalTimeSeconds>
                <Calories>60.21767005555555</Calories>
                <Intensity>Active</Intensity>
                <TriggerMethod>Manual</TriggerMethod>
            </Lap>
        </Activity>
        <Activity Sport="Walking">
            <Id>2023-02-08T06:30:03.092Z</Id>
            <Lap StartTime="2023-02-08T06:30:03.092Z">
                <Track>
                    <Trackpoint>
                        <DistanceMeters>0.0</DistanceMeters>
                        <Time>2023-02-08T06:30:03.092Z</Time>
                    </Trackpoint>
                    <Trackpoint>
                        <DistanceMeters>0.0</DistanceMeters>
                        <Time>2023-02-08T06:30:05.424Z</Time>
                    </Trackpoint>
                    <Trackpoint>
                        <DistanceMeters>25.446134944372773</DistanceMeters>
                        <Time>2023-02-08T06:31:23.424Z</Time>
                    </Trackpoint>
                    <Trackpoint>
                        <DistanceMeters>65.89896485593974</DistanceMeters>
                        <Time>2023-02-08T06:32:12.424Z</Time>
                    </Trackpoint>
                </Track>
                <DistanceMeters>65.89896485593974</DistanceMeters>
                <TotalTimeSeconds>129.33218759</TotalTimeSeconds>
                <Calories>3.1318556911319106</Calories>
                <Intensity>Active</Intensity>
                <TriggerMethod>Manual</TriggerMethod>
            </Lap>
        </Activity>
        <Activity Sport="Walking">
            <Id>2023-02-08T06:31:23.424Z</Id>
            <Lap StartTime="2023-02-08T06:31:23.424Z">
                <Track>
                    <Trackpoint>
                        <DistanceMeters>0.0</DistanceMeters>
                        <Time>2023-02-08T06:31:23.424Z</Time>
                    </Trackpoint>
                    <Trackpoint>
                        <DistanceMeters>40.45282991156697</DistanceMeters>
                        <Time>2023-02-08T06:31:37.342Z</Time>
                    </Trackpoint>
                    <Trackpoint>
                        <DistanceMeters>40.45282991156697</DistanceMeters>
                        <Time>2023-02-08T06:32:12.424Z</Time>
                    </Trackpoint>
                </Track>
                <DistanceMeters>40.45282991156697</DistanceMeters>
                <TotalTimeSeconds>48.999997524</TotalTimeSeconds>
                <Calories>3.116103444444444</Calories>
                <Intensity>Active</Intensity>
                <TriggerMethod>Manual</TriggerMethod>
            </Lap>
        </Activity>
        <Activity Sport="Walking">
            <Id>2023-02-08T06:31:23.424Z</Id>
            <Lap StartTime="2023-02-08T06:31:23.424Z">
                <Track>
                    <Trackpoint>
                        <DistanceMeters>0.0</DistanceMeters>
                        <Time>2023-02-08T06:31:23.424Z</Time>
                    </Trackpoint>
                    <Trackpoint>
                        <DistanceMeters>40.45282991156697</DistanceMeters>
                        <Time>2023-02-08T06:32:07.776Z</Time>
                    </Trackpoint>
                    <Trackpoint>
                        <DistanceMeters>40.45282991156697</DistanceMeters>
                        <Time>2023-02-08T06:32:12.424Z</Time>
                    </Trackpoint>
                    <Trackpoint>
                        <DistanceMeters>58.06938487305581</DistanceMeters>
                        <Time>2023-02-08T06:32:31.884Z</Time>
                    </Trackpoint>
                    <Trackpoint>
                        <DistanceMeters>71.11868484452903</DistanceMeters>
                        <Time>2023-02-08T06:32:50.464Z</Time>
                    </Trackpoint>
                    <Trackpoint>
                        <DistanceMeters>95.91235479032814</DistanceMeters>
                        <Time>2023-02-08T06:33:26.544Z</Time>
                    </Trackpoint>
                    <Trackpoint>
                        <DistanceMeters>120.70602473612725</DistanceMeters>
                        <Time>2023-02-08T06:33:55.744Z</Time>
                    </Trackpoint>
                    <Trackpoint>
                        <DistanceMeters>131.1454647133058</DistanceMeters>
                        <Time>2023-02-08T06:34:07.864Z</Time>
                    </Trackpoint>
                    <Trackpoint>
                        <DistanceMeters>150.71941467051565</DistanceMeters>
                        <Time>2023-02-08T06:34:30.504Z</Time>
                    </Trackpoint>
                    <Trackpoint>
                        <DistanceMeters>172.9032246220201</DistanceMeters>
                        <Time>2023-02-08T06:34:56.704Z</Time>
                    </Trackpoint>
                    <Trackpoint>
                        <DistanceMeters>189.21484958636162</DistanceMeters>
                        <Time>2023-02-08T06:35:17.384Z</Time>
                    </Trackpoint>
                </Track>
                <DistanceMeters>189.21484958636162</DistanceMeters>
                <TotalTimeSeconds>233.959998381</TotalTimeSeconds>
                <Calories>19.068394722222223</Calories>
                <Intensity>Active</Intensity>
                <TriggerMethod>Manual</TriggerMethod>
            </Lap>
        </Activity>
        <Activity Sport="Walking">
            <Id>2023-02-08T06:34:56.704Z</Id>
            <Lap StartTime="2023-02-08T06:34:56.704Z">
                <Track>
                    <Trackpoint>
                        <DistanceMeters>0.0</DistanceMeters>
                        <Time>2023-02-08T06:34:56.704Z</Time>
                    </Trackpoint>
                    <Trackpoint>
                        <DistanceMeters>16.31162496434152</DistanceMeters>
                        <Time>2023-02-08T06:35:14.011Z</Time>
                    </Trackpoint>
                    <Trackpoint>
                        <DistanceMeters>16.31162496434152</DistanceMeters>
                        <Time>2023-02-08T06:35:17.384Z</Time>
                    </Trackpoint>
                    <Trackpoint>
                        <DistanceMeters>28.708459937241074</DistanceMeters>
                        <Time>2023-02-08T06:35:30.984Z</Time>
                    </Trackpoint>
                    <Trackpoint>
                        <DistanceMeters>58.06938487305581</DistanceMeters>
                        <Time>2023-02-08T06:38:36.344Z</Time>
                    </Trackpoint>
                    <Trackpoint>
                        <DistanceMeters>81.5581248217076</DistanceMeters>
                        <Time>2023-02-08T06:39:48.344Z</Time>
                    </Trackpoint>
                    <Trackpoint>
                        <DistanceMeters>88.73523980601786</DistanceMeters>
                        <Time>2023-02-08T06:40:03.624Z</Time>
                    </Trackpoint>
                    <Trackpoint>
                        <DistanceMeters>95.25988979175446</DistanceMeters>
                        <Time>2023-02-08T06:40:24.584Z</Time>
                    </Trackpoint>
                    <Trackpoint>
                        <DistanceMeters>104.39439977178571</DistanceMeters>
                        <Time>2023-02-08T06:41:19.770Z</Time>
                    </Trackpoint>
                </Track>
                <DistanceMeters>104.39439977178571</DistanceMeters>
                <TotalTimeSeconds>383.065811553</TotalTimeSeconds>
                <Calories>37.44965761111111</Calories>
                <Intensity>Active</Intensity>
                <TriggerMethod>Manual</TriggerMethod>
            </Lap>
        </Activity>
        <Activity Sport="Walking">
            <Id>2023-02-08T06:52:57.041Z</Id>
            <Lap StartTime="2023-02-08T06:52:57.041Z">
                <Track>
                    <Trackpoint>
                        <DistanceMeters>0.0</DistanceMeters>
                        <Time>2023-02-08T06:52:57.041Z</Time>
                    </Trackpoint>
                    <Trackpoint>
                        <DistanceMeters>9.846736378470549</DistanceMeters>
                        <Time>2023-02-08T06:53:27.224Z</Time>
                    </Trackpoint>
                    <Trackpoint>
                        <DistanceMeters>30.073151334254035</DistanceMeters>
                        <Time>2023-02-08T06:54:08.704Z</Time>
                    </Trackpoint>
                    <Trackpoint>
                        <DistanceMeters>56.413438838294454</DistanceMeters>
                        <Time>2023-02-08T06:54:36.624Z</Time>
                    </Trackpoint>
                    <Trackpoint>
                        <DistanceMeters>85.77436377410919</DistanceMeters>
                        <Time>2023-02-08T06:55:30.324Z</Time>
                    </Trackpoint>
                    <Trackpoint>
                        <DistanceMeters>136.66663366285474</DistanceMeters>
                        <Time>2023-02-08T06:56:42.464Z</Time>
                    </Trackpoint>
                    <Trackpoint>
                        <DistanceMeters>139.56188366521508</DistanceMeters>
                        <Time>2023-02-08T06:56:44.704Z</Time>
                    </Trackpoint>
                    <Trackpoint>
                        <DistanceMeters>166.40278616020822</DistanceMeters>
                        <Time>2023-02-08T06:57:13.744Z</Time>
                    </Trackpoint>
                    <Trackpoint>
                        <DistanceMeters>223.66520110430451</DistanceMeters>
                        <Time>2023-02-08T06:58:03.504Z</Time>
                    </Trackpoint>
                    <Trackpoint>
                        <DistanceMeters>225.69507610592404</DistanceMeters>
                        <Time>2023-02-08T06:58:05.464Z</Time>
                    </Trackpoint>
                    <Trackpoint>
                        <DistanceMeters>255.2480244680982</DistanceMeters>
                        <Time>2023-02-08T06:59:09.764Z</Time>
                    </Trackpoint>
                    <Trackpoint>
                        <DistanceMeters>291.7860643882232</DistanceMeters>
                        <Time>2023-02-08T07:00:17.664Z</Time>
                    </Trackpoint>
                    <Trackpoint>
                        <DistanceMeters>311.36001434543306</DistanceMeters>
                        <Time>2023-02-08T07:00:58.184Z</Time>
                    </Trackpoint>
                    <Trackpoint>
                        <DistanceMeters>333.54382429693754</DistanceMeters>
                        <Time>2023-02-08T07:01:43.024Z</Time>
                    </Trackpoint>
                    <Trackpoint>
                        <DistanceMeters>352.9575865034799</DistanceMeters>
                        <Time>2023-02-08T07:02:02.464Z</Time>
                    </Trackpoint>
                    <Trackpoint>
                        <DistanceMeters>382.31851143929464</DistanceMeters>
                        <Time>2023-02-08T07:02:47.064Z</Time>
                    </Trackpoint>
                    <Trackpoint>
                        <DistanceMeters>390.80055642075223</DistanceMeters>
                        <Time>2023-02-08T07:03:17.184Z</Time>
                    </Trackpoint>
                    <Trackpoint>
                        <DistanceMeters>421.4664113537143</DistanceMeters>
                        <Time>2023-02-08T07:04:13.484Z</Time>
                    </Trackpoint>
                    <Trackpoint>
                        <DistanceMeters>434.5157113251875</DistanceMeters>
                        <Time>2023-02-08T07:04:32.824Z</Time>
                    </Trackpoint>
                </Track>
                <DistanceMeters>434.5157113251875</DistanceMeters>
                <TotalTimeSeconds>695.783188082</TotalTimeSeconds>
                <Calories>70.72788949999999</Calories>
                <Intensity>Active</Intensity>
                <TriggerMethod>Manual</TriggerMethod>
            </Lap>
        </Activity>
        <Activity Sport="Walking">
            <Id>2023-02-08T07:04:13.484Z</Id>
            <Lap StartTime="2023-02-08T07:04:13.484Z">
                <Track>
                    <Trackpoint>
                        <DistanceMeters>0.0</DistanceMeters>
                        <Time>2023-02-08T07:04:13.484Z</Time>
                    </Trackpoint>
                    <Trackpoint>
                        <DistanceMeters>13.049299971473216</DistanceMeters>
                        <Time>2023-02-08T07:04:27.818Z</Time>
                    </Trackpoint>
                    <Trackpoint>
                        <DistanceMeters>13.049299971473216</DistanceMeters>
                        <Time>2023-02-08T07:04:32.824Z</Time>
                    </Trackpoint>
                </Track>
                <DistanceMeters>13.049299971473216</DistanceMeters>
                <TotalTimeSeconds>19.34</TotalTimeSeconds>
                <Calories>0.5125780352847777</Calories>
                <Intensity>Active</Intensity>
                <TriggerMethod>Manual</TriggerMethod>
            </Lap>
        </Activity>
    </Activities>
    <Author xsi:type="Application_t">
        <Name>Google Fit</Name>
        <Build>
            <Version>
                <VersionMajor>0</VersionMajor>
                <VersionMinor>0</VersionMinor>
                <BuildMajor>0</BuildMajor>
                <BuildMinor>0</BuildMinor>
            </Version>
        </Build>
        <LangID>en</LangID>
        <PartNumber>000-00000-00</PartNumber>
    </Author>
</TrainingCenterDatabase>
