<?xml version="1.0" encoding="UTF-8"?>
<TrainingCenterDatabase
    xmlns="http://www.garmin.com/xmlschemas/TrainingCenterDatabase/v2"
    xmlns:ns2="http://www.garmin.com/xmlschemas/UserProfile/v2"
    xmlns:ns3="http://www.garmin.com/xmlschemas/ActivityExtension/v2"
    xmlns:ns4="http://www.garmin.com/xmlschemas/ProfileExtension/v1"
    xmlns:ns5="http://www.garmin.com/xmlschemas/ActivityGoals/v1"
    xmlns:xsi="http://www.w3.org/2001/XMLSchema-instance" xsi:schemaLocation="http://www.garmin.com/xmlschemas/TrainingCenterDatabase/v2 http://www.garmin.com/xmlschemas/TrainingCenterDatabasev2.xsd">
    <Activities>
        <Activity Sport="Walking">
            <Id>2023-02-05T04:14:26.407Z</Id>
            <Lap StartTime="2023-02-05T04:14:26.407Z">
                <Track>
                    <Trackpoint>
                        <DistanceMeters>0.0</DistanceMeters>
                        <Time>2023-02-05T04:14:26.407Z</Time>
                    </Trackpoint>
                    <Trackpoint>
                        <DistanceMeters>28.055994938667414</DistanceMeters>
                        <Time>2023-02-05T04:14:34.395Z</Time>
                    </Trackpoint>
                    <Trackpoint>
                        <DistanceMeters>28.055994938667414</DistanceMeters>
                        <Time>2023-02-05T04:15:15.167Z</Time>
                    </Trackpoint>
                    <Trackpoint>
                        <DistanceMeters>37.190504918698664</DistanceMeters>
                        <Time>2023-02-05T04:15:28.167Z</Time>
                    </Trackpoint>
                </Track>
                <DistanceMeters>37.190504918698664</DistanceMeters>
                <TotalTimeSeconds>61.760000344</TotalTimeSeconds>
                <Calories>4.291630277777777</Calories>
                <Intensity>Active</Intensity>
                <TriggerMethod>Manual</TriggerMethod>
            </Lap>
        </Activity>
        <Activity Sport="Walking">
            <Id>2023-02-05T04:15:15.167Z</Id>
            <Lap StartTime="2023-02-05T04:15:15.167Z">
                <Track>
                    <Trackpoint>
                        <DistanceMeters>0.0</DistanceMeters>
                        <Time>2023-02-05T04:15:15.167Z</Time>
                    </Trackpoint>
                    <Trackpoint>
                        <DistanceMeters>9.13450998003125</DistanceMeters>
                        <Time>2023-02-05T04:15:16.310Z</Time>
                    </Trackpoint>
                    <Trackpoint>
                        <DistanceMeters>9.13450998003125</DistanceMeters>
                        <Time>2023-02-05T04:15:28.167Z</Time>
                    </Trackpoint>
                    <Trackpoint>
                        <DistanceMeters>37.190504918698664</DistanceMeters>
                        <Time>2023-02-05T04:16:11.527Z</Time>
                    </Trackpoint>
                </Track>
                <DistanceMeters>37.190504918698664</DistanceMeters>
                <TotalTimeSeconds>56.36</TotalTimeSeconds>
                <Calories>5.653635326292388</Calories>
                <Intensity>Active</Intensity>
                <TriggerMethod>Manual</TriggerMethod>
            </Lap>
        </Activity>
        <Activity Sport="Walking">
            <Id>2023-02-05T04:23:46.222Z</Id>
            <Lap StartTime="2023-02-05T04:23:46.222Z">
                <Track>
                    <Trackpoint>
                        <DistanceMeters>0.0</DistanceMeters>
                        <Time>2023-02-05T04:23:46.222Z</Time>
                    </Trackpoint>
                    <Trackpoint>
                        <DistanceMeters>0.0</DistanceMeters>
                        <Time>2023-02-05T04:24:02.127Z</Time>
                    </Trackpoint>
                    <Trackpoint>
                        <DistanceMeters>56.23908795296346</DistanceMeters>
                        <Time>2023-02-05T04:25:03.207Z</Time>
                    </Trackpoint>
                    <Trackpoint>
                        <DistanceMeters>92.77712787308846</DistanceMeters>
                        <Time>2023-02-05T04:25:55.427Z</Time>
                    </Trackpoint>
                    <Trackpoint>
                        <DistanceMeters>138.44967777324473</DistanceMeters>
                        <Time>2023-02-05T04:26:59.307Z</Time>
                    </Trackpoint>
                    <Trackpoint>
                        <DistanceMeters>191.95180765628493</DistanceMeters>
                        <Time>2023-02-05T04:28:19.087Z</Time>
                    </Trackpoint>
                    <Trackpoint>
                        <DistanceMeters>256.61207547871</DistanceMeters>
                        <Time>2023-02-05T04:29:20.287Z</Time>
                    </Trackpoint>
                    <Trackpoint>
                        <DistanceMeters>306.1994153703082</DistanceMeters>
                        <Time>2023-02-05T04:30:14.747Z</Time>
                    </Trackpoint>
                    <Trackpoint>
                        <DistanceMeters>351.2195002718908</DistanceMeters>
                        <Time>2023-02-05T04:31:25.847Z</Time>
                    </Trackpoint>
                    <Trackpoint>
                        <DistanceMeters>359.7015452533484</DistanceMeters>
                        <Time>2023-02-05T04:31:37.067Z</Time>
                    </Trackpoint>
                    <Trackpoint>
                        <DistanceMeters>414.5086051335359</DistanceMeters>
                        <Time>2023-02-05T04:33:42.527Z</Time>
                    </Trackpoint>
                    <Trackpoint>
                        <DistanceMeters>468.66320001514976</DistanceMeters>
                        <Time>2023-02-05T04:34:43.447Z</Time>
                    </Trackpoint>
                    <Trackpoint>
                        <DistanceMeters>531.5720026446077</DistanceMeters>
                        <Time>2023-02-05T04:35:44.247Z</Time>
                    </Trackpoint>
                    <Trackpoint>
                        <DistanceMeters>595.4255515775224</DistanceMeters>
                        <Time>2023-02-05T04:36:45.087Z</Time>
                    </Trackpoint>
                    <Trackpoint>
                        <DistanceMeters>647.1453013346838</DistanceMeters>
                        <Time>2023-02-05T04:37:36.287Z</Time>
                    </Trackpoint>
                </Track>
                <DistanceMeters>647.1453013346838</DistanceMeters>
                <TotalTimeSeconds>830.0652751</TotalTimeSeconds>
                <Calories>84.81885316666667</Calories>
                <Intensity>Active</Intensity>
                <TriggerMethod>Manual</TriggerMethod>
            </Lap>
        </Activity>
        <Activity Sport="Walking">
            <Id>2023-02-05T04:36:45.087Z</Id>
            <Lap StartTime="2023-02-05T04:36:45.087Z">
                <Track>
                    <Trackpoint>
                        <DistanceMeters>0.0</DistanceMeters>
                        <Time>2023-02-05T04:36:45.087Z</Time>
                    </Trackpoint>
                    <Trackpoint>
                        <DistanceMeters>51.71974975716148</DistanceMeters>
                        <Time>2023-02-05T04:37:34.621Z</Time>
                    </Trackpoint>
                    <Trackpoint>
                        <DistanceMeters>51.71974975716148</DistanceMeters>
                        <Time>2023-02-05T04:37:36.287Z</Time>
                    </Trackpoint>
                </Track>
                <DistanceMeters>51.71974975716148</DistanceMeters>
                <TotalTimeSeconds>51.2</TotalTimeSeconds>
                <Calories>0.1706080560722222</Calories>
                <Intensity>Active</Intensity>
                <TriggerMethod>Manual</TriggerMethod>
            </Lap>
        </Activity>
        <Activity Sport="Walking">
            <Id>2023-02-05T04:37:36.287Z</Id>
            <Lap StartTime="2023-02-05T04:37:36.287Z">
                <Track>
                    <Trackpoint>
                        <DistanceMeters>0.0</DistanceMeters>
                        <Time>2023-02-05T04:37:36.287Z</Time>
                    </Trackpoint>
                    <Trackpoint>
                        <DistanceMeters>0.0</DistanceMeters>
                        <Time>2023-02-05T04:42:58.687Z</Time>
                    </Trackpoint>
                    <Trackpoint>
                        <DistanceMeters>37.190504918698664</DistanceMeters>
                        <Time>2023-02-05T04:44:01.167Z</Time>
                    </Trackpoint>
                    <Trackpoint>
                        <DistanceMeters>46.977479897303574</DistanceMeters>
                        <Time>2023-02-05T04:44:14.007Z</Time>
                    </Trackpoint>
                    <Trackpoint>
                        <DistanceMeters>91.34509980031251</DistanceMeters>
                        <Time>2023-02-05T04:45:07.007Z</Time>
                    </Trackpoint>
                </Track>
                <DistanceMeters>91.34509980031251</DistanceMeters>
                <TotalTimeSeconds>450.719999965</TotalTimeSeconds>
                <Calories>10.581751777810187</Calories>
                <Intensity>Active</Intensity>
                <TriggerMethod>Manual</TriggerMethod>
            </Lap>
        </Activity>
        <Activity Sport="Walking">
            <Id>2023-02-05T04:44:14.007Z</Id>
            <Lap StartTime="2023-02-05T04:44:14.007Z">
                <Track>
                    <Trackpoint>
                        <DistanceMeters>0.0</DistanceMeters>
                        <Time>2023-02-05T04:44:14.007Z</Time>
                    </Trackpoint>
                    <Trackpoint>
                        <DistanceMeters>44.367619903008936</DistanceMeters>
                        <Time>2023-02-05T04:44:24.648Z</Time>
                    </Trackpoint>
                    <Trackpoint>
                        <DistanceMeters>44.367619903008936</DistanceMeters>
                        <Time>2023-02-05T04:45:07.007Z</Time>
                    </Trackpoint>
                    <Trackpoint>
                        <DistanceMeters>53.50212988304018</DistanceMeters>
                        <Time>2023-02-05T04:45:20.047Z</Time>
                    </Trackpoint>
                    <Trackpoint>
                        <DistanceMeters>90.04016980316518</DistanceMeters>
                        <Time>2023-02-05T04:46:07.047Z</Time>
                    </Trackpoint>
                    <Trackpoint>
                        <DistanceMeters>101.13207477891741</DistanceMeters>
                        <Time>2023-02-05T04:46:20.327Z</Time>
                    </Trackpoint>
                    <Trackpoint>
                        <DistanceMeters>146.80462467907367</DistanceMeters>
                        <Time>2023-02-05T04:47:22.287Z</Time>
                    </Trackpoint>
                </Track>
                <DistanceMeters>146.80462467907367</DistanceMeters>
                <TotalTimeSeconds>188.280000085</TotalTimeSeconds>
                <Calories>13.1451975</Calories>
                <Intensity>Active</Intensity>
                <TriggerMethod>Manual</TriggerMethod>
            </Lap>
        </Activity>
        <Activity Sport="Walking">
            <Id>2023-02-05T04:46:20.327Z</Id>
            <Lap StartTime="2023-02-05T04:46:20.327Z">
                <Track>
                    <Trackpoint>
                        <DistanceMeters>0.0</DistanceMeters>
                        <Time>2023-02-05T04:46:20.327Z</Time>
                    </Trackpoint>
                    <Trackpoint>
                        <DistanceMeters>45.672549900156255</DistanceMeters>
                        <Time>2023-02-05T04:46:33.033Z</Time>
                    </Trackpoint>
                    <Trackpoint>
                        <DistanceMeters>45.672549900156255</DistanceMeters>
                        <Time>2023-02-05T04:47:22.287Z</Time>
                    </Trackpoint>
                    <Trackpoint>
                        <DistanceMeters>55.459524878761165</DistanceMeters>
                        <Time>2023-02-05T04:47:34.887Z</Time>
                    </Trackpoint>
                    <Trackpoint>
                        <DistanceMeters>90.04016980316518</DistanceMeters>
                        <Time>2023-02-05T04:48:23.407Z</Time>
                    </Trackpoint>
                    <Trackpoint>
                        <DistanceMeters>99.17467978319644</DistanceMeters>
                        <Time>2023-02-05T04:48:35.327Z</Time>
                    </Trackpoint>
                    <Trackpoint>
                        <DistanceMeters>136.3651847018951</DistanceMeters>
                        <Time>2023-02-05T04:49:25.207Z</Time>
                    </Trackpoint>
                    <Trackpoint>
                        <DistanceMeters>144.84722968335268</DistanceMeters>
                        <Time>2023-02-05T04:49:36.487Z</Time>
                    </Trackpoint>
                </Track>
                <DistanceMeters>144.84722968335268</DistanceMeters>
                <TotalTimeSeconds>196.159999705</TotalTimeSeconds>
                <Calories>18.78367927350133</Calories>
                <Intensity>Active</Intensity>
                <TriggerMethod>Manual</TriggerMethod>
            </Lap>
        </Activity>
        <Activity Sport="Walking">
            <Id>2023-02-05T04:49:36.487Z</Id>
            <Lap StartTime="2023-02-05T04:49:36.487Z">
                <Track>
                    <Trackpoint>
                        <DistanceMeters>0.0</DistanceMeters>
                        <Time>2023-02-05T04:49:36.487Z</Time>
                    </Trackpoint>
                    <Trackpoint>
                        <DistanceMeters>23.48873994865179</DistanceMeters>
                        <Time>2023-02-05T04:50:28.327Z</Time>
                    </Trackpoint>
                    <Trackpoint>
                        <DistanceMeters>32.06229040144773</DistanceMeters>
                        <Time>2023-02-05T04:50:37.367Z</Time>
                    </Trackpoint>
                    <Trackpoint>
                        <DistanceMeters>70.55772531729372</DistanceMeters>
                        <Time>2023-02-05T04:51:28.647Z</Time>
                    </Trackpoint>
                    <Trackpoint>
                        <DistanceMeters>79.03977029875131</DistanceMeters>
                        <Time>2023-02-05T04:52:07.289Z</Time>
                    </Trackpoint>
                </Track>
                <DistanceMeters>79.03977029875131</DistanceMeters>
                <TotalTimeSeconds>150.801726032</TotalTimeSeconds>
                <Calories>11.23403117094311</Calories>
                <Intensity>Active</Intensity>
                <TriggerMethod>Manual</TriggerMethod>
            </Lap>
        </Activity>
        <Activity Sport="Walking">
            <Id>2023-02-05T04:52:07.289Z</Id>
            <Lap StartTime="2023-02-05T04:52:07.289Z">
                <Track>
                    <Trackpoint>
                        <DistanceMeters>0.0</DistanceMeters>
                        <Time>2023-02-05T04:52:07.289Z</Time>
                    </Trackpoint>
                    <Trackpoint>
                        <DistanceMeters>19.59287419308757</DistanceMeters>
                        <Time>2023-02-05T04:52:29.167Z</Time>
                    </Trackpoint>
                    <Trackpoint>
                        <DistanceMeters>27.422454175971502</DistanceMeters>
                        <Time>2023-02-05T04:52:38.407Z</Time>
                    </Trackpoint>
                    <Trackpoint>
                        <DistanceMeters>60.04570410465454</DistanceMeters>
                        <Time>2023-02-05T04:53:30.247Z</Time>
                    </Trackpoint>
                    <Trackpoint>
                        <DistanceMeters>65.91788909181749</DistanceMeters>
                        <Time>2023-02-05T04:53:39.327Z</Time>
                    </Trackpoint>
                    <Trackpoint>
                        <DistanceMeters>106.37071900338447</DistanceMeters>
                        <Time>2023-02-05T04:54:30.327Z</Time>
                    </Trackpoint>
                    <Trackpoint>
                        <DistanceMeters>113.54783398769473</DistanceMeters>
                        <Time>2023-02-05T04:54:39.727Z</Time>
                    </Trackpoint>
                    <Trackpoint>
                        <DistanceMeters>141.60382892636216</DistanceMeters>
                        <Time>2023-02-05T04:55:24.967Z</Time>
                    </Trackpoint>
                    <Trackpoint>
                        <DistanceMeters>148.78094391067242</DistanceMeters>
                        <Time>2023-02-05T04:55:39.327Z</Time>
                    </Trackpoint>
                    <Trackpoint>
                        <DistanceMeters>192.4960988151077</DistanceMeters>
                        <Time>2023-02-05T04:56:35.447Z</Time>
                    </Trackpoint>
                    <Trackpoint>
                        <DistanceMeters>214.67990876661216</DistanceMeters>
                        <Time>2023-02-05T04:57:04.807Z</Time>
                    </Trackpoint>
                    <Trackpoint>
                        <DistanceMeters>264.91971365678404</DistanceMeters>
                        <Time>2023-02-05T04:58:52.007Z</Time>
                    </Trackpoint>
                    <Trackpoint>
                        <DistanceMeters>268.1820386496523</DistanceMeters>
                        <Time>2023-02-05T04:58:56.007Z</Time>
                    </Trackpoint>
                    <Trackpoint>
                        <DistanceMeters>298.8478935826144</DistanceMeters>
                        <Time>2023-02-05T04:59:57.047Z</Time>
                    </Trackpoint>
                    <Trackpoint>
                        <DistanceMeters>302.1102185754827</DistanceMeters>
                        <Time>2023-02-05T05:00:01.327Z</Time>
                    </Trackpoint>
                    <Trackpoint>
                        <DistanceMeters>343.2155134856233</DistanceMeters>
                        <Time>2023-02-05T05:00:55.887Z</Time>
                    </Trackpoint>
                    <Trackpoint>
                        <DistanceMeters>373.2289034200117</DistanceMeters>
                        <Time>2023-02-05T05:02:07.207Z</Time>
                    </Trackpoint>
                    <Trackpoint>
                        <DistanceMeters>388.2355983872059</DistanceMeters>
                        <Time>2023-02-05T05:02:27.327Z</Time>
                    </Trackpoint>
                    <Trackpoint>
                        <DistanceMeters>411.07187333728405</DistanceMeters>
                        <Time>2023-02-05T05:02:56.287Z</Time>
                    </Trackpoint>
                    <Trackpoint>
                        <DistanceMeters>421.5113133144626</DistanceMeters>
                        <Time>2023-02-05T05:03:10.807Z</Time>
                    </Trackpoint>
                    <Trackpoint>
                        <DistanceMeters>440.43279827309874</DistanceMeters>
                        <Time>2023-02-05T05:04:10.807Z</Time>
                    </Trackpoint>
                    <Trackpoint>
                        <DistanceMeters>461.3116782274559</DistanceMeters>
                        <Time>2023-02-05T05:05:09.207Z</Time>
                    </Trackpoint>
                    <Trackpoint>
                        <DistanceMeters>484.8004181761077</DistanceMeters>
                        <Time>2023-02-05T05:05:50.927Z</Time>
                    </Trackpoint>
                    <Trackpoint>
                        <DistanceMeters>492.62999815899167</DistanceMeters>
                        <Time>2023-02-05T05:06:01.967Z</Time>
                    </Trackpoint>
                    <Trackpoint>
                        <DistanceMeters>510.8990181190542</DistanceMeters>
                        <Time>2023-02-05T05:06:44.207Z</Time>
                    </Trackpoint>
                </Track>
                <DistanceMeters>510.8990181190542</DistanceMeters>
                <TotalTimeSeconds>876.91827402</TotalTimeSeconds>
                <Calories>86.5850615</Calories>
                <Intensity>Active</Intensity>
                <TriggerMethod>Manual</TriggerMethod>
            </Lap>
        </Activity>
    </Activities>
    <Author xsi:type="Application_t">
        <Name>Google Fit</Name>
        <Build>
            <Version>
                <VersionMajor>0</VersionMajor>
                <VersionMinor>0</VersionMinor>
                <BuildMajor>0</BuildMajor>
                <BuildMinor>0</BuildMinor>
            </Version>
        </Build>
        <LangID>en</LangID>
        <PartNumber>000-00000-00</PartNumber>
    </Author>
</TrainingCenterDatabase>
