<?xml version="1.0" encoding="UTF-8"?>
<TrainingCenterDatabase
    xmlns="http://www.garmin.com/xmlschemas/TrainingCenterDatabase/v2"
    xmlns:ns2="http://www.garmin.com/xmlschemas/UserProfile/v2"
    xmlns:ns3="http://www.garmin.com/xmlschemas/ActivityExtension/v2"
    xmlns:ns4="http://www.garmin.com/xmlschemas/ProfileExtension/v1"
    xmlns:ns5="http://www.garmin.com/xmlschemas/ActivityGoals/v1"
    xmlns:xsi="http://www.w3.org/2001/XMLSchema-instance" xsi:schemaLocation="http://www.garmin.com/xmlschemas/TrainingCenterDatabase/v2 http://www.garmin.com/xmlschemas/TrainingCenterDatabasev2.xsd">
    <Activities>
        <Activity Sport="Walking">
            <Id>2023-08-25T21:28:37.241Z</Id>
            <Lap StartTime="2023-08-25T21:28:37.241Z">
                <Track>
                    <Trackpoint>
                        <DistanceMeters>0.0</DistanceMeters>
                        <Time>2023-08-25T21:28:37.241Z</Time>
                    </Trackpoint>
                    <Trackpoint>
                        <DistanceMeters>0.0</DistanceMeters>
                        <Time>2023-08-25T21:59:15.798Z</Time>
                    </Trackpoint>
                    <Trackpoint>
                        <DistanceMeters>104.6833618954437</DistanceMeters>
                        <Time>2023-08-25T22:00:34.692Z</Time>
                    </Trackpoint>
                </Track>
                <DistanceMeters>104.6833618954437</DistanceMeters>
                <TotalTimeSeconds>1917.451494648</TotalTimeSeconds>
                <Calories>47.673809844401134</Calories>
                <Intensity>Active</Intensity>
                <TriggerMethod>Manual</TriggerMethod>
            </Lap>
        </Activity>
        <Activity Sport="Walking">
            <Id>2023-08-25T21:59:15.798Z</Id>
            <Lap StartTime="2023-08-25T21:59:15.798Z">
                <Track>
                    <Trackpoint>
                        <DistanceMeters>0.0</DistanceMeters>
                        <Time>2023-08-25T21:59:15.798Z</Time>
                    </Trackpoint>
                    <Trackpoint>
                        <DistanceMeters>104.6833618954437</DistanceMeters>
                        <Time>2023-08-25T22:00:13.254Z</Time>
                    </Trackpoint>
                    <Trackpoint>
                        <DistanceMeters>104.6833618954437</DistanceMeters>
                        <Time>2023-08-25T22:00:34.692Z</Time>
                    </Trackpoint>
                    <Trackpoint>
                        <DistanceMeters>116.49840838734133</DistanceMeters>
                        <Time>2023-08-25T22:00:43.549Z</Time>
                    </Trackpoint>
                    <Trackpoint>
                        <DistanceMeters>152.02472476030687</DistanceMeters>
                        <Time>2023-08-25T22:01:11.795Z</Time>
                    </Trackpoint>
                    <Trackpoint>
                        <DistanceMeters>181.00759138802073</DistanceMeters>
                        <Time>2023-08-25T22:01:34.885Z</Time>
                    </Trackpoint>
                    <Trackpoint>
                        <DistanceMeters>201.12648406002793</DistanceMeters>
                        <Time>2023-08-25T22:01:51.355Z</Time>
                    </Trackpoint>
                    <Trackpoint>
                        <DistanceMeters>275.1045338075196</DistanceMeters>
                        <Time>2023-08-25T22:02:51.997Z</Time>
                    </Trackpoint>
                    <Trackpoint>
                        <DistanceMeters>309.1015758614393</DistanceMeters>
                        <Time>2023-08-25T22:03:17.414Z</Time>
                    </Trackpoint>
                    <Trackpoint>
                        <DistanceMeters>340.391944007893</DistanceMeters>
                        <Time>2023-08-25T22:03:40.221Z</Time>
                    </Trackpoint>
                    <Trackpoint>
                        <DistanceMeters>372.450947965368</DistanceMeters>
                        <Time>2023-08-25T22:04:05.307Z</Time>
                    </Trackpoint>
                    <Trackpoint>
                        <DistanceMeters>387.69820504797434</DistanceMeters>
                        <Time>2023-08-25T22:04:17.374Z</Time>
                    </Trackpoint>
                    <Trackpoint>
                        <DistanceMeters>416.8752063809928</DistanceMeters>
                        <Time>2023-08-25T22:04:40.123Z</Time>
                    </Trackpoint>
                    <Trackpoint>
                        <DistanceMeters>449.72421873153814</DistanceMeters>
                        <Time>2023-08-25T22:05:05.673Z</Time>
                    </Trackpoint>
                    <Trackpoint>
                        <DistanceMeters>463.9775416761215</DistanceMeters>
                        <Time>2023-08-25T22:05:17.658Z</Time>
                    </Trackpoint>
                    <Trackpoint>
                        <DistanceMeters>493.1072558333307</DistanceMeters>
                        <Time>2023-08-25T22:05:40.490Z</Time>
                    </Trackpoint>
                    <Trackpoint>
                        <DistanceMeters>528.3904966306918</DistanceMeters>
                        <Time>2023-08-25T22:06:05.596Z</Time>
                    </Trackpoint>
                    <Trackpoint>
                        <DistanceMeters>544.5081433021818</DistanceMeters>
                        <Time>2023-08-25T22:06:17.988Z</Time>
                    </Trackpoint>
                    <Trackpoint>
                        <DistanceMeters>599.1505623300185</DistanceMeters>
                        <Time>2023-08-25T22:07:04.582Z</Time>
                    </Trackpoint>
                    <Trackpoint>
                        <DistanceMeters>632.1374826000718</DistanceMeters>
                        <Time>2023-08-25T22:07:29.897Z</Time>
                    </Trackpoint>
                    <Trackpoint>
                        <DistanceMeters>648.3123726611616</DistanceMeters>
                        <Time>2023-08-25T22:07:42.192Z</Time>
                    </Trackpoint>
                    <Trackpoint>
                        <DistanceMeters>669.4087470981074</DistanceMeters>
                        <Time>2023-08-25T22:08:00.732Z</Time>
                    </Trackpoint>
                </Track>
                <DistanceMeters>669.4087470981074</DistanceMeters>
                <TotalTimeSeconds>524.933609591</TotalTimeSeconds>
                <Calories>51.45792377777778</Calories>
                <Intensity>Active</Intensity>
                <TriggerMethod>Manual</TriggerMethod>
            </Lap>
        </Activity>
        <Activity Sport="Walking">
            <Id>2023-08-25T22:07:42.192Z</Id>
            <Lap StartTime="2023-08-25T22:07:42.192Z">
                <Track>
                    <Trackpoint>
                        <DistanceMeters>0.0</DistanceMeters>
                        <Time>2023-08-25T22:07:42.192Z</Time>
                    </Trackpoint>
                    <Trackpoint>
                        <DistanceMeters>21.09637443694574</DistanceMeters>
                        <Time>2023-08-25T22:07:53.156Z</Time>
                    </Trackpoint>
                    <Trackpoint>
                        <DistanceMeters>21.09637443694574</DistanceMeters>
                        <Time>2023-08-25T22:08:00.732Z</Time>
                    </Trackpoint>
                    <Trackpoint>
                        <DistanceMeters>36.993796573475855</DistanceMeters>
                        <Time>2023-08-25T22:08:23.256Z</Time>
                    </Trackpoint>
                </Track>
                <DistanceMeters>36.993796573475855</DistanceMeters>
                <TotalTimeSeconds>41.063183986</TotalTimeSeconds>
                <Calories>3.3678651562935555</Calories>
                <Intensity>Active</Intensity>
                <TriggerMethod>Manual</TriggerMethod>
            </Lap>
        </Activity>
        <Activity Sport="Walking">
            <Id>2023-08-25T22:13:44.492Z</Id>
            <Lap StartTime="2023-08-25T22:13:44.492Z">
                <Track>
                    <Trackpoint>
                        <DistanceMeters>0.0</DistanceMeters>
                        <Time>2023-08-25T22:13:44.492Z</Time>
                    </Trackpoint>
                    <Trackpoint>
                        <DistanceMeters>92.73496246309233</DistanceMeters>
                        <Time>2023-08-25T22:16:34.949Z</Time>
                    </Trackpoint>
                    <Trackpoint>
                        <DistanceMeters>92.73496246309233</DistanceMeters>
                        <Time>2023-08-25T22:17:59.246Z</Time>
                    </Trackpoint>
                    <Trackpoint>
                        <DistanceMeters>175.00183635015554</DistanceMeters>
                        <Time>2023-08-25T22:19:00.204Z</Time>
                    </Trackpoint>
                    <Trackpoint>
                        <DistanceMeters>259.87312509809425</DistanceMeters>
                        <Time>2023-08-25T22:20:05.734Z</Time>
                    </Trackpoint>
                </Track>
                <DistanceMeters>259.87312509809425</DistanceMeters>
                <TotalTimeSeconds>381.242192492</TotalTimeSeconds>
                <Calories>18.86804711111111</Calories>
                <Intensity>Active</Intensity>
                <TriggerMethod>Manual</TriggerMethod>
            </Lap>
        </Activity>
        <Activity Sport="Walking">
            <Id>2023-08-25T22:19:00.204Z</Id>
            <Lap StartTime="2023-08-25T22:19:00.204Z">
                <Track>
                    <Trackpoint>
                        <DistanceMeters>0.0</DistanceMeters>
                        <Time>2023-08-25T22:19:00.204Z</Time>
                    </Trackpoint>
                    <Trackpoint>
                        <DistanceMeters>84.8712887479387</DistanceMeters>
                        <Time>2023-08-25T22:19:23.581Z</Time>
                    </Trackpoint>
                    <Trackpoint>
                        <DistanceMeters>84.8712887479387</DistanceMeters>
                        <Time>2023-08-25T22:20:05.734Z</Time>
                    </Trackpoint>
                </Track>
                <DistanceMeters>84.8712887479387</DistanceMeters>
                <TotalTimeSeconds>65.530089502</TotalTimeSeconds>
                <Calories>4.716474461375111</Calories>
                <Intensity>Active</Intensity>
                <TriggerMethod>Manual</TriggerMethod>
            </Lap>
        </Activity>
        <Activity Sport="Walking">
            <Id>2023-08-25T22:20:05.734Z</Id>
            <Lap StartTime="2023-08-25T22:20:05.734Z">
                <Track>
                    <Trackpoint>
                        <DistanceMeters>0.0</DistanceMeters>
                        <Time>2023-08-25T22:20:05.734Z</Time>
                    </Trackpoint>
                    <Trackpoint>
                        <DistanceMeters>27.8204887389277</DistanceMeters>
                        <Time>2023-08-25T22:21:23.779Z</Time>
                    </Trackpoint>
                    <Trackpoint>
                        <DistanceMeters>71.3075326866667</DistanceMeters>
                        <Time>2023-08-25T22:21:56.572Z</Time>
                    </Trackpoint>
                    <Trackpoint>
                        <DistanceMeters>92.79810444183057</DistanceMeters>
                        <Time>2023-08-25T22:22:12.503Z</Time>
                    </Trackpoint>
                    <Trackpoint>
                        <DistanceMeters>150.3726668649905</DistanceMeters>
                        <Time>2023-08-25T22:22:55.720Z</Time>
                    </Trackpoint>
                    <Trackpoint>
                        <DistanceMeters>265.484769240885</DistanceMeters>
                        <Time>2023-08-25T22:24:22.214Z</Time>
                    </Trackpoint>
                    <Trackpoint>
                        <DistanceMeters>284.0023988101285</DistanceMeters>
                        <Time>2023-08-25T22:24:35.961Z</Time>
                    </Trackpoint>
                </Track>
                <DistanceMeters>284.0023988101285</DistanceMeters>
                <TotalTimeSeconds>270.227382385</TotalTimeSeconds>
                <Calories>22.79112453492688</Calories>
                <Intensity>Active</Intensity>
                <TriggerMethod>Manual</TriggerMethod>
            </Lap>
        </Activity>
        <Activity Sport="Walking">
            <Id>2023-08-25T22:24:22.214Z</Id>
            <Lap StartTime="2023-08-25T22:24:22.214Z">
                <Track>
                    <Trackpoint>
                        <DistanceMeters>0.0</DistanceMeters>
                        <Time>2023-08-25T22:24:22.214Z</Time>
                    </Trackpoint>
                    <Trackpoint>
                        <DistanceMeters>18.517629569243514</DistanceMeters>
                        <Time>2023-08-25T22:24:31.826Z</Time>
                    </Trackpoint>
                    <Trackpoint>
                        <DistanceMeters>18.517629569243514</DistanceMeters>
                        <Time>2023-08-25T22:24:35.961Z</Time>
                    </Trackpoint>
                    <Trackpoint>
                        <DistanceMeters>39.72810304577334</DistanceMeters>
                        <Time>2023-08-25T22:24:52.356Z</Time>
                    </Trackpoint>
                    <Trackpoint>
                        <DistanceMeters>64.2366288395906</DistanceMeters>
                        <Time>2023-08-25T22:25:22.217Z</Time>
                    </Trackpoint>
                    <Trackpoint>
                        <DistanceMeters>83.52587943614739</DistanceMeters>
                        <Time>2023-08-25T22:25:36.464Z</Time>
                    </Trackpoint>
                    <Trackpoint>
                        <DistanceMeters>167.8129216765043</DistanceMeters>
                        <Time>2023-08-25T22:26:41.179Z</Time>
                    </Trackpoint>
                    <Trackpoint>
                        <DistanceMeters>237.4518580954433</DistanceMeters>
                        <Time>2023-08-25T22:27:36.452Z</Time>
                    </Trackpoint>
                </Track>
                <DistanceMeters>237.4518580954433</DistanceMeters>
                <TotalTimeSeconds>194.238367021</TotalTimeSeconds>
                <Calories>19.402876</Calories>
                <Intensity>Active</Intensity>
                <TriggerMethod>Manual</TriggerMethod>
            </Lap>
        </Activity>
        <Activity Sport="Walking">
            <Id>2023-08-25T22:26:41.179Z</Id>
            <Lap StartTime="2023-08-25T22:26:41.179Z">
                <Track>
                    <Trackpoint>
                        <DistanceMeters>0.0</DistanceMeters>
                        <Time>2023-08-25T22:26:41.179Z</Time>
                    </Trackpoint>
                    <Trackpoint>
                        <DistanceMeters>69.638936418939</DistanceMeters>
                        <Time>2023-08-25T22:27:25.238Z</Time>
                    </Trackpoint>
                    <Trackpoint>
                        <DistanceMeters>69.638936418939</DistanceMeters>
                        <Time>2023-08-25T22:27:36.452Z</Time>
                    </Trackpoint>
                    <Trackpoint>
                        <DistanceMeters>72.32712683580924</DistanceMeters>
                        <Time>2023-08-25T22:27:39.208Z</Time>
                    </Trackpoint>
                </Track>
                <DistanceMeters>72.32712683580924</DistanceMeters>
                <TotalTimeSeconds>58.029397528</TotalTimeSeconds>
                <Calories>1.563150486576889</Calories>
                <Intensity>Active</Intensity>
                <TriggerMethod>Manual</TriggerMethod>
            </Lap>
        </Activity>
    </Activities>
    <Author xsi:type="Application_t">
        <Name>Google Fit</Name>
        <Build>
            <Version>
                <VersionMajor>0</VersionMajor>
                <VersionMinor>0</VersionMinor>
                <BuildMajor>0</BuildMajor>
                <BuildMinor>0</BuildMinor>
            </Version>
        </Build>
        <LangID>en</LangID>
        <PartNumber>000-00000-00</PartNumber>
    </Author>
</TrainingCenterDatabase>
