<?xml version="1.0" encoding="UTF-8"?>
<TrainingCenterDatabase
    xmlns="http://www.garmin.com/xmlschemas/TrainingCenterDatabase/v2"
    xmlns:ns2="http://www.garmin.com/xmlschemas/UserProfile/v2"
    xmlns:ns3="http://www.garmin.com/xmlschemas/ActivityExtension/v2"
    xmlns:ns4="http://www.garmin.com/xmlschemas/ProfileExtension/v1"
    xmlns:ns5="http://www.garmin.com/xmlschemas/ActivityGoals/v1"
    xmlns:xsi="http://www.w3.org/2001/XMLSchema-instance" xsi:schemaLocation="http://www.garmin.com/xmlschemas/TrainingCenterDatabase/v2 http://www.garmin.com/xmlschemas/TrainingCenterDatabasev2.xsd">
    <Activities>
        <Activity Sport="Walking">
            <Id>2023-02-01T05:33:39.776Z</Id>
            <Lap StartTime="2023-02-01T05:33:39.776Z">
                <Track>
                    <Trackpoint>
                        <DistanceMeters>0.0</DistanceMeters>
                        <Time>2023-02-01T05:33:39.776Z</Time>
                    </Trackpoint>
                    <Trackpoint>
                        <DistanceMeters>16.964089962915182</DistanceMeters>
                        <Time>2023-02-01T05:33:55.950Z</Time>
                    </Trackpoint>
                    <Trackpoint>
                        <DistanceMeters>16.964089962915182</DistanceMeters>
                        <Time>2023-02-01T05:36:54.476Z</Time>
                    </Trackpoint>
                    <Trackpoint>
                        <DistanceMeters>33.2757149272567</DistanceMeters>
                        <Time>2023-02-01T05:41:29.516Z</Time>
                    </Trackpoint>
                    <Trackpoint>
                        <DistanceMeters>40.85195515350388</DistanceMeters>
                        <Time>2023-02-01T05:41:34.596Z</Time>
                    </Trackpoint>
                    <Trackpoint>
                        <DistanceMeters>85.21957505651281</DistanceMeters>
                        <Time>2023-02-01T05:42:29.916Z</Time>
                    </Trackpoint>
                    <Trackpoint>
                        <DistanceMeters>103.48859501657532</DistanceMeters>
                        <Time>2023-02-01T05:43:32.116Z</Time>
                    </Trackpoint>
                    <Trackpoint>
                        <DistanceMeters>140.679099935274</DistanceMeters>
                        <Time>2023-02-01T05:44:47.776Z</Time>
                    </Trackpoint>
                    <Trackpoint>
                        <DistanceMeters>149.1611449167316</DistanceMeters>
                        <Time>2023-02-01T05:44:58.316Z</Time>
                    </Trackpoint>
                    <Trackpoint>
                        <DistanceMeters>185.04671983828294</DistanceMeters>
                        <Time>2023-02-01T05:45:49.996Z</Time>
                    </Trackpoint>
                    <Trackpoint>
                        <DistanceMeters>230.7192697384392</DistanceMeters>
                        <Time>2023-02-01T05:46:50.956Z</Time>
                    </Trackpoint>
                    <Trackpoint>
                        <DistanceMeters>262.0375896699749</DistanceMeters>
                        <Time>2023-02-01T05:47:52.156Z</Time>
                    </Trackpoint>
                    <Trackpoint>
                        <DistanceMeters>265.2999146628432</DistanceMeters>
                        <Time>2023-02-01T05:47:57.636Z</Time>
                    </Trackpoint>
                    <Trackpoint>
                        <DistanceMeters>302.49041958154186</DistanceMeters>
                        <Time>2023-02-01T05:49:28.556Z</Time>
                    </Trackpoint>
                    <Trackpoint>
                        <DistanceMeters>325.32669453162</DistanceMeters>
                        <Time>2023-02-01T05:50:00.716Z</Time>
                    </Trackpoint>
                    <Trackpoint>
                        <DistanceMeters>342.9432494931088</DistanceMeters>
                        <Time>2023-02-01T05:50:49.516Z</Time>
                    </Trackpoint>
                </Track>
                <DistanceMeters>342.9432494931088</DistanceMeters>
                <TotalTimeSeconds>1029.739999707</TotalTimeSeconds>
                <Calories>99.93780127777778</Calories>
                <Intensity>Active</Intensity>
                <TriggerMethod>Manual</TriggerMethod>
            </Lap>
        </Activity>
    </Activities>
    <Author xsi:type="Application_t">
        <Name>Google Fit</Name>
        <Build>
            <Version>
                <VersionMajor>0</VersionMajor>
                <VersionMinor>0</VersionMinor>
                <BuildMajor>0</BuildMajor>
                <BuildMinor>0</BuildMinor>
            </Version>
        </Build>
        <LangID>en</LangID>
        <PartNumber>000-00000-00</PartNumber>
    </Author>
</TrainingCenterDatabase>
