<?xml version="1.0" encoding="UTF-8"?>
<TrainingCenterDatabase
    xmlns="http://www.garmin.com/xmlschemas/TrainingCenterDatabase/v2"
    xmlns:ns2="http://www.garmin.com/xmlschemas/UserProfile/v2"
    xmlns:ns3="http://www.garmin.com/xmlschemas/ActivityExtension/v2"
    xmlns:ns4="http://www.garmin.com/xmlschemas/ProfileExtension/v1"
    xmlns:ns5="http://www.garmin.com/xmlschemas/ActivityGoals/v1"
    xmlns:xsi="http://www.w3.org/2001/XMLSchema-instance" xsi:schemaLocation="http://www.garmin.com/xmlschemas/TrainingCenterDatabase/v2 http://www.garmin.com/xmlschemas/TrainingCenterDatabasev2.xsd">
    <Activities>
        <Activity Sport="Walking">
            <Id>2023-02-18T05:06:18.447Z</Id>
            <Lap StartTime="2023-02-18T05:06:18.447Z">
                <Track>
                    <Trackpoint>
                        <DistanceMeters>0.0</DistanceMeters>
                        <Time>2023-02-18T05:06:18.447Z</Time>
                    </Trackpoint>
                    <Trackpoint>
                        <DistanceMeters>29.360924935814737</DistanceMeters>
                        <Time>2023-02-18T05:06:51.935Z</Time>
                    </Trackpoint>
                    <Trackpoint>
                        <DistanceMeters>29.360924935814737</DistanceMeters>
                        <Time>2023-02-18T05:07:40.567Z</Time>
                    </Trackpoint>
                    <Trackpoint>
                        <DistanceMeters>37.190504918698664</DistanceMeters>
                        <Time>2023-02-18T05:08:25.073Z</Time>
                    </Trackpoint>
                </Track>
                <DistanceMeters>37.190504918698664</DistanceMeters>
                <TotalTimeSeconds>126.625713576</TotalTimeSeconds>
                <Calories>9.536296333333334</Calories>
                <Intensity>Active</Intensity>
                <TriggerMethod>Manual</TriggerMethod>
            </Lap>
        </Activity>
        <Activity Sport="Walking">
            <Id>2023-02-18T05:18:34.827Z</Id>
            <Lap StartTime="2023-02-18T05:18:34.827Z">
                <Track>
                    <Trackpoint>
                        <DistanceMeters>0.0</DistanceMeters>
                        <Time>2023-02-18T05:18:34.827Z</Time>
                    </Trackpoint>
                    <Trackpoint>
                        <DistanceMeters>18.921484958636164</DistanceMeters>
                        <Time>2023-02-18T05:19:14.182Z</Time>
                    </Trackpoint>
                    <Trackpoint>
                        <DistanceMeters>18.921484958636164</DistanceMeters>
                        <Time>2023-02-18T05:19:34.827Z</Time>
                    </Trackpoint>
                    <Trackpoint>
                        <DistanceMeters>36.538039920125</DistanceMeters>
                        <Time>2023-02-18T05:20:45.196Z</Time>
                    </Trackpoint>
                </Track>
                <DistanceMeters>36.538039920125</DistanceMeters>
                <TotalTimeSeconds>130.368713998</TotalTimeSeconds>
                <Calories>9.318822333333332</Calories>
                <Intensity>Active</Intensity>
                <TriggerMethod>Manual</TriggerMethod>
            </Lap>
        </Activity>
        <Activity Sport="Walking">
            <Id>2023-02-18T05:20:45.196Z</Id>
            <Lap StartTime="2023-02-18T05:20:45.196Z">
                <Track>
                    <Trackpoint>
                        <DistanceMeters>0.0</DistanceMeters>
                        <Time>2023-02-18T05:20:45.196Z</Time>
                    </Trackpoint>
                    <Trackpoint>
                        <DistanceMeters>0.0</DistanceMeters>
                        <Time>2023-02-18T05:27:21.507Z</Time>
                    </Trackpoint>
                    <Trackpoint>
                        <DistanceMeters>64.59403485879243</DistanceMeters>
                        <Time>2023-02-18T05:30:39.507Z</Time>
                    </Trackpoint>
                    <Trackpoint>
                        <DistanceMeters>105.0468647703594</DistanceMeters>
                        <Time>2023-02-18T05:31:29.067Z</Time>
                    </Trackpoint>
                </Track>
                <DistanceMeters>105.0468647703594</DistanceMeters>
                <TotalTimeSeconds>643.871287629</TotalTimeSeconds>
                <Calories>14.462379428052676</Calories>
                <Intensity>Active</Intensity>
                <TriggerMethod>Manual</TriggerMethod>
            </Lap>
        </Activity>
        <Activity Sport="Walking">
            <Id>2023-02-18T05:30:39.507Z</Id>
            <Lap StartTime="2023-02-18T05:30:39.507Z">
                <Track>
                    <Trackpoint>
                        <DistanceMeters>0.0</DistanceMeters>
                        <Time>2023-02-18T05:30:39.507Z</Time>
                    </Trackpoint>
                    <Trackpoint>
                        <DistanceMeters>40.45282991156697</DistanceMeters>
                        <Time>2023-02-18T05:30:57.429Z</Time>
                    </Trackpoint>
                    <Trackpoint>
                        <DistanceMeters>40.45282991156697</DistanceMeters>
                        <Time>2023-02-18T05:32:23.467Z</Time>
                    </Trackpoint>
                    <Trackpoint>
                        <DistanceMeters>51.54473488731921</DistanceMeters>
                        <Time>2023-02-18T05:32:54.227Z</Time>
                    </Trackpoint>
                    <Trackpoint>
                        <DistanceMeters>79.60072982598662</DistanceMeters>
                        <Time>2023-02-18T05:33:49.947Z</Time>
                    </Trackpoint>
                    <Trackpoint>
                        <DistanceMeters>89.78505834181868</DistanceMeters>
                        <Time>2023-02-18T05:33:59.667Z</Time>
                    </Trackpoint>
                    <Trackpoint>
                        <DistanceMeters>135.37980620024265</DistanceMeters>
                        <Time>2023-02-18T05:34:40.727Z</Time>
                    </Trackpoint>
                    <Trackpoint>
                        <DistanceMeters>204.54109604905068</DistanceMeters>
                        <Time>2023-02-18T05:36:24.227Z</Time>
                    </Trackpoint>
                    <Trackpoint>
                        <DistanceMeters>228.89223193169866</DistanceMeters>
                        <Time>2023-02-18T05:37:36.987Z</Time>
                    </Trackpoint>
                    <Trackpoint>
                        <DistanceMeters>250.42357688462945</DistanceMeters>
                        <Time>2023-02-18T05:38:42.987Z</Time>
                    </Trackpoint>
                </Track>
                <DistanceMeters>250.42357688462945</DistanceMeters>
                <TotalTimeSeconds>483.47999784</TotalTimeSeconds>
                <Calories>42.070058611111115</Calories>
                <Intensity>Active</Intensity>
                <TriggerMethod>Manual</TriggerMethod>
            </Lap>
        </Activity>
        <Activity Sport="Walking">
            <Id>2023-02-18T05:37:36.987Z</Id>
            <Lap StartTime="2023-02-18T05:37:36.987Z">
                <Track>
                    <Trackpoint>
                        <DistanceMeters>0.0</DistanceMeters>
                        <Time>2023-02-18T05:37:36.987Z</Time>
                    </Trackpoint>
                    <Trackpoint>
                        <DistanceMeters>21.531344952930805</DistanceMeters>
                        <Time>2023-02-18T05:37:48.314Z</Time>
                    </Trackpoint>
                    <Trackpoint>
                        <DistanceMeters>21.531344952930805</DistanceMeters>
                        <Time>2023-02-18T05:38:42.987Z</Time>
                    </Trackpoint>
                    <Trackpoint>
                        <DistanceMeters>100.40333128653685</DistanceMeters>
                        <Time>2023-02-18T05:39:44.067Z</Time>
                    </Trackpoint>
                </Track>
                <DistanceMeters>100.40333128653685</DistanceMeters>
                <TotalTimeSeconds>127.08000258</TotalTimeSeconds>
                <Calories>1.8714820558652216</Calories>
                <Intensity>Active</Intensity>
                <TriggerMethod>Manual</TriggerMethod>
            </Lap>
        </Activity>
        <Activity Sport="Walking">
            <Id>2023-02-18T05:38:42.987Z</Id>
            <Lap StartTime="2023-02-18T05:38:42.987Z">
                <Track>
                    <Trackpoint>
                        <DistanceMeters>0.0</DistanceMeters>
                        <Time>2023-02-18T05:38:42.987Z</Time>
                    </Trackpoint>
                    <Trackpoint>
                        <DistanceMeters>78.87198633360605</DistanceMeters>
                        <Time>2023-02-18T05:38:49.920Z</Time>
                    </Trackpoint>
                    <Trackpoint>
                        <DistanceMeters>78.87198633360605</DistanceMeters>
                        <Time>2023-02-18T05:39:44.067Z</Time>
                    </Trackpoint>
                    <Trackpoint>
                        <DistanceMeters>154.63244772596107</DistanceMeters>
                        <Time>2023-02-18T05:40:45.107Z</Time>
                    </Trackpoint>
                    <Trackpoint>
                        <DistanceMeters>229.51396160132683</DistanceMeters>
                        <Time>2023-02-18T05:41:45.867Z</Time>
                    </Trackpoint>
                    <Trackpoint>
                        <DistanceMeters>302.8605122850531</DistanceMeters>
                        <Time>2023-02-18T05:42:45.667Z</Time>
                    </Trackpoint>
                    <Trackpoint>
                        <DistanceMeters>376.0106904913209</DistanceMeters>
                        <Time>2023-02-18T05:43:45.827Z</Time>
                    </Trackpoint>
                    <Trackpoint>
                        <DistanceMeters>452.78740588776475</DistanceMeters>
                        <Time>2023-02-18T05:44:46.907Z</Time>
                    </Trackpoint>
                    <Trackpoint>
                        <DistanceMeters>531.3406928247072</DistanceMeters>
                        <Time>2023-02-18T05:45:46.747Z</Time>
                    </Trackpoint>
                    <Trackpoint>
                        <DistanceMeters>608.7179914422123</DistanceMeters>
                        <Time>2023-02-18T05:46:46.787Z</Time>
                    </Trackpoint>
                    <Trackpoint>
                        <DistanceMeters>687.708178598942</DistanceMeters>
                        <Time>2023-02-18T05:47:47.667Z</Time>
                    </Trackpoint>
                    <Trackpoint>
                        <DistanceMeters>766.0458535023653</DistanceMeters>
                        <Time>2023-02-18T05:48:47.867Z</Time>
                    </Trackpoint>
                    <Trackpoint>
                        <DistanceMeters>843.028131793342</DistanceMeters>
                        <Time>2023-02-18T05:49:48.587Z</Time>
                    </Trackpoint>
                    <Trackpoint>
                        <DistanceMeters>852.4142294926818</DistanceMeters>
                        <Time>2023-02-18T05:50:28.912Z</Time>
                    </Trackpoint>
                </Track>
                <DistanceMeters>852.4142294926818</DistanceMeters>
                <TotalTimeSeconds>705.924714531</TotalTimeSeconds>
                <Calories>71.56901422222221</Calories>
                <Intensity>Active</Intensity>
                <TriggerMethod>Manual</TriggerMethod>
            </Lap>
        </Activity>
        <Activity Sport="Walking">
            <Id>2023-02-18T05:50:28.912Z</Id>
            <Lap StartTime="2023-02-18T05:50:28.912Z">
                <Track>
                    <Trackpoint>
                        <DistanceMeters>0.0</DistanceMeters>
                        <Time>2023-02-18T05:50:28.912Z</Time>
                    </Trackpoint>
                    <Trackpoint>
                        <DistanceMeters>0.0</DistanceMeters>
                        <Time>2023-02-18T05:55:25.147Z</Time>
                    </Trackpoint>
                    <Trackpoint>
                        <DistanceMeters>34.58064492440402</DistanceMeters>
                        <Time>2023-02-18T05:57:11.147Z</Time>
                    </Trackpoint>
                    <Trackpoint>
                        <DistanceMeters>121.13762189415294</DistanceMeters>
                        <Time>2023-02-18T05:58:11.987Z</Time>
                    </Trackpoint>
                </Track>
                <DistanceMeters>121.13762189415294</DistanceMeters>
                <TotalTimeSeconds>463.075284383</TotalTimeSeconds>
                <Calories>9.346680703053908</Calories>
                <Intensity>Active</Intensity>
                <TriggerMethod>Manual</TriggerMethod>
            </Lap>
        </Activity>
        <Activity Sport="Walking">
            <Id>2023-02-18T05:57:11.147Z</Id>
            <Lap StartTime="2023-02-18T05:57:11.147Z">
                <Track>
                    <Trackpoint>
                        <DistanceMeters>0.0</DistanceMeters>
                        <Time>2023-02-18T05:57:11.147Z</Time>
                    </Trackpoint>
                    <Trackpoint>
                        <DistanceMeters>86.55697696974892</DistanceMeters>
                        <Time>2023-02-18T05:57:18.964Z</Time>
                    </Trackpoint>
                    <Trackpoint>
                        <DistanceMeters>86.55697696974892</DistanceMeters>
                        <Time>2023-02-18T05:58:11.987Z</Time>
                    </Trackpoint>
                    <Trackpoint>
                        <DistanceMeters>171.00647681600114</DistanceMeters>
                        <Time>2023-02-18T05:59:12.707Z</Time>
                    </Trackpoint>
                    <Trackpoint>
                        <DistanceMeters>254.14168672793568</DistanceMeters>
                        <Time>2023-02-18T06:00:13.787Z</Time>
                    </Trackpoint>
                    <Trackpoint>
                        <DistanceMeters>339.97637803433446</DistanceMeters>
                        <Time>2023-02-18T06:01:14.067Z</Time>
                    </Trackpoint>
                    <Trackpoint>
                        <DistanceMeters>426.5872189606051</DistanceMeters>
                        <Time>2023-02-18T06:02:14.827Z</Time>
                    </Trackpoint>
                    <Trackpoint>
                        <DistanceMeters>510.4973704367171</DistanceMeters>
                        <Time>2023-02-18T06:03:14.707Z</Time>
                    </Trackpoint>
                    <Trackpoint>
                        <DistanceMeters>511.9958127761755</DistanceMeters>
                        <Time>2023-02-18T06:03:15.747Z</Time>
                    </Trackpoint>
                    <Trackpoint>
                        <DistanceMeters>595.8008479846185</DistanceMeters>
                        <Time>2023-02-18T06:04:15.787Z</Time>
                    </Trackpoint>
                    <Trackpoint>
                        <DistanceMeters>597.2992903240769</DistanceMeters>
                        <Time>2023-02-18T06:04:16.827Z</Time>
                    </Trackpoint>
                    <Trackpoint>
                        <DistanceMeters>682.7105036732042</DistanceMeters>
                        <Time>2023-02-18T06:05:16.107Z</Time>
                    </Trackpoint>
                    <Trackpoint>
                        <DistanceMeters>684.9862503856119</DistanceMeters>
                        <Time>2023-02-18T06:05:17.627Z</Time>
                    </Trackpoint>
                    <Trackpoint>
                        <DistanceMeters>764.900796917676</DistanceMeters>
                        <Time>2023-02-18T06:06:16.987Z</Time>
                    </Trackpoint>
                    <Trackpoint>
                        <DistanceMeters>766.3728895065747</DistanceMeters>
                        <Time>2023-02-18T06:06:18.067Z</Time>
                    </Trackpoint>
                    <Trackpoint>
                        <DistanceMeters>846.0642538101631</DistanceMeters>
                        <Time>2023-02-18T06:07:17.787Z</Time>
                    </Trackpoint>
                    <Trackpoint>
                        <DistanceMeters>847.5363463990618</DistanceMeters>
                        <Time>2023-02-18T06:07:18.867Z</Time>
                    </Trackpoint>
                    <Trackpoint>
                        <DistanceMeters>929.7716101182265</DistanceMeters>
                        <Time>2023-02-18T06:08:19.667Z</Time>
                    </Trackpoint>
                    <Trackpoint>
                        <DistanceMeters>1008.9765262866493</DistanceMeters>
                        <Time>2023-02-18T06:09:20.187Z</Time>
                    </Trackpoint>
                    <Trackpoint>
                        <DistanceMeters>1059.6080632553403</DistanceMeters>
                        <Time>2023-02-18T06:11:10.251Z</Time>
                    </Trackpoint>
                </Track>
                <DistanceMeters>1059.6080632553403</DistanceMeters>
                <TotalTimeSeconds>839.103715104</TotalTimeSeconds>
                <Calories>85.11455227777779</Calories>
                <Intensity>Active</Intensity>
                <TriggerMethod>Manual</TriggerMethod>
            </Lap>
        </Activity>
    </Activities>
    <Author xsi:type="Application_t">
        <Name>Google Fit</Name>
        <Build>
            <Version>
                <VersionMajor>0</VersionMajor>
                <VersionMinor>0</VersionMinor>
                <BuildMajor>0</BuildMajor>
                <BuildMinor>0</BuildMinor>
            </Version>
        </Build>
        <LangID>en</LangID>
        <PartNumber>000-00000-00</PartNumber>
    </Author>
</TrainingCenterDatabase>
