<?xml version="1.0" encoding="UTF-8"?>
<TrainingCenterDatabase
    xmlns="http://www.garmin.com/xmlschemas/TrainingCenterDatabase/v2"
    xmlns:ns2="http://www.garmin.com/xmlschemas/UserProfile/v2"
    xmlns:ns3="http://www.garmin.com/xmlschemas/ActivityExtension/v2"
    xmlns:ns4="http://www.garmin.com/xmlschemas/ProfileExtension/v1"
    xmlns:ns5="http://www.garmin.com/xmlschemas/ActivityGoals/v1"
    xmlns:xsi="http://www.w3.org/2001/XMLSchema-instance" xsi:schemaLocation="http://www.garmin.com/xmlschemas/TrainingCenterDatabase/v2 http://www.garmin.com/xmlschemas/TrainingCenterDatabasev2.xsd">
    <Activities>
        <Activity Sport="Walking">
            <Id>2023-08-14T16:18:50.857Z</Id>
            <Lap StartTime="2023-08-14T16:18:50.857Z">
                <Track>
                    <Trackpoint>
                        <DistanceMeters>0.0</DistanceMeters>
                        <Time>2023-08-14T16:18:50.857Z</Time>
                    </Trackpoint>
                    <Trackpoint>
                        <DistanceMeters>3.9500780942664604</DistanceMeters>
                        <Time>2023-08-14T16:19:00.661Z</Time>
                    </Trackpoint>
                    <Trackpoint>
                        <DistanceMeters>57.68726320322599</DistanceMeters>
                        <Time>2023-08-14T16:19:43.167Z</Time>
                    </Trackpoint>
                    <Trackpoint>
                        <DistanceMeters>91.1798562442516</DistanceMeters>
                        <Time>2023-08-14T16:20:09.434Z</Time>
                    </Trackpoint>
                    <Trackpoint>
                        <DistanceMeters>189.29918404243372</DistanceMeters>
                        <Time>2023-08-14T16:21:26.828Z</Time>
                    </Trackpoint>
                    <Trackpoint>
                        <DistanceMeters>247.51606585289608</DistanceMeters>
                        <Time>2023-08-14T16:22:12.566Z</Time>
                    </Trackpoint>
                    <Trackpoint>
                        <DistanceMeters>294.0700774133936</DistanceMeters>
                        <Time>2023-08-14T16:22:51.080Z</Time>
                    </Trackpoint>
                    <Trackpoint>
                        <DistanceMeters>361.6744711261421</DistanceMeters>
                        <Time>2023-08-14T16:23:46.257Z</Time>
                    </Trackpoint>
                    <Trackpoint>
                        <DistanceMeters>412.0163078918208</DistanceMeters>
                        <Time>2023-08-14T16:24:48.824Z</Time>
                    </Trackpoint>
                    <Trackpoint>
                        <DistanceMeters>433.3673168859692</DistanceMeters>
                        <Time>2023-08-14T16:25:04.982Z</Time>
                    </Trackpoint>
                    <Trackpoint>
                        <DistanceMeters>537.666490993276</DistanceMeters>
                        <Time>2023-08-14T16:26:30.066Z</Time>
                    </Trackpoint>
                    <Trackpoint>
                        <DistanceMeters>556.525696190563</DistanceMeters>
                        <Time>2023-08-14T16:26:45.038Z</Time>
                    </Trackpoint>
                    <Trackpoint>
                        <DistanceMeters>592.742275021757</DistanceMeters>
                        <Time>2023-08-14T16:27:13.922Z</Time>
                    </Trackpoint>
                    <Trackpoint>
                        <DistanceMeters>672.6962457221443</DistanceMeters>
                        <Time>2023-08-14T16:28:18.852Z</Time>
                    </Trackpoint>
                    <Trackpoint>
                        <DistanceMeters>725.7542931900515</DistanceMeters>
                        <Time>2023-08-14T16:29:02.590Z</Time>
                    </Trackpoint>
                    <Trackpoint>
                        <DistanceMeters>752.9123893399571</DistanceMeters>
                        <Time>2023-08-14T16:30:47.441Z</Time>
                    </Trackpoint>
                    <Trackpoint>
                        <DistanceMeters>770.7969892435535</DistanceMeters>
                        <Time>2023-08-14T16:31:47.441Z</Time>
                    </Trackpoint>
                    <Trackpoint>
                        <DistanceMeters>853.0247408151267</DistanceMeters>
                        <Time>2023-08-14T16:32:55.840Z</Time>
                    </Trackpoint>
                    <Trackpoint>
                        <DistanceMeters>886.8067628552533</DistanceMeters>
                        <Time>2023-08-14T16:34:06.830Z</Time>
                    </Trackpoint>
                    <Trackpoint>
                        <DistanceMeters>949.0716662233295</DistanceMeters>
                        <Time>2023-08-14T16:37:14.830Z</Time>
                    </Trackpoint>
                    <Trackpoint>
                        <DistanceMeters>996.7731668749827</DistanceMeters>
                        <Time>2023-08-14T16:37:55.071Z</Time>
                    </Trackpoint>
                    <Trackpoint>
                        <DistanceMeters>1029.4378301689699</DistanceMeters>
                        <Time>2023-08-14T16:38:22.865Z</Time>
                    </Trackpoint>
                    <Trackpoint>
                        <DistanceMeters>1068.7966707911648</DistanceMeters>
                        <Time>2023-08-14T16:38:55.516Z</Time>
                    </Trackpoint>
                    <Trackpoint>
                        <DistanceMeters>1102.457883978527</DistanceMeters>
                        <Time>2023-08-14T16:39:23.367Z</Time>
                    </Trackpoint>
                    <Trackpoint>
                        <DistanceMeters>1141.7180417486074</DistanceMeters>
                        <Time>2023-08-14T16:39:56.205Z</Time>
                    </Trackpoint>
                    <Trackpoint>
                        <DistanceMeters>1174.6159750467368</DistanceMeters>
                        <Time>2023-08-14T16:40:23.552Z</Time>
                    </Trackpoint>
                    <Trackpoint>
                        <DistanceMeters>1213.7590023592268</DistanceMeters>
                        <Time>2023-08-14T16:40:56.614Z</Time>
                    </Trackpoint>
                    <Trackpoint>
                        <DistanceMeters>1217.862598251785</DistanceMeters>
                        <Time>2023-08-14T16:41:00.574Z</Time>
                    </Trackpoint>
                    <Trackpoint>
                        <DistanceMeters>1259.5933313601765</DistanceMeters>
                        <Time>2023-08-14T16:41:56.856Z</Time>
                    </Trackpoint>
                    <Trackpoint>
                        <DistanceMeters>1298.401474352951</DistanceMeters>
                        <Time>2023-08-14T16:42:26.744Z</Time>
                    </Trackpoint>
                    <Trackpoint>
                        <DistanceMeters>1337.0137535753722</DistanceMeters>
                        <Time>2023-08-14T16:42:56.969Z</Time>
                    </Trackpoint>
                    <Trackpoint>
                        <DistanceMeters>1375.5722981878291</DistanceMeters>
                        <Time>2023-08-14T16:43:27.288Z</Time>
                    </Trackpoint>
                    <Trackpoint>
                        <DistanceMeters>1416.3687517870262</DistanceMeters>
                        <Time>2023-08-14T16:43:57.438Z</Time>
                    </Trackpoint>
                    <Trackpoint>
                        <DistanceMeters>1455.1217937251472</DistanceMeters>
                        <Time>2023-08-14T16:44:27.420Z</Time>
                    </Trackpoint>
                    <Trackpoint>
                        <DistanceMeters>1492.6525519307925</DistanceMeters>
                        <Time>2023-08-14T16:44:57.701Z</Time>
                    </Trackpoint>
                    <Trackpoint>
                        <DistanceMeters>1530.2765360639864</DistanceMeters>
                        <Time>2023-08-14T16:45:27.814Z</Time>
                    </Trackpoint>
                    <Trackpoint>
                        <DistanceMeters>1567.9632286518486</DistanceMeters>
                        <Time>2023-08-14T16:45:57.815Z</Time>
                    </Trackpoint>
                    <Trackpoint>
                        <DistanceMeters>1606.3735069232716</DistanceMeters>
                        <Time>2023-08-14T16:46:28.396Z</Time>
                    </Trackpoint>
                    <Trackpoint>
                        <DistanceMeters>1642.1938239315243</DistanceMeters>
                        <Time>2023-08-14T16:46:58.004Z</Time>
                    </Trackpoint>
                    <Trackpoint>
                        <DistanceMeters>1680.4380614425459</DistanceMeters>
                        <Time>2023-08-14T16:47:28.882Z</Time>
                    </Trackpoint>
                    <Trackpoint>
                        <DistanceMeters>1717.3700918556185</DistanceMeters>
                        <Time>2023-08-14T16:47:58.360Z</Time>
                    </Trackpoint>
                    <Trackpoint>
                        <DistanceMeters>1755.6451322923767</DistanceMeters>
                        <Time>2023-08-14T16:48:29.182Z</Time>
                    </Trackpoint>
                    <Trackpoint>
                        <DistanceMeters>1792.4007775965551</DistanceMeters>
                        <Time>2023-08-14T16:48:58.978Z</Time>
                    </Trackpoint>
                    <Trackpoint>
                        <DistanceMeters>1829.9212198897098</DistanceMeters>
                        <Time>2023-08-14T16:49:29.278Z</Time>
                    </Trackpoint>
                    <Trackpoint>
                        <DistanceMeters>1867.5557310085896</DistanceMeters>
                        <Time>2023-08-14T16:49:59.372Z</Time>
                    </Trackpoint>
                    <Trackpoint>
                        <DistanceMeters>1903.0824557735143</DistanceMeters>
                        <Time>2023-08-14T16:50:29.541Z</Time>
                    </Trackpoint>
                    <Trackpoint>
                        <DistanceMeters>1939.5463260844742</DistanceMeters>
                        <Time>2023-08-14T16:50:59.879Z</Time>
                    </Trackpoint>
                    <Trackpoint>
                        <DistanceMeters>1977.2223873097955</DistanceMeters>
                        <Time>2023-08-14T16:51:29.899Z</Time>
                    </Trackpoint>
                    <Trackpoint>
                        <DistanceMeters>2015.9097547955612</DistanceMeters>
                        <Time>2023-08-14T16:51:59.994Z</Time>
                    </Trackpoint>
                    <Trackpoint>
                        <DistanceMeters>2053.579356253308</DistanceMeters>
                        <Time>2023-08-14T16:52:30.026Z</Time>
                    </Trackpoint>
                    <Trackpoint>
                        <DistanceMeters>2091.124061526251</DistanceMeters>
                        <Time>2023-08-14T16:53:00.281Z</Time>
                    </Trackpoint>
                    <Trackpoint>
                        <DistanceMeters>2127.76612206352</DistanceMeters>
                        <Time>2023-08-14T16:53:30.286Z</Time>
                    </Trackpoint>
                    <Trackpoint>
                        <DistanceMeters>2165.146906965105</DistanceMeters>
                        <Time>2023-08-14T16:54:00.841Z</Time>
                    </Trackpoint>
                    <Trackpoint>
                        <DistanceMeters>2201.793706077769</DistanceMeters>
                        <Time>2023-08-14T16:54:30.837Z</Time>
                    </Trackpoint>
                    <Trackpoint>
                        <DistanceMeters>2228.406333649293</DistanceMeters>
                        <Time>2023-08-14T16:54:54.546Z</Time>
                    </Trackpoint>
                    <Trackpoint>
                        <DistanceMeters>2246.2909335528893</DistanceMeters>
                        <Time>2023-08-14T16:55:31.518Z</Time>
                    </Trackpoint>
                    <Trackpoint>
                        <DistanceMeters>2253.0094741627004</DistanceMeters>
                        <Time>2023-08-14T16:55:38.412Z</Time>
                    </Trackpoint>
                    <Trackpoint>
                        <DistanceMeters>2270.231681477275</DistanceMeters>
                        <Time>2023-08-14T16:56:20.986Z</Time>
                    </Trackpoint>
                    <Trackpoint>
                        <DistanceMeters>2306.0008812844676</DistanceMeters>
                        <Time>2023-08-14T16:57:06.882Z</Time>
                    </Trackpoint>
                    <Trackpoint>
                        <DistanceMeters>2316.599162708821</DistanceMeters>
                        <Time>2023-08-14T16:57:36.696Z</Time>
                    </Trackpoint>
                </Track>
                <DistanceMeters>2316.599162708821</DistanceMeters>
                <TotalTimeSeconds>2325.839</TotalTimeSeconds>
                <Calories>260.23554144444444</Calories>
                <Intensity>Active</Intensity>
                <TriggerMethod>Manual</TriggerMethod>
            </Lap>
        </Activity>
    </Activities>
    <Author xsi:type="Application_t">
        <Name>Google Fit</Name>
        <Build>
            <Version>
                <VersionMajor>0</VersionMajor>
                <VersionMinor>0</VersionMinor>
                <BuildMajor>0</BuildMajor>
                <BuildMinor>0</BuildMinor>
            </Version>
        </Build>
        <LangID>en</LangID>
        <PartNumber>000-00000-00</PartNumber>
    </Author>
</TrainingCenterDatabase>
