<?xml version="1.0" encoding="UTF-8"?>
<TrainingCenterDatabase
    xmlns="http://www.garmin.com/xmlschemas/TrainingCenterDatabase/v2"
    xmlns:ns2="http://www.garmin.com/xmlschemas/UserProfile/v2"
    xmlns:ns3="http://www.garmin.com/xmlschemas/ActivityExtension/v2"
    xmlns:ns4="http://www.garmin.com/xmlschemas/ProfileExtension/v1"
    xmlns:ns5="http://www.garmin.com/xmlschemas/ActivityGoals/v1"
    xmlns:xsi="http://www.w3.org/2001/XMLSchema-instance" xsi:schemaLocation="http://www.garmin.com/xmlschemas/TrainingCenterDatabase/v2 http://www.garmin.com/xmlschemas/TrainingCenterDatabasev2.xsd">
    <Activities>
        <Activity Sport="Walking">
            <Id>2023-08-16T21:45:37.369Z</Id>
            <Lap StartTime="2023-08-16T21:45:37.369Z">
                <Track>
                    <Trackpoint>
                        <DistanceMeters>0.0</DistanceMeters>
                        <Time>2023-08-16T21:45:37.369Z</Time>
                    </Trackpoint>
                    <Trackpoint>
                        <DistanceMeters>35.106807218170665</DistanceMeters>
                        <Time>2023-08-16T21:45:43.173Z</Time>
                    </Trackpoint>
                    <Trackpoint>
                        <DistanceMeters>35.106807218170665</DistanceMeters>
                        <Time>2023-08-16T21:47:22.381Z</Time>
                    </Trackpoint>
                    <Trackpoint>
                        <DistanceMeters>50.34183676567869</DistanceMeters>
                        <Time>2023-08-16T21:49:04.278Z</Time>
                    </Trackpoint>
                    <Trackpoint>
                        <DistanceMeters>73.52557738145177</DistanceMeters>
                        <Time>2023-08-16T21:52:26.635Z</Time>
                    </Trackpoint>
                    <Trackpoint>
                        <DistanceMeters>96.04692540820277</DistanceMeters>
                        <Time>2023-08-16T21:53:38.944Z</Time>
                    </Trackpoint>
                    <Trackpoint>
                        <DistanceMeters>139.76483628366057</DistanceMeters>
                        <Time>2023-08-16T21:55:50.944Z</Time>
                    </Trackpoint>
                    <Trackpoint>
                        <DistanceMeters>398.760338591297</DistanceMeters>
                        <Time>2023-08-16T22:01:05.662Z</Time>
                    </Trackpoint>
                    <Trackpoint>
                        <DistanceMeters>431.5157817941097</DistanceMeters>
                        <Time>2023-08-16T22:01:37.514Z</Time>
                    </Trackpoint>
                    <Trackpoint>
                        <DistanceMeters>446.4085560373665</DistanceMeters>
                        <Time>2023-08-16T22:02:17.263Z</Time>
                    </Trackpoint>
                    <Trackpoint>
                        <DistanceMeters>482.1777558445593</DistanceMeters>
                        <Time>2023-08-16T22:03:16.924Z</Time>
                    </Trackpoint>
                    <Trackpoint>
                        <DistanceMeters>501.8155646194809</DistanceMeters>
                        <Time>2023-08-16T22:03:34.334Z</Time>
                    </Trackpoint>
                    <Trackpoint>
                        <DistanceMeters>515.7422085268221</DistanceMeters>
                        <Time>2023-08-16T22:03:46.981Z</Time>
                    </Trackpoint>
                    <Trackpoint>
                        <DistanceMeters>550.0990716748905</DistanceMeters>
                        <Time>2023-08-16T22:04:17.469Z</Time>
                    </Trackpoint>
                    <Trackpoint>
                        <DistanceMeters>583.7067449393278</DistanceMeters>
                        <Time>2023-08-16T22:04:47.434Z</Time>
                    </Trackpoint>
                    <Trackpoint>
                        <DistanceMeters>616.904804886076</DistanceMeters>
                        <Time>2023-08-16T22:05:18.277Z</Time>
                    </Trackpoint>
                    <Trackpoint>
                        <DistanceMeters>653.6388786390385</DistanceMeters>
                        <Time>2023-08-16T22:05:48.112Z</Time>
                    </Trackpoint>
                    <Trackpoint>
                        <DistanceMeters>692.0843783225715</DistanceMeters>
                        <Time>2023-08-16T22:06:18.630Z</Time>
                    </Trackpoint>
                    <Trackpoint>
                        <DistanceMeters>726.7297268533157</DistanceMeters>
                        <Time>2023-08-16T22:06:48.532Z</Time>
                    </Trackpoint>
                    <Trackpoint>
                        <DistanceMeters>761.1437168368294</DistanceMeters>
                        <Time>2023-08-16T22:07:18.901Z</Time>
                    </Trackpoint>
                    <Trackpoint>
                        <DistanceMeters>795.740260467544</DistanceMeters>
                        <Time>2023-08-16T22:07:48.901Z</Time>
                    </Trackpoint>
                    <Trackpoint>
                        <DistanceMeters>831.2753075024254</DistanceMeters>
                        <Time>2023-08-16T22:08:19.054Z</Time>
                    </Trackpoint>
                    <Trackpoint>
                        <DistanceMeters>850.0467690390126</DistanceMeters>
                        <Time>2023-08-16T22:08:36.191Z</Time>
                    </Trackpoint>
                    <Trackpoint>
                        <DistanceMeters>864.7024482168767</DistanceMeters>
                        <Time>2023-08-16T22:08:49.400Z</Time>
                    </Trackpoint>
                    <Trackpoint>
                        <DistanceMeters>896.3747729623132</DistanceMeters>
                        <Time>2023-08-16T22:09:19.276Z</Time>
                    </Trackpoint>
                    <Trackpoint>
                        <DistanceMeters>915.1239299679116</DistanceMeters>
                        <Time>2023-08-16T22:09:36.461Z</Time>
                    </Trackpoint>
                    <Trackpoint>
                        <DistanceMeters>928.9048504041947</DistanceMeters>
                        <Time>2023-08-16T22:09:49.427Z</Time>
                    </Trackpoint>
                    <Trackpoint>
                        <DistanceMeters>956.965585879783</DistanceMeters>
                        <Time>2023-08-16T22:10:14.286Z</Time>
                    </Trackpoint>
                    <Trackpoint>
                        <DistanceMeters>965.5766895370701</DistanceMeters>
                        <Time>2023-08-16T22:11:32.030Z</Time>
                    </Trackpoint>
                </Track>
                <DistanceMeters>965.5766895370701</DistanceMeters>
                <TotalTimeSeconds>1554.660810182</TotalTimeSeconds>
                <Calories>173.29988877777777</Calories>
                <Intensity>Active</Intensity>
                <TriggerMethod>Manual</TriggerMethod>
            </Lap>
        </Activity>
    </Activities>
    <Author xsi:type="Application_t">
        <Name>Google Fit</Name>
        <Build>
            <Version>
                <VersionMajor>0</VersionMajor>
                <VersionMinor>0</VersionMinor>
                <BuildMajor>0</BuildMajor>
                <BuildMinor>0</BuildMinor>
            </Version>
        </Build>
        <LangID>en</LangID>
        <PartNumber>000-00000-00</PartNumber>
    </Author>
</TrainingCenterDatabase>
