<?xml version="1.0" encoding="UTF-8"?>
<TrainingCenterDatabase
    xmlns="http://www.garmin.com/xmlschemas/TrainingCenterDatabase/v2"
    xmlns:ns2="http://www.garmin.com/xmlschemas/UserProfile/v2"
    xmlns:ns3="http://www.garmin.com/xmlschemas/ActivityExtension/v2"
    xmlns:ns4="http://www.garmin.com/xmlschemas/ProfileExtension/v1"
    xmlns:ns5="http://www.garmin.com/xmlschemas/ActivityGoals/v1"
    xmlns:xsi="http://www.w3.org/2001/XMLSchema-instance" xsi:schemaLocation="http://www.garmin.com/xmlschemas/TrainingCenterDatabase/v2 http://www.garmin.com/xmlschemas/TrainingCenterDatabasev2.xsd">
    <Activities>
        <Activity Sport="Walking">
            <Id>2023-08-17T17:17:29.835Z</Id>
            <Lap StartTime="2023-08-17T17:17:29.835Z">
                <Track>
                    <Trackpoint>
                        <DistanceMeters>0.0</DistanceMeters>
                        <Time>2023-08-17T17:17:29.835Z</Time>
                    </Trackpoint>
                    <Trackpoint>
                        <DistanceMeters>0.0</DistanceMeters>
                        <Time>2023-08-17T18:11:10.889Z</Time>
                    </Trackpoint>
                    <Trackpoint>
                        <DistanceMeters>63.39176963504849</DistanceMeters>
                        <Time>2023-08-17T18:12:08.378Z</Time>
                    </Trackpoint>
                </Track>
                <DistanceMeters>63.39176963504849</DistanceMeters>
                <TotalTimeSeconds>3278.543868224</TotalTimeSeconds>
                <Calories>77.40124648616641</Calories>
                <Intensity>Active</Intensity>
                <TriggerMethod>Manual</TriggerMethod>
            </Lap>
        </Activity>
        <Activity Sport="Walking">
            <Id>2023-08-17T18:11:10.889Z</Id>
            <Lap StartTime="2023-08-17T18:11:10.889Z">
                <Track>
                    <Trackpoint>
                        <DistanceMeters>0.0</DistanceMeters>
                        <Time>2023-08-17T18:11:10.889Z</Time>
                    </Trackpoint>
                    <Trackpoint>
                        <DistanceMeters>63.39176963504849</DistanceMeters>
                        <Time>2023-08-17T18:11:56.845Z</Time>
                    </Trackpoint>
                    <Trackpoint>
                        <DistanceMeters>63.39176963504849</DistanceMeters>
                        <Time>2023-08-17T18:12:08.378Z</Time>
                    </Trackpoint>
                    <Trackpoint>
                        <DistanceMeters>66.92957387389374</DistanceMeters>
                        <Time>2023-08-17T18:12:11.424Z</Time>
                    </Trackpoint>
                    <Trackpoint>
                        <DistanceMeters>110.64748474935155</DistanceMeters>
                        <Time>2023-08-17T18:13:03.238Z</Time>
                    </Trackpoint>
                </Track>
                <DistanceMeters>110.64748474935155</DistanceMeters>
                <TotalTimeSeconds>112.348555873</TotalTimeSeconds>
                <Calories>6.504101111111111</Calories>
                <Intensity>Active</Intensity>
                <TriggerMethod>Manual</TriggerMethod>
            </Lap>
        </Activity>
        <Activity Sport="Walking">
            <Id>2023-08-17T18:12:11.424Z</Id>
            <Lap StartTime="2023-08-17T18:12:11.424Z">
                <Track>
                    <Trackpoint>
                        <DistanceMeters>0.0</DistanceMeters>
                        <Time>2023-08-17T18:12:11.424Z</Time>
                    </Trackpoint>
                    <Trackpoint>
                        <DistanceMeters>43.71791087545781</DistanceMeters>
                        <Time>2023-08-17T18:12:54.975Z</Time>
                    </Trackpoint>
                    <Trackpoint>
                        <DistanceMeters>43.71791087545781</DistanceMeters>
                        <Time>2023-08-17T18:13:03.238Z</Time>
                    </Trackpoint>
                </Track>
                <DistanceMeters>43.71791087545781</DistanceMeters>
                <TotalTimeSeconds>51.813336106</TotalTimeSeconds>
                <Calories>0.9245754015409999</Calories>
                <Intensity>Active</Intensity>
                <TriggerMethod>Manual</TriggerMethod>
            </Lap>
        </Activity>
        <Activity Sport="Walking">
            <Id>2023-08-17T18:27:11.251Z</Id>
            <Lap StartTime="2023-08-17T18:27:11.251Z">
                <Track>
                    <Trackpoint>
                        <DistanceMeters>0.0</DistanceMeters>
                        <Time>2023-08-17T18:27:11.251Z</Time>
                    </Trackpoint>
                    <Trackpoint>
                        <DistanceMeters>25.170918382839346</DistanceMeters>
                        <Time>2023-08-17T18:27:45.112Z</Time>
                    </Trackpoint>
                    <Trackpoint>
                        <DistanceMeters>25.170918382839346</DistanceMeters>
                        <Time>2023-08-17T18:28:27.251Z</Time>
                    </Trackpoint>
                    <Trackpoint>
                        <DistanceMeters>63.589688546120456</DistanceMeters>
                        <Time>2023-08-17T18:29:25.506Z</Time>
                    </Trackpoint>
                    <Trackpoint>
                        <DistanceMeters>100.68367353135739</DistanceMeters>
                        <Time>2023-08-17T18:30:30.202Z</Time>
                    </Trackpoint>
                    <Trackpoint>
                        <DistanceMeters>174.9026862809481</DistanceMeters>
                        <Time>2023-08-17T18:31:30.401Z</Time>
                    </Trackpoint>
                    <Trackpoint>
                        <DistanceMeters>248.938294243613</DistanceMeters>
                        <Time>2023-08-17T18:32:30.938Z</Time>
                    </Trackpoint>
                    <Trackpoint>
                        <DistanceMeters>320.91683401578655</DistanceMeters>
                        <Time>2023-08-17T18:33:31.465Z</Time>
                    </Trackpoint>
                    <Trackpoint>
                        <DistanceMeters>391.9723153258664</DistanceMeters>
                        <Time>2023-08-17T18:34:31.799Z</Time>
                    </Trackpoint>
                    <Trackpoint>
                        <DistanceMeters>446.9898020962036</DistanceMeters>
                        <Time>2023-08-17T18:35:23.904Z</Time>
                    </Trackpoint>
                    <Trackpoint>
                        <DistanceMeters>511.24188323134615</DistanceMeters>
                        <Time>2023-08-17T18:36:33.985Z</Time>
                    </Trackpoint>
                    <Trackpoint>
                        <DistanceMeters>577.2393167639373</DistanceMeters>
                        <Time>2023-08-17T18:37:34.389Z</Time>
                    </Trackpoint>
                    <Trackpoint>
                        <DistanceMeters>645.0972646250758</DistanceMeters>
                        <Time>2023-08-17T18:38:35.064Z</Time>
                    </Trackpoint>
                    <Trackpoint>
                        <DistanceMeters>716.0739971665895</DistanceMeters>
                        <Time>2023-08-17T18:39:35.552Z</Time>
                    </Trackpoint>
                    <Trackpoint>
                        <DistanceMeters>776.2861248232424</DistanceMeters>
                        <Time>2023-08-17T18:40:35.865Z</Time>
                    </Trackpoint>
                    <Trackpoint>
                        <DistanceMeters>845.3394035696895</DistanceMeters>
                        <Time>2023-08-17T18:41:36.146Z</Time>
                    </Trackpoint>
                    <Trackpoint>
                        <DistanceMeters>891.0444922122135</DistanceMeters>
                        <Time>2023-08-17T18:42:36.758Z</Time>
                    </Trackpoint>
                    <Trackpoint>
                        <DistanceMeters>952.2032297193095</DistanceMeters>
                        <Time>2023-08-17T18:43:37.093Z</Time>
                    </Trackpoint>
                    <Trackpoint>
                        <DistanceMeters>1019.2013824653621</DistanceMeters>
                        <Time>2023-08-17T18:44:37.479Z</Time>
                    </Trackpoint>
                    <Trackpoint>
                        <DistanceMeters>1088.036782779267</DistanceMeters>
                        <Time>2023-08-17T18:45:38.203Z</Time>
                    </Trackpoint>
                    <Trackpoint>
                        <DistanceMeters>1139.0410121339678</DistanceMeters>
                        <Time>2023-08-17T18:46:38.237Z</Time>
                    </Trackpoint>
                    <Trackpoint>
                        <DistanceMeters>1211.042636319579</DistanceMeters>
                        <Time>2023-08-17T18:47:38.719Z</Time>
                    </Trackpoint>
                    <Trackpoint>
                        <DistanceMeters>1269.3993306371506</DistanceMeters>
                        <Time>2023-08-17T18:48:38.937Z</Time>
                    </Trackpoint>
                    <Trackpoint>
                        <DistanceMeters>1295.8950341980342</DistanceMeters>
                        <Time>2023-08-17T18:49:51.617Z</Time>
                    </Trackpoint>
                    <Trackpoint>
                        <DistanceMeters>1328.366336022947</DistanceMeters>
                        <Time>2023-08-17T18:50:19.794Z</Time>
                    </Trackpoint>
                </Track>
                <DistanceMeters>1328.366336022947</DistanceMeters>
                <TotalTimeSeconds>1388.543003329</TotalTimeSeconds>
                <Calories>151.24703633333334</Calories>
                <Intensity>Active</Intensity>
                <TriggerMethod>Manual</TriggerMethod>
            </Lap>
        </Activity>
        <Activity Sport="Walking">
            <Id>2023-08-17T18:49:51.617Z</Id>
            <Lap StartTime="2023-08-17T18:49:51.617Z">
                <Track>
                    <Trackpoint>
                        <DistanceMeters>0.0</DistanceMeters>
                        <Time>2023-08-17T18:49:51.617Z</Time>
                    </Trackpoint>
                    <Trackpoint>
                        <DistanceMeters>32.47130182491296</DistanceMeters>
                        <Time>2023-08-17T18:50:16.873Z</Time>
                    </Trackpoint>
                    <Trackpoint>
                        <DistanceMeters>32.47130182491296</DistanceMeters>
                        <Time>2023-08-17T18:50:19.794Z</Time>
                    </Trackpoint>
                </Track>
                <DistanceMeters>32.47130182491296</DistanceMeters>
                <TotalTimeSeconds>28.176988802</TotalTimeSeconds>
                <Calories>0.32686557394</Calories>
                <Intensity>Active</Intensity>
                <TriggerMethod>Manual</TriggerMethod>
            </Lap>
        </Activity>
    </Activities>
    <Author xsi:type="Application_t">
        <Name>Google Fit</Name>
        <Build>
            <Version>
                <VersionMajor>0</VersionMajor>
                <VersionMinor>0</VersionMinor>
                <BuildMajor>0</BuildMajor>
                <BuildMinor>0</BuildMinor>
            </Version>
        </Build>
        <LangID>en</LangID>
        <PartNumber>000-00000-00</PartNumber>
    </Author>
</TrainingCenterDatabase>
