<?xml version="1.0" encoding="UTF-8"?>
<TrainingCenterDatabase
    xmlns="http://www.garmin.com/xmlschemas/TrainingCenterDatabase/v2"
    xmlns:ns2="http://www.garmin.com/xmlschemas/UserProfile/v2"
    xmlns:ns3="http://www.garmin.com/xmlschemas/ActivityExtension/v2"
    xmlns:ns4="http://www.garmin.com/xmlschemas/ProfileExtension/v1"
    xmlns:ns5="http://www.garmin.com/xmlschemas/ActivityGoals/v1"
    xmlns:xsi="http://www.w3.org/2001/XMLSchema-instance" xsi:schemaLocation="http://www.garmin.com/xmlschemas/TrainingCenterDatabase/v2 http://www.garmin.com/xmlschemas/TrainingCenterDatabasev2.xsd">
    <Activities>
        <Activity Sport="Walking">
            <Id>2023-02-01T07:00:08.282Z</Id>
            <Lap StartTime="2023-02-01T07:00:08.282Z">
                <Track>
                    <Trackpoint>
                        <DistanceMeters>0.0</DistanceMeters>
                        <Time>2023-02-01T07:00:08.282Z</Time>
                    </Trackpoint>
                    <Trackpoint>
                        <DistanceMeters>0.11553206296124244</DistanceMeters>
                        <Time>2023-02-01T07:00:08.636Z</Time>
                    </Trackpoint>
                    <Trackpoint>
                        <DistanceMeters>45.7880819631175</DistanceMeters>
                        <Time>2023-02-01T07:01:20.196Z</Time>
                    </Trackpoint>
                    <Trackpoint>
                        <DistanceMeters>74.49654190035858</DistanceMeters>
                        <Time>2023-02-01T07:02:48.196Z</Time>
                    </Trackpoint>
                    <Trackpoint>
                        <DistanceMeters>82.32612188324251</DistanceMeters>
                        <Time>2023-02-01T07:03:07.436Z</Time>
                    </Trackpoint>
                    <Trackpoint>
                        <DistanceMeters>101.90007184045233</DistanceMeters>
                        <Time>2023-02-01T07:03:36.436Z</Time>
                    </Trackpoint>
                    <Trackpoint>
                        <DistanceMeters>139.090576759151</DistanceMeters>
                        <Time>2023-02-01T07:04:31.276Z</Time>
                    </Trackpoint>
                    <Trackpoint>
                        <DistanceMeters>154.74973672491885</DistanceMeters>
                        <Time>2023-02-01T07:05:00.196Z</Time>
                    </Trackpoint>
                    <Trackpoint>
                        <DistanceMeters>164.53671170352376</DistanceMeters>
                        <Time>2023-02-01T07:05:16.796Z</Time>
                    </Trackpoint>
                    <Trackpoint>
                        <DistanceMeters>173.67122168355502</DistanceMeters>
                        <Time>2023-02-01T07:05:53.036Z</Time>
                    </Trackpoint>
                    <Trackpoint>
                        <DistanceMeters>180.84833666786528</DistanceMeters>
                        <Time>2023-02-01T07:06:13.156Z</Time>
                    </Trackpoint>
                    <Trackpoint>
                        <DistanceMeters>204.98954161509073</DistanceMeters>
                        <Time>2023-02-01T07:07:13.476Z</Time>
                    </Trackpoint>
                    <Trackpoint>
                        <DistanceMeters>207.59940160938538</DistanceMeters>
                        <Time>2023-02-01T07:07:27.796Z</Time>
                    </Trackpoint>
                    <Trackpoint>
                        <DistanceMeters>229.13074656231618</DistanceMeters>
                        <Time>2023-02-01T07:08:33.796Z</Time>
                    </Trackpoint>
                    <Trackpoint>
                        <DistanceMeters>262.40646148957285</DistanceMeters>
                        <Time>2023-02-01T07:09:18.156Z</Time>
                    </Trackpoint>
                    <Trackpoint>
                        <DistanceMeters>276.7606914581934</DistanceMeters>
                        <Time>2023-02-01T07:09:35.396Z</Time>
                    </Trackpoint>
                    <Trackpoint>
                        <DistanceMeters>310.03640638545005</DistanceMeters>
                        <Time>2023-02-01T07:10:19.236Z</Time>
                    </Trackpoint>
                    <Trackpoint>
                        <DistanceMeters>322.4332413583496</DistanceMeters>
                        <Time>2023-02-01T07:10:34.556Z</Time>
                    </Trackpoint>
                    <Trackpoint>
                        <DistanceMeters>360.27621127562196</DistanceMeters>
                        <Time>2023-02-01T07:11:20.756Z</Time>
                    </Trackpoint>
                    <Trackpoint>
                        <DistanceMeters>415.7357361543831</DistanceMeters>
                        <Time>2023-02-01T07:12:55.156Z</Time>
                    </Trackpoint>
                    <Trackpoint>
                        <DistanceMeters>467.2804710417023</DistanceMeters>
                        <Time>2023-02-01T07:13:57.596Z</Time>
                    </Trackpoint>
                </Track>
                <DistanceMeters>467.2804710417023</DistanceMeters>
                <TotalTimeSeconds>829.314141869</TotalTimeSeconds>
                <Calories>80.84432127777777</Calories>
                <Intensity>Active</Intensity>
                <TriggerMethod>Manual</TriggerMethod>
            </Lap>
        </Activity>
        <Activity Sport="Walking">
            <Id>2023-02-01T07:12:55.156Z</Id>
            <Lap StartTime="2023-02-01T07:12:55.156Z">
                <Track>
                    <Trackpoint>
                        <DistanceMeters>0.0</DistanceMeters>
                        <Time>2023-02-01T07:12:55.156Z</Time>
                    </Trackpoint>
                    <Trackpoint>
                        <DistanceMeters>51.5447348873192</DistanceMeters>
                        <Time>2023-02-01T07:13:17.863Z</Time>
                    </Trackpoint>
                    <Trackpoint>
                        <DistanceMeters>51.5447348873192</DistanceMeters>
                        <Time>2023-02-01T07:13:57.596Z</Time>
                    </Trackpoint>
                    <Trackpoint>
                        <DistanceMeters>96.56481978890179</DistanceMeters>
                        <Time>2023-02-01T07:14:57.476Z</Time>
                    </Trackpoint>
                    <Trackpoint>
                        <DistanceMeters>140.93243969191073</DistanceMeters>
                        <Time>2023-02-01T07:15:50.416Z</Time>
                    </Trackpoint>
                </Track>
                <DistanceMeters>140.93243969191073</DistanceMeters>
                <TotalTimeSeconds>175.25999952</TotalTimeSeconds>
                <Calories>15.619746453500275</Calories>
                <Intensity>Active</Intensity>
                <TriggerMethod>Manual</TriggerMethod>
            </Lap>
        </Activity>
    </Activities>
    <Author xsi:type="Application_t">
        <Name>Google Fit</Name>
        <Build>
            <Version>
                <VersionMajor>0</VersionMajor>
                <VersionMinor>0</VersionMinor>
                <BuildMajor>0</BuildMajor>
                <BuildMinor>0</BuildMinor>
            </Version>
        </Build>
        <LangID>en</LangID>
        <PartNumber>000-00000-00</PartNumber>
    </Author>
</TrainingCenterDatabase>
