<?xml version="1.0" encoding="UTF-8"?>
<TrainingCenterDatabase
    xmlns="http://www.garmin.com/xmlschemas/TrainingCenterDatabase/v2"
    xmlns:ns2="http://www.garmin.com/xmlschemas/UserProfile/v2"
    xmlns:ns3="http://www.garmin.com/xmlschemas/ActivityExtension/v2"
    xmlns:ns4="http://www.garmin.com/xmlschemas/ProfileExtension/v1"
    xmlns:ns5="http://www.garmin.com/xmlschemas/ActivityGoals/v1"
    xmlns:xsi="http://www.w3.org/2001/XMLSchema-instance" xsi:schemaLocation="http://www.garmin.com/xmlschemas/TrainingCenterDatabase/v2 http://www.garmin.com/xmlschemas/TrainingCenterDatabasev2.xsd">
    <Activities>
        <Activity Sport="Walking">
            <Id>2023-08-29T19:29:01.896Z</Id>
            <Lap StartTime="2023-08-29T19:29:01.896Z">
                <Track>
                    <Trackpoint>
                        <DistanceMeters>0.0</DistanceMeters>
                        <Time>2023-08-29T19:29:01.896Z</Time>
                    </Trackpoint>
                    <Trackpoint>
                        <DistanceMeters>0.0</DistanceMeters>
                        <Time>2023-08-29T19:52:41.296Z</Time>
                    </Trackpoint>
                    <Trackpoint>
                        <DistanceMeters>71.75797926870102</DistanceMeters>
                        <Time>2023-08-29T19:53:33.054Z</Time>
                    </Trackpoint>
                </Track>
                <DistanceMeters>71.75797926870102</DistanceMeters>
                <TotalTimeSeconds>1471.157660306</TotalTimeSeconds>
                <Calories>32.12697920970291</Calories>
                <Intensity>Active</Intensity>
                <TriggerMethod>Manual</TriggerMethod>
            </Lap>
        </Activity>
        <Activity Sport="Walking">
            <Id>2023-08-29T19:52:41.296Z</Id>
            <Lap StartTime="2023-08-29T19:52:41.296Z">
                <Track>
                    <Trackpoint>
                        <DistanceMeters>0.0</DistanceMeters>
                        <Time>2023-08-29T19:52:41.296Z</Time>
                    </Trackpoint>
                    <Trackpoint>
                        <DistanceMeters>71.75797926870102</DistanceMeters>
                        <Time>2023-08-29T19:52:43.843Z</Time>
                    </Trackpoint>
                    <Trackpoint>
                        <DistanceMeters>71.75797926870102</DistanceMeters>
                        <Time>2023-08-29T19:53:33.054Z</Time>
                    </Trackpoint>
                    <Trackpoint>
                        <DistanceMeters>83.63727444295857</DistanceMeters>
                        <Time>2023-08-29T19:53:41.807Z</Time>
                    </Trackpoint>
                    <Trackpoint>
                        <DistanceMeters>154.49573459443215</DistanceMeters>
                        <Time>2023-08-29T19:54:33.263Z</Time>
                    </Trackpoint>
                    <Trackpoint>
                        <DistanceMeters>165.52330229310064</DistanceMeters>
                        <Time>2023-08-29T19:54:41.647Z</Time>
                    </Trackpoint>
                    <Trackpoint>
                        <DistanceMeters>198.64293174420504</DistanceMeters>
                        <Time>2023-08-29T19:55:33.553Z</Time>
                    </Trackpoint>
                    <Trackpoint>
                        <DistanceMeters>210.59480255435614</DistanceMeters>
                        <Time>2023-08-29T19:55:42.191Z</Time>
                    </Trackpoint>
                    <Trackpoint>
                        <DistanceMeters>279.3780353512862</DistanceMeters>
                        <Time>2023-08-29T19:56:33.496Z</Time>
                    </Trackpoint>
                    <Trackpoint>
                        <DistanceMeters>291.1822844589961</DistanceMeters>
                        <Time>2023-08-29T19:56:42.371Z</Time>
                    </Trackpoint>
                    <Trackpoint>
                        <DistanceMeters>360.0434785368067</DistanceMeters>
                        <Time>2023-08-29T19:57:33.549Z</Time>
                    </Trackpoint>
                    <Trackpoint>
                        <DistanceMeters>371.8254405988814</DistanceMeters>
                        <Time>2023-08-29T19:57:42.460Z</Time>
                    </Trackpoint>
                    <Trackpoint>
                        <DistanceMeters>440.5609076699648</DistanceMeters>
                        <Time>2023-08-29T19:58:33.843Z</Time>
                    </Trackpoint>
                    <Trackpoint>
                        <DistanceMeters>452.25365374914884</DistanceMeters>
                        <Time>2023-08-29T19:58:42.905Z</Time>
                    </Trackpoint>
                    <Trackpoint>
                        <DistanceMeters>501.5440694093951</DistanceMeters>
                        <Time>2023-08-29T19:59:37.613Z</Time>
                    </Trackpoint>
                    <Trackpoint>
                        <DistanceMeters>518.1038841349473</DistanceMeters>
                        <Time>2023-08-29T20:00:37.613Z</Time>
                    </Trackpoint>
                </Track>
                <DistanceMeters>518.1038841349473</DistanceMeters>
                <TotalTimeSeconds>476.317134504</TotalTimeSeconds>
                <Calories>46.93973855555556</Calories>
                <Intensity>Active</Intensity>
                <TriggerMethod>Manual</TriggerMethod>
            </Lap>
        </Activity>
        <Activity Sport="Walking">
            <Id>2023-08-29T19:59:37.613Z</Id>
            <Lap StartTime="2023-08-29T19:59:37.613Z">
                <Track>
                    <Trackpoint>
                        <DistanceMeters>0.0</DistanceMeters>
                        <Time>2023-08-29T19:59:37.613Z</Time>
                    </Trackpoint>
                    <Trackpoint>
                        <DistanceMeters>16.5598147255522</DistanceMeters>
                        <Time>2023-08-29T20:00:13.480Z</Time>
                    </Trackpoint>
                    <Trackpoint>
                        <DistanceMeters>16.5598147255522</DistanceMeters>
                        <Time>2023-08-29T20:00:37.613Z</Time>
                    </Trackpoint>
                    <Trackpoint>
                        <DistanceMeters>29.97127600894146</DistanceMeters>
                        <Time>2023-08-29T20:00:47.385Z</Time>
                    </Trackpoint>
                    <Trackpoint>
                        <DistanceMeters>78.42922564860717</DistanceMeters>
                        <Time>2023-08-29T20:01:30.156Z</Time>
                    </Trackpoint>
                </Track>
                <DistanceMeters>78.42922564860717</DistanceMeters>
                <TotalTimeSeconds>112.542955704</TotalTimeSeconds>
                <Calories>7.591101666666666</Calories>
                <Intensity>Active</Intensity>
                <TriggerMethod>Manual</TriggerMethod>
            </Lap>
        </Activity>
        <Activity Sport="Walking">
            <Id>2023-08-29T20:00:47.385Z</Id>
            <Lap StartTime="2023-08-29T20:00:47.385Z">
                <Track>
                    <Trackpoint>
                        <DistanceMeters>0.0</DistanceMeters>
                        <Time>2023-08-29T20:00:47.385Z</Time>
                    </Trackpoint>
                    <Trackpoint>
                        <DistanceMeters>48.45794963966571</DistanceMeters>
                        <Time>2023-08-29T20:01:21.325Z</Time>
                    </Trackpoint>
                    <Trackpoint>
                        <DistanceMeters>48.45794963966571</DistanceMeters>
                        <Time>2023-08-29T20:01:30.156Z</Time>
                    </Trackpoint>
                </Track>
                <DistanceMeters>48.45794963966571</DistanceMeters>
                <TotalTimeSeconds>42.77083461</TotalTimeSeconds>
                <Calories>0.9881355855854442</Calories>
                <Intensity>Active</Intensity>
                <TriggerMethod>Manual</TriggerMethod>
            </Lap>
        </Activity>
        <Activity Sport="Walking">
            <Id>2023-08-29T20:09:29.972Z</Id>
            <Lap StartTime="2023-08-29T20:09:29.972Z">
                <Track>
                    <Trackpoint>
                        <DistanceMeters>0.0</DistanceMeters>
                        <Time>2023-08-29T20:09:29.972Z</Time>
                    </Trackpoint>
                    <Trackpoint>
                        <DistanceMeters>79.48711068265057</DistanceMeters>
                        <Time>2023-08-29T20:12:50.810Z</Time>
                    </Trackpoint>
                    <Trackpoint>
                        <DistanceMeters>79.48711068265057</DistanceMeters>
                        <Time>2023-08-29T20:13:29.972Z</Time>
                    </Trackpoint>
                    <Trackpoint>
                        <DistanceMeters>163.17220043046188</DistanceMeters>
                        <Time>2023-08-29T20:14:30.407Z</Time>
                    </Trackpoint>
                    <Trackpoint>
                        <DistanceMeters>247.91470125670966</DistanceMeters>
                        <Time>2023-08-29T20:15:30.902Z</Time>
                    </Trackpoint>
                    <Trackpoint>
                        <DistanceMeters>333.9089439078426</DistanceMeters>
                        <Time>2023-08-29T20:16:31.174Z</Time>
                    </Trackpoint>
                    <Trackpoint>
                        <DistanceMeters>420.71962134287594</DistanceMeters>
                        <Time>2023-08-29T20:17:31.881Z</Time>
                    </Trackpoint>
                    <Trackpoint>
                        <DistanceMeters>504.66855008705534</DistanceMeters>
                        <Time>2023-08-29T20:18:31.908Z</Time>
                    </Trackpoint>
                    <Trackpoint>
                        <DistanceMeters>570.7104818369722</DistanceMeters>
                        <Time>2023-08-29T20:19:32.216Z</Time>
                    </Trackpoint>
                    <Trackpoint>
                        <DistanceMeters>658.1088637472027</DistanceMeters>
                        <Time>2023-08-29T20:20:36.699Z</Time>
                    </Trackpoint>
                    <Trackpoint>
                        <DistanceMeters>686.5917450751525</DistanceMeters>
                        <Time>2023-08-29T20:22:02.699Z</Time>
                    </Trackpoint>
                </Track>
                <DistanceMeters>686.5917450751525</DistanceMeters>
                <TotalTimeSeconds>752.726752619</TotalTimeSeconds>
                <Calories>56.66612777777778</Calories>
                <Intensity>Active</Intensity>
                <TriggerMethod>Manual</TriggerMethod>
            </Lap>
        </Activity>
    </Activities>
    <Author xsi:type="Application_t">
        <Name>Google Fit</Name>
        <Build>
            <Version>
                <VersionMajor>0</VersionMajor>
                <VersionMinor>0</VersionMinor>
                <BuildMajor>0</BuildMajor>
                <BuildMinor>0</BuildMinor>
            </Version>
        </Build>
        <LangID>en</LangID>
        <PartNumber>000-00000-00</PartNumber>
    </Author>
</TrainingCenterDatabase>
