<?xml version="1.0" encoding="UTF-8"?>
<TrainingCenterDatabase
    xmlns="http://www.garmin.com/xmlschemas/TrainingCenterDatabase/v2"
    xmlns:ns2="http://www.garmin.com/xmlschemas/UserProfile/v2"
    xmlns:ns3="http://www.garmin.com/xmlschemas/ActivityExtension/v2"
    xmlns:ns4="http://www.garmin.com/xmlschemas/ProfileExtension/v1"
    xmlns:ns5="http://www.garmin.com/xmlschemas/ActivityGoals/v1"
    xmlns:xsi="http://www.w3.org/2001/XMLSchema-instance" xsi:schemaLocation="http://www.garmin.com/xmlschemas/TrainingCenterDatabase/v2 http://www.garmin.com/xmlschemas/TrainingCenterDatabasev2.xsd">
    <Activities>
        <Activity Sport="Walking">
            <Id>2023-02-01T05:50:12.011Z</Id>
            <Lap StartTime="2023-02-01T05:50:12.011Z">
                <Track>
                    <Trackpoint>
                        <DistanceMeters>0.0</DistanceMeters>
                        <Time>2023-02-01T05:50:12.011Z</Time>
                    </Trackpoint>
                    <Trackpoint>
                        <DistanceMeters>0.0</DistanceMeters>
                        <Time>2023-02-01T06:19:03.236Z</Time>
                    </Trackpoint>
                    <Trackpoint>
                        <DistanceMeters>36.538039920125</DistanceMeters>
                        <Time>2023-02-01T06:20:04.996Z</Time>
                    </Trackpoint>
                    <Trackpoint>
                        <DistanceMeters>76.99086983169198</DistanceMeters>
                        <Time>2023-02-01T06:21:06.236Z</Time>
                    </Trackpoint>
                    <Trackpoint>
                        <DistanceMeters>121.35848973470092</DistanceMeters>
                        <Time>2023-02-01T06:22:07.916Z</Time>
                    </Trackpoint>
                </Track>
                <DistanceMeters>121.35848973470092</DistanceMeters>
                <TotalTimeSeconds>1915.905141776</TotalTimeSeconds>
                <Calories>47.08547620663007</Calories>
                <Intensity>Active</Intensity>
                <TriggerMethod>Manual</TriggerMethod>
            </Lap>
        </Activity>
        <Activity Sport="Walking">
            <Id>2023-02-01T06:21:06.236Z</Id>
            <Lap StartTime="2023-02-01T06:21:06.236Z">
                <Track>
                    <Trackpoint>
                        <DistanceMeters>0.0</DistanceMeters>
                        <Time>2023-02-01T06:21:06.236Z</Time>
                    </Trackpoint>
                    <Trackpoint>
                        <DistanceMeters>44.367619903008936</DistanceMeters>
                        <Time>2023-02-01T06:21:32.796Z</Time>
                    </Trackpoint>
                    <Trackpoint>
                        <DistanceMeters>44.367619903008936</DistanceMeters>
                        <Time>2023-02-01T06:22:07.916Z</Time>
                    </Trackpoint>
                    <Trackpoint>
                        <DistanceMeters>87.43030980887055</DistanceMeters>
                        <Time>2023-02-01T06:23:08.636Z</Time>
                    </Trackpoint>
                    <Trackpoint>
                        <DistanceMeters>131.1454647133058</DistanceMeters>
                        <Time>2023-02-01T06:24:11.876Z</Time>
                    </Trackpoint>
                    <Trackpoint>
                        <DistanceMeters>136.3651847018951</DistanceMeters>
                        <Time>2023-02-01T06:24:18.256Z</Time>
                    </Trackpoint>
                    <Trackpoint>
                        <DistanceMeters>176.81801461346205</DistanceMeters>
                        <Time>2023-02-01T06:25:12.676Z</Time>
                    </Trackpoint>
                    <Trackpoint>
                        <DistanceMeters>191.17224458208258</DistanceMeters>
                        <Time>2023-02-01T06:25:29.236Z</Time>
                    </Trackpoint>
                    <Trackpoint>
                        <DistanceMeters>228.36274950078126</DistanceMeters>
                        <Time>2023-02-01T06:26:13.436Z</Time>
                    </Trackpoint>
                    <Trackpoint>
                        <DistanceMeters>238.14972447938618</DistanceMeters>
                        <Time>2023-02-01T06:29:29.396Z</Time>
                    </Trackpoint>
                    <Trackpoint>
                        <DistanceMeters>264.9007894209063</DistanceMeters>
                        <Time>2023-02-01T06:30:25.076Z</Time>
                    </Trackpoint>
                    <Trackpoint>
                        <DistanceMeters>275.34022939808483</DistanceMeters>
                        <Time>2023-02-01T06:30:43.316Z</Time>
                    </Trackpoint>
                    <Trackpoint>
                        <DistanceMeters>307.96347932676787</DistanceMeters>
                        <Time>2023-02-01T06:31:36.436Z</Time>
                    </Trackpoint>
                    <Trackpoint>
                        <DistanceMeters>311.87826931820985</DistanceMeters>
                        <Time>2023-02-01T06:31:42.796Z</Time>
                    </Trackpoint>
                    <Trackpoint>
                        <DistanceMeters>348.41630923833486</DistanceMeters>
                        <Time>2023-02-01T06:32:37.236Z</Time>
                    </Trackpoint>
                    <Trackpoint>
                        <DistanceMeters>350.4291967478746</DistanceMeters>
                        <Time>2023-02-01T06:32:39.236Z</Time>
                    </Trackpoint>
                    <Trackpoint>
                        <DistanceMeters>405.90903154161515</DistanceMeters>
                        <Time>2023-02-01T06:33:37.436Z</Time>
                    </Trackpoint>
                    <Trackpoint>
                        <DistanceMeters>430.507042537841</DistanceMeters>
                        <Time>2023-02-01T06:38:23.056Z</Time>
                    </Trackpoint>
                    <Trackpoint>
                        <DistanceMeters>448.12359749932983</DistanceMeters>
                        <Time>2023-02-01T06:39:00.156Z</Time>
                    </Trackpoint>
                    <Trackpoint>
                        <DistanceMeters>484.00917242088116</DistanceMeters>
                        <Time>2023-02-01T06:39:53.876Z</Time>
                    </Trackpoint>
                    <Trackpoint>
                        <DistanceMeters>492.49121740233875</DistanceMeters>
                        <Time>2023-02-01T06:40:15.980Z</Time>
                    </Trackpoint>
                </Track>
                <DistanceMeters>492.49121740233875</DistanceMeters>
                <TotalTimeSeconds>1149.743859345</TotalTimeSeconds>
                <Calories>115.00156177777777</Calories>
                <Intensity>Active</Intensity>
                <TriggerMethod>Manual</TriggerMethod>
            </Lap>
        </Activity>
    </Activities>
    <Author xsi:type="Application_t">
        <Name>Google Fit</Name>
        <Build>
            <Version>
                <VersionMajor>0</VersionMajor>
                <VersionMinor>0</VersionMinor>
                <BuildMajor>0</BuildMajor>
                <BuildMinor>0</BuildMinor>
            </Version>
        </Build>
        <LangID>en</LangID>
        <PartNumber>000-00000-00</PartNumber>
    </Author>
</TrainingCenterDatabase>
