<?xml version="1.0" encoding="UTF-8"?>
<TrainingCenterDatabase
    xmlns="http://www.garmin.com/xmlschemas/TrainingCenterDatabase/v2"
    xmlns:ns2="http://www.garmin.com/xmlschemas/UserProfile/v2"
    xmlns:ns3="http://www.garmin.com/xmlschemas/ActivityExtension/v2"
    xmlns:ns4="http://www.garmin.com/xmlschemas/ProfileExtension/v1"
    xmlns:ns5="http://www.garmin.com/xmlschemas/ActivityGoals/v1"
    xmlns:xsi="http://www.w3.org/2001/XMLSchema-instance" xsi:schemaLocation="http://www.garmin.com/xmlschemas/TrainingCenterDatabase/v2 http://www.garmin.com/xmlschemas/TrainingCenterDatabasev2.xsd">
    <Activities>
        <Activity Sport="Walking">
            <Id>2023-01-13T20:29:34.891Z</Id>
            <Lap StartTime="2023-01-13T20:29:34.891Z">
                <Track>
                    <Trackpoint>
                        <DistanceMeters>0.0</DistanceMeters>
                        <Time>2023-01-13T20:29:34.891Z</Time>
                    </Trackpoint>
                    <Trackpoint>
                        <DistanceMeters>0.0</DistanceMeters>
                        <Time>2023-01-13T20:52:17.051Z</Time>
                    </Trackpoint>
                    <Trackpoint>
                        <DistanceMeters>73.12867008031003</DistanceMeters>
                        <Time>2023-01-13T20:53:13.571Z</Time>
                    </Trackpoint>
                </Track>
                <DistanceMeters>73.12867008031003</DistanceMeters>
                <TotalTimeSeconds>1418.679999391</TotalTimeSeconds>
                <Calories>30.182946141947816</Calories>
                <Intensity>Active</Intensity>
                <TriggerMethod>Manual</TriggerMethod>
            </Lap>
        </Activity>
        <Activity Sport="Walking">
            <Id>2023-01-13T20:52:17.051Z</Id>
            <Lap StartTime="2023-01-13T20:52:17.051Z">
                <Track>
                    <Trackpoint>
                        <DistanceMeters>0.0</DistanceMeters>
                        <Time>2023-01-13T20:52:17.051Z</Time>
                    </Trackpoint>
                    <Trackpoint>
                        <DistanceMeters>73.12867008031003</DistanceMeters>
                        <Time>2023-01-13T20:52:29.172Z</Time>
                    </Trackpoint>
                    <Trackpoint>
                        <DistanceMeters>73.12867008031003</DistanceMeters>
                        <Time>2023-01-13T20:53:13.571Z</Time>
                    </Trackpoint>
                    <Trackpoint>
                        <DistanceMeters>157.23300814006154</DistanceMeters>
                        <Time>2023-01-13T20:54:18.291Z</Time>
                    </Trackpoint>
                    <Trackpoint>
                        <DistanceMeters>187.96686748273913</DistanceMeters>
                        <Time>2023-01-13T20:54:43.051Z</Time>
                    </Trackpoint>
                    <Trackpoint>
                        <DistanceMeters>237.88635893056383</DistanceMeters>
                        <Time>2023-01-13T20:55:21.731Z</Time>
                    </Trackpoint>
                    <Trackpoint>
                        <DistanceMeters>305.87761786422243</DistanceMeters>
                        <Time>2023-01-13T20:56:14.451Z</Time>
                    </Trackpoint>
                    <Trackpoint>
                        <DistanceMeters>328.1077763774823</DistanceMeters>
                        <Time>2023-01-13T20:56:32.171Z</Time>
                    </Trackpoint>
                    <Trackpoint>
                        <DistanceMeters>346.3471204576841</DistanceMeters>
                        <Time>2023-01-13T20:56:45.931Z</Time>
                    </Trackpoint>
                    <Trackpoint>
                        <DistanceMeters>408.49832244052766</DistanceMeters>
                        <Time>2023-01-13T20:57:32.491Z</Time>
                    </Trackpoint>
                    <Trackpoint>
                        <DistanceMeters>450.0674334539048</DistanceMeters>
                        <Time>2023-01-13T20:58:03.891Z</Time>
                    </Trackpoint>
                    <Trackpoint>
                        <DistanceMeters>530.3596671810724</DistanceMeters>
                        <Time>2023-01-13T20:59:04.371Z</Time>
                    </Trackpoint>
                    <Trackpoint>
                        <DistanceMeters>590.1194140454157</DistanceMeters>
                        <Time>2023-01-13T20:59:49.611Z</Time>
                    </Trackpoint>
                    <Trackpoint>
                        <DistanceMeters>634.0387693815586</DistanceMeters>
                        <Time>2023-01-13T21:00:24.171Z</Time>
                    </Trackpoint>
                    <Trackpoint>
                        <DistanceMeters>649.8237866600333</DistanceMeters>
                        <Time>2023-01-13T21:00:36.731Z</Time>
                    </Trackpoint>
                    <Trackpoint>
                        <DistanceMeters>688.3915547660832</DistanceMeters>
                        <Time>2023-01-13T21:01:21.103Z</Time>
                    </Trackpoint>
                </Track>
                <DistanceMeters>688.3915547660832</DistanceMeters>
                <TotalTimeSeconds>544.051335034</TotalTimeSeconds>
                <Calories>54.463824055555556</Calories>
                <Intensity>Active</Intensity>
                <TriggerMethod>Manual</TriggerMethod>
            </Lap>
        </Activity>
        <Activity Sport="Walking">
            <Id>2023-01-13T21:07:40.931Z</Id>
            <Lap StartTime="2023-01-13T21:07:40.931Z">
                <Track>
                    <Trackpoint>
                        <DistanceMeters>0.0</DistanceMeters>
                        <Time>2023-01-13T21:07:40.931Z</Time>
                    </Trackpoint>
                    <Trackpoint>
                        <DistanceMeters>18.2690199600625</DistanceMeters>
                        <Time>2023-01-13T21:08:17.490Z</Time>
                    </Trackpoint>
                    <Trackpoint>
                        <DistanceMeters>18.2690199600625</DistanceMeters>
                        <Time>2023-01-13T21:08:23.011Z</Time>
                    </Trackpoint>
                    <Trackpoint>
                        <DistanceMeters>77.39761893820574</DistanceMeters>
                        <Time>2023-01-13T21:09:15.051Z</Time>
                    </Trackpoint>
                    <Trackpoint>
                        <DistanceMeters>145.86802721444104</DistanceMeters>
                        <Time>2023-01-13T21:10:14.451Z</Time>
                    </Trackpoint>
                    <Trackpoint>
                        <DistanceMeters>178.79083890036358</DistanceMeters>
                        <Time>2023-01-13T21:10:42.771Z</Time>
                    </Trackpoint>
                    <Trackpoint>
                        <DistanceMeters>228.78371274842527</DistanceMeters>
                        <Time>2023-01-13T21:11:25.051Z</Time>
                    </Trackpoint>
                    <Trackpoint>
                        <DistanceMeters>263.5076672511195</DistanceMeters>
                        <Time>2023-01-13T21:11:53.811Z</Time>
                    </Trackpoint>
                    <Trackpoint>
                        <DistanceMeters>286.089878909745</DistanceMeters>
                        <Time>2023-01-13T21:12:12.771Z</Time>
                    </Trackpoint>
                    <Trackpoint>
                        <DistanceMeters>323.94782621001144</DistanceMeters>
                        <Time>2023-01-13T21:12:43.331Z</Time>
                    </Trackpoint>
                    <Trackpoint>
                        <DistanceMeters>355.185293203728</DistanceMeters>
                        <Time>2023-01-13T21:13:09.051Z</Time>
                    </Trackpoint>
                    <Trackpoint>
                        <DistanceMeters>379.9789631495271</DistanceMeters>
                        <Time>2023-01-13T21:13:54.351Z</Time>
                    </Trackpoint>
                </Track>
                <DistanceMeters>379.9789631495271</DistanceMeters>
                <TotalTimeSeconds>373.420001258</TotalTimeSeconds>
                <Calories>33.09393188888889</Calories>
                <Intensity>Active</Intensity>
                <TriggerMethod>Manual</TriggerMethod>
            </Lap>
        </Activity>
        <Activity Sport="Walking">
            <Id>2023-01-13T21:13:09.051Z</Id>
            <Lap StartTime="2023-01-13T21:13:09.051Z">
                <Track>
                    <Trackpoint>
                        <DistanceMeters>0.0</DistanceMeters>
                        <Time>2023-01-13T21:13:09.051Z</Time>
                    </Trackpoint>
                    <Trackpoint>
                        <DistanceMeters>24.79366994579911</DistanceMeters>
                        <Time>2023-01-13T21:13:40.708Z</Time>
                    </Trackpoint>
                    <Trackpoint>
                        <DistanceMeters>24.79366994579911</DistanceMeters>
                        <Time>2023-01-13T21:13:54.351Z</Time>
                    </Trackpoint>
                    <Trackpoint>
                        <DistanceMeters>89.12216816925937</DistanceMeters>
                        <Time>2023-01-13T21:14:46.171Z</Time>
                    </Trackpoint>
                    <Trackpoint>
                        <DistanceMeters>151.26886469101038</DistanceMeters>
                        <Time>2023-01-13T21:15:36.331Z</Time>
                    </Trackpoint>
                </Track>
                <DistanceMeters>151.26886469101038</DistanceMeters>
                <TotalTimeSeconds>147.279998599</TotalTimeSeconds>
                <Calories>5.994109907540631</Calories>
                <Intensity>Active</Intensity>
                <TriggerMethod>Manual</TriggerMethod>
            </Lap>
        </Activity>
        <Activity Sport="Walking">
            <Id>2023-01-13T21:14:46.171Z</Id>
            <Lap StartTime="2023-01-13T21:14:46.171Z">
                <Track>
                    <Trackpoint>
                        <DistanceMeters>0.0</DistanceMeters>
                        <Time>2023-01-13T21:14:46.171Z</Time>
                    </Trackpoint>
                    <Trackpoint>
                        <DistanceMeters>62.14669652175102</DistanceMeters>
                        <Time>2023-01-13T21:14:50.063Z</Time>
                    </Trackpoint>
                    <Trackpoint>
                        <DistanceMeters>62.14669652175102</DistanceMeters>
                        <Time>2023-01-13T21:15:36.331Z</Time>
                    </Trackpoint>
                    <Trackpoint>
                        <DistanceMeters>73.7276965311924</DistanceMeters>
                        <Time>2023-01-13T21:15:45.291Z</Time>
                    </Trackpoint>
                    <Trackpoint>
                        <DistanceMeters>149.66760079211488</DistanceMeters>
                        <Time>2023-01-13T21:16:46.011Z</Time>
                    </Trackpoint>
                    <Trackpoint>
                        <DistanceMeters>158.32989666342203</DistanceMeters>
                        <Time>2023-01-13T21:16:52.771Z</Time>
                    </Trackpoint>
                    <Trackpoint>
                        <DistanceMeters>232.68935279821247</DistanceMeters>
                        <Time>2023-01-13T21:17:54.491Z</Time>
                    </Trackpoint>
                    <Trackpoint>
                        <DistanceMeters>242.73024034959465</DistanceMeters>
                        <Time>2023-01-13T21:18:49.711Z</Time>
                    </Trackpoint>
                    <Trackpoint>
                        <DistanceMeters>262.30419030680446</DistanceMeters>
                        <Time>2023-01-13T21:20:05.971Z</Time>
                    </Trackpoint>
                </Track>
                <DistanceMeters>262.30419030680446</DistanceMeters>
                <TotalTimeSeconds>319.799334467</TotalTimeSeconds>
                <Calories>32.34546911111111</Calories>
                <Intensity>Active</Intensity>
                <TriggerMethod>Manual</TriggerMethod>
            </Lap>
        </Activity>
    </Activities>
    <Author xsi:type="Application_t">
        <Name>Google Fit</Name>
        <Build>
            <Version>
                <VersionMajor>0</VersionMajor>
                <VersionMinor>0</VersionMinor>
                <BuildMajor>0</BuildMajor>
                <BuildMinor>0</BuildMinor>
            </Version>
        </Build>
        <LangID>en</LangID>
        <PartNumber>000-00000-00</PartNumber>
    </Author>
</TrainingCenterDatabase>
