<?xml version="1.0" encoding="UTF-8"?>
<TrainingCenterDatabase
    xmlns="http://www.garmin.com/xmlschemas/TrainingCenterDatabase/v2"
    xmlns:ns2="http://www.garmin.com/xmlschemas/UserProfile/v2"
    xmlns:ns3="http://www.garmin.com/xmlschemas/ActivityExtension/v2"
    xmlns:ns4="http://www.garmin.com/xmlschemas/ProfileExtension/v1"
    xmlns:ns5="http://www.garmin.com/xmlschemas/ActivityGoals/v1"
    xmlns:xsi="http://www.w3.org/2001/XMLSchema-instance" xsi:schemaLocation="http://www.garmin.com/xmlschemas/TrainingCenterDatabase/v2 http://www.garmin.com/xmlschemas/TrainingCenterDatabasev2.xsd">
    <Activities>
        <Activity Sport="Walking">
            <Id>2023-08-21T09:23:21.955Z</Id>
            <Lap StartTime="2023-08-21T09:23:21.955Z">
                <Track>
                    <Trackpoint>
                        <DistanceMeters>0.0</DistanceMeters>
                        <Time>2023-08-21T09:23:21.955Z</Time>
                    </Trackpoint>
                    <Trackpoint>
                        <DistanceMeters>0.0</DistanceMeters>
                        <Time>2023-08-21T17:12:52.999Z</Time>
                    </Trackpoint>
                    <Trackpoint>
                        <DistanceMeters>34.44441462914858</DistanceMeters>
                        <Time>2023-08-21T17:14:00.243Z</Time>
                    </Trackpoint>
                    <Trackpoint>
                        <DistanceMeters>52.329014532744964</DistanceMeters>
                        <Time>2023-08-21T17:15:15.854Z</Time>
                    </Trackpoint>
                </Track>
                <DistanceMeters>52.329014532744964</DistanceMeters>
                <TotalTimeSeconds>28313.898203886</TotalTimeSeconds>
                <Calories>641.9421916430389</Calories>
                <Intensity>Active</Intensity>
                <TriggerMethod>Manual</TriggerMethod>
            </Lap>
        </Activity>
        <Activity Sport="Walking">
            <Id>2023-08-21T17:15:15.854Z</Id>
            <Lap StartTime="2023-08-21T17:15:15.854Z">
                <Track>
                    <Trackpoint>
                        <DistanceMeters>0.0</DistanceMeters>
                        <Time>2023-08-21T17:15:15.854Z</Time>
                    </Trackpoint>
                    <Trackpoint>
                        <DistanceMeters>38.18575097583549</DistanceMeters>
                        <Time>2023-08-21T17:16:12.531Z</Time>
                    </Trackpoint>
                    <Trackpoint>
                        <DistanceMeters>115.34134178934013</DistanceMeters>
                        <Time>2023-08-21T17:17:13.100Z</Time>
                    </Trackpoint>
                    <Trackpoint>
                        <DistanceMeters>159.05925266479795</DistanceMeters>
                        <Time>2023-08-21T17:18:13.689Z</Time>
                    </Trackpoint>
                    <Trackpoint>
                        <DistanceMeters>239.67133195661086</DistanceMeters>
                        <Time>2023-08-21T17:19:13.828Z</Time>
                    </Trackpoint>
                    <Trackpoint>
                        <DistanceMeters>320.055667931839</DistanceMeters>
                        <Time>2023-08-21T17:20:14.340Z</Time>
                    </Trackpoint>
                    <Trackpoint>
                        <DistanceMeters>400.519935167267</DistanceMeters>
                        <Time>2023-08-21T17:21:14.720Z</Time>
                    </Trackpoint>
                    <Trackpoint>
                        <DistanceMeters>481.22497101405327</DistanceMeters>
                        <Time>2023-08-21T17:22:14.709Z</Time>
                    </Trackpoint>
                    <Trackpoint>
                        <DistanceMeters>520.3061337663564</DistanceMeters>
                        <Time>2023-08-21T17:23:13.725Z</Time>
                    </Trackpoint>
                    <Trackpoint>
                        <DistanceMeters>554.750548395505</DistanceMeters>
                        <Time>2023-08-21T17:24:19.820Z</Time>
                    </Trackpoint>
                    <Trackpoint>
                        <DistanceMeters>579.2590741893223</DistanceMeters>
                        <Time>2023-08-21T17:25:13.514Z</Time>
                    </Trackpoint>
                    <Trackpoint>
                        <DistanceMeters>624.9641628318464</DistanceMeters>
                        <Time>2023-08-21T17:26:32.383Z</Time>
                    </Trackpoint>
                    <Trackpoint>
                        <DistanceMeters>652.122258981752</DistanceMeters>
                        <Time>2023-08-21T17:27:20.559Z</Time>
                    </Trackpoint>
                </Track>
                <DistanceMeters>652.122258981752</DistanceMeters>
                <TotalTimeSeconds>724.705030673</TotalTimeSeconds>
                <Calories>76.38721577777778</Calories>
                <Intensity>Active</Intensity>
                <TriggerMethod>Manual</TriggerMethod>
            </Lap>
        </Activity>
    </Activities>
    <Author xsi:type="Application_t">
        <Name>Google Fit</Name>
        <Build>
            <Version>
                <VersionMajor>0</VersionMajor>
                <VersionMinor>0</VersionMinor>
                <BuildMajor>0</BuildMajor>
                <BuildMinor>0</BuildMinor>
            </Version>
        </Build>
        <LangID>en</LangID>
        <PartNumber>000-00000-00</PartNumber>
    </Author>
</TrainingCenterDatabase>
