<?xml version="1.0" encoding="UTF-8"?>
<TrainingCenterDatabase
    xmlns="http://www.garmin.com/xmlschemas/TrainingCenterDatabase/v2"
    xmlns:ns2="http://www.garmin.com/xmlschemas/UserProfile/v2"
    xmlns:ns3="http://www.garmin.com/xmlschemas/ActivityExtension/v2"
    xmlns:ns4="http://www.garmin.com/xmlschemas/ProfileExtension/v1"
    xmlns:ns5="http://www.garmin.com/xmlschemas/ActivityGoals/v1"
    xmlns:xsi="http://www.w3.org/2001/XMLSchema-instance" xsi:schemaLocation="http://www.garmin.com/xmlschemas/TrainingCenterDatabase/v2 http://www.garmin.com/xmlschemas/TrainingCenterDatabasev2.xsd">
    <Activities>
        <Activity Sport="Walking">
            <Id>2023-08-26T05:18:38.814Z</Id>
            <Lap StartTime="2023-08-26T05:18:38.814Z">
                <Track>
                    <Trackpoint>
                        <DistanceMeters>0.0</DistanceMeters>
                        <Time>2023-08-26T05:18:38.814Z</Time>
                    </Trackpoint>
                    <Trackpoint>
                        <DistanceMeters>0.0</DistanceMeters>
                        <Time>2023-08-26T05:37:55.785Z</Time>
                    </Trackpoint>
                    <Trackpoint>
                        <DistanceMeters>21.19656284870682</DistanceMeters>
                        <Time>2023-08-26T05:38:46.254Z</Time>
                    </Trackpoint>
                    <Trackpoint>
                        <DistanceMeters>66.97535826832294</DistanceMeters>
                        <Time>2023-08-26T05:39:24.287Z</Time>
                    </Trackpoint>
                    <Trackpoint>
                        <DistanceMeters>91.26201019130214</DistanceMeters>
                        <Time>2023-08-26T05:39:46.602Z</Time>
                    </Trackpoint>
                    <Trackpoint>
                        <DistanceMeters>139.2061471468732</DistanceMeters>
                        <Time>2023-08-26T05:40:24.484Z</Time>
                    </Trackpoint>
                    <Trackpoint>
                        <DistanceMeters>185.2806704317017</DistanceMeters>
                        <Time>2023-08-26T05:40:50.630Z</Time>
                    </Trackpoint>
                    <Trackpoint>
                        <DistanceMeters>287.31161040561426</DistanceMeters>
                        <Time>2023-08-26T05:42:00.084Z</Time>
                    </Trackpoint>
                </Track>
                <DistanceMeters>287.31161040561426</DistanceMeters>
                <TotalTimeSeconds>1401.270812508</TotalTimeSeconds>
                <Calories>46.473777324118444</Calories>
                <Intensity>Active</Intensity>
                <TriggerMethod>Manual</TriggerMethod>
            </Lap>
        </Activity>
        <Activity Sport="Walking">
            <Id>2023-08-26T05:40:50.630Z</Id>
            <Lap StartTime="2023-08-26T05:40:50.630Z">
                <Track>
                    <Trackpoint>
                        <DistanceMeters>0.0</DistanceMeters>
                        <Time>2023-08-26T05:40:50.630Z</Time>
                    </Trackpoint>
                    <Trackpoint>
                        <DistanceMeters>102.03093997391257</DistanceMeters>
                        <Time>2023-08-26T05:41:39.522Z</Time>
                    </Trackpoint>
                    <Trackpoint>
                        <DistanceMeters>102.03093997391257</DistanceMeters>
                        <Time>2023-08-26T05:42:00.084Z</Time>
                    </Trackpoint>
                    <Trackpoint>
                        <DistanceMeters>213.33307876910078</DistanceMeters>
                        <Time>2023-08-26T05:43:13.976Z</Time>
                    </Trackpoint>
                    <Trackpoint>
                        <DistanceMeters>253.46712346960504</DistanceMeters>
                        <Time>2023-08-26T05:43:41.768Z</Time>
                    </Trackpoint>
                </Track>
                <DistanceMeters>253.46712346960504</DistanceMeters>
                <TotalTimeSeconds>171.137675679</TotalTimeSeconds>
                <Calories>12.799305666666665</Calories>
                <Intensity>Active</Intensity>
                <TriggerMethod>Manual</TriggerMethod>
            </Lap>
        </Activity>
        <Activity Sport="Walking">
            <Id>2023-08-26T05:43:13.976Z</Id>
            <Lap StartTime="2023-08-26T05:43:13.976Z">
                <Track>
                    <Trackpoint>
                        <DistanceMeters>0.0</DistanceMeters>
                        <Time>2023-08-26T05:43:13.976Z</Time>
                    </Trackpoint>
                    <Trackpoint>
                        <DistanceMeters>40.134044700504255</DistanceMeters>
                        <Time>2023-08-26T05:43:33.915Z</Time>
                    </Trackpoint>
                    <Trackpoint>
                        <DistanceMeters>40.134044700504255</DistanceMeters>
                        <Time>2023-08-26T05:43:41.768Z</Time>
                    </Trackpoint>
                    <Trackpoint>
                        <DistanceMeters>97.83141933987534</DistanceMeters>
                        <Time>2023-08-26T05:44:13.996Z</Time>
                    </Trackpoint>
                    <Trackpoint>
                        <DistanceMeters>119.02798218858216</DistanceMeters>
                        <Time>2023-08-26T05:44:42.396Z</Time>
                    </Trackpoint>
                </Track>
                <DistanceMeters>119.02798218858216</DistanceMeters>
                <TotalTimeSeconds>88.42026872</TotalTimeSeconds>
                <Calories>7.662297552184</Calories>
                <Intensity>Active</Intensity>
                <TriggerMethod>Manual</TriggerMethod>
            </Lap>
        </Activity>
        <Activity Sport="Walking">
            <Id>2023-08-26T05:48:19.649Z</Id>
            <Lap StartTime="2023-08-26T05:48:19.649Z">
                <Track>
                    <Trackpoint>
                        <DistanceMeters>0.0</DistanceMeters>
                        <Time>2023-08-26T05:48:19.649Z</Time>
                    </Trackpoint>
                    <Trackpoint>
                        <DistanceMeters>83.4614662167831</DistanceMeters>
                        <Time>2023-08-26T05:52:09.061Z</Time>
                    </Trackpoint>
                    <Trackpoint>
                        <DistanceMeters>83.4614662167831</DistanceMeters>
                        <Time>2023-08-26T05:52:31.649Z</Time>
                    </Trackpoint>
                    <Trackpoint>
                        <DistanceMeters>136.18312645935515</DistanceMeters>
                        <Time>2023-08-26T05:53:08.780Z</Time>
                    </Trackpoint>
                    <Trackpoint>
                        <DistanceMeters>193.79562885927677</DistanceMeters>
                        <Time>2023-08-26T05:53:50.206Z</Time>
                    </Trackpoint>
                    <Trackpoint>
                        <DistanceMeters>214.42064838618046</DistanceMeters>
                        <Time>2023-08-26T05:54:07.667Z</Time>
                    </Trackpoint>
                    <Trackpoint>
                        <DistanceMeters>242.24113712510817</DistanceMeters>
                        <Time>2023-08-26T05:54:50.577Z</Time>
                    </Trackpoint>
                    <Trackpoint>
                        <DistanceMeters>252.07708171915004</DistanceMeters>
                        <Time>2023-08-26T05:54:57.406Z</Time>
                    </Trackpoint>
                    <Trackpoint>
                        <DistanceMeters>287.3468128315298</DistanceMeters>
                        <Time>2023-08-26T05:55:30.184Z</Time>
                    </Trackpoint>
                    <Trackpoint>
                        <DistanceMeters>293.3083461327286</DistanceMeters>
                        <Time>2023-08-26T05:55:49.805Z</Time>
                    </Trackpoint>
                    <Trackpoint>
                        <DistanceMeters>313.18012380339127</DistanceMeters>
                        <Time>2023-08-26T05:57:11.229Z</Time>
                    </Trackpoint>
                    <Trackpoint>
                        <DistanceMeters>370.80827904831295</DistanceMeters>
                        <Time>2023-08-26T05:58:40.718Z</Time>
                    </Trackpoint>
                    <Trackpoint>
                        <DistanceMeters>484.2251607045972</DistanceMeters>
                        <Time>2023-08-26T05:59:47.428Z</Time>
                    </Trackpoint>
                    <Trackpoint>
                        <DistanceMeters>597.8033469004023</DistanceMeters>
                        <Time>2023-08-26T06:00:56.814Z</Time>
                    </Trackpoint>
                </Track>
                <DistanceMeters>597.8033469004023</DistanceMeters>
                <TotalTimeSeconds>757.165897323</TotalTimeSeconds>
                <Calories>57.416566555555555</Calories>
                <Intensity>Active</Intensity>
                <TriggerMethod>Manual</TriggerMethod>
            </Lap>
        </Activity>
        <Activity Sport="Walking">
            <Id>2023-08-26T05:59:47.428Z</Id>
            <Lap StartTime="2023-08-26T05:59:47.428Z">
                <Track>
                    <Trackpoint>
                        <DistanceMeters>0.0</DistanceMeters>
                        <Time>2023-08-26T05:59:47.428Z</Time>
                    </Trackpoint>
                    <Trackpoint>
                        <DistanceMeters>113.5781861958051</DistanceMeters>
                        <Time>2023-08-26T06:00:42.218Z</Time>
                    </Trackpoint>
                    <Trackpoint>
                        <DistanceMeters>113.5781861958051</DistanceMeters>
                        <Time>2023-08-26T06:00:56.814Z</Time>
                    </Trackpoint>
                    <Trackpoint>
                        <DistanceMeters>170.62179722020596</DistanceMeters>
                        <Time>2023-08-26T06:01:44.697Z</Time>
                    </Trackpoint>
                    <Trackpoint>
                        <DistanceMeters>298.60020598287855</DistanceMeters>
                        <Time>2023-08-26T06:03:14.964Z</Time>
                    </Trackpoint>
                    <Trackpoint>
                        <DistanceMeters>313.1728429413645</DistanceMeters>
                        <Time>2023-08-26T06:03:34.230Z</Time>
                    </Trackpoint>
                    <Trackpoint>
                        <DistanceMeters>354.44814421449996</DistanceMeters>
                        <Time>2023-08-26T06:04:05.356Z</Time>
                    </Trackpoint>
                    <Trackpoint>
                        <DistanceMeters>384.8063213191447</DistanceMeters>
                        <Time>2023-08-26T06:04:26.232Z</Time>
                    </Trackpoint>
                </Track>
                <DistanceMeters>384.8063213191447</DistanceMeters>
                <TotalTimeSeconds>278.80441313</TotalTimeSeconds>
                <Calories>25.064724760694556</Calories>
                <Intensity>Active</Intensity>
                <TriggerMethod>Manual</TriggerMethod>
            </Lap>
        </Activity>
    </Activities>
    <Author xsi:type="Application_t">
        <Name>Google Fit</Name>
        <Build>
            <Version>
                <VersionMajor>0</VersionMajor>
                <VersionMinor>0</VersionMinor>
                <BuildMajor>0</BuildMajor>
                <BuildMinor>0</BuildMinor>
            </Version>
        </Build>
        <LangID>en</LangID>
        <PartNumber>000-00000-00</PartNumber>
    </Author>
</TrainingCenterDatabase>
