<?xml version="1.0" encoding="UTF-8"?>
<TrainingCenterDatabase
    xmlns="http://www.garmin.com/xmlschemas/TrainingCenterDatabase/v2"
    xmlns:ns2="http://www.garmin.com/xmlschemas/UserProfile/v2"
    xmlns:ns3="http://www.garmin.com/xmlschemas/ActivityExtension/v2"
    xmlns:ns4="http://www.garmin.com/xmlschemas/ProfileExtension/v1"
    xmlns:ns5="http://www.garmin.com/xmlschemas/ActivityGoals/v1"
    xmlns:xsi="http://www.w3.org/2001/XMLSchema-instance" xsi:schemaLocation="http://www.garmin.com/xmlschemas/TrainingCenterDatabase/v2 http://www.garmin.com/xmlschemas/TrainingCenterDatabasev2.xsd">
    <Activities>
        <Activity Sport="Walking">
            <Id>2023-08-24T20:02:20.319Z</Id>
            <Lap StartTime="2023-08-24T20:02:20.319Z">
                <Track>
                    <Trackpoint>
                        <DistanceMeters>0.0</DistanceMeters>
                        <Time>2023-08-24T20:02:20.319Z</Time>
                    </Trackpoint>
                    <Trackpoint>
                        <DistanceMeters>26.96789716893166</DistanceMeters>
                        <Time>2023-08-24T20:02:43.310Z</Time>
                    </Trackpoint>
                    <Trackpoint>
                        <DistanceMeters>58.319975244201075</DistanceMeters>
                        <Time>2023-08-24T20:03:09.688Z</Time>
                    </Trackpoint>
                    <Trackpoint>
                        <DistanceMeters>98.92688251721515</DistanceMeters>
                        <Time>2023-08-24T20:03:43.875Z</Time>
                    </Trackpoint>
                    <Trackpoint>
                        <DistanceMeters>130.50891939702512</DistanceMeters>
                        <Time>2023-08-24T20:04:09.818Z</Time>
                    </Trackpoint>
                    <Trackpoint>
                        <DistanceMeters>174.1269342242801</DistanceMeters>
                        <Time>2023-08-24T20:04:44.199Z</Time>
                    </Trackpoint>
                    <Trackpoint>
                        <DistanceMeters>207.90233514925018</DistanceMeters>
                        <Time>2023-08-24T20:05:09.983Z</Time>
                    </Trackpoint>
                    <Trackpoint>
                        <DistanceMeters>252.46732626107772</DistanceMeters>
                        <Time>2023-08-24T20:05:44.555Z</Time>
                    </Trackpoint>
                    <Trackpoint>
                        <DistanceMeters>287.30418813105905</DistanceMeters>
                        <Time>2023-08-24T20:06:10.361Z</Time>
                    </Trackpoint>
                    <Trackpoint>
                        <DistanceMeters>350.3977304831626</DistanceMeters>
                        <Time>2023-08-24T20:06:56.886Z</Time>
                    </Trackpoint>
                    <Trackpoint>
                        <DistanceMeters>367.2873340390294</DistanceMeters>
                        <Time>2023-08-24T20:07:09.774Z</Time>
                    </Trackpoint>
                    <Trackpoint>
                        <DistanceMeters>424.70781013017523</DistanceMeters>
                        <Time>2023-08-24T20:07:53.245Z</Time>
                    </Trackpoint>
                    <Trackpoint>
                        <DistanceMeters>501.7682431649319</DistanceMeters>
                        <Time>2023-08-24T20:08:57.789Z</Time>
                    </Trackpoint>
                    <Trackpoint>
                        <DistanceMeters>579.5685654014391</DistanceMeters>
                        <Time>2023-08-24T20:09:59.075Z</Time>
                    </Trackpoint>
                    <Trackpoint>
                        <DistanceMeters>661.078587085917</DistanceMeters>
                        <Time>2023-08-24T20:11:03.096Z</Time>
                    </Trackpoint>
                    <Trackpoint>
                        <DistanceMeters>678.0691653910645</DistanceMeters>
                        <Time>2023-08-24T20:11:15.818Z</Time>
                    </Trackpoint>
                    <Trackpoint>
                        <DistanceMeters>706.3247596019655</DistanceMeters>
                        <Time>2023-08-24T20:11:38.335Z</Time>
                    </Trackpoint>
                    <Trackpoint>
                        <DistanceMeters>726.8121923179463</DistanceMeters>
                        <Time>2023-08-24T20:12:23.552Z</Time>
                    </Trackpoint>
                    <Trackpoint>
                        <DistanceMeters>748.6711477556752</DistanceMeters>
                        <Time>2023-08-24T20:13:29.552Z</Time>
                    </Trackpoint>
                    <Trackpoint>
                        <DistanceMeters>773.8420661385145</DistanceMeters>
                        <Time>2023-08-24T20:14:00.837Z</Time>
                    </Trackpoint>
                    <Trackpoint>
                        <DistanceMeters>779.8751399382211</DistanceMeters>
                        <Time>2023-08-24T20:16:11.894Z</Time>
                    </Trackpoint>
                    <Trackpoint>
                        <DistanceMeters>797.0973472527953</DistanceMeters>
                        <Time>2023-08-24T20:18:04.111Z</Time>
                    </Trackpoint>
                </Track>
                <DistanceMeters>797.0973472527953</DistanceMeters>
                <TotalTimeSeconds>943.792</TotalTimeSeconds>
                <Calories>105.59983822222222</Calories>
                <Intensity>Active</Intensity>
                <TriggerMethod>Manual</TriggerMethod>
            </Lap>
        </Activity>
    </Activities>
    <Author xsi:type="Application_t">
        <Name>Google Fit</Name>
        <Build>
            <Version>
                <VersionMajor>0</VersionMajor>
                <VersionMinor>0</VersionMinor>
                <BuildMajor>0</BuildMajor>
                <BuildMinor>0</BuildMinor>
            </Version>
        </Build>
        <LangID>en</LangID>
        <PartNumber>000-00000-00</PartNumber>
    </Author>
</TrainingCenterDatabase>
