<?xml version="1.0" encoding="UTF-8"?>
<TrainingCenterDatabase
    xmlns="http://www.garmin.com/xmlschemas/TrainingCenterDatabase/v2"
    xmlns:ns2="http://www.garmin.com/xmlschemas/UserProfile/v2"
    xmlns:ns3="http://www.garmin.com/xmlschemas/ActivityExtension/v2"
    xmlns:ns4="http://www.garmin.com/xmlschemas/ProfileExtension/v1"
    xmlns:ns5="http://www.garmin.com/xmlschemas/ActivityGoals/v1"
    xmlns:xsi="http://www.w3.org/2001/XMLSchema-instance" xsi:schemaLocation="http://www.garmin.com/xmlschemas/TrainingCenterDatabase/v2 http://www.garmin.com/xmlschemas/TrainingCenterDatabasev2.xsd">
    <Activities>
        <Activity Sport="Walking">
            <Id>2023-02-11T08:03:36.252Z</Id>
            <Lap StartTime="2023-02-11T08:03:36.252Z">
                <Track>
                    <Trackpoint>
                        <DistanceMeters>0.0</DistanceMeters>
                        <Time>2023-02-11T08:03:36.252Z</Time>
                    </Trackpoint>
                    <Trackpoint>
                        <DistanceMeters>0.0</DistanceMeters>
                        <Time>2023-02-11T08:22:13.859Z</Time>
                    </Trackpoint>
                    <Trackpoint>
                        <DistanceMeters>61.613384637356106</DistanceMeters>
                        <Time>2023-02-11T08:23:13.219Z</Time>
                    </Trackpoint>
                </Track>
                <DistanceMeters>61.613384637356106</DistanceMeters>
                <TotalTimeSeconds>1176.967813271</TotalTimeSeconds>
                <Calories>24.66939684568325</Calories>
                <Intensity>Active</Intensity>
                <TriggerMethod>Manual</TriggerMethod>
            </Lap>
        </Activity>
        <Activity Sport="Walking">
            <Id>2023-02-11T08:22:13.859Z</Id>
            <Lap StartTime="2023-02-11T08:22:13.859Z">
                <Track>
                    <Trackpoint>
                        <DistanceMeters>0.0</DistanceMeters>
                        <Time>2023-02-11T08:22:13.859Z</Time>
                    </Trackpoint>
                    <Trackpoint>
                        <DistanceMeters>61.613384637356106</DistanceMeters>
                        <Time>2023-02-11T08:22:22.879Z</Time>
                    </Trackpoint>
                    <Trackpoint>
                        <DistanceMeters>61.613384637356106</DistanceMeters>
                        <Time>2023-02-11T08:23:13.219Z</Time>
                    </Trackpoint>
                    <Trackpoint>
                        <DistanceMeters>70.67595229071604</DistanceMeters>
                        <Time>2023-02-11T08:23:21.139Z</Time>
                    </Trackpoint>
                    <Trackpoint>
                        <DistanceMeters>107.8664572094147</DistanceMeters>
                        <Time>2023-02-11T08:24:21.539Z</Time>
                    </Trackpoint>
                    <Trackpoint>
                        <DistanceMeters>156.80133210243926</DistanceMeters>
                        <Time>2023-02-11T08:25:25.619Z</Time>
                    </Trackpoint>
                    <Trackpoint>
                        <DistanceMeters>168.09926041419632</DistanceMeters>
                        <Time>2023-02-11T08:25:37.219Z</Time>
                    </Trackpoint>
                    <Trackpoint>
                        <DistanceMeters>183.10595538139052</DistanceMeters>
                        <Time>2023-02-11T08:26:09.119Z</Time>
                    </Trackpoint>
                    <Trackpoint>
                        <DistanceMeters>196.3297900357362</DistanceMeters>
                        <Time>2023-02-11T08:26:22.939Z</Time>
                    </Trackpoint>
                    <Trackpoint>
                        <DistanceMeters>220.47099498296166</DistanceMeters>
                        <Time>2023-02-11T08:27:15.579Z</Time>
                    </Trackpoint>
                    <Trackpoint>
                        <DistanceMeters>240.69740993874515</DistanceMeters>
                        <Time>2023-02-11T08:27:47.539Z</Time>
                    </Trackpoint>
                    <Trackpoint>
                        <DistanceMeters>259.6188948973813</DistanceMeters>
                        <Time>2023-02-11T08:28:16.059Z</Time>
                    </Trackpoint>
                    <Trackpoint>
                        <DistanceMeters>271.3632648717072</DistanceMeters>
                        <Time>2023-02-11T08:28:31.899Z</Time>
                    </Trackpoint>
                    <Trackpoint>
                        <DistanceMeters>291.58967982749067</DistanceMeters>
                        <Time>2023-02-11T08:29:15.819Z</Time>
                    </Trackpoint>
                    <Trackpoint>
                        <DistanceMeters>317.03581477186344</DistanceMeters>
                        <Time>2023-02-11T08:29:56.539Z</Time>
                    </Trackpoint>
                    <Trackpoint>
                        <DistanceMeters>356.83617968485675</DistanceMeters>
                        <Time>2023-02-11T08:31:05.899Z</Time>
                    </Trackpoint>
                    <Trackpoint>
                        <DistanceMeters>378.36752463778754</DistanceMeters>
                        <Time>2023-02-11T08:31:34.019Z</Time>
                    </Trackpoint>
                    <Trackpoint>
                        <DistanceMeters>425.3450045350911</DistanceMeters>
                        <Time>2023-02-11T08:32:38.127Z</Time>
                    </Trackpoint>
                </Track>
                <DistanceMeters>425.3450045350911</DistanceMeters>
                <TotalTimeSeconds>624.267188266</TotalTimeSeconds>
                <Calories>62.9945591111111</Calories>
                <Intensity>Active</Intensity>
                <TriggerMethod>Manual</TriggerMethod>
            </Lap>
        </Activity>
        <Activity Sport="Walking">
            <Id>2023-02-11T08:42:15.952Z</Id>
            <Lap StartTime="2023-02-11T08:42:15.952Z">
                <Track>
                    <Trackpoint>
                        <DistanceMeters>0.0</DistanceMeters>
                        <Time>2023-02-11T08:42:15.952Z</Time>
                    </Trackpoint>
                    <Trackpoint>
                        <DistanceMeters>0.0</DistanceMeters>
                        <Time>2023-02-11T08:43:06.996Z</Time>
                    </Trackpoint>
                </Track>
                <DistanceMeters>0.0</DistanceMeters>
                <TotalTimeSeconds>51.044</TotalTimeSeconds>
                <Calories>5.226338444444444</Calories>
                <Intensity>Active</Intensity>
                <TriggerMethod>Manual</TriggerMethod>
            </Lap>
        </Activity>
        <Activity Sport="Walking">
            <Id>2023-02-11T08:43:06.996Z</Id>
            <Lap StartTime="2023-02-11T08:43:06.996Z">
                <Track>
                    <Trackpoint>
                        <DistanceMeters>0.0</DistanceMeters>
                        <Time>2023-02-11T08:43:06.996Z</Time>
                    </Trackpoint>
                    <Trackpoint>
                        <DistanceMeters>0.0</DistanceMeters>
                        <Time>2023-02-11T08:43:35.739Z</Time>
                    </Trackpoint>
                    <Trackpoint>
                        <DistanceMeters>54.45826144999007</DistanceMeters>
                        <Time>2023-02-11T08:44:27.259Z</Time>
                    </Trackpoint>
                </Track>
                <DistanceMeters>54.45826144999007</DistanceMeters>
                <TotalTimeSeconds>80.263811082</TotalTimeSeconds>
                <Calories>4.616707488691456</Calories>
                <Intensity>Active</Intensity>
                <TriggerMethod>Manual</TriggerMethod>
            </Lap>
        </Activity>
        <Activity Sport="Walking">
            <Id>2023-02-11T08:43:35.739Z</Id>
            <Lap StartTime="2023-02-11T08:43:35.739Z">
                <Track>
                    <Trackpoint>
                        <DistanceMeters>0.0</DistanceMeters>
                        <Time>2023-02-11T08:43:35.739Z</Time>
                    </Trackpoint>
                    <Trackpoint>
                        <DistanceMeters>54.45826144999007</DistanceMeters>
                        <Time>2023-02-11T08:44:14.865Z</Time>
                    </Trackpoint>
                    <Trackpoint>
                        <DistanceMeters>54.45826144999007</DistanceMeters>
                        <Time>2023-02-11T08:44:27.259Z</Time>
                    </Trackpoint>
                    <Trackpoint>
                        <DistanceMeters>91.59179327820229</DistanceMeters>
                        <Time>2023-02-11T08:44:59.179Z</Time>
                    </Trackpoint>
                    <Trackpoint>
                        <DistanceMeters>105.66900827370732</DistanceMeters>
                        <Time>2023-02-11T08:45:11.099Z</Time>
                    </Trackpoint>
                    <Trackpoint>
                        <DistanceMeters>145.24987184203556</DistanceMeters>
                        <Time>2023-02-11T08:45:46.139Z</Time>
                    </Trackpoint>
                    <Trackpoint>
                        <DistanceMeters>177.49130213900756</DistanceMeters>
                        <Time>2023-02-11T08:47:10.025Z</Time>
                    </Trackpoint>
                </Track>
                <DistanceMeters>177.49130213900756</DistanceMeters>
                <TotalTimeSeconds>214.285189572</TotalTimeSeconds>
                <Calories>17.934437777777777</Calories>
                <Intensity>Active</Intensity>
                <TriggerMethod>Manual</TriggerMethod>
            </Lap>
        </Activity>
        <Activity Sport="Walking">
            <Id>2023-02-11T08:47:10.025Z</Id>
            <Lap StartTime="2023-02-11T08:47:10.025Z">
                <Track>
                    <Trackpoint>
                        <DistanceMeters>0.0</DistanceMeters>
                        <Time>2023-02-11T08:47:10.025Z</Time>
                    </Trackpoint>
                    <Trackpoint>
                        <DistanceMeters>3.1702941560107676</DistanceMeters>
                        <Time>2023-02-11T08:47:14.419Z</Time>
                    </Trackpoint>
                    <Trackpoint>
                        <DistanceMeters>13.059324473111753</DistanceMeters>
                        <Time>2023-02-11T08:47:24.859Z</Time>
                    </Trackpoint>
                    <Trackpoint>
                        <DistanceMeters>28.06601944030595</DistanceMeters>
                        <Time>2023-02-11T08:47:48.539Z</Time>
                    </Trackpoint>
                    <Trackpoint>
                        <DistanceMeters>35.57377728913312</DistanceMeters>
                        <Time>2023-02-11T08:47:55.579Z</Time>
                    </Trackpoint>
                </Track>
                <DistanceMeters>35.57377728913312</DistanceMeters>
                <TotalTimeSeconds>45.554811037</TotalTimeSeconds>
                <Calories>4.664306485621722</Calories>
                <Intensity>Active</Intensity>
                <TriggerMethod>Manual</TriggerMethod>
            </Lap>
        </Activity>
    </Activities>
    <Author xsi:type="Application_t">
        <Name>Google Fit</Name>
        <Build>
            <Version>
                <VersionMajor>0</VersionMajor>
                <VersionMinor>0</VersionMinor>
                <BuildMajor>0</BuildMajor>
                <BuildMinor>0</BuildMinor>
            </Version>
        </Build>
        <LangID>en</LangID>
        <PartNumber>000-00000-00</PartNumber>
    </Author>
</TrainingCenterDatabase>
